{"type":"FeatureCollection","features":[{"type":"Feature","id":"ef7f29aa-1beb-4636-9c3e-79e3cea208a4","properties":{"id":"ef7f29aa-1beb-4636-9c3e-79e3cea208a4","updated_date":"2026-06-27T04:07:58Z","time_created":"2026-06-26T22:52:37Z","last_updated_on_server":"2026-06-27T04:07:58.676022","db_insert_date":"2026-06-27T02:05:25Z","deleted":false,"title":"Saturday Morning Hiking","public":false,"color":"#000000","hexcolor":"#000000","is_active":true,"revision":1782533278,"notes":"","track_type":"track","routing_mode":"","uploaded_gpx_to_osm":null,"flag":null,"source":"Android samsung SM-A065F","cover_photo_id":null,"distance":7484.738496485048,"total_ascent":335.00416666666655,"total_descent":310.38749999999993,"stopped_time":1929.4666666984558,"total_time":11121,"average_speed":0.67302747023514509,"moving_time":9191.5333333015442,"moving_speed":0.81430793155776704,"activities":["hiking"],"imported":false,"folder":null,"privacy_level":"private","sync_to_mobile":null,"preferred_link":"/public/ZsLLKeCzpp1VRs8x5AI1lyiQ","favorite_count":0,"comment_count":0,"comments":[],"user_photo_count":0,"latitude":10.320644957404502,"longitude":123.76058260313832,"writable":false},"style":{"stroke":"#000000"},"geometry":{"type":"MultiLineString","coordinates":[[[123.772823,10.322126000000001,221.30000000000001,1782514363],[123.77271,10.322044999999999,231.80000000000001,1782514364],[123.77271500000001,10.322053,233,1782514366],[123.772581,10.322055000000001,366.30000000000001,1782514368],[123.772525,10.322075,395.60000000000002,1782514371],[123.772498,10.322068,397.80000000000001,1782514373],[123.772486,10.32207,401.89999999999998,1782514374],[123.77248,10.32207,405.39999999999998,1782514375],[123.77251800000001,10.32203,417.89999999999998,1782514379],[123.77257400000001,10.321999999999999,419.80000000000001,1782514386],[123.77257,10.321975999999999,417,1782514395],[123.772536,10.321965000000001,418.30000000000001,1782514400],[123.772526,10.321963,418.80000000000001,1782514401],[123.772475,10.321953000000001,420.10000000000002,1782514406],[123.772426,10.321961,421.80000000000001,1782514411],[123.772355,10.32193,422.89999999999998,1782514419],[123.772345,10.321928,423.10000000000002,1782514420],[123.772295,10.321899999999999,424.19999999999999,1782514426],[123.77227600000001,10.321899999999999,424.30000000000001,1782514428],[123.772195,10.321975999999999,425.89999999999998,1782514432],[123.772181,10.321966,425.80000000000001,1782514433],[123.77216799999999,10.321958,425.60000000000002,1782514434],[123.77215099999999,10.321949999999999,425.60000000000002,1782514435],[123.772121,10.321953000000001,426.39999999999998,1782514437],[123.772085,10.321935,427.5,1782514441],[123.772093,10.321896000000001,427.89999999999998,1782514443],[123.77207799999999,10.32188,427.80000000000001,1782514444],[123.77204999999999,10.321869,427.39999999999998,1782514445],[123.77203299999999,10.321854999999999,427,1782514446],[123.771933,10.321796000000001,426.69999999999999,1782514453],[123.77192599999999,10.321776,426.19999999999999,1782514455],[123.77187499999999,10.321759999999999,425.39999999999998,1782514462],[123.771861,10.321752999999999,425.19999999999999,1782514463],[123.77175099999999,10.321618000000001,423.10000000000002,1782514482],[123.771745,10.321607999999999,423,1782514483],[123.771726,10.321581,422.80000000000001,1782514485],[123.771666,10.321578000000001,422.5,1782514489],[123.771603,10.321548,422.19999999999999,1782514493],[123.771591,10.321541,422.10000000000002,1782514494],[123.771541,10.321498999999999,421.69999999999999,1782514499],[123.771451,10.321472999999999,420.39999999999998,1782514505],[123.77144,10.321465999999999,420.19999999999999,1782514506],[123.77140300000001,10.321443,419.89999999999998,1782514509],[123.77136,10.321436,415.89999999999998,1782514511],[123.771326,10.321415,413.10000000000002,1782514514],[123.7713,10.321421000000001,412.10000000000002,1782514516],[123.77128999999999,10.321421000000001,411.89999999999998,1782514517],[123.77122300000001,10.321398,409.69999999999999,1782514522],[123.771151,10.321356,407.89999999999998,1782514529],[123.771141,10.321351,407.89999999999998,1782514530],[123.771086,10.321341,408.19999999999999,1782514536],[123.77107599999999,10.321303,408.69999999999999,1782514540],[123.77103,10.321282999999999,409.5,1782514544],[123.771006,10.321261,410.10000000000002,1782514547],[123.771001,10.321255000000001,410.19999999999999,1782514548],[123.77091799999999,10.321146000000001,411.39999999999998,1782514560],[123.770883,10.321130999999999,411.69999999999999,1782514562],[123.770876,10.321125,411.89999999999998,1782514563],[123.770826,10.321095,412.60000000000002,1782514568],[123.770786,10.321045,413.30000000000001,1782514574],[123.770743,10.321018,414.10000000000002,1782514579],[123.770731,10.321009999999999,414.30000000000001,1782514580],[123.77067,10.321005,414.60000000000002,1782514585],[123.770561,10.320968000000001,414.5,1782514594],[123.77054800000001,10.320963000000001,414.60000000000002,1782514595],[123.77044100000001,10.320912999999999,414.39999999999998,1782514607],[123.770408,10.320879,414.30000000000001,1782514611],[123.770398,10.320871,414.30000000000001,1782514612],[123.770301,10.320843,414.60000000000002,1782514622],[123.77023,10.320855999999999,415.39999999999998,1782514629],[123.770218,10.32085,415.39999999999998,1782514630],[123.770166,10.320838,415.5,1782514635],[123.77006299999999,10.320881,415.60000000000002,1782514643],[123.77004599999999,10.32089,415.69999999999999,1782514644],[123.769993,10.320916,416.5,1782514649],[123.76994500000001,10.320924,417.10000000000002,1782514654],[123.76992,10.320918000000001,417.39999999999998,1782514657],[123.76987,10.320883,417.69999999999999,1782514662],[123.769853,10.320886,417.89999999999998,1782514663],[123.76980399999999,10.320885000000001,417.19999999999999,1782514667],[123.76969,10.320912999999999,415.5,1782514674],[123.769676,10.320914999999999,415.5,1782514675],[123.76958,10.320931,415,1782514688],[123.769541,10.320923000000001,415.5,1782514693],[123.769516,10.320906000000001,416.19999999999999,1782514697],[123.769508,10.3209,416.39999999999998,1782514698],[123.76946100000001,10.320879,418.39999999999998,1782514707],[123.76940500000001,10.320800999999999,418.89999999999998,1782514714],[123.769396,10.320789,419,1782514715],[123.769308,10.320693,419.10000000000002,1782514725],[123.769301,10.320665,419.39999999999998,1782514727],[123.769291,10.320651,419.5,1782514728],[123.76923600000001,10.320576000000001,419.69999999999999,1782514733],[123.76917899999999,10.320525999999999,419.89999999999998,1782514739],[123.769171,10.320520999999999,420,1782514740],[123.769148,10.320498000000001,420.10000000000002,1782514744],[123.769141,10.320453000000001,420.10000000000002,1782514748],[123.769086,10.320385,420.39999999999998,1782514755],[123.76907799999999,10.320378,420.5,1782514756],[123.769008,10.320349999999999,421.5,1782514764],[123.76893,10.320276,422.30000000000001,1782514775],[123.76891999999999,10.320264999999999,422.39999999999998,1782514776],[123.768918,10.320236,422.30000000000001,1782514777],[123.76888599999999,10.320161000000001,421.69999999999999,1782514781],[123.76881400000001,10.320138,421.60000000000002,1782514790],[123.76880800000001,10.320133,421.69999999999999,1782514791],[123.76871300000001,10.320062999999999,421.10000000000002,1782514801],[123.768653,10.320043,420.19999999999999,1782514805],[123.768641,10.320034,420,1782514806],[123.76856600000001,10.319978000000001,418.80000000000001,1782514811],[123.76852599999999,10.319931,418,1782514815],[123.76851499999999,10.31992,418,1782514816],[123.768406,10.319818,415.39999999999998,1782514827],[123.76836900000001,10.319818,415.39999999999998,1782514829],[123.76835,10.319818,415.19999999999999,1782514830],[123.768291,10.319846,415.10000000000002,1782514832],[123.768231,10.319853999999999,414.89999999999998,1782514835],[123.76818799999999,10.319834999999999,414.19999999999999,1782514839],[123.76816100000001,10.319805000000001,413.19999999999999,1782514842],[123.768158,10.319791,413.10000000000002,1782514843],[123.768151,10.31976,412.30000000000001,1782514846],[123.768128,10.31972,410.69999999999999,1782514848],[123.768094,10.319692999999999,409.30000000000001,1782514852],[123.76805299999999,10.31968,408.69999999999999,1782514855],[123.768039,10.319675999999999,408.39999999999998,1782514856],[123.76797000000001,10.319660000000001,407.60000000000002,1782514861],[123.767895,10.319668,406.39999999999998,1782514865],[123.76788000000001,10.319666,406.10000000000002,1782514866],[123.767815,10.319653000000001,404.80000000000001,1782514872],[123.767748,10.319661,405,1782514877],[123.76772800000001,10.319651,404.89999999999998,1782514879],[123.767731,10.319604999999999,404.80000000000001,1782514881],[123.767723,10.319596000000001,404.60000000000002,1782514882],[123.767675,10.319533,404.19999999999999,1782514888],[123.767655,10.319533,404.10000000000002,1782514889],[123.767608,10.319497999999999,403,1782514897],[123.767589,10.319501000000001,402.69999999999999,1782514898],[123.76758100000001,10.319452999999999,402.60000000000002,1782514902],[123.767568,10.319448,402.60000000000002,1782514903],[123.767473,10.319471,402.10000000000002,1782514908],[123.76746300000001,10.319464999999999,402,1782514909],[123.76743999999999,10.319443,401.69999999999999,1782514913],[123.767391,10.319433,401,1782514920],[123.767366,10.319349000000001,400.5,1782514926],[123.767358,10.319335000000001,400.39999999999998,1782514927],[123.76731100000001,10.319315,400.19999999999999,1782514930],[123.767273,10.319283,400,1782514934],[123.767208,10.319260999999999,400,1782514938],[123.76719300000001,10.319255999999999,399.89999999999998,1782514939],[123.767101,10.319191,400.60000000000002,1782514948],[123.767043,10.319205999999999,400.89999999999998,1782514952],[123.767028,10.319210999999999,401,1782514953],[123.766966,10.319238,400.69999999999999,1782514957],[123.76686599999999,10.319226,399.10000000000002,1782514964],[123.766853,10.319222999999999,399,1782514965],[123.766839,10.31922,398.80000000000001,1782514966],[123.766783,10.319146,397.80000000000001,1782514975],[123.76672499999999,10.319106,398.30000000000001,1782514978],[123.76671,10.319098,398.69999999999999,1782514979],[123.766628,10.31903,402.80000000000001,1782514993],[123.766603,10.318982999999999,403.39999999999998,1782514997],[123.766588,10.318978,403.80000000000001,1782514998],[123.766583,10.318963999999999,403.89999999999998,1782514999],[123.766505,10.318835999999999,404,1782515008],[123.766496,10.318821,403.80000000000001,1782515009],[123.766446,10.318773,404.19999999999999,1782515013],[123.76641600000001,10.318720000000001,405.19999999999999,1782515018],[123.766391,10.318702999999999,405.60000000000002,1782515020],[123.76638,10.318693,405.69999999999999,1782515021],[123.766338,10.31865,406.80000000000001,1782515025],[123.766323,10.318588,407.60000000000002,1782515031],[123.766293,10.318545,407.5,1782515036],[123.76629,10.318535000000001,407.60000000000002,1782515037],[123.76625,10.318462999999999,407.30000000000001,1782515042],[123.76619599999999,10.318421000000001,407.10000000000002,1782515046],[123.76618499999999,10.318415,406.80000000000001,1782515047],[123.76603799999999,10.318308,405.69999999999999,1782515060],[123.76602800000001,10.318303,405.30000000000001,1782515061],[123.765963,10.318258,405,1782515067],[123.76588599999999,10.318225999999999,404.80000000000001,1782515074],[123.76587499999999,10.318220999999999,404.69999999999999,1782515075],[123.765783,10.318163999999999,403.69999999999999,1782515082],[123.765756,10.31812,402.89999999999998,1782515086],[123.76575,10.318106,402.69999999999999,1782515087],[123.765671,10.318011,401.80000000000001,1782515098],[123.765631,10.318,401.69999999999999,1782515101],[123.765618,10.317995,401.69999999999999,1782515102],[123.765581,10.317985999999999,401.60000000000002,1782515105],[123.765483,10.317926,400.30000000000001,1782515113],[123.765466,10.317918000000001,400.10000000000002,1782515114],[123.765368,10.317791,398.80000000000001,1782515127],[123.76535800000001,10.317783,398.69999999999999,1782515128],[123.765266,10.317748,399.39999999999998,1782515135],[123.76520600000001,10.317741,399.69999999999999,1782515140],[123.76519500000001,10.317735000000001,399.69999999999999,1782515141],[123.765096,10.317648,399.30000000000001,1782515152],[123.76507100000001,10.317596,398.80000000000001,1782515157],[123.765068,10.317586,398.60000000000002,1782515158],[123.764966,10.317475999999999,397.69999999999999,1782515169],[123.764948,10.317468999999999,397.5,1782515170],[123.76487899999999,10.317451,397.30000000000001,1782515174],[123.764781,10.317392999999999,396,1782515183],[123.764771,10.317385,395.80000000000001,1782515184],[123.764734,10.317361,395.19999999999999,1782515187],[123.76468300000001,10.31729,394.30000000000001,1782515194],[123.764656,10.317268,393.69999999999999,1782515197],[123.76464,10.317266,393.60000000000002,1782515198],[123.764473,10.317195,393.69999999999999,1782515213],[123.764458,10.317190999999999,393.60000000000002,1782515214],[123.764331,10.317088,390.69999999999999,1782515228],[123.76432,10.317080000000001,390.39999999999998,1782515229],[123.764258,10.317033,389.69999999999999,1782515235],[123.764183,10.317012999999999,389.30000000000001,1782515240],[123.764173,10.31701,389.30000000000001,1782515241],[123.76414,10.31701,388.80000000000001,1782515249],[123.76406299999999,10.316965,387.89999999999998,1782515266],[123.764026,10.316921000000001,386.80000000000001,1782515271],[123.764016,10.316910999999999,386.60000000000002,1782515272],[123.763981,10.316865999999999,385.60000000000002,1782515276],[123.763886,10.316788000000001,382.69999999999999,1782515288],[123.763875,10.316782999999999,382.60000000000002,1782515289],[123.76379799999999,10.316739999999999,381.80000000000001,1782515296],[123.76376,10.316732999999999,381.89999999999998,1782515299],[123.763713,10.316743000000001,381.89999999999998,1782515302],[123.763701,10.316741,381.80000000000001,1782515303],[123.763606,10.316716,381.39999999999998,1782515312],[123.763536,10.316675999999999,381.19999999999999,1782515320],[123.763525,10.316670999999999,381.10000000000002,1782515321],[123.763476,10.316644999999999,381,1782515326],[123.763408,10.316546000000001,380.30000000000001,1782515338],[123.763401,10.316535999999999,380.30000000000001,1782515339],[123.763324,10.316433,380,1782515350],[123.763324,10.316393,379.89999999999998,1782515354],[123.763316,10.316381,379.80000000000001,1782515355],[123.76330799999999,10.316371,379.80000000000001,1782515356],[123.763256,10.316321,379.5,1782515362],[123.76321299999999,10.316229999999999,378.69999999999999,1782515371],[123.763203,10.316221000000001,378.60000000000002,1782515372],[123.763161,10.316179999999999,378.39999999999998,1782515377],[123.763048,10.316129999999999,377.19999999999999,1782515386],[123.76303799999999,10.316125,376.89999999999998,1782515387],[123.763006,10.316106,376.39999999999998,1782515390],[123.76295,10.316043000000001,373.89999999999998,1782515397],[123.76290400000001,10.316013,372.60000000000002,1782515402],[123.762895,10.316004,372.5,1782515403],[123.76274100000001,10.315937999999999,371.19999999999999,1782515416],[123.762726,10.315935,371.19999999999999,1782515417],[123.762556,10.315891000000001,371.30000000000001,1782515431],[123.762541,10.31589,371.30000000000001,1782515432],[123.762455,10.315868,370.60000000000002,1782515439],[123.762378,10.315866,370.69999999999999,1782515445],[123.762368,10.315865000000001,370.69999999999999,1782515446],[123.76233499999999,10.315846000000001,370.30000000000001,1782515449],[123.762201,10.315821,370.69999999999999,1782515460],[123.762198,10.315813,370.60000000000002,1782515461],[123.762131,10.31578,370.19999999999999,1782515467],[123.76210500000001,10.315753000000001,369.60000000000002,1782515470],[123.76204799999999,10.315756,368.10000000000002,1782515478],[123.76203599999999,10.315756,368,1782515479],[123.76185,10.315723999999999,364.30000000000001,1782515497],[123.761838,10.315723999999999,364.30000000000001,1782515498],[123.761748,10.315690999999999,364.89999999999998,1782515508],[123.76172,10.315658000000001,364.39999999999998,1782515513],[123.76168800000001,10.315640999999999,364,1782515516],[123.761678,10.315636,363.89999999999998,1782515517],[123.761646,10.315602999999999,363.39999999999998,1782515522],[123.76153499999999,10.315585,362.30000000000001,1782515531],[123.761518,10.315585,362.19999999999999,1782515532],[123.761448,10.315602999999999,361.60000000000002,1782515537],[123.761431,10.315621,360,1782515543],[123.761436,10.3156,360.89999999999998,1782515595],[123.761391,10.315580000000001,359.60000000000002,1782515599],[123.76137300000001,10.315581,359.39999999999998,1782515600],[123.76119799999999,10.315555,358.69999999999999,1782515615],[123.761188,10.315557999999999,358.80000000000001,1782515616],[123.761083,10.315548,360.30000000000001,1782515650],[123.761009,10.315523000000001,359.5,1782515657],[123.76099499999999,10.315523000000001,359.39999999999998,1782515658],[123.760903,10.315535000000001,358.30000000000001,1782515665],[123.76081600000001,10.315503,357.10000000000002,1782515674],[123.760806,10.315500999999999,356.89999999999998,1782515675],[123.760733,10.315493,355.80000000000001,1782515683],[123.760633,10.315535000000001,354.19999999999999,1782515695],[123.760626,10.31554,354,1782515696],[123.76045999999999,10.315588,353.19999999999999,1782515712],[123.76045000000001,10.315588,353.10000000000002,1782515713],[123.760391,10.315588,353.30000000000001,1782515718],[123.760266,10.315614999999999,352.5,1782515729],[123.760251,10.315618000000001,352.39999999999998,1782515730],[123.760093,10.31565,352.10000000000002,1782515746],[123.760079,10.315655,352,1782515747],[123.759913,10.315628,350.5,1782515763],[123.75990299999999,10.315628,350.5,1782515764],[123.759801,10.315626,350.89999999999998,1782515771],[123.75975099999999,10.315605,351.69999999999999,1782515776],[123.75974100000001,10.315600999999999,351.89999999999998,1782515777],[123.75971,10.315588999999999,352.89999999999998,1782515780],[123.759655,10.315595999999999,354.10000000000002,1782515784],[123.75959400000001,10.315576,354.5,1782515788],[123.759585,10.315573000000001,354.60000000000002,1782515789],[123.759423,10.315511000000001,353.19999999999999,1782515803],[123.759416,10.315507999999999,353.10000000000002,1782515804],[123.759281,10.315426,350.19999999999999,1782515818],[123.75926800000001,10.315421000000001,350.10000000000002,1782515819],[123.75912,10.315345000000001,349.30000000000001,1782515830],[123.759108,10.315339,349.30000000000001,1782515831],[123.759021,10.315306,349.10000000000002,1782515837],[123.758966,10.315268,348.80000000000001,1782515842],[123.758951,10.315263,348.69999999999999,1782515843],[123.758895,10.315218,348.39999999999998,1782515848],[123.758835,10.315211,346.89999999999998,1782515853],[123.75881,10.315198000000001,346.39999999999998,1782515855],[123.75879999999999,10.315191,346.30000000000001,1782515856],[123.75872099999999,10.315118,345.30000000000001,1782515864],[123.758683,10.315063,345.10000000000002,1782515869],[123.758675,10.315054999999999,345.30000000000001,1782515870],[123.75852500000001,10.314946000000001,342.60000000000002,1782515885],[123.758509,10.31494,342.30000000000001,1782515886],[123.758461,10.314914999999999,342,1782515890],[123.75844499999999,10.314895999999999,341.69999999999999,1782515893],[123.758366,10.314861000000001,341.10000000000002,1782515899],[123.75835499999999,10.314856000000001,341,1782515900],[123.758296,10.314828,340.60000000000002,1782515905],[123.758268,10.314786,340.39999999999998,1782515909],[123.758195,10.314729,339.89999999999998,1782515916],[123.75818099999999,10.314723000000001,339.80000000000001,1782515917],[123.75809599999999,10.314693,339.19999999999999,1782515923],[123.75803999999999,10.314655999999999,338.89999999999998,1782515928],[123.758031,10.314646,339.10000000000002,1782515929],[123.757925,10.314590000000001,338.19999999999999,1782515938],[123.75788300000001,10.314555,337.30000000000001,1782515943],[123.75787800000001,10.314546,337,1782515944],[123.757758,10.314458,334.39999999999998,1782515957],[123.757746,10.314455000000001,334.39999999999998,1782515958],[123.757623,10.314358,332.80000000000001,1782515969],[123.75761300000001,10.314349999999999,332.69999999999999,1782515970],[123.757558,10.314318,332,1782515975],[123.757475,10.314291000000001,330,1782515982],[123.75745000000001,10.314261,329.10000000000002,1782515985],[123.75744299999999,10.314249999999999,328.89999999999998,1782515986],[123.757346,10.314173,326.30000000000001,1782515996],[123.75732499999999,10.314178,326.10000000000002,1782515999],[123.7573,10.314202999999999,326.30000000000001,1782516002],[123.75729,10.314213000000001,326.5,1782516003],[123.75723499999999,10.314266,327.69999999999999,1782516009],[123.75721299999999,10.314335,329,1782516013],[123.757211,10.314348000000001,329.19999999999999,1782516014],[123.757188,10.314498,332.19999999999999,1782516027],[123.757188,10.314508,332.5,1782516028],[123.757198,10.314579999999999,334.30000000000001,1782516035],[123.75719100000001,10.314605,334.69999999999999,1782516037],[123.75714000000001,10.314654000000001,336.60000000000002,1782516042],[123.757136,10.31467,337,1782516043],[123.757121,10.314788,341.30000000000001,1782516053],[123.757125,10.31484,342.80000000000001,1782516058],[123.75712300000001,10.31485,343.10000000000002,1782516059],[123.75715,10.314940999999999,345.69999999999999,1782516066],[123.75718999999999,10.314973,346.19999999999999,1782516070],[123.75720099999999,10.314981,346.5,1782516071],[123.757228,10.315006,347.30000000000001,1782516074],[123.757271,10.315078,349.69999999999999,1782516082],[123.75726,10.315125,352.89999999999998,1782516089],[123.757266,10.315135,353.19999999999999,1782516090],[123.757271,10.315148000000001,353.5,1782516091],[123.75728599999999,10.315223,356,1782516099],[123.75727000000001,10.315284999999999,358.60000000000002,1782516107],[123.75729,10.315318,360.10000000000002,1782516110],[123.757293,10.315333000000001,360.5,1782516111],[123.757293,10.315511000000001,367,1782516127],[123.757284,10.315523000000001,367.30000000000001,1782516128],[123.757268,10.315578,368.69999999999999,1782516133],[123.757288,10.315678999999999,370.30000000000001,1782516142],[123.75729,10.315685999999999,370.5,1782516143],[123.757278,10.315745,371.69999999999999,1782516150],[123.757291,10.315788,372.19999999999999,1782516154],[123.757288,10.315868,372.60000000000002,1782516163],[123.757288,10.315880999999999,372.80000000000001,1782516164],[123.757284,10.315970999999999,373.69999999999999,1782516172],[123.757293,10.31601,374.30000000000001,1782516175],[123.757271,10.316060999999999,374.5,1782516179],[123.75726299999999,10.316076000000001,374.30000000000001,1782516180],[123.757265,10.316145000000001,374.60000000000002,1782516187],[123.75724599999999,10.316172999999999,375.39999999999998,1782516188],[123.75723000000001,10.316155,371.19999999999999,1782516200],[123.75722399999999,10.316167999999999,370.60000000000002,1782516230],[123.757266,10.316208,368.60000000000002,1782516232],[123.757271,10.316216000000001,368.30000000000001,1782516233],[123.75731399999999,10.316250999999999,367.80000000000001,1782516237],[123.757333,10.316231,366.60000000000002,1782516245],[123.757273,10.31621,363.5,1782516263],[123.757243,10.316216000000001,363.19999999999999,1782516265],[123.757233,10.316223000000001,363.30000000000001,1782516266],[123.757181,10.316271,364.39999999999998,1782516274],[123.75714499999999,10.316350999999999,366.60000000000002,1782516300],[123.75714600000001,10.316371,366.30000000000001,1782516301],[123.757136,10.316390999999999,365.80000000000001,1782516302],[123.757068,10.316445999999999,365.89999999999998,1782516310],[123.75701100000001,10.316528,368.69999999999999,1782516327],[123.757006,10.316538,369.19999999999999,1782516328],[123.75697,10.316585999999999,372.30000000000001,1782516335],[123.756906,10.316615000000001,374.69999999999999,1782516342],[123.756883,10.316603000000001,377,1782516361],[123.756855,10.316623999999999,377.39999999999998,1782516374],[123.75684800000001,10.316630999999999,377.5,1782516375],[123.75678000000001,10.316720999999999,377.19999999999999,1782516395],[123.756761,10.31671,378,1782516423],[123.756714,10.316736000000001,378.89999999999998,1782516431],[123.756705,10.316739999999999,379,1782516432],[123.75667300000001,10.316755000000001,379,1782516435],[123.756688,10.316765,379.69999999999999,1782516443],[123.75673,10.316761,380,1782516447],[123.756748,10.316741,379.89999999999998,1782516451],[123.75673,10.316725999999999,380,1782516456],[123.756693,10.316743000000001,380.80000000000001,1782516463],[123.756683,10.316748,380.69999999999999,1782516464],[123.756556,10.316815999999999,383.39999999999998,1782516571],[123.75652599999999,10.316851,384.30000000000001,1782516577],[123.75649799999999,10.316865999999999,384.89999999999998,1782516581],[123.75649300000001,10.31687,385,1782516582],[123.756418,10.316929999999999,385.69999999999999,1782516597],[123.75637,10.316948,386.10000000000002,1782516605],[123.756353,10.316971000000001,386.30000000000001,1782516608],[123.756348,10.316981,386.39999999999998,1782516609],[123.756303,10.317005,387.39999999999998,1782516614],[123.75628399999999,10.31705,388.39999999999998,1782516618],[123.75624000000001,10.317114999999999,391,1782516626],[123.756235,10.317123,391.30000000000001,1782516627],[123.75616599999999,10.317159999999999,393.69999999999999,1782516637],[123.756139,10.317163000000001,395.10000000000002,1782516641],[123.756091,10.317211,398.10000000000002,1782516649],[123.756083,10.317219,398.30000000000001,1782516650],[123.756055,10.317240999999999,399.5,1782516654],[123.755973,10.317252999999999,401.80000000000001,1782516661],[123.755926,10.317278,403.60000000000002,1782516666],[123.755921,10.317283,404,1782516667],[123.75588,10.317308000000001,406.10000000000002,1782516673],[123.755831,10.31732,408.10000000000002,1782516679],[123.75575600000001,10.317311,410.69999999999999,1782516688],[123.75574899999999,10.317315000000001,410.89999999999998,1782516689],[123.755668,10.317311,413.39999999999998,1782516697],[123.75559800000001,10.317348000000001,414.5,1782516705],[123.755596,10.317349999999999,414.60000000000002,1782516706],[123.755548,10.317346000000001,413.30000000000001,1782516735],[123.75546300000001,10.317394999999999,412.80000000000001,1782516748],[123.75546,10.317399999999999,413,1782516749],[123.755425,10.317436000000001,412.89999999999998,1782516757],[123.755376,10.317446,413,1782516762],[123.75530999999999,10.317493000000001,413.69999999999999,1782516772],[123.755301,10.317499,413.80000000000001,1782516773],[123.755239,10.317550000000001,415.30000000000001,1782516787],[123.75519300000001,10.317555,415.69999999999999,1782516793],[123.755146,10.31753,416.5,1782516801],[123.75514099999999,10.317525,416.60000000000002,1782516802],[123.75509099999999,10.317515999999999,418,1782516810],[123.755055,10.317489999999999,419.39999999999998,1782516816],[123.754976,10.317470999999999,419.5,1782516824],[123.75496800000001,10.317468,419.60000000000002,1782516825],[123.754898,10.317435,420.89999999999998,1782516834],[123.754886,10.317403000000001,420.69999999999999,1782516838],[123.754836,10.317401,421,1782516841],[123.754818,10.317403000000001,421.39999999999998,1782516842],[123.75477100000001,10.31738,423.69999999999999,1782516849],[123.754729,10.317375999999999,424.69999999999999,1782516853],[123.754645,10.317406,427.5,1782516862],[123.754628,10.317406,427.60000000000002,1782516863],[123.754586,10.317405000000001,429.10000000000002,1782516867],[123.754565,10.317392999999999,429.89999999999998,1782516870],[123.75446100000001,10.317405000000001,429,1782516879],[123.754453,10.317406,428.89999999999998,1782516880],[123.754391,10.317391000000001,428.30000000000001,1782516887],[123.754278,10.317383,433.60000000000002,1782516906],[123.754265,10.317380999999999,433.80000000000001,1782516907],[123.75422500000001,10.317380999999999,433.69999999999999,1782516910],[123.75409399999999,10.317292999999999,441.69999999999999,1782516929],[123.75408299999999,10.317285999999999,442,1782516930],[123.75405499999999,10.317268,443.39999999999998,1782516934],[123.75403,10.317221,444.5,1782516938],[123.75403300000001,10.317197999999999,444.39999999999998,1782516942],[123.75399299999999,10.317166,442.60000000000002,1782516949],[123.75399299999999,10.317161,442.30000000000001,1782516950],[123.75398800000001,10.317138,431.5,1782517034],[123.753978,10.317226,429.60000000000002,1782517035],[123.753955,10.317231,429.39999999999998,1782517039],[123.753944,10.317226,429.10000000000002,1782517064],[123.753925,10.317157999999999,428,1782517065],[123.75389800000001,10.317152999999999,428.39999999999998,1782517069],[123.753873,10.317131,428.30000000000001,1782517075],[123.753866,10.317128,428.19999999999999,1782517076],[123.753843,10.317136,427.39999999999998,1782517089],[123.75385300000001,10.317157999999999,427.30000000000001,1782517090],[123.7539,10.317170000000001,427.5,1782517107],[123.753953,10.317201000000001,427.80000000000001,1782517133],[123.753919,10.317163000000001,426.80000000000001,1782517134],[123.753913,10.317159999999999,426.69999999999999,1782517135],[123.75387600000001,10.317131,425.69999999999999,1782517159],[123.753761,10.317076,425.19999999999999,1782517174],[123.753753,10.317073000000001,425.19999999999999,1782517175],[123.75369499999999,10.317038999999999,426,1782517204],[123.753603,10.317036,425.89999999999998,1782517208],[123.753575,10.317045,424.80000000000001,1782517228],[123.75356600000001,10.317043,424.69999999999999,1782517229],[123.75352100000001,10.317036,424.10000000000002,1782517236],[123.753471,10.317050999999999,423.69999999999999,1782517241],[123.753418,10.317102999999999,424.19999999999999,1782517248],[123.753415,10.317111000000001,424.39999999999998,1782517249],[123.753373,10.31714,425,1782517254],[123.753326,10.317119999999999,426,1782517262],[123.753308,10.317100999999999,426.5,1782517268],[123.753305,10.317072,427,1782517279],[123.753275,10.317055999999999,428,1782517286],[123.75326099999999,10.317053,428,1782517287],[123.753151,10.317023000000001,427.5,1782517296],[123.753186,10.317062999999999,427.80000000000001,1782517314],[123.753191,10.317064999999999,428,1782517315],[123.75321599999999,10.317069999999999,426.69999999999999,1782517329],[123.75318799999999,10.317028000000001,426,1782517332],[123.75309799999999,10.316984,427.10000000000002,1782517343],[123.753095,10.316981,427.30000000000001,1782517344],[123.75306500000001,10.316943,428.30000000000001,1782517351],[123.75304800000001,10.316879999999999,428.60000000000002,1782517356],[123.75303,10.316851,429,1782517359],[123.75302499999999,10.316841,429.19999999999999,1782517360],[123.75295800000001,10.31678,429.5,1782517368],[123.7529,10.316748,429.5,1782517373],[123.752886,10.316741,429.60000000000002,1782517374],[123.752831,10.316711,430,1782517379],[123.75279,10.316701,429.30000000000001,1782517383],[123.75273799999999,10.316646,429.80000000000001,1782517389],[123.752731,10.316632999999999,429.80000000000001,1782517390],[123.752683,10.316556,430.19999999999999,1782517396],[123.752653,10.316525,429.89999999999998,1782517400],[123.752621,10.316509999999999,428.5,1782517404],[123.75261500000001,10.316504999999999,428.39999999999998,1782517405],[123.752573,10.316476,426.60000000000002,1782517416],[123.752501,10.316378,425,1782517451],[123.752498,10.316369999999999,425,1782517452],[123.752414,10.316316,424.69999999999999,1782517461],[123.75236,10.316293,424.5,1782517467],[123.75235000000001,10.316295999999999,424.5,1782517468],[123.752341,10.3163,424.5,1782517469],[123.752313,10.316295999999999,424.19999999999999,1782517487],[123.75218,10.31636,423,1782517502],[123.752171,10.316364999999999,422.80000000000001,1782517503],[123.75214,10.316369999999999,422.30000000000001,1782517507],[123.752081,10.316355,422.10000000000002,1782517513],[123.752015,10.316321,422.60000000000002,1782517520],[123.752008,10.316319999999999,422.69999999999999,1782517521],[123.751983,10.3163,422.69999999999999,1782517526],[123.751971,10.316276,422.69999999999999,1782517529],[123.75193299999999,10.316155999999999,423.39999999999998,1782517549],[123.75192800000001,10.31615,423.30000000000001,1782517550],[123.75191100000001,10.316126000000001,423.19999999999999,1782517554],[123.751913,10.316151,422.80000000000001,1782517566],[123.75192800000001,10.316171000000001,422.39999999999998,1782517571],[123.75194999999999,10.31616,421.89999999999998,1782517580],[123.751929,10.316076000000001,421.89999999999998,1782517589],[123.75192800000001,10.316065999999999,421.89999999999998,1782517590],[123.75188,10.315908,422.89999999999998,1782517602],[123.75187,10.315896,422.69999999999999,1782517603],[123.751825,10.315837999999999,422.19999999999999,1782517610],[123.75174800000001,10.315791000000001,419.69999999999999,1782517617],[123.751743,10.315780999999999,419.5,1782517618],[123.75166400000001,10.315723,417.10000000000002,1782517629],[123.751598,10.315693,416.39999999999998,1782517635],[123.75158,10.315688,416.30000000000001,1782517636],[123.751423,10.315656000000001,416.10000000000002,1782517651],[123.75141600000001,10.315658000000001,416.19999999999999,1782517652],[123.75136500000001,10.315676,416.60000000000002,1782517660],[123.75130799999999,10.315678999999999,416.89999999999998,1782517666],[123.75128599999999,10.315670000000001,416.19999999999999,1782517667],[123.75126299999999,10.315685,416.30000000000001,1782517669],[123.751251,10.315685999999999,416.19999999999999,1782517670],[123.75121799999999,10.315693,416.30000000000001,1782517673],[123.751181,10.315678999999999,416.30000000000001,1782517677],[123.751091,10.315673,416,1782517684],[123.751081,10.315671,415.89999999999998,1782517685],[123.751003,10.315623,415.10000000000002,1782517693],[123.750935,10.315607999999999,414.60000000000002,1782517697],[123.75092100000001,10.315606000000001,414.39999999999998,1782517698],[123.75077,10.315526,413.5,1782517714],[123.750761,10.315521,413.39999999999998,1782517715],[123.750683,10.315545999999999,413.60000000000002,1782517722],[123.750614,10.315543999999999,414,1782517727],[123.750579,10.315561000000001,413.5,1782517730],[123.750568,10.315566,413.39999999999998,1782517731],[123.75052599999999,10.315569999999999,413.19999999999999,1782517734],[123.75047499999999,10.315611000000001,412.69999999999999,1782517749],[123.750398,10.315647999999999,413,1782517757],[123.75039,10.315655,413.10000000000002,1782517758],[123.75035099999999,10.315673,413.60000000000002,1782517762],[123.7503,10.31574,414.30000000000001,1782517769],[123.750254,10.31578,414.5,1782517774],[123.750248,10.315788,414.5,1782517775],[123.75019399999999,10.315818,414.5,1782517779],[123.750173,10.315855000000001,412.80000000000001,1782517783],[123.750128,10.315875999999999,412.60000000000002,1782517787],[123.75011499999999,10.315882999999999,412.60000000000002,1782517788],[123.750068,10.315928,413,1782517793],[123.75006,10.315948000000001,413,1782517795],[123.750056,10.316006,412.80000000000001,1782517800],[123.750073,10.316022999999999,412.89999999999998,1782517803],[123.75006399999999,10.316039999999999,412.60000000000002,1782517804],[123.75006399999999,10.316055,412.5,1782517805],[123.75007600000001,10.316088000000001,412.60000000000002,1782517808],[123.75011600000001,10.316146,411.80000000000001,1782517815],[123.75011600000001,10.316172999999999,411.39999999999998,1782517819],[123.75016599999999,10.3162,411.39999999999998,1782517825],[123.750176,10.316205,411.39999999999998,1782517826],[123.750248,10.316268000000001,411.89999999999998,1782517837],[123.75027799999999,10.316341,413.10000000000002,1782517847],[123.750281,10.316350999999999,413.10000000000002,1782517848],[123.75030599999999,10.316459999999999,413.60000000000002,1782517859],[123.75030099999999,10.316509999999999,413.80000000000001,1782517863],[123.750298,10.316523,413.80000000000001,1782517864],[123.750291,10.316556,414.10000000000002,1782517867],[123.750276,10.316573,414.5,1782517873],[123.75029000000001,10.316618,414.80000000000001,1782517880],[123.75029000000001,10.316694999999999,416.10000000000002,1782517888],[123.750288,10.316708,416.19999999999999,1782517889],[123.750286,10.316761,416.89999999999998,1782517894],[123.750308,10.316881,417.5,1782517905],[123.750308,10.316894,417.80000000000001,1782517906],[123.750253,10.317028000000001,418.89999999999998,1782517922],[123.75025599999999,10.317055999999999,419.10000000000002,1782517926],[123.750258,10.317061000000001,419,1782517927],[123.75026099999999,10.317080000000001,419.39999999999998,1782517936],[123.750185,10.317193,419.80000000000001,1782517962],[123.75018900000001,10.317197999999999,419.89999999999998,1782517963],[123.75017800000001,10.317288,422.10000000000002,1782517982],[123.750193,10.317308000000001,422.60000000000002,1782517985],[123.75020499999999,10.317361,423.39999999999998,1782517997],[123.75020499999999,10.317368,423.5,1782517998],[123.750215,10.317394999999999,423.80000000000001,1782518002],[123.75021099999999,10.317418,424.10000000000002,1782518004],[123.750186,10.317454,425.10000000000002,1782518013],[123.750196,10.317520999999999,425.89999999999998,1782518025],[123.750196,10.31753,426.10000000000002,1782518026],[123.75019399999999,10.317558999999999,426.69999999999999,1782518029],[123.75021099999999,10.31752,428.69999999999999,1782518041],[123.75018900000001,10.317563,430.30000000000001,1782518058],[123.750198,10.317610999999999,431.10000000000002,1782518063],[123.75020000000001,10.31762,431.39999999999998,1782518064],[123.750203,10.317678000000001,433.10000000000002,1782518071],[123.750238,10.317796,435,1782518085],[123.75024000000001,10.317805,435.10000000000002,1782518086],[123.750298,10.317856000000001,437,1782518095],[123.75030099999999,10.317881,437.89999999999998,1782518100],[123.750338,10.317951000000001,438.19999999999999,1782518109],[123.75033999999999,10.317958000000001,438.19999999999999,1782518110],[123.750356,10.318001000000001,438.39999999999998,1782518115],[123.75039599999999,10.318025,439.30000000000001,1782518120],[123.75044,10.318080999999999,441,1782518126],[123.75044800000001,10.318092999999999,441.30000000000001,1782518127],[123.750455,10.318128,442.39999999999998,1782518130],[123.75049300000001,10.318180999999999,443.19999999999999,1782518135],[123.75049799999999,10.318231000000001,443.19999999999999,1782518140],[123.750513,10.318256,443.60000000000002,1782518145],[123.750516,10.31826,443.69999999999999,1782518146],[123.75052100000001,10.318288000000001,445.19999999999999,1782518152],[123.75058300000001,10.318320999999999,447.69999999999999,1782518164],[123.750674,10.318391,446.69999999999999,1782518219],[123.75068,10.318395000000001,446.80000000000001,1782518220],[123.750761,10.318441,449.30000000000001,1782518236],[123.750778,10.318485000000001,452.69999999999999,1782518266],[123.75080800000001,10.318498,453.30000000000001,1782518270],[123.750816,10.318498,453.30000000000001,1782518271],[123.75082999999999,10.318517999999999,453.10000000000002,1782518289],[123.750868,10.318505999999999,451.60000000000002,1782518316],[123.750928,10.318555999999999,451.39999999999998,1782518332],[123.75097599999999,10.318553,451.19999999999999,1782518346],[123.75098,10.318555999999999,451.19999999999999,1782518347],[123.75098300000001,10.318562999999999,451.19999999999999,1782518348],[123.750911,10.318562999999999,451.89999999999998,1782518412],[123.750863,10.318516000000001,452.19999999999999,1782518421],[123.75089,10.318519999999999,452.19999999999999,1782518431],[123.750895,10.318530000000001,452.30000000000001,1782518432],[123.7509,10.318536,452.30000000000001,1782518433],[123.75093,10.318578,452.5,1782518438],[123.750935,10.318600999999999,452.5,1782518441],[123.75095,10.318605,455.80000000000001,1782518509],[123.75098300000001,10.318652999999999,455.39999999999998,1782518524],[123.750981,10.318680000000001,455,1782518525],[123.75098300000001,10.31869,455,1782518526],[123.751018,10.31883,455,1782518540],[123.751001,10.318797999999999,455.30000000000001,1782518550],[123.751001,10.318785,455.39999999999998,1782518551],[123.750986,10.318706000000001,455.39999999999998,1782518559],[123.75098,10.318728999999999,455.5,1782518572],[123.75099,10.318806,455.5,1782518581],[123.750991,10.318815000000001,455.30000000000001,1782518582],[123.75102099999999,10.31888,455.80000000000001,1782518623],[123.751041,10.318894999999999,454.60000000000002,1782518626],[123.75106100000001,10.318963999999999,454.89999999999998,1782518631],[123.751064,10.31898,454.89999999999998,1782518632],[123.751071,10.319046,455.19999999999999,1782518637],[123.751103,10.319103,455.89999999999998,1782518642],[123.751105,10.319133000000001,456.39999999999998,1782518645],[123.751105,10.319143,456.5,1782518646],[123.751115,10.319283,455.10000000000002,1782518682],[123.751126,10.319315,455.19999999999999,1782518686],[123.75113,10.319321,455.30000000000001,1782518687],[123.751143,10.319350999999999,455.30000000000001,1782518691],[123.751126,10.319368000000001,455.5,1782518700],[123.751096,10.319378,458.39999999999998,1782518961],[123.75113,10.31939,457.79999999999995,1782518962],[123.751165,10.319428,457.5,1782518969],[123.751166,10.319430000000001,457.60000000000002,1782518970],[123.75116800000001,10.319457999999999,458,1782518979],[123.75114499999999,10.31945,458.69999999999993,1782518987],[123.751133,10.319388,458.89999999999998,1782518994],[123.751158,10.319383,459.89999999999998,1782519008],[123.75117299999999,10.319416,459.29999999999995,1782519029],[123.751178,10.319430000000001,459.29999999999995,1782519030],[123.751178,10.319440999999999,459.5,1782519031],[123.75115599999999,10.319451000000001,459.29999999999995,1782519036],[123.75121799999999,10.319576,460.29999999999995,1782519057],[123.751221,10.319583,460.19999999999993,1782519058],[123.751243,10.319608000000001,460,1782519062],[123.751244,10.319633,459.69999999999993,1782519065],[123.75127500000001,10.319696,458.60000000000002,1782519076],[123.75128100000001,10.319748000000001,459.19999999999993,1782519083],[123.751285,10.319754,459.29999999999995,1782519084],[123.751321,10.319826000000001,462.29999999999995,1782519096],[123.751341,10.319844,463.69999999999993,1782519101],[123.751385,10.319834999999999,464.89999999999998,1782519107],[123.75141499999999,10.319846,465.79999999999995,1782519112],[123.75141600000001,10.319851,466,1782519113],[123.75141000000001,10.319877999999999,467.10000000000002,1782519125],[123.751418,10.319884999999999,467.19999999999993,1782519134],[123.751423,10.319931,466.89999999999998,1782519138],[123.75144,10.319951,467.10000000000002,1782519143],[123.751435,10.319976,466.89999999999998,1782519159],[123.751446,10.320001,467,1782519163],[123.75144899999999,10.320005999999999,466.89999999999998,1782519164],[123.75143,10.319993,466.89999999999998,1782519170],[123.75143,10.319974999999999,466.29999999999995,1782519183],[123.75146100000001,10.319989,465.60000000000002,1782519184],[123.75149500000001,10.320048,465.39999999999998,1782519190],[123.75149,10.320083,465.29999999999995,1782519193],[123.75149,10.320091,465.39999999999998,1782519194],[123.75151,10.32015,465.69999999999993,1782519199],[123.751514,10.320128,465.29999999999995,1782519208],[123.75148299999999,10.320045,464.79999999999995,1782519214],[123.751475,10.320036,464.79999999999995,1782519215],[123.75145500000001,10.32002,464.60000000000002,1782519218],[123.75147,10.320031,464.19999999999993,1782519229],[123.75147,10.320053,464.19999999999993,1782519231],[123.751503,10.320141,464.19999999999993,1782519239],[123.751508,10.32015,464.10000000000002,1782519240],[123.75152300000001,10.320240999999999,462.19999999999993,1782519289],[123.751561,10.320243,463.19999999999993,1782519290],[123.751571,10.320266,463.29999999999995,1782519293],[123.751569,10.320296000000001,464.60000000000002,1782519300],[123.75157400000001,10.320297999999999,464.89999999999998,1782519301],[123.75158500000001,10.320297999999999,466.5,1782519316],[123.751569,10.320346000000001,467.10000000000002,1782519319],[123.751591,10.320387999999999,467.10000000000002,1782519324],[123.751586,10.320338,466.69999999999993,1782519341],[123.75157799999999,10.320328,466.60000000000002,1782519342],[123.751565,10.320320000000001,466.60000000000002,1782519343],[123.75158500000001,10.320320000000001,467.5,1782519360],[123.751583,10.320368,466.5,1782519433],[123.751623,10.320430999999999,468.29999999999995,1782519445],[123.751606,10.320410000000001,468.29999999999995,1782519469],[123.75160099999999,10.320408,468.19999999999993,1782519470],[123.75158,10.320395,465.89999999999998,1782519506],[123.75157400000001,10.32037,465.89999999999998,1782519509],[123.75161300000001,10.320433,466.89999999999998,1782519523],[123.75159600000001,10.320455000000001,467,1782519532],[123.751591,10.320455000000001,466.89999999999998,1782519533],[123.751611,10.320458,467.60000000000002,1782519549],[123.751636,10.320491000000001,468.10000000000002,1782519553],[123.75168600000001,10.320520999999999,469.10000000000002,1782519559],[123.751705,10.320543000000001,469.89999999999998,1782519562],[123.75170799999999,10.320553,470,1782519563],[123.751723,10.320588000000001,470.60000000000002,1782519566],[123.75178099999999,10.32063,473.89999999999998,1782519574],[123.751788,10.320651,476.10000000000002,1782519595],[123.75182599999999,10.320696,476.39999999999998,1782519602],[123.751833,10.320701,476.39999999999998,1782519603],[123.751863,10.320715,476.79999999999995,1782519607],[123.751926,10.320845,477.39999999999998,1782519631],[123.751931,10.320850999999999,477.19999999999993,1782519632],[123.75193400000001,10.320855999999999,477.19999999999993,1782519633],[123.751921,10.32085,476.29999999999995,1782519649],[123.75196,10.32089,477.39999999999998,1782519654],[123.751985,10.320951000000001,478.60000000000002,1782519666],[123.752008,10.320976,479.79999999999995,1782519671],[123.75201300000001,10.320981,480.10000000000002,1782519672],[123.752073,10.321047999999999,484,1782519770],[123.75206,10.321069,487.39999999999998,1782519806],[123.75204600000001,10.321046000000001,487.10000000000002,1782519815],[123.75205800000001,10.321020000000001,487.19999999999993,1782519819],[123.752054,10.321018,487.29999999999995,1782519820],[123.7521,10.321126,487,1782519856],[123.75215799999999,10.321161,489.69999999999993,1782519889],[123.75215799999999,10.321166,489.79999999999995,1782519890],[123.752178,10.32119,490.39999999999998,1782519900],[123.75220299999999,10.321192999999999,490.69999999999993,1782519903],[123.752216,10.321216,491.29999999999995,1782519908],[123.75223800000001,10.321228,491.79999999999995,1782519914],[123.752246,10.321248000000001,492.10000000000002,1782519918],[123.752228,10.321266,491.89999999999998,1782519930],[123.752245,10.321287999999999,491.5,1782519937],[123.75224300000001,10.321286000000001,491.5,1782519938],[123.75224,10.321281000000001,491.60000000000002,1782519939],[123.752225,10.321301,493.39999999999998,1782519950],[123.75221000000001,10.321334999999999,494.39999999999998,1782519954],[123.752216,10.32136,495.19999999999993,1782519957],[123.75220299999999,10.321406,496.5,1782519967],[123.752233,10.321418,501.69999999999993,1782520107],[123.752236,10.32142,501.79999999999995,1782520108],[123.75220400000001,10.32142,502.39999999999998,1782520146],[123.75222100000001,10.32146,501.69999999999993,1782520147],[123.75221999999999,10.32156,503.10000000000002,1782520159],[123.752225,10.321566000000001,503.29999999999995,1782520160],[123.75223,10.321598,503.89999999999998,1782520166],[123.752208,10.321643,505.60000000000002,1782520172],[123.752258,10.321705,507.29999999999995,1782520214],[123.75223800000001,10.32175,507.89999999999998,1782520222],[123.752241,10.321758000000001,508,1782520223],[123.752234,10.321823,509.19999999999993,1782520233],[123.752261,10.321846000000001,509.60000000000002,1782520237],[123.75223800000001,10.321858000000001,509.89999999999998,1782520247],[123.75226499999999,10.321854999999999,509.60000000000002,1782520262],[123.752291,10.321865000000001,509.29999999999995,1782520266],[123.75230000000001,10.321868,509.29999999999995,1782520267],[123.752324,10.321883,509.39999999999998,1782520281],[123.75233299999999,10.321908000000001,509.60000000000002,1782520284],[123.752426,10.321986000000001,510.79999999999995,1782520299],[123.752426,10.321999999999999,510.89999999999998,1782520300],[123.752426,10.322081000000001,511.29999999999995,1782520307],[123.752413,10.32212,511.19999999999993,1782520310],[123.75243,10.322175,511,1782520316],[123.752433,10.322183000000001,511.10000000000002,1782520317],[123.75245,10.32221,510.79999999999995,1782520321],[123.752471,10.322222999999999,509.69999999999993,1782520328],[123.752469,10.322243,509.10000000000002,1782520343],[123.752546,10.322324999999999,508.39999999999998,1782520353],[123.75255,10.322333,508.29999999999995,1782520354],[123.75255900000001,10.32236,508.5,1782520358],[123.752608,10.322411000000001,509.10000000000002,1782520368],[123.752641,10.322488999999999,511.39999999999998,1782520382],[123.752641,10.322493,511.60000000000002,1782520383],[123.752683,10.322533999999999,512.79999999999995,1782520393],[123.752698,10.322581,514.20000000000005,1782520407],[123.75273900000001,10.322615000000001,514.20000000000005,1782520412],[123.75273900000001,10.322626,514.5,1782520474],[123.75272099999999,10.322645,516,1782520475],[123.752723,10.322654999999999,515.89999999999998,1782520476],[123.752731,10.322683,515.79999999999995,1782520482],[123.752718,10.322768,516.39999999999998,1782520492],[123.75273900000001,10.322815,518.70000000000005,1782520502],[123.752746,10.32282,518.89999999999998,1782520503],[123.752776,10.322870999999999,521.29999999999995,1782520513],[123.752796,10.322886,522,1782520516],[123.752815,10.322981,524.39999999999998,1782520530],[123.75282,10.322990000000001,524.39999999999998,1782520531],[123.75283399999999,10.323017999999999,525,1782520536],[123.75284600000001,10.323148,528.10000000000002,1782520585],[123.75285,10.323156000000001,528.29999999999995,1782520586],[123.752848,10.32324,530.39999999999998,1782520599],[123.752864,10.323255,530.89999999999998,1782520626],[123.752853,10.323285,531.70000000000005,1782520627],[123.75286800000001,10.323306000000001,532.10000000000002,1782520630],[123.75287,10.323333999999999,533,1782520635],[123.752875,10.323340999999999,533.20000000000005,1782520636],[123.75289100000001,10.323373,534.39999999999998,1782520640],[123.75294599999999,10.323423,536.60000000000002,1782520649],[123.753018,10.323454999999999,538,1782520659],[123.75302600000001,10.323463,538.20000000000005,1782520660],[123.753078,10.323480999999999,539.29999999999995,1782520670],[123.753075,10.323509,539,1782520683],[123.753038,10.323525,539.5,1782520692],[123.753051,10.32352,539.39999999999998,1782520712],[123.753066,10.323553,539.29999999999995,1782520714],[123.75307100000001,10.323558,539.29999999999995,1782520715],[123.753075,10.323563,539.39999999999998,1782520716],[123.75302600000001,10.323573,538.5,1782520749],[123.75310399999999,10.323565,536.60000000000002,1782520785],[123.75308099999999,10.323530999999999,538.20000000000005,1782520836],[123.75310399999999,10.323513999999999,538.20000000000005,1782520840],[123.753108,10.323516,538.20000000000005,1782520841],[123.75313800000001,10.32353,539,1782520846],[123.75313800000001,10.323548000000001,539.79999999999995,1782520867],[123.753241,10.323623,542.10000000000002,1782520882],[123.75324500000001,10.323625,542.20000000000005,1782520883],[123.753283,10.323653,543.10000000000002,1782520891],[123.753343,10.323746,546.10000000000002,1782520905],[123.75334599999999,10.323748999999999,546.10000000000002,1782520906],[123.75339099999999,10.323771000000001,546,1782520911],[123.75345900000001,10.323873000000001,550.70000000000005,1782520932],[123.753461,10.323878000000001,550.89999999999998,1782520933],[123.75348,10.323898,551.39999999999998,1782520936],[123.753516,10.323912999999999,552.10000000000002,1782520939],[123.753541,10.323978,555.79999999999995,1782520954],[123.753561,10.324,556,1782520957],[123.753563,10.324002999999999,556.20000000000005,1782520958],[123.75357099999999,10.324036,556.5,1782520962],[123.753559,10.324059999999999,557.5,1782520968],[123.75356499999999,10.324108000000001,558.60000000000002,1782520976],[123.753584,10.324125,559.10000000000002,1782520981],[123.753593,10.324147999999999,561,1782520990],[123.753575,10.324178,561.60000000000002,1782520994],[123.753573,10.324187999999999,561.70000000000005,1782520995],[123.753568,10.324221,562.10000000000002,1782520999],[123.753581,10.324241000000001,563.10000000000002,1782521004],[123.753638,10.324261,559.89999999999998,1782521052],[123.753626,10.324282999999999,560.89999999999998,1782521057],[123.753648,10.324287999999999,561.29999999999995,1782521065],[123.75363900000001,10.324316,562.39999999999998,1782521078],[123.753636,10.324325,562.39999999999998,1782521079],[123.753625,10.32438,562.70000000000005,1782521087],[123.75363,10.324389999999999,562.39999999999998,1782521113],[123.753641,10.32436,561.70000000000005,1782521114],[123.753643,10.32438,561.60000000000002,1782521118],[123.753623,10.324433000000001,562.89999999999998,1782521125],[123.753623,10.324439999999999,563.10000000000002,1782521126],[123.753631,10.324489,564.60000000000002,1782521132],[123.753606,10.324420999999999,566.79999999999995,1782521150],[123.753631,10.324475,570.20000000000005,1782521175],[123.75363299999999,10.324483000000001,570.5,1782521176],[123.75363299999999,10.324510999999999,571.39999999999998,1782521180],[123.753649,10.324525,572.20000000000005,1782521183],[123.753653,10.324551,573.70000000000005,1782521188],[123.753641,10.324648,576.60000000000002,1782521208],[123.75363900000001,10.324650999999999,576.89999999999998,1782521209],[123.75366099999999,10.324650999999999,577.5,1782521236],[123.753654,10.324614,576,1782521252],[123.753683,10.324678,576.70000000000005,1782521275],[123.753658,10.324731,579.5,1782521286],[123.75365600000001,10.324735,579.79999999999995,1782521287],[123.75365600000001,10.324761000000001,581.89999999999998,1782521301],[123.753638,10.324778999999999,582,1782521306],[123.75360999999999,10.324785,582.39999999999998,1782521310],[123.75363900000001,10.324825000000001,583.5,1782521328],[123.75364399999999,10.324852999999999,583.60000000000002,1782521333],[123.75364399999999,10.324859999999999,583.70000000000005,1782521334],[123.753651,10.324935,585.10000000000002,1782521349],[123.753636,10.324947999999999,586.5,1782521355],[123.753643,10.324992999999999,587.20000000000005,1782521360],[123.753635,10.32502,587.70000000000005,1782521363],[123.75363,10.325030999999999,587.79999999999995,1782521364],[123.75361599999999,10.325061,588,1782521371],[123.75363,10.325066,588.20000000000005,1782521402],[123.75366099999999,10.325030999999999,587.20000000000005,1782521403],[123.75366,10.325065,586.10000000000002,1782521419],[123.75360999999999,10.325089999999999,584.89999999999998,1782521441],[123.753603,10.325096,584.79999999999995,1782521442],[123.753573,10.325165999999999,585.70000000000005,1782521454],[123.753546,10.325203,586.70000000000005,1782521461],[123.753505,10.325236,593.20000000000005,1782521527],[123.753501,10.325241,593.39999999999998,1782521528],[123.75347600000001,10.325291,593.89999999999998,1782521537],[123.75345,10.32532,594.39999999999998,1782521541],[123.753426,10.325331,595.79999999999995,1782521547],[123.7534,10.325331,597,1782521553],[123.753376,10.32536,598.5,1782521559],[123.75337399999999,10.325366000000001,598.60000000000002,1782521560],[123.753361,10.325393,599.39999999999998,1782521566],[123.753373,10.325414,600,1782521590],[123.753355,10.325424999999999,601.5,1782521623],[123.75334100000001,10.3254,600.70000000000005,1782521624],[123.753325,10.325400999999999,596.5,1782521707],[123.753338,10.325438999999999,595.10000000000002,1782521709],[123.753338,10.325445,595.20000000000005,1782521710],[123.753379,10.32551,596.39999999999998,1782521721],[123.753396,10.325516,596.70000000000005,1782521723],[123.75348,10.325506000000001,599.79999999999995,1782521736],[123.753488,10.325505,600.20000000000005,1782521737],[123.75352100000001,10.325507999999999,602.29999999999995,1782521745],[123.753626,10.32545,607.79999999999995,1782521776],[123.75365499999999,10.325448,608.89999999999998,1782521781],[123.753665,10.325450999999999,609.20000000000005,1782521782],[123.75369999999999,10.325456000000001,610.29999999999995,1782521788],[123.75370100000001,10.325438,611.60000000000002,1782521803],[123.753756,10.325438999999999,613.60000000000002,1782521863],[123.75379,10.325453,616.70000000000005,1782521889],[123.753685,10.325418000000001,616.5,1782521891],[123.75367799999999,10.325421,616.5,1782521892],[123.753686,10.325445999999999,616.10000000000002,1782521899],[123.75367900000001,10.325468000000001,615.89999999999998,1782521911],[123.753693,10.325418000000001,617.89999999999998,1782521916],[123.75369999999999,10.325430000000001,614.10000000000002,1782522002],[123.753713,10.325412999999999,611.70000000000005,1782522059],[123.75375099999999,10.325418000000001,612.70000000000005,1782522061],[123.753758,10.325421,613,1782522062],[123.75379,10.325428,614.89999999999998,1782522068],[123.75388599999999,10.325419999999999,617.39999999999998,1782522081],[123.75394,10.325393,619.60000000000002,1782522090],[123.753951,10.325390000000001,620,1782522091],[123.75408899999999,10.325293,625.89999999999998,1782522110],[123.754091,10.325289,626.20000000000005,1782522111],[123.75423499999999,10.32521,629.29999999999995,1782522130],[123.75423600000001,10.325215999999999,629.5,1782522131],[123.754256,10.325191,632.5,1782522139],[123.754255,10.325168,634.5,1782522147],[123.75431500000001,10.325144999999999,634.89999999999998,1782522155],[123.754339,10.325098000000001,636.60000000000002,1782522167],[123.754345,10.325091,636.70000000000005,1782522168],[123.75439299999999,10.325060000000001,637.70000000000005,1782522176],[123.75447,10.325054,639.5,1782522187],[123.754515,10.325025999999999,638.20000000000005,1782522191],[123.75452300000001,10.325021,638,1782522192],[123.75455100000001,10.325013,637.89999999999998,1782522196],[123.754611,10.325048000000001,638,1782522210],[123.754636,10.325115,640.89999999999998,1782522225],[123.754645,10.325118,641.10000000000002,1782522226],[123.75465800000001,10.325123,641.29999999999995,1782522227],[123.754698,10.325146,642.39999999999998,1782522231],[123.754711,10.325165,643.5,1782522235],[123.75474,10.32521,645.29999999999995,1782522244],[123.75475400000001,10.325260999999999,647.79999999999995,1782522255],[123.754763,10.32527,647.79999999999995,1782522256],[123.7548,10.325310999999999,649.60000000000002,1782522267],[123.75479799999999,10.325378000000001,650.89999999999998,1782522276],[123.754818,10.325426,650.89999999999998,1782522284],[123.754823,10.325430000000001,650.89999999999998,1782522285],[123.75482100000001,10.325457999999999,648,1782522322],[123.754785,10.325535,646.89999999999998,1782522329],[123.754808,10.325545999999999,646.89999999999998,1782522335],[123.75482100000001,10.325519999999999,646.89999999999998,1782522338],[123.75482599999999,10.32551,647,1782522339],[123.754851,10.325462999999999,647.60000000000002,1782522408],[123.754819,10.325464999999999,645.39999999999998,1782522409],[123.754808,10.325480000000001,645.60000000000002,1782522412],[123.75482100000001,10.325495,645.89999999999998,1782522416],[123.754848,10.325495,647,1782522424],[123.75485500000001,10.325526,647.29999999999995,1782522432],[123.754858,10.325538,647.20000000000005,1782522433],[123.754896,10.32559,647,1782522439],[123.75497300000001,10.325640999999999,648.39999999999998,1782522448],[123.754983,10.325640999999999,648.5,1782522449],[123.75505099999999,10.325659999999999,650.70000000000005,1782522458],[123.7551,10.325646000000001,651.39999999999998,1782522464],[123.75515300000001,10.325645,650.60000000000002,1782522468],[123.75516500000001,10.325642999999999,650.39999999999998,1782522469],[123.755218,10.325635999999999,650.10000000000002,1782522473],[123.755263,10.325608000000001,650.89999999999998,1782522479],[123.75532800000001,10.325585,651.60000000000002,1782522505],[123.755341,10.325578,651.79999999999995,1782522506],[123.755419,10.325529,651.60000000000002,1782522516],[123.755516,10.325495,651.20000000000005,1782522527],[123.75552500000001,10.325483,651.20000000000005,1782522528],[123.755595,10.325456000000001,650.89999999999998,1782522533],[123.75568,10.325405,651.10000000000002,1782522545],[123.755691,10.325400999999999,651.20000000000005,1782522546],[123.75585599999999,10.325351,652,1782522562],[123.755865,10.325348999999999,652.20000000000005,1782522563],[123.755978,10.325303,653.5,1782522575],[123.75601,10.32527,653.79999999999995,1782522579],[123.756023,10.325259000000001,653.89999999999998,1782522580],[123.756073,10.325221000000001,654.79999999999995,1782522585],[123.75609300000001,10.325175,655.5,1782522589],[123.756125,10.325141,655.79999999999995,1782522592],[123.75613800000001,10.32513,655.79999999999995,1782522593],[123.756203,10.32508,656.39999999999998,1782522601],[123.75624500000001,10.325065,657.79999999999995,1782522607],[123.75628399999999,10.32502,659.10000000000002,1782522614],[123.75629600000001,10.325015,659.20000000000005,1782522615],[123.756373,10.324985,659.10000000000002,1782522620],[123.756461,10.324964,659.29999999999995,1782522626],[123.756471,10.324961,659.39999999999998,1782522627],[123.756548,10.324935,661.20000000000005,1782522636],[123.756641,10.324928,662.20000000000005,1782522646],[123.75664999999999,10.324925,662.5,1782522647],[123.756683,10.324930999999999,663.29999999999995,1782522651],[123.756765,10.3249,665.70000000000005,1782522659],[123.75682399999999,10.324895,666.39999999999998,1782522664],[123.75683600000001,10.324897999999999,666.29999999999995,1782522665],[123.756863,10.324896000000001,666.60000000000002,1782522668],[123.75695399999999,10.324859999999999,667.10000000000002,1782522676],[123.757008,10.324854999999999,667.20000000000005,1782522683],[123.757013,10.324856,667,1782522684],[123.75703799999999,10.324847999999999,666.10000000000002,1782522729],[123.757008,10.324901000000001,664.39999999999998,1782522733],[123.75700399999999,10.324925,664,1782522736],[123.75702,10.324945,663.60000000000002,1782522740],[123.757063,10.324960000000001,661.79999999999995,1782522768],[123.757036,10.324946000000001,660.29999999999995,1782522769],[123.75703,10.324942999999999,660.10000000000002,1782522770],[123.757006,10.324915000000001,659.10000000000002,1782522773],[123.757001,10.324865000000001,658.89999999999998,1782522779],[123.757043,10.324847999999999,659.39999999999998,1782522784],[123.75710100000001,10.324840999999999,660.60000000000002,1782522790],[123.75711099999999,10.324835999999999,660.79999999999995,1782522791],[123.75715599999999,10.324811,661.70000000000005,1782522795],[123.757268,10.324783,664.20000000000005,1782522806],[123.75728100000001,10.324781,664.39999999999998,1782522807],[123.75739299999999,10.324738,665.10000000000002,1782522818],[123.757448,10.324731,666.39999999999998,1782522825],[123.757456,10.324731,666.60000000000002,1782522826],[123.757616,10.324681,668.5,1782522842],[123.757625,10.324680000000001,668.79999999999995,1782522843],[123.757656,10.324669999999999,669.10000000000002,1782522847],[123.757699,10.324678,669,1782522852],[123.757746,10.324666000000001,670.10000000000002,1782522861],[123.75769,10.324681,669.89999999999998,1782522869],[123.75767999999999,10.324683,669.89999999999998,1782522870],[123.757611,10.324681,669.70000000000005,1782522875],[123.757628,10.324668000000001,668.39999999999998,1782522883],[123.75773100000001,10.324638,667,1782522892],[123.75773599999999,10.324633,667,1782522893],[123.757768,10.324615,667,1782522896],[123.757845,10.324611000000001,667.39999999999998,1782522905],[123.757913,10.324596,668.20000000000005,1782522910],[123.75792300000001,10.324593,668.29999999999995,1782522911],[123.75800599999999,10.324540000000001,669.70000000000005,1782522921],[123.758083,10.32451,670,1782522930],[123.75809,10.324508,669.89999999999998,1782522931],[123.758223,10.324491,670.20000000000005,1782522947],[123.758276,10.324510999999999,670.60000000000002,1782522952],[123.758286,10.324515999999999,670.70000000000005,1782522953],[123.75845099999999,10.324526000000001,668.10000000000002,1782522977],[123.758458,10.324525,668,1782522978],[123.75850800000001,10.324508,667.5,1782522983],[123.758599,10.324503999999999,666,1782522993],[123.75861500000001,10.324479999999999,665.70000000000005,1782522996],[123.75861999999999,10.324471000000001,665.60000000000002,1782522997],[123.758646,10.324400000000001,665.5,1782523009],[123.758723,10.32432,668.29999999999995,1782523029],[123.758728,10.324313,668.29999999999995,1782523030],[123.758793,10.324228,667.10000000000002,1782523039],[123.75880100000001,10.324176,666.20000000000005,1782523044],[123.758805,10.324166,666.10000000000002,1782523045],[123.758813,10.324106,666.20000000000005,1782523050],[123.758836,10.324071,667.20000000000005,1782523056],[123.758853,10.323995999999999,667,1782523065],[123.75885599999999,10.323985,666.79999999999995,1782523066],[123.75885100000001,10.323935000000001,666.29999999999995,1782523071],[123.758871,10.323867999999999,665.5,1782523078],[123.758903,10.32382,664.89999999999998,1782523082],[123.75890800000001,10.323808,664.89999999999998,1782523083],[123.75894,10.323738000000001,664.89999999999998,1782523091],[123.758948,10.323648,664.89999999999998,1782523101],[123.75895,10.323639999999999,665,1782523102],[123.758951,10.323615,665,1782523105],[123.758976,10.323582999999999,664.39999999999998,1782523110],[123.758996,10.323511,663.29999999999995,1782523119],[123.758994,10.323478,662.60000000000002,1782523124],[123.758993,10.323468999999999,662.60000000000002,1782523125],[123.758996,10.323392999999999,661.29999999999995,1782523137],[123.759021,10.32335,660.79999999999995,1782523142],[123.759023,10.323297999999999,660.5,1782523147],[123.759023,10.323283,660.39999999999998,1782523148],[123.759035,10.323195999999999,659.10000000000002,1782523157],[123.759095,10.323112999999999,656.79999999999995,1782523165],[123.75910500000001,10.323100999999999,656.60000000000002,1782523166],[123.759135,10.323084,656.10000000000002,1782523169],[123.759173,10.323078000000001,655.20000000000005,1782523172],[123.75924500000001,10.32307,653.60000000000002,1782523180],[123.759271,10.323081,652.79999999999995,1782523184],[123.759281,10.323083,652.5,1782523185],[123.759315,10.323074999999999,650.89999999999998,1782523189],[123.75935800000001,10.323078000000001,649.89999999999998,1782523196],[123.75937999999999,10.323067999999999,649,1782523199],[123.75945299999999,10.323083,646.70000000000005,1782523207],[123.759463,10.323088,646.5,1782523208],[123.75949799999999,10.323103,645,1782523213],[123.75954299999999,10.323169999999999,641,1782523223],[123.75958900000001,10.323185,639.29999999999995,1782523228],[123.759603,10.323191,638.89999999999998,1782523229],[123.75971800000001,10.323200999999999,634.5,1782523239],[123.759736,10.323211000000001,633.10000000000002,1782523242],[123.759793,10.323207999999999,630.89999999999998,1782523248],[123.759806,10.323206000000001,630.60000000000002,1782523249],[123.759885,10.323207999999999,628.29999999999995,1782523257],[123.75989300000001,10.323226,627.79999999999995,1782523262],[123.759911,10.323235,627.89999999999998,1782523265],[123.75994300000001,10.323195,627.60000000000002,1782523269],[123.75994799999999,10.323193,627.39999999999998,1782523270],[123.759968,10.323168000000001,627.39999999999998,1782523294],[123.75997599999999,10.323128000000001,626.89999999999998,1782523316],[123.759986,10.323135000000001,626.89999999999998,1782523323],[123.75998800000001,10.323166000000001,626.70000000000005,1782523324],[123.75995899999999,10.323150999999999,625.89999999999998,1782523343],[123.75994900000001,10.323153,625.89999999999998,1782523344],[123.75994,10.323156000000001,625.89999999999998,1782523345],[123.75994300000001,10.323180000000001,626,1782523347],[123.759918,10.323248,623.39999999999998,1782523368],[123.759941,10.323251000000001,621.70000000000005,1782523373],[123.75998,10.323221,620.79999999999995,1782523387],[123.759989,10.323223,620.60000000000002,1782523388],[123.759996,10.323225000000001,620.5,1782523389],[123.760076,10.32321,620.5,1782523399],[123.760176,10.32321,620.39999999999998,1782523411],[123.76018999999999,10.323211000000001,620.29999999999995,1782523412],[123.760289,10.323205,619.39999999999998,1782523423],[123.76036999999999,10.323211000000001,617.20000000000005,1782523434],[123.760378,10.323211000000001,616.89999999999998,1782523435],[123.76049399999999,10.323216,614.29999999999995,1782523447],[123.76055100000001,10.323228,615,1782523454],[123.760559,10.323230000000001,615.10000000000002,1782523455],[123.760685,10.323255,617.70000000000005,1782523469],[123.76073,10.323286,617.5,1782523474],[123.760739,10.323288,617.5,1782523475],[123.76082100000001,10.323295,615.5,1782523485],[123.760918,10.32328,612.10000000000002,1782523498],[123.760925,10.323278,612,1782523499],[123.761093,10.323290999999999,607.89999999999998,1782523515],[123.76110300000001,10.323289000000001,607.70000000000005,1782523516],[123.761183,10.323270000000001,605.89999999999998,1782523522],[123.76121500000001,10.323230000000001,603.70000000000005,1782523530],[123.76124,10.323218000000001,602.60000000000002,1782523535],[123.76124,10.323218000000001,602.60000000000002,1782523536],[123.76121500000001,10.323251000000001,601.29999999999995,1782523548],[123.76123800000001,10.323259999999999,600.29999999999995,1782523553],[123.761348,10.323263000000001,597.29999999999995,1782523568],[123.761358,10.323263000000001,597.10000000000002,1782523569],[123.761523,10.323278,596.10000000000002,1782523586],[123.76155300000001,10.323288,596.70000000000005,1782523590],[123.761561,10.323289000000001,596.89999999999998,1782523591],[123.761663,10.323295,601,1782523603],[123.761736,10.323316,602.10000000000002,1782523611],[123.761748,10.323316,602.20000000000005,1782523612],[123.76186,10.323297999999999,603,1782523621],[123.761923,10.323321,604.60000000000002,1782523628],[123.76192899999999,10.323325000000001,604.89999999999998,1782523629],[123.76197500000001,10.323351000000001,605.79999999999995,1782523634],[123.762078,10.323371,606.79999999999995,1782523641],[123.762089,10.323375,606.70000000000005,1782523642],[123.76218799999999,10.323428,605.5,1782523651],[123.76222,10.323463,604.79999999999995,1782523655],[123.76222,10.323475,604.5,1782523656],[123.76227299999999,10.323551,602.70000000000005,1782523665],[123.762336,10.323596,602,1782523672],[123.76235,10.323596,601.89999999999998,1782523673],[123.762438,10.323648,601.29999999999995,1782523683],[123.76251600000001,10.32368,600.79999999999995,1782523690],[123.762528,10.323686,600.70000000000005,1782523691],[123.762658,10.323763,602.10000000000002,1782523705],[123.76268899999999,10.323767999999999,602.20000000000005,1782523708],[123.762705,10.323771000000001,602.20000000000005,1782523709],[123.76276,10.323779999999999,602.5,1782523714],[123.762805,10.323805,602,1782523718],[123.76282,10.323823000000001,601.89999999999998,1782523721],[123.762855,10.323836,602.10000000000002,1782523725],[123.762866,10.323838,602.10000000000002,1782523726],[123.76302099999999,10.323848,600.60000000000002,1782523739],[123.763031,10.323858,600.5,1782523740],[123.76304399999999,10.323862999999999,600.60000000000002,1782523741],[123.763121,10.323903,600.60000000000002,1782523747],[123.763188,10.323919999999999,599.70000000000005,1782523755],[123.76319100000001,10.323918000000001,599.5,1782523756],[123.763293,10.323924999999999,597.89999999999998,1782523767],[123.76336499999999,10.323905,596.5,1782523772],[123.763378,10.323898,596.10000000000002,1782523773],[123.763413,10.323891,595.89999999999998,1782523776],[123.76351099999999,10.323921,594.5,1782523784],[123.76354600000001,10.323923000000001,594.39999999999998,1782523787],[123.76356,10.323916000000001,594.39999999999998,1782523788],[123.76369099999999,10.323891,594.79999999999995,1782523798],[123.76372499999999,10.323895,594.39999999999998,1782523801],[123.763735,10.323896,594.39999999999998,1782523802],[123.763885,10.323929,593.60000000000002,1782523813],[123.763898,10.323928,593.5,1782523814],[123.764066,10.323986,590.70000000000005,1782523831],[123.764073,10.32399,590.79999999999995,1782523832],[123.764145,10.323995999999999,589.70000000000005,1782523840],[123.764231,10.324028999999999,587.60000000000002,1782523849],[123.76424,10.324028999999999,587.70000000000005,1782523850],[123.764253,10.324028,587.60000000000002,1782523851],[123.76426600000001,10.324047999999999,587.39999999999998,1782523855],[123.764318,10.324085,587.29999999999995,1782523865],[123.764396,10.324109999999999,589.29999999999995,1782523872],[123.764404,10.324113000000001,589.39999999999998,1782523873],[123.76449599999999,10.324146000000001,588.89999999999998,1782523880],[123.764546,10.324151000000001,588,1782523883],[123.764556,10.324154999999999,587.89999999999998,1782523884],[123.76458100000001,10.324175,587.79999999999995,1782523887],[123.764583,10.324198000000001,587.89999999999998,1782523889],[123.76461999999999,10.324225999999999,588.20000000000005,1782523894],[123.76468800000001,10.324241000000001,588.70000000000005,1782523900],[123.764701,10.324236000000001,588.70000000000005,1782523901],[123.764708,10.324244999999999,588.60000000000002,1782523902],[123.764718,10.324251,588.39999999999998,1782523903],[123.764781,10.324242999999999,588,1782523908],[123.764821,10.324268,587.29999999999995,1782523912],[123.764858,10.324315,586.29999999999995,1782523917],[123.764865,10.324325999999999,585.89999999999998,1782523918],[123.76490099999999,10.324388000000001,584,1782523924],[123.764978,10.324456,583.20000000000005,1782523936],[123.764995,10.324458999999999,583,1782523937],[123.76509799999999,10.324525,580.79999999999995,1782523947],[123.765108,10.324548,580.5,1782523951],[123.765135,10.324566000000001,579.60000000000002,1782523957],[123.765145,10.324567999999999,579.29999999999995,1782523958],[123.765156,10.324565,579,1782523959],[123.765208,10.324611000000001,576.79999999999995,1782523967],[123.76529600000001,10.324619999999999,575.5,1782523973],[123.765308,10.324617999999999,575.29999999999995,1782523974],[123.765483,10.324581,574.39999999999998,1782523991],[123.765501,10.324578000000001,574.29999999999995,1782523992],[123.765533,10.324585000000001,574.39999999999998,1782523995],[123.76561,10.324576,574.89999999999998,1782524010],[123.765683,10.324548999999999,573.60000000000002,1782524015],[123.76569499999999,10.324548,573.39999999999998,1782524016],[123.765826,10.324534999999999,570.20000000000005,1782524027],[123.765838,10.324555999999999,569.60000000000002,1782524029],[123.765863,10.324571000000001,568.5,1782524033],[123.765868,10.324576,568.20000000000005,1782524034],[123.76602800000001,10.324628000000001,563.70000000000005,1782524050],[123.766041,10.324631,563.70000000000005,1782524051],[123.766088,10.324645,562.60000000000002,1782524056],[123.76615099999999,10.324635000000001,562.10000000000002,1782524062],[123.76619100000001,10.324638999999999,561.79999999999995,1782524066],[123.7662,10.324630000000001,561.89999999999998,1782524067],[123.76620800000001,10.324628000000001,561.79999999999995,1782524068],[123.76625,10.324633,561.29999999999995,1782524072],[123.766296,10.324693,558.70000000000005,1782524079],[123.76634,10.324719999999999,557.5,1782524084],[123.766346,10.324726,557.20000000000005,1782524085],[123.766413,10.324756000000001,556.20000000000005,1782524092],[123.766503,10.324745999999999,555.20000000000005,1782524100],[123.766509,10.324750999999999,555.20000000000005,1782524101],[123.766578,10.324780000000001,555,1782524109],[123.766643,10.324858000000001,553.89999999999998,1782524118],[123.76664599999999,10.324866,553.89999999999998,1782524119],[123.766685,10.324903000000001,554.20000000000005,1782524125],[123.766785,10.324923,554,1782524134],[123.766786,10.324926,554,1782524135],[123.76682099999999,10.324945,553.60000000000002,1782524139],[123.76685999999999,10.324991000000001,552.39999999999998,1782524144],[123.76692300000001,10.324996000000001,551.20000000000005,1782524149],[123.76693299999999,10.324996000000001,551.20000000000005,1782524150],[123.76697,10.325005000000001,551.10000000000002,1782524156],[123.766988,10.325023,550.89999999999998,1782524159],[123.767065,10.32503,549.79999999999995,1782524168],[123.767093,10.325041000000001,549.20000000000005,1782524171],[123.7671,10.325046,549,1782524172],[123.767191,10.325078,548.39999999999998,1782524184],[123.767223,10.325103,548.5,1782524187],[123.76725999999999,10.325111,548.70000000000005,1782524190],[123.767275,10.325111,548.89999999999998,1782524191],[123.767331,10.325108,548.60000000000002,1782524198],[123.76739000000001,10.325138000000001,548.39999999999998,1782524205],[123.76743999999999,10.325143000000001,548.20000000000005,1782524209],[123.767455,10.325138000000001,547.70000000000005,1782524210],[123.767505,10.325101,545.20000000000005,1782524216],[123.76762600000001,10.325106,543,1782524230],[123.767644,10.325098000000001,542.5,1782524231],[123.767663,10.325085,542.20000000000005,1782524232],[123.76770999999999,10.325106,539.29999999999995,1782524236],[123.767746,10.325081000000001,536.89999999999998,1782524241],[123.76779399999999,10.325073,536.70000000000005,1782524246],[123.767824,10.325081000000001,537,1782524249],[123.767833,10.325082999999999,537.10000000000002,1782524250],[123.76788999999999,10.325070999999999,538.20000000000005,1782524257],[123.767911,10.32508,538.5,1782524262],[123.76793499999999,10.325075,538.39999999999998,1782524264],[123.767996,10.325043000000001,538,1782524269],[123.76800900000001,10.325035,537.89999999999998,1782524270],[123.768028,10.32502,537.79999999999995,1782524272],[123.76813300000001,10.324996000000001,538.5,1782524280],[123.768158,10.324983,539,1782524284],[123.76816100000001,10.324978,539.10000000000002,1782524285],[123.768186,10.324968,538.60000000000002,1782524293],[123.768191,10.324986000000001,537.60000000000002,1782524294],[123.768203,10.324992999999999,536.89999999999998,1782524295],[123.76825100000001,10.32499,536.20000000000005,1782524299],[123.768303,10.325009,536.10000000000002,1782524304],[123.768309,10.325015,536.39999999999998,1782524305],[123.76836900000001,10.325016,535.20000000000005,1782524310],[123.76846999999999,10.324975999999999,535,1782524326],[123.76848099999999,10.324968,535,1782524327],[123.768575,10.324909999999999,534,1782524333],[123.76863,10.324897999999999,532.70000000000005,1782524336],[123.76863299999999,10.324901000000001,532.10000000000002,1782524337],[123.76866800000001,10.324941000000001,530.79999999999995,1782524348],[123.768716,10.324954999999999,529,1782524354],[123.768736,10.324954999999999,527.10000000000002,1782524365],[123.76875800000001,10.324941000000001,526.89999999999998,1782524366],[123.768781,10.324915000000001,526.39999999999998,1782524368],[123.768793,10.324911,526,1782524369],[123.76884,10.324851000000001,523.70000000000005,1782524376],[123.768856,10.324790999999999,521.60000000000002,1782524382],[123.768873,10.324766,521,1782524384],[123.768884,10.32475,520.70000000000005,1782524385],[123.76890400000001,10.324712999999999,520,1782524388],[123.768941,10.324674999999999,519.39999999999998,1782524392],[123.76895,10.32465,519.39999999999998,1782524394],[123.76895500000001,10.324615,519.20000000000005,1782524397],[123.76893,10.324603,519.5,1782524398],[123.768923,10.324596,519.70000000000005,1782524399],[123.768911,10.32457,520.39999999999998,1782524402],[123.768906,10.324496,520.79999999999995,1782524408],[123.768925,10.324439999999999,521.29999999999995,1782524414],[123.768936,10.324431000000001,521.20000000000005,1782524415],[123.76898,10.324393000000001,520.5,1782524420],[123.769025,10.324376000000001,520.70000000000005,1782524424],[123.76903799999999,10.324332999999999,519.89999999999998,1782524427],[123.76904999999999,10.324325999999999,519.79999999999995,1782524428],[123.76906,10.32432,519.60000000000002,1782524429],[123.76913500000001,10.324313,519.70000000000005,1782524438],[123.769183,10.324337999999999,520,1782524444],[123.76919100000001,10.324373,519.70000000000005,1782524447],[123.76919599999999,10.32438,519.60000000000002,1782524448],[123.769203,10.324398,519.29999999999995,1782524449],[123.769223,10.324408,519.5,1782524451],[123.76930299999999,10.324389999999999,519,1782524455],[123.76932100000001,10.324375,518.5,1782524457],[123.769353,10.324373,517.89999999999998,1782524462],[123.76935899999999,10.324375,517.5,1782524463],[123.76943300000001,10.324358,515.89999999999998,1782524468],[123.769496,10.324361,514.60000000000002,1782524472],[123.769508,10.324358,514.39999999999998,1782524473],[123.769521,10.324356,514.10000000000002,1782524474],[123.769538,10.324400000000001,511.60000000000002,1782524481],[123.76956,10.324413,510,1782524487],[123.769634,10.324431000000001,505.39999999999998,1782524498],[123.769668,10.324427999999999,504.69999999999993,1782524501],[123.76967,10.324426000000001,504.19999999999993,1782524502],[123.76971399999999,10.324398,504.29999999999995,1782524507],[123.769758,10.324405,504.89999999999998,1782524514],[123.769818,10.324382999999999,504.60000000000002,1782524518],[123.76983300000001,10.324377999999999,504.5,1782524519],[123.769904,10.324375,503,1782524524],[123.769925,10.324370999999999,502.5,1782524526],[123.769943,10.324353,501.69999999999993,1782524529],[123.76999600000001,10.324351,503.79999999999995,1782524541],[123.77,10.324350000000001,503.89999999999998,1782524542],[123.770028,10.324348000000001,502.79999999999995,1782524546],[123.770144,10.324275999999999,503.79999999999995,1782524558],[123.77015,10.32427,503.69999999999993,1782524559],[123.77017600000001,10.324255000000001,503.39999999999998,1782524564],[123.770273,10.324149999999999,502.10000000000002,1782524577],[123.770278,10.324138,502,1782524578],[123.770303,10.32409,500.79999999999995,1782524581],[123.770296,10.324070000000001,500.39999999999998,1782524582],[123.770324,10.324040999999999,500.19999999999993,1782524585],[123.770371,10.324014999999999,499.39999999999998,1782524588],[123.77037799999999,10.324009999999999,499.19999999999993,1782524589],[123.770416,10.323936,493.69999999999993,1782524599],[123.770455,10.323912999999999,492.69999999999993,1782524603],[123.770504,10.323898,492.5,1782524607],[123.770521,10.323893,492.60000000000002,1782524608],[123.770555,10.323884,493.10000000000002,1782524613],[123.7706,10.323903,490.89999999999998,1782524619],[123.77070399999999,10.323900999999999,489.60000000000002,1782524632],[123.770713,10.323900999999999,489.60000000000002,1782524633],[123.770776,10.323898,488.79999999999995,1782524639],[123.77079999999999,10.323907999999999,488.29999999999995,1782524641],[123.770875,10.323869999999999,488.10000000000002,1782524650],[123.770888,10.323871,487.89999999999998,1782524651],[123.770945,10.323881,488.19999999999993,1782524657],[123.770996,10.323876,488.29999999999995,1782524663],[123.771058,10.323853,489,1782524668],[123.77106999999999,10.323850999999999,489.10000000000002,1782524669],[123.77116100000001,10.323835000000001,490.69999999999993,1782524678],[123.771226,10.323791,492.79999999999995,1782524688],[123.771236,10.323788,493,1782524689],[123.771398,10.323791,492.10000000000002,1782524704],[123.771415,10.323796,492.10000000000002,1782524705],[123.771513,10.323805,492,1782524714],[123.771535,10.323816000000001,492.39999999999998,1782524718],[123.77158799999999,10.323790000000001,493.5,1782524724],[123.77160600000001,10.323785000000001,493.39999999999998,1782524725],[123.77164999999999,10.323760999999999,493.10000000000002,1782524728],[123.771683,10.323725,493.10000000000002,1782524736],[123.77175,10.323715999999999,492.10000000000002,1782524740],[123.77177500000001,10.323696,491,1782524742],[123.771783,10.323683000000001,490.5,1782524743],[123.771815,10.323675,486.79999999999995,1782524754],[123.77184800000001,10.323645000000001,485.10000000000002,1782524762],[123.771896,10.323555000000001,482.79999999999995,1782524774],[123.7719,10.323551,482.60000000000002,1782524775],[123.771935,10.323473,480.5,1782524784],[123.77196499999999,10.323435999999999,480.19999999999993,1782524788],[123.77199,10.323421,479.79999999999995,1782524790],[123.77199,10.323416,479.69999999999993,1782524791],[123.77199899999999,10.323346000000001,479.10000000000002,1782524800],[123.771996,10.323286,478.10000000000002,1782524806],[123.77198300000001,10.323251000000001,477.79999999999995,1782524809],[123.771981,10.323233,477.5,1782524810],[123.771985,10.3232,477,1782524812],[123.77199899999999,10.323169999999999,476,1782524813],[123.77204500000001,10.323096,472.29999999999995,1782524817],[123.772066,10.323078000000001,471.19999999999993,1782524819],[123.772064,10.323067999999999,471,1782524820],[123.772081,10.322990000000001,468.79999999999995,1782524833],[123.772071,10.322946,466.5,1782524839],[123.77207300000001,10.322888000000001,464.5,1782524848],[123.772069,10.322881000000001,464.5,1782524849],[123.77206099999999,10.322848,464.60000000000002,1782524854],[123.772066,10.322827999999999,464.29999999999995,1782524857],[123.772023,10.322786000000001,462.89999999999998,1782524864],[123.77199899999999,10.322735,461.79999999999995,1782524872],[123.771998,10.32273,461.60000000000002,1782524873],[123.77200499999999,10.322651,460.79999999999995,1782524879],[123.771998,10.322570000000001,459.10000000000002,1782524884],[123.771998,10.322559999999999,458.89999999999998,1782524885],[123.771998,10.322528,457.79999999999995,1782524889],[123.771974,10.322488,457.69999999999993,1782524894],[123.771906,10.322414999999999,455.89999999999998,1782524904],[123.77190299999999,10.322414999999999,455.60000000000002,1782524905],[123.77187600000001,10.322373000000001,454.5,1782524914],[123.771833,10.322361000000001,455.89999999999998,1782524920],[123.771818,10.322340000000001,456.60000000000002,1782524923],[123.77177,10.322333,457.79999999999995,1782524928],[123.77176,10.322328000000001,458.10000000000002,1782524929],[123.77169499999999,10.3223,458.19999999999993,1782524934],[123.771635,10.322251,459.10000000000002,1782524940],[123.771631,10.322239,459.10000000000002,1782524941],[123.77163,10.322229999999999,459,1782524942],[123.771618,10.3222,458.79999999999995,1782524946],[123.771575,10.322177999999999,457.29999999999995,1782524950],[123.771548,10.322145000000001,456.30000000000001,1782524955],[123.771505,10.322120999999999,455.60000000000002,1782524961],[123.771494,10.322125,455.19999999999999,1782524962],[123.771483,10.322125,455.19999999999999,1782524963],[123.77145,10.322126000000001,454.69999999999999,1782524968],[123.771411,10.322113,454.89999999999998,1782524973],[123.771355,10.322115,455.89999999999998,1782524979],[123.771328,10.322093000000001,455.89999999999998,1782524982],[123.771323,10.322082999999999,455.5,1782524983],[123.77128999999999,10.322016,454.89999999999998,1782524992],[123.77129499999999,10.321935,455.5,1782524998],[123.77128999999999,10.321925,455.69999999999999,1782524999],[123.771231,10.321808000000001,455.89999999999998,1782525008],[123.771231,10.321778,455.30000000000001,1782525011],[123.771231,10.321771,455.10000000000002,1782525012],[123.771238,10.321691,453.19999999999999,1782525021],[123.77124999999999,10.321661000000001,452.89999999999998,1782525023],[123.771248,10.321600999999999,450.69999999999999,1782525028],[123.771253,10.321588999999999,450,1782525029],[123.771278,10.321533000000001,447.19999999999999,1782525034],[123.771306,10.321496,445.80000000000001,1782525037],[123.77138100000001,10.321505999999999,441.5,1782525046],[123.771385,10.321516000000001,441.19999999999999,1782525047],[123.77144800000001,10.321558,439,1782525054],[123.77154299999999,10.321578000000001,437.80000000000001,1782525062],[123.77155399999999,10.321580000000001,437.80000000000001,1782525063],[123.771663,10.321611000000001,435.39999999999998,1782525072],[123.77170099999999,10.321656000000001,434.89999999999998,1782525078],[123.771715,10.32166,434.69999999999999,1782525079],[123.7718,10.321664999999999,433.60000000000002,1782525086],[123.771868,10.321688,432.80000000000001,1782525092],[123.771878,10.321691,432.80000000000001,1782525093],[123.771913,10.321700999999999,432.30000000000001,1782525096],[123.77194799999999,10.321728,432.30000000000001,1782525101],[123.771991,10.321728,432.89999999999998,1782525104],[123.772043,10.321714999999999,432.69999999999999,1782525107],[123.772058,10.321718000000001,432.69999999999999,1782525108],[123.77220800000001,10.321714999999999,432.80000000000001,1782525117],[123.772228,10.321719999999999,432.89999999999998,1782525118],[123.77224099999999,10.321723,433.10000000000002,1782525119],[123.772288,10.321706000000001,433.5,1782525122],[123.772339,10.321711000000001,434.30000000000001,1782525126],[123.772369,10.32174,434.80000000000001,1782525129],[123.77237100000001,10.321761,434.30000000000001,1782525130],[123.772396,10.321804999999999,434,1782525134],[123.77248899999999,10.321851000000001,433.19999999999999,1782525142],[123.77250100000001,10.321856,433.30000000000001,1782525143],[123.77254499999999,10.321888,433.89999999999998,1782525148],[123.772553,10.321913,433.60000000000002,1782525149],[123.77262500000001,10.321949999999999,433.80000000000001,1782525156],[123.772631,10.321955000000001,433.80000000000001,1782525157],[123.772685,10.321961,434.10000000000002,1782525162],[123.772756,10.321925999999999,434.69999999999999,1782525167],[123.77278800000001,10.321933,435.30000000000001,1782525169],[123.772801,10.321933,435.60000000000002,1782525170],[123.772846,10.321935,436.60000000000002,1782525173],[123.77295100000001,10.321901,439.39999999999998,1782525182],[123.772964,10.321897999999999,439.60000000000002,1782525183],[123.773003,10.321896000000001,440.10000000000002,1782525187],[123.773033,10.321949999999999,440.10000000000002,1782525191],[123.773048,10.321963,440.39999999999998,1782525193],[123.77307999999999,10.32197,440.19999999999999,1782525196],[123.773098,10.321973,440,1782525197],[123.77316999999999,10.32198,439.89999999999998,1782525202],[123.773293,10.321958,443.80000000000001,1782525218],[123.77330499999999,10.321956,444,1782525219],[123.773341,10.321948000000001,444.60000000000002,1782525222],[123.773386,10.321951,444.5,1782525228],[123.77342299999999,10.321965000000001,444,1782525232],[123.773471,10.321999999999999,444.19999999999999,1782525236],[123.77348499999999,10.322010000000001,444.19999999999999,1782525237],[123.773539,10.322056,444.5,1782525242],[123.773605,10.322006,443.80000000000001,1782525249],[123.773613,10.321994999999999,443.69999999999999,1782525250],[123.773633,10.321978,443.39999999999998,1782525252],[123.773675,10.321971,442.30000000000001,1782525258],[123.77368800000001,10.321980999999999,442,1782525268],[123.77367599999999,10.322003,440.39999999999998,1782525269],[123.773668,10.321958,438.30000000000001,1782525302],[123.773689,10.321911,438.30000000000001,1782525303],[123.773695,10.321910000000001,438.30000000000001,1782525304],[123.773698,10.321885,434.19999999999999,1782525321],[123.773725,10.321885999999999,434,1782525327],[123.77372800000001,10.321899999999999,437.10000000000002,1782525360],[123.77363699999999,10.321906,437,1782525366],[123.773678,10.321925999999999,436.69999999999999,1782525372],[123.77370000000001,10.321914,436.39999999999998,1782525376],[123.77370000000001,10.321906,436.60000000000002,1782525377],[123.773701,10.321901,436.69999999999999,1782525378],[123.773698,10.321892999999999,436.80000000000001,1782525379],[123.773703,10.321913,437.39999999999998,1782525383],[123.77373799999999,10.321944999999999,439.10000000000002,1782525415],[123.773701,10.321956,441.60000000000002,1782525416],[123.773698,10.32194,442.30000000000001,1782525428],[123.773651,10.321913,440.69999999999999,1782525429],[123.773623,10.321914,440.30000000000001,1782525432],[123.77361999999999,10.321918,440.19999999999999,1782525433],[123.773613,10.321946000000001,440.10000000000002,1782525437],[123.77361999999999,10.32199,438.69999999999999,1782525441],[123.773635,10.32198,432.60000000000002,1782525455],[123.77364300000001,10.321955000000001,431.30000000000001,1782525458],[123.773653,10.321956,430.39999999999998,1782525468],[123.77362100000001,10.321975999999999,429.10000000000002,1782525470],[123.773618,10.321980999999999,428.89999999999998,1782525471],[123.773599,10.32198,422.5,1782525484]]]}}]}
