{"type":"FeatureCollection","features":[{"type":"Feature","id":"4859c1f1-f270-4360-8e4f-e8b8d958dbb0","properties":{"id":"4859c1f1-f270-4360-8e4f-e8b8d958dbb0","updated_date":"2025-09-13T08:02:10Z","time_created":"2024-11-28T01:18:46Z","last_updated_on_server":"2025-09-13T12:24:32.815080","db_insert_date":"2025-09-13T08:02:10Z","deleted":false,"title":"Cambanog Falls Track","public":false,"color":"#000000","hexcolor":"#000000","is_active":true,"revision":1757766272,"notes":"","track_type":"track","routing_mode":null,"uploaded_gpx_to_osm":null,"flag":null,"source":null,"cover_photo_id":null,"distance":797.85199995387995,"total_ascent":51.286285400390625,"total_descent":76.85772705078125,"stopped_time":409.33333349227905,"total_time":1768,"average_speed":0.45127375563002259,"moving_time":1358.6666665077209,"moving_speed":0.58723159964221139,"activities":[],"imported":true,"folder":"5846eda4-747f-4498-a291-2d262ecd3479","privacy_level":null,"sync_to_mobile":null,"preferred_link":"/public/Y7dlcgS8QqTQApvxVsfP6McR","favorite_count":0,"comment_count":0,"comments":[],"user_photo_count":0,"latitude":9.9973223252128527,"longitude":123.50202493540547,"writable":false},"style":{"stroke":"#000000"},"geometry":{"type":"MultiLineString","coordinates":[[[123.500619,9.9993169999999996,197.50213623046875,1732756726],[123.50063299999999,9.9993359999999996,196.3978271484375,1732756731],[123.500635,9.9993119999999998,197.414306640625,1732756733],[123.500651,9.9992970000000003,197.574462890625,1732756735],[123.50075,9.999295,197.89984130859375,1732756744],[123.500761,9.9992959999999993,197.85064697265625,1732756745],[123.50093200000001,9.9992999999999999,196.64788818359375,1732756758],[123.500989,9.9993130000000008,196.03167724609375,1732756763],[123.501,9.9993149999999993,195.84051513671875,1732756764],[123.501126,9.9993189999999998,195.83929443359375,1732756775],[123.501182,9.9993339999999993,195.6629638671875,1732756780],[123.50119100000001,9.9993409999999994,195.5206298828125,1732756781],[123.50123499999999,9.9993809999999996,195.24261474609375,1732756786],[123.50133599999999,9.9994069999999997,193.6690673828125,1732756796],[123.50134199999999,9.9994060000000005,193.57440185546875,1732756797],[123.5014,9.99939,192.01043701171875,1732756802],[123.501414,9.9993739999999995,191.3671875,1732756804],[123.50143300000001,9.9993309999999997,192.01513671875,1732756808],[123.501436,9.9992409999999996,190.5213623046875,1732756816],[123.501434,9.9992280000000004,190.5775146484375,1732756817],[123.501426,9.9991710000000005,190.30548095703125,1732756822],[123.50143,9.9990369999999995,189.6031494140625,1732756833],[123.50143199999999,9.9990240000000004,189.34136962890625,1732756834],[123.501471,9.9988329999999994,188.430908203125,1732756850],[123.501473,9.9988200000000003,188.3170166015625,1732756851],[123.501485,9.9986409999999992,188.086669921875,1732756867],[123.501484,9.9986329999999999,188.31683349609375,1732756868],[123.50147699999999,9.9985949999999999,190.16607666015625,1732756871],[123.50148299999999,9.9985119999999998,186.904541015625,1732756922],[123.501474,9.9984680000000008,188.41796875,1732756928],[123.501475,9.998462,188.90277099609375,1732756929],[123.501465,9.9984319999999993,189.0809326171875,1732756933],[123.501482,9.9983889999999995,186.0238037109375,1732756936],[123.501448,9.9983009999999997,186.76861572265625,1732756946],[123.501446,9.998272,185.67236328125,1732756950],[123.501445,9.9982690000000005,185.69219970703125,1732756951],[123.501418,9.9980910000000005,183.130615234375,1732756974],[123.501417,9.9980810000000009,182.791259765625,1732756975],[123.501403,9.998011,182.9527587890625,1732756982],[123.501367,9.9979320000000005,181.967041015625,1732757001],[123.501367,9.9979379999999995,181.13330078125,1732757002],[123.50136999999999,9.9979440000000004,181.719482421875,1732757003],[123.501395,9.9979580000000006,181.5670166015625,1732757008],[123.501369,9.9978870000000004,180.056396484375,1732757016],[123.501372,9.9978289999999994,180.16033935546875,1732757021],[123.501372,9.9978189999999998,180.3753662109375,1732757022],[123.501379,9.9977420000000006,180.75048828125,1732757029],[123.501396,9.9977250000000009,180.6387939453125,1732757031],[123.501441,9.9977309999999999,180.374755859375,1732757035],[123.501468,9.9977450000000001,180.65850830078125,1732757038],[123.501476,9.9977499999999999,180.790771484375,1732757039],[123.501552,9.9977769999999992,180.27838134765625,1732757046],[123.501586,9.9978029999999993,180.040283203125,1732757050],[123.501615,9.9978449999999999,180.7789306640625,1732757073],[123.50161900000001,9.9978529999999992,181.16119384765625,1732757074],[123.50162400000001,9.9978639999999999,180.4840087890625,1732757075],[123.501649,9.9978660000000001,181.636474609375,1732757120],[123.50163999999999,9.9979329999999997,182.72808837890625,1732757130],[123.50167,9.9980060000000002,181.86029052734375,1732757153],[123.501676,9.9980100000000007,181.71246337890625,1732757154],[123.50171899999999,9.99803,181.50958251953125,1732757159],[123.501738,9.9980180000000001,181.7044677734375,1732757162],[123.501758,9.9979820000000004,180.331787109375,1732757168],[123.501741,9.9979420000000001,180.18914794921875,1732757174],[123.50175299999999,9.9979510000000005,179.50872802734375,1732757176],[123.50175400000001,9.9979530000000008,179.5687255859375,1732757177],[123.501777,9.9979040000000001,177.14886474609375,1732757189],[123.501784,9.9978599999999993,175.809814453125,1732757195],[123.501817,9.9978289999999994,174.1732177734375,1732757211],[123.50184400000001,9.9978269999999991,173.81573486328125,1732757218],[123.50184400000001,9.9978200000000008,173.5220947265625,1732757219],[123.501841,9.997814,173.3377685546875,1732757220],[123.501803,9.9977719999999994,171.7965087890625,1732757231],[123.501801,9.9977479999999996,170.49365234375,1732757236],[123.501814,9.9977300000000007,170.361572265625,1732757240],[123.501811,9.9976830000000003,167.050048828125,1732757250],[123.50183699999999,9.9976669999999999,166.138916015625,1732757253],[123.50183699999999,9.9976570000000002,165.8304443359375,1732757254],[123.50183199999999,9.9976439999999993,165.7010498046875,1732757255],[123.501785,9.9976330000000004,166.01611328125,1732757278],[123.501768,9.9976140000000004,165.749755859375,1732757371],[123.501757,9.9976210000000005,164.79669189453125,1732757372],[123.50173700000001,9.9976149999999997,162.887939453125,1732757377],[123.501732,9.9975609999999993,160.6505126953125,1732757384],[123.501733,9.9975559999999994,161.0250244140625,1732757385],[123.501773,9.9975140000000007,160.78759765625,1732757393],[123.501784,9.9974900000000009,160.52001953125,1732757397],[123.50184299999999,9.9974489999999996,158.0711669921875,1732757408],[123.501853,9.9974190000000007,157.8990478515625,1732757412],[123.501853,9.9974080000000001,157.9185791015625,1732757414],[123.501852,9.9973430000000008,155.1982421875,1732757421],[123.50183199999999,9.9973279999999995,156.52960205078125,1732757427],[123.501845,9.9973100000000006,155.1854248046875,1732757443],[123.50188199999999,9.9972980000000007,154.11248779296875,1732757448],[123.501895,9.9972770000000004,152.40264892578125,1732757501],[123.501892,9.9972729999999999,152.42230224609375,1732757502],[123.50188900000001,9.9972410000000007,150.2088623046875,1732757509],[123.501908,9.9972089999999998,149.9229736328125,1732757515],[123.50190499999999,9.9971619999999994,150.0936279296875,1732757523],[123.50192699999999,9.9971589999999999,146.72802734375,1732757573],[123.50191,9.9971800000000002,146.34881591796875,1732757591],[123.50192,9.9971809999999994,146.2242431640625,1732757593],[123.501924,9.9971479999999993,145.20697021484375,1732757674],[123.501947,9.9971370000000004,143.74169921875,1732757680],[123.501976,9.9971709999999998,143.4932861328125,1732757689],[123.501942,9.9971019999999999,139.819580078125,1732757704],[123.501943,9.9970999999999997,139.969970703125,1732757705],[123.501969,9.9970859999999995,139.34576416015625,1732757710],[123.50197799999999,9.9970630000000007,135.5345458984375,1732757717],[123.501964,9.9969929999999998,133.7332763671875,1732757755],[123.50197300000001,9.9969710000000003,133.68341064453125,1732757762],[123.501971,9.9969380000000001,130.4464111328125,1732757781],[123.50197,9.9969319999999993,130.38433837890625,1732757782],[123.501931,9.9967810000000004,127.0355224609375,1732757803],[123.50194500000001,9.9967570000000006,125.59002685546875,1732757807],[123.501952,9.9967539999999993,125.1844482421875,1732757808],[123.501982,9.9967430000000004,124.23663330078125,1732757817],[123.50199499999999,9.9967220000000001,123.3096923828125,1732757821],[123.50199600000001,9.9966790000000003,122.59619140625,1732757829],[123.50202,9.9966670000000004,121.201904296875,1732757837],[123.502056,9.9966200000000001,120.669189453125,1732757850],[123.502055,9.9966120000000007,120.615966796875,1732757851],[123.502047,9.9965539999999997,119.7919921875,1732757858],[123.50208600000001,9.9965229999999998,119.6973876953125,1732757864],[123.502104,9.9965259999999994,119.68560791015625,1732757867],[123.502149,9.9964969999999997,119.46710205078125,1732757876],[123.502154,9.9964919999999999,119.59619140625,1732757877],[123.502163,9.996461,119.7147216796875,1732757883],[123.502155,9.9964379999999995,121.42919921875,1732757896],[123.502177,9.9964259999999996,121.57568359375,1732757899],[123.502239,9.9964099999999991,122.00732421875,1732757906],[123.50226499999999,9.9964320000000004,121.4505615234375,1732757910],[123.50227599999999,9.9964340000000007,121.6298828125,1732757911],[123.502308,9.9964440000000003,121.94903564453125,1732757913],[123.502296,9.9964969999999997,121.9835205078125,1732757914],[123.50225399999999,9.9965030000000006,121.600830078125,1732757915],[123.502258,9.9965220000000006,121.98388671875,1732757928],[123.502278,9.9964739999999992,122.434814453125,1732757935],[123.50229899999999,9.9964549999999992,122.5770263671875,1732757938],[123.502307,9.9964510000000004,122.90728759765625,1732757939],[123.502414,9.9963870000000004,126.6024169921875,1732757976],[123.502431,9.9963660000000001,128.5797119140625,1732758056],[123.50243500000001,9.9963390000000008,126.11297607421875,1732758071],[123.502437,9.9963460000000008,126.2188720703125,1732758072],[123.502441,9.9963490000000004,126.46453857421875,1732758074],[123.502448,9.9963789999999992,125.708984375,1732758076],[123.50250699999999,9.9963580000000007,126.80419921875,1732758118],[123.502593,9.9963569999999997,127.64898681640625,1732758131],[123.502584,9.9963549999999994,127.00469970703125,1732758132],[123.502534,9.9963829999999998,124.43267822265625,1732758200],[123.502554,9.9963409999999993,125.14111328125,1732758219],[123.50259,9.9963080000000009,126.34295654296875,1732758226],[123.502596,9.9962850000000003,127.2716064453125,1732758237],[123.502608,9.9962900000000001,126.7149658203125,1732758238],[123.50264300000001,9.9962479999999996,127.71075439453125,1732758245],[123.502697,9.9962199999999992,129.4981689453125,1732758253],[123.50275499999999,9.9962219999999995,129.70416259765625,1732758260],[123.502764,9.9962250000000008,129.62652587890625,1732758261],[123.502877,9.9961749999999991,130.20703125,1732758276],[123.50287899999999,9.9961490000000008,130.6046142578125,1732758282],[123.50290800000001,9.9961249999999993,130.095458984375,1732758286],[123.502917,9.9961269999999995,130.68609619140625,1732758287],[123.502915,9.9961570000000002,132.13201904296875,1732758290],[123.50294100000001,9.9961800000000007,131.78173828125,1732758292],[123.502967,9.9961769999999994,131.67352294921875,1732758294],[123.503023,9.9961269999999995,132.065673828125,1732758301],[123.50303,9.9961210000000005,132.1895751953125,1732758302],[123.503069,9.9960570000000004,132.87481689453125,1732758309],[123.503091,9.9959539999999993,133.9986572265625,1732758313],[123.503094,9.9959629999999997,134.1402587890625,1732758314],[123.50309900000001,9.9959589999999992,134.47552490234375,1732758315],[123.50310399999999,9.9959600000000002,134.6767578125,1732758316],[123.503113,9.9959799999999994,134.519287109375,1732758317],[123.50314,9.9959959999999999,132.33709716796875,1732758321],[123.503157,9.9959849999999992,132.13787841796875,1732758323],[123.503182,9.9959260000000008,131.75341796875,1732758329],[123.50317,9.9958930000000006,132.8885498046875,1732758332],[123.50316599999999,9.9958829999999992,133.2296142578125,1732758333],[123.50314899999999,9.9958580000000001,133.787841796875,1732758336],[123.503029,9.9957849999999997,136.40283203125,1732758350],[123.503017,9.9957770000000004,136.34893798828125,1732758351],[123.502951,9.9957180000000001,134.66925048828125,1732758357],[123.50291300000001,9.9957320000000003,137.826171875,1732758372],[123.502934,9.9957419999999999,137.80340576171875,1732758373],[123.502939,9.9957340000000006,137.95574951171875,1732758374],[123.502945,9.9957270000000005,138.0235595703125,1732758375],[123.502971,9.9957019999999996,138.7093505859375,1732758380],[123.50299800000001,9.9956980000000009,138.0377197265625,1732758385],[123.503041,9.9956639999999997,136.5401611328125,1732758391],[123.503067,9.9956580000000006,137.10687255859375,1732758395],[123.503101,9.9956689999999995,136.86212158203125,1732758399],[123.50310899999999,9.9956650000000007,137.062255859375,1732758400],[123.50313800000001,9.9956490000000002,137.3734130859375,1732758404],[123.503187,9.9956619999999994,137.7269287109375,1732758409],[123.503208,9.9956510000000005,137.8668212890625,1732758411],[123.503213,9.9955829999999999,137.42437744140625,1732758418],[123.503215,9.9955750000000005,137.3948974609375,1732758419],[123.503219,9.9954970000000003,137.2464599609375,1732758426],[123.50320000000001,9.9954590000000003,137.5865478515625,1732758431],[123.503153,9.9954319999999992,138.7171630859375,1732758440],[123.503151,9.9954230000000006,138.8631591796875,1732758441],[123.503103,9.9954140000000002,140.61468505859375,1732758448],[123.503063,9.9953570000000003,140.97900390625,1732758455],[123.50302000000001,9.9953339999999997,142.20452880859375,1732758483],[123.50302000000001,9.9953339999999997,142.49053955078125,1732758484],[123.503045,9.9953260000000004,145.589111328125,1732758490],[123.503062,9.9953079999999996,148.86639404296875,1732758492],[123.50305400000001,9.9953099999999999,202.02813720703125,1732758494]]]}}]}
