{"type":"FeatureCollection","features":[{"type":"Feature","id":"85158671-761e-48b6-a98a-f321f08a86a8","properties":{"id":"85158671-761e-48b6-a98a-f321f08a86a8","updated_date":"2026-07-11T00:12:49Z","time_created":"2025-12-19T22:33:57Z","last_updated_on_server":"2026-07-11T00:12:49.933667","db_insert_date":"2026-07-11T00:12:49Z","deleted":false,"title":"Saturday Morning Hiking","public":false,"color":"#A4A4A4","hexcolor":"#A4A4A4","is_active":true,"revision":1783728769,"notes":"","track_type":"track","routing_mode":null,"uploaded_gpx_to_osm":null,"flag":null,"source":null,"cover_photo_id":null,"distance":4509.7455344439704,"total_ascent":275.03999999999996,"total_descent":71.627222222222201,"stopped_time":1278.8333337306976,"total_time":7221.404000043869,"average_speed":0.62449705547793399,"moving_time":5942.5706663131714,"moving_speed":0.75888799438406351,"activities":[],"imported":true,"folder":"56f77246-75e4-407c-9e10-f1e1a830de83","privacy_level":null,"sync_to_mobile":null,"preferred_link":"/public/EbWy2PAzbFnnK71zDWlrcnHB","favorite_count":0,"comment_count":0,"comments":[],"user_photo_count":0,"latitude":10.278939637195494,"longitude":123.79018989264829,"writable":false},"style":{"stroke":"#A4A4A4"},"geometry":{"type":"MultiLineString","coordinates":[[[123.79765399999999,10.265416999999999,38.759999999999998,1766183637],[123.797517,10.265571,42.649999999999999,1766183666.431],[123.797381,10.265776000000001,48.560000000000002,1766183701.6340001],[123.79732199999999,10.266031999999999,56.420000000000002,1766183739.381],[123.797371,10.26609,60.229999999999997,1766183750.2260001],[123.797527,10.266016,61.509999999999998,1766183774.73],[123.79769,10.266054,66.540000000000006,1766183798.4319999],[123.797768,10.266095999999999,69.209999999999994,1766183811.013],[123.797771,10.266163000000001,72.799999999999997,1766183820.6559999],[123.797605,10.266234000000001,74.319999999999993,1766183846.267],[123.79753700000001,10.266339,76.810000000000002,1766183864.171],[123.797589,10.266451,82.879999999999995,1766183881.8770001],[123.79756,10.266598,86.909999999999997,1766183903.4100001],[123.797586,10.266973,97.819999999999993,1766183957.46],[123.797628,10.267091000000001,101.64,1766183975.438],[123.797605,10.267344,105.31999999999999,1766184011.964],[123.79750799999999,10.267583999999999,105.93000000000001,1766184049.1040001],[123.79752999999999,10.267911,111.72,1766184096.2290001],[123.79750799999999,10.268295,116.73999999999999,1766184151.5350001],[123.797628,10.268447999999999,123.66,1766184179.326],[123.79770600000001,10.268637,128.27000000000001,1766184208.6589999],[123.797596,10.268938,133.56999999999999,1766184254.6559999],[123.79760899999999,10.268999000000001,135.52000000000001,1766184263.618],[123.79768300000001,10.26904,137.81,1766184275.6340001],[123.797726,10.269117,139.87,1766184288.2679999],[123.797703,10.269311999999999,143.84999999999999,1766184316.497],[123.79767,10.269447,146.05000000000001,1766184336.4630001],[123.79771599999999,10.26962,149.24000000000001,1766184362.177],[123.797713,10.269869,153.06,1766184397.9849999],[123.797605,10.270118999999999,157.37,1766184437.0469999],[123.79737799999999,10.270436,162.28,1766184492.8099999],[123.797309,10.270631,164,1766184522.5009999],[123.797228,10.270714,164,1766184539.0480001],[123.79678199999999,10.270692,165.31,1766184602.234],[123.796451,10.270771999999999,167.80000000000001,1766184650.461],[123.796164,10.270954,169.63,1766184698.7720001],[123.79578100000001,10.271174999999999,172.38,1766184761.595],[123.795293,10.271495,178.19999999999999,1766184844.572],[123.795137,10.271565000000001,181.27000000000001,1766184868.832],[123.794955,10.271728,184.31999999999999,1766184903.6530001],[123.794828,10.271744,187.43000000000001,1766184921.7690001],[123.794675,10.271917,188.96000000000001,1766184954.7460001],[123.794398,10.27201,192.27000000000001,1766184996.158],[123.79396300000001,10.272372000000001,191.88,1766185076.7690001],[123.79384899999999,10.272470999999999,192.80000000000001,1766185098.283],[123.793661,10.272544999999999,192.87,1766185126.9330001],[123.793526,10.27267,193.94999999999999,1766185153.1619999],[123.793513,10.272656,198.90000000000003,1766185155.888],[123.793463,10.272774999999999,203.19999999999999,1766185174.404],[123.79346099999999,10.272786,203.60000000000002,1766185175.404],[123.793423,10.272836,203.5,1766185227.404],[123.793426,10.272862999999999,203.80000000000001,1766185234.404],[123.79340500000001,10.272928,203.69999999999999,1766185242.404],[123.79337599999999,10.272955,203.40000000000003,1766185274.404],[123.793378,10.272964999999999,203.5,1766185275.404],[123.793346,10.273051000000001,204.90000000000003,1766185289.404],[123.79329300000001,10.273111,206.5,1766185298.404],[123.793288,10.27312,206.60000000000002,1766185299.404],[123.793228,10.273246,209.10000000000002,1766185320.404],[123.793206,10.27327,209.10000000000002,1766185329.404],[123.793205,10.273277999999999,209.10000000000002,1766185330.404],[123.79324099999999,10.273304,209,1766185338.404],[123.79325300000001,10.273327999999999,209.10000000000002,1766185341.404],[123.79320300000001,10.273405,210,1766185352.404],[123.79319599999999,10.273410999999999,210.10000000000002,1766185353.404],[123.793176,10.273433000000001,210.69999999999999,1766185357.404],[123.79319,10.273478000000001,212.40000000000003,1766185378.404],[123.793138,10.273526,213.5,1766185385.404],[123.793133,10.273558,213.5,1766185389.404],[123.793131,10.27356,213.60000000000002,1766185390.404],[123.793071,10.273585000000001,214.30000000000001,1766185406.404],[123.793086,10.273605,214.80000000000001,1766185416.404],[123.79309600000001,10.273605,214.90000000000003,1766185435.404],[123.793036,10.273616000000001,213.90000000000003,1766185444.404],[123.793031,10.273616000000001,213.90000000000003,1766185445.404],[123.793046,10.273600999999999,212.69999999999999,1766185470.404],[123.793111,10.273593,213.69999999999999,1766185482.404],[123.793155,10.273573000000001,215.60000000000002,1766185493.404],[123.793153,10.273565,216.30000000000001,1766185509.404],[123.793116,10.27359,215.80000000000001,1766185510.404],[123.793111,10.273593,215.69999999999999,1766185511.404],[123.793063,10.273605,217.10000000000002,1766185542.404],[123.793025,10.273628,217.10000000000002,1766185548.404],[123.79300499999999,10.273663000000001,217.40000000000003,1766185554.404],[123.79300499999999,10.273695999999999,217.40000000000003,1766185557.404],[123.793008,10.273707999999999,217.5,1766185558.404],[123.79302800000001,10.273763000000001,218.10000000000002,1766185564.404],[123.79302300000001,10.273856,220.5,1766185572.404],[123.79303,10.273885,220.80000000000001,1766185575.404],[123.793031,10.273895,220.80000000000001,1766185576.404],[123.793031,10.273942999999999,221.60000000000002,1766185580.404],[123.793015,10.273982999999999,222.90000000000003,1766185584.404],[123.79303,10.274055000000001,223.80000000000001,1766185593.404],[123.79303,10.274061,224.10000000000002,1766185594.404],[123.79301,10.274151,226.10000000000002,1766185603.404],[123.79301,10.274239,228.10000000000002,1766185612.404],[123.793021,10.274266000000001,228.5,1766185616.404],[123.79302300000001,10.274331,229.69999999999999,1766185624.404],[123.79306099999999,10.274398,231.69999999999999,1766185634.404],[123.79306,10.274407999999999,231.80000000000001,1766185635.404],[123.79305600000001,10.274463000000001,232.40000000000003,1766185640.404],[123.79308,10.274506000000001,232.69999999999999,1766185645.404],[123.7931,10.274518,232.90000000000003,1766185649.404],[123.793111,10.274568,233.5,1766185656.404],[123.79311,10.274578,233.60000000000002,1766185657.404],[123.793105,10.274755000000001,234.30000000000001,1766185678.404],[123.793105,10.274768,234.40000000000003,1766185679.404],[123.79309600000001,10.274856,235.30000000000001,1766185688.404],[123.793115,10.274945000000001,233.60000000000002,1766185701.404],[123.79311800000001,10.274948,233.5,1766185702.404],[123.79309600000001,10.275123000000001,229.60000000000002,1766185723.404],[123.79309499999999,10.275133,229.60000000000002,1766185724.404],[123.793091,10.275185,229.30000000000001,1766185730.404],[123.793116,10.275274,229.40000000000003,1766185740.404],[123.79311300000001,10.275304999999999,229.5,1766185748.404],[123.793111,10.275306,229.40000000000003,1766185749.404],[123.79316799999999,10.275433,228.19999999999999,1766185767.404],[123.793171,10.275466,228.60000000000002,1766185771.404],[123.793171,10.275473,228.69999999999999,1766185772.404],[123.793211,10.275581000000001,230.19999999999999,1766185786.404],[123.793245,10.27562,230.80000000000001,1766185792.404],[123.793251,10.275623,230.69999999999999,1766185793.404],[123.7933,10.275736,229.60000000000002,1766185808.404],[123.793296,10.275786,229.60000000000002,1766185814.404],[123.793295,10.275796,229.60000000000002,1766185815.404],[123.793278,10.275853,229.60000000000002,1766185820.404],[123.793283,10.275955,229.40000000000003,1766185837.404],[123.79327600000001,10.275983999999999,229.5,1766185840.404],[123.79327499999999,10.275993,229.60000000000002,1766185841.404],[123.793273,10.276083,230.10000000000002,1766185850.404],[123.79330400000001,10.276145,230.69999999999999,1766185859.404],[123.793356,10.276154999999999,231,1766185898.404],[123.793336,10.276268,231.69999999999999,1766185923.404],[123.79331500000001,10.276287999999999,231.19999999999999,1766185927.404],[123.793306,10.276294999999999,231.19999999999999,1766185928.404],[123.793255,10.276398,232,1766185938.404],[123.79325300000001,10.276426000000001,232.10000000000002,1766185941.404],[123.793256,10.276431000000001,232.10000000000002,1766185942.404],[123.79326,10.276438000000001,232.30000000000001,1766185943.404],[123.793218,10.276505999999999,233.60000000000002,1766185965.404],[123.79316799999999,10.276555999999999,233.19999999999999,1766185972.404],[123.793165,10.276565,233.10000000000002,1766185973.404],[123.79314599999999,10.276596,232.5,1766185977.404],[123.79309600000001,10.276635000000001,232.10000000000002,1766185983.404],[123.793071,10.276643,231.10000000000002,1766185986.404],[123.793043,10.276686,228.30000000000001,1766185999.404],[123.793043,10.27669,228.19999999999999,1766186000.404],[123.793021,10.276714999999999,227.5,1766186004.404],[123.792998,10.276725000000001,226.80000000000001,1766186008.404],[123.79288,10.276745999999999,228.5,1766186021.404],[123.79287600000001,10.276748,228.60000000000002,1766186022.404],[123.792888,10.276771,228.90000000000003,1766186028.404],[123.792913,10.276778,228.90000000000003,1766186032.404],[123.792913,10.276802999999999,228.5,1766186037.404],[123.792891,10.276847999999999,228.19999999999999,1766186043.404],[123.792846,10.27688,227.60000000000002,1766186048.404],[123.792841,10.276885999999999,227.5,1766186049.404],[123.79284,10.276901000000001,227.90000000000003,1766186050.404],[123.79278600000001,10.276946000000001,227.60000000000002,1766186058.404],[123.79278600000001,10.276968,227.90000000000003,1766186063.404],[123.792799,10.276991000000001,228.10000000000002,1766186066.404],[123.792793,10.277035,228,1766186072.404],[123.792778,10.277037999999999,228,1766186073.404],[123.79278100000001,10.277043000000001,227.90000000000003,1766186074.404],[123.792725,10.27712,226.69999999999999,1766186087.404],[123.79272899999999,10.277145000000001,225.80000000000001,1766186092.404],[123.79268999999999,10.277183000000001,225.30000000000001,1766186104.404],[123.79268500000001,10.277186,225.10000000000002,1766186105.404],[123.79263899999999,10.277215,224.80000000000001,1766186111.404],[123.792625,10.277236,224.69999999999999,1766186116.404],[123.79262300000001,10.277258,224.5,1766186120.404],[123.792565,10.277298,224.10000000000002,1766186127.404],[123.79255999999999,10.277305999999999,223.90000000000003,1766186128.404],[123.792529,10.277391,221.80000000000001,1766186140.404],[123.792491,10.277455,221,1766186149.404],[123.792485,10.27746,220.90000000000003,1766186150.404],[123.792446,10.277520000000001,220.10000000000002,1766186159.404],[123.792418,10.277593,219.5,1766186165.404],[123.792413,10.277604999999999,219.5,1766186166.404],[123.79234099999999,10.27769,219.5,1766186175.404],[123.79232500000001,10.277749999999999,218.5,1766186180.404],[123.79231799999999,10.277761,218.40000000000003,1766186181.404],[123.792258,10.277846,217.30000000000001,1766186194.404],[123.79219399999999,10.277893000000001,218.90000000000003,1766186202.404],[123.792188,10.277898,218.80000000000001,1766186203.404],[123.79213799999999,10.277944,218.69999999999999,1766186208.404],[123.79212800000001,10.277965,218.5,1766186210.404],[123.79213,10.278001,218.60000000000002,1766186214.404],[123.79210999999999,10.278025,219.10000000000002,1766186216.404],[123.792103,10.278033000000001,219.30000000000001,1766186217.404],[123.792095,10.278063,219.60000000000002,1766186221.404],[123.792063,10.278098,220.90000000000003,1766186228.404],[123.792056,10.278121000000001,221.5,1766186233.404],[123.792063,10.278146,221.69999999999999,1766186237.404],[123.792051,10.278173000000001,222,1766186246.404],[123.792028,10.278198,223.30000000000001,1766186252.404],[123.792023,10.278206000000001,223.5,1766186253.404],[123.792035,10.278281,223.80000000000001,1766186263.404],[123.79201999999999,10.278345,223.90000000000003,1766186270.404],[123.79200299999999,10.278373,223.90000000000003,1766186274.404],[123.792001,10.278381,223.90000000000003,1766186275.404],[123.79198100000001,10.27844,223.90000000000003,1766186282.404],[123.791963,10.278451,224,1766186284.404],[123.791928,10.278504999999999,223.90000000000003,1766186290.404],[123.791899,10.278521,224,1766186293.404],[123.791895,10.278530999999999,224.19999999999999,1766186294.404],[123.79189100000001,10.278566,224.80000000000001,1766186297.404],[123.791906,10.278623,225.19999999999999,1766186303.404],[123.791906,10.278670999999999,224.60000000000002,1766186307.404],[123.791926,10.278695000000001,224.30000000000001,1766186311.404],[123.79192999999999,10.278699,224.40000000000003,1766186312.404],[123.791951,10.27875,224.10000000000002,1766186319.404],[123.79195300000001,10.278776000000001,224.10000000000002,1766186322.404],[123.791938,10.278833000000001,223.10000000000002,1766186329.404],[123.791911,10.278846,222.5,1766186332.404],[123.791906,10.278853,222.40000000000003,1766186333.404],[123.791793,10.278945999999999,219.90000000000003,1766186345.404],[123.79177799999999,10.278950999999999,219.90000000000003,1766186346.404],[123.791668,10.279024,218.69999999999999,1766186357.404],[123.791633,10.279052999999999,218.19999999999999,1766186361.404],[123.791628,10.279068000000001,218.80000000000001,1766186362.404],[123.79162100000001,10.279071,218.90000000000003,1766186363.404],[123.791586,10.27908,219.60000000000002,1766186367.404],[123.791533,10.279116,220.90000000000003,1766186375.404],[123.791481,10.279192999999999,221.30000000000001,1766186389.404],[123.791471,10.279201,221.19999999999999,1766186390.404],[123.79144599999999,10.279246000000001,221.90000000000003,1766186394.404],[123.79143999999999,10.279316,222.40000000000003,1766186400.404],[123.79140099999999,10.279356,223.5,1766186405.404],[123.791393,10.279363,223.69999999999999,1766186406.404],[123.791296,10.279455,224.40000000000003,1766186420.404],[123.79130499999999,10.279486,225.40000000000003,1766186424.404],[123.79131099999999,10.279496,225.69999999999999,1766186425.404],[123.79137299999999,10.27955,227,1766186433.404],[123.79137900000001,10.279574999999999,227.19999999999999,1766186436.404],[123.791348,10.279643,227.19999999999999,1766186443.404],[123.79134000000001,10.279653,227.30000000000001,1766186444.404],[123.791321,10.279696,227,1766186448.404],[123.791291,10.279733999999999,227.40000000000003,1766186454.404],[123.791228,10.279779,226.90000000000003,1766186464.404],[123.791218,10.279785,226.90000000000003,1766186465.404],[123.79107999999999,10.279878,226,1766186480.404],[123.791073,10.279883,226.10000000000002,1766186481.404],[123.790955,10.279996000000001,226.30000000000001,1766186509.404],[123.790948,10.280006,226.30000000000001,1766186510.404],[123.79081499999999,10.280123,227,1766186528.404],[123.790806,10.280127999999999,227,1766186529.404],[123.790783,10.280158,227.30000000000001,1766186534.404],[123.79075400000001,10.280251,226.60000000000002,1766186544.404],[123.79074799999999,10.280310999999999,226.90000000000003,1766186549.404],[123.79074,10.28032,227.10000000000002,1766186550.404],[123.790711,10.280367999999999,229.19999999999999,1766186556.404],[123.79071500000001,10.280491,232.69999999999999,1766186569.404],[123.790716,10.280500999999999,232.80000000000001,1766186570.404],[123.790713,10.280533999999999,233.60000000000002,1766186573.404],[123.790663,10.280620000000001,235.80000000000001,1766186581.404],[123.790646,10.280668,237,1766186586.404],[123.790645,10.280675,237.10000000000002,1766186587.404],[123.79056300000001,10.280786000000001,236,1766186619.404],[123.79056,10.280813,235.69999999999999,1766186622.404],[123.790543,10.280836000000001,235.60000000000002,1766186625.404],[123.79053999999999,10.280844999999999,235.60000000000002,1766186626.404],[123.79052299999999,10.280906,235.90000000000003,1766186633.404],[123.790541,10.280920999999999,236.19999999999999,1766186644.404],[123.790558,10.28092,236.10000000000002,1766186681.404],[123.790516,10.28091,229.80000000000001,1766186682.404],[123.790543,10.280920999999999,225.40000000000003,1766186700.404],[123.79057299999999,10.280955000000001,224.19999999999999,1766186704.404],[123.79057400000001,10.280981000000001,223.30000000000001,1766186719.404],[123.790513,10.280968,214,1766186745.404],[123.79051,10.280996,213.10000000000002,1766186754.404],[123.79052299999999,10.281000000000001,213.19999999999999,1766186755.404],[123.790566,10.281018,215,1766186771.404],[123.790583,10.281038000000001,215.30000000000001,1766186774.404],[123.790583,10.281105999999999,217.30000000000001,1766186782.404],[123.790565,10.281128000000001,217.60000000000002,1766186784.404],[123.79056,10.281141,217.80000000000001,1766186785.404],[123.790543,10.281188,218.69999999999999,1766186789.404],[123.790548,10.281248,222.90000000000003,1766186799.404],[123.79051800000001,10.281300999999999,225,1766186804.404],[123.79051,10.28131,225.40000000000003,1766186805.404],[123.79047,10.28134,226.69999999999999,1766186809.404],[123.79045000000001,10.281338,227.19999999999999,1766186811.404],[123.790431,10.281352999999999,227.90000000000003,1766186813.404],[123.790413,10.281395,229.69999999999999,1766186819.404],[123.790415,10.281428,230.19999999999999,1766186822.404],[123.790413,10.28144,230.40000000000003,1766186823.404],[123.790391,10.28149,230.90000000000003,1766186827.404],[123.790401,10.281551,232,1766186834.404],[123.79038799999999,10.281601,232.80000000000001,1766186839.404],[123.79038799999999,10.281610000000001,233.10000000000002,1766186840.404],[123.790386,10.281632999999999,234.10000000000002,1766186842.404],[123.79034,10.281665,238.30000000000001,1766186849.404],[123.790301,10.281726000000001,241.30000000000001,1766186855.404],[123.790295,10.281738000000001,241.60000000000002,1766186856.404],[123.790269,10.281826000000001,244,1766186864.404],[123.790246,10.281865,244.69999999999999,1766186868.404],[123.79024800000001,10.281898,245.19999999999999,1766186872.404],[123.790246,10.281908,245.19999999999999,1766186873.404],[123.790246,10.281941,245.40000000000003,1766186877.404],[123.79026,10.281962999999999,243,1766186907.404],[123.790238,10.281995999999999,241.69999999999999,1766186908.404],[123.790209,10.282093,241.30000000000001,1766186920.404],[123.79020300000001,10.2821,241.19999999999999,1766186921.404],[123.79007,10.282192999999999,238.10000000000002,1766186936.404],[123.790053,10.282192999999999,237.90000000000003,1766186937.404],[123.789996,10.282188,237.40000000000003,1766186941.404],[123.789978,10.282223,236.80000000000001,1766186944.404],[123.78995500000001,10.282235999999999,235.80000000000001,1766186948.404],[123.78993,10.282233,235.40000000000003,1766186952.404],[123.789908,10.282249999999999,235.10000000000002,1766186962.404],[123.7899,10.282256,234.90000000000003,1766186963.404],[123.789835,10.282287999999999,234.80000000000001,1766186970.404],[123.78980300000001,10.282323,233.90000000000003,1766186977.404],[123.789751,10.282346,232.60000000000002,1766186983.404],[123.78973999999999,10.282349999999999,232.60000000000002,1766186984.404],[123.789716,10.282368999999999,232.5,1766186988.404],[123.789745,10.282373,229,1766187008.404],[123.78962300000001,10.282446,226.19999999999999,1766187027.404],[123.789614,10.282451,226.10000000000002,1766187028.404],[123.78958299999999,10.282458,226,1766187033.404],[123.789553,10.282481000000001,225.60000000000002,1766187037.404],[123.78945899999999,10.28251,225.60000000000002,1766187046.404],[123.789456,10.282513,225.5,1766187047.404],[123.78945899999999,10.282539999999999,224.60000000000002,1766187063.404],[123.78940299999999,10.282527999999999,224.30000000000001,1766187066.404],[123.789361,10.282548,223.90000000000003,1766187072.404],[123.789348,10.282565,223.5,1766187075.404],[123.78932,10.282571000000001,222.90000000000003,1766187078.404],[123.789309,10.282575,222.69999999999999,1766187079.404],[123.789261,10.282590000000001,221.80000000000001,1766187084.404],[123.78916599999999,10.28267,220.60000000000002,1766187096.404],[123.789158,10.282671000000001,220.5,1766187097.404],[123.789091,10.282705999999999,220.60000000000002,1766187106.404],[123.78908,10.282728000000001,220,1766187109.404],[123.789006,10.282750999999999,218.40000000000003,1766187119.404],[123.78899800000001,10.282755999999999,218.30000000000001,1766187120.404],[123.788938,10.282805,217.90000000000003,1766187128.404],[123.788875,10.28284,217.30000000000001,1766187135.404],[123.788859,10.282866,217.10000000000002,1766187139.404],[123.788858,10.282871,217,1766187140.404],[123.78882,10.2829,216.90000000000003,1766187145.404],[123.788746,10.282933,216.10000000000002,1766187151.404],[123.788718,10.282963000000001,215.10000000000002,1766187154.404],[123.78870999999999,10.282971,214.90000000000003,1766187155.404],[123.788668,10.283008000000001,215.19999999999999,1766187160.404],[123.78862100000001,10.283030999999999,216.19999999999999,1766187168.404],[123.788635,10.283015000000001,216.10000000000002,1766187175.404],[123.78868300000001,10.283008000000001,215.69999999999999,1766187263.404],[123.788684,10.283001000000001,215.69999999999999,1766187264.404],[123.788691,10.282996000000001,215.69999999999999,1766187265.404],[123.788678,10.283004999999999,215.19999999999999,1766187297.404],[123.78870000000001,10.283035,215,1766187308.404],[123.788658,10.283026,216.5,1766187356.404],[123.78864,10.283042999999999,217.10000000000002,1766187362.404],[123.788616,10.283035,216.90000000000003,1766187377.404],[123.788616,10.282992999999999,217.30000000000001,1766187378.404],[123.78862100000001,10.282985,217.19999999999999,1766187379.404],[123.788623,10.282973,217.19999999999999,1766187380.404],[123.788601,10.282988,217.10000000000002,1766187389.404],[123.78867099999999,10.283035999999999,218.30000000000001,1766187434.404],[123.788613,10.283086000000001,218.10000000000002,1766187439.404],[123.788605,10.283098000000001,218.10000000000002,1766187440.404],[123.788578,10.283141000000001,217.90000000000003,1766187445.404],[123.78856399999999,10.283087999999999,217.40000000000003,1766187471.404],[123.788594,10.283037999999999,217.40000000000003,1766187476.404],[123.78860299999999,10.28303,217.40000000000003,1766187477.404],[123.788645,10.282980999999999,216.69999999999999,1766187482.404],[123.78863,10.28299,216.5,1766187518.404],[123.788641,10.283046000000001,218.5,1766187519.404],[123.788591,10.283099999999999,218.69999999999999,1766187526.404],[123.788583,10.283109,218.69999999999999,1766187527.404],[123.788528,10.283189999999999,218.60000000000002,1766187536.404],[123.788495,10.28326,218.10000000000002,1766187544.404],[123.788483,10.283268,218,1766187545.404],[123.78845099999999,10.283286,217.40000000000003,1766187550.404],[123.788428,10.283326000000001,216.60000000000002,1766187554.404],[123.788365,10.283393,215.40000000000003,1766187562.404],[123.78836,10.283398,215.30000000000001,1766187563.404],[123.78834999999999,10.283424999999999,214.40000000000003,1766187576.404],[123.788303,10.283483,213.40000000000003,1766187584.404],[123.788281,10.283478000000001,213,1766187588.404],[123.788273,10.283466000000001,213.19999999999999,1766187653.404],[123.788298,10.283467999999999,215.90000000000003,1766187693.404],[123.788276,10.283486,212.30000000000001,1766187694.404],[123.78828,10.283488,212.30000000000001,1766187695.404],[123.78822599999999,10.283511000000001,211,1766187707.404],[123.78817600000001,10.283550999999999,209.40000000000003,1766187714.404],[123.788155,10.283583,210.19999999999999,1766187717.404],[123.788144,10.283590999999999,210.30000000000001,1766187718.404],[123.788078,10.283628,210.40000000000003,1766187724.404],[123.788054,10.283670000000001,212,1766187733.404],[123.788045,10.283713000000001,213.10000000000002,1766187738.404],[123.788038,10.283719,213.40000000000003,1766187739.404],[123.787953,10.283763,216.90000000000003,1766187765.404],[123.787943,10.283818999999999,217.60000000000002,1766187797.404],[123.78791,10.283835,217.80000000000001,1766187799.404],[123.787908,10.283841000000001,217.90000000000003,1766187800.404],[123.78793400000001,10.28384,218,1766187805.404],[123.78794499999999,10.283885,218.40000000000003,1766187813.404],[123.787943,10.28392,218.5,1766187817.404],[123.787925,10.28397,219.40000000000003,1766187823.404],[123.78792300000001,10.283975999999999,219.60000000000002,1766187824.404],[123.787925,10.284036,220.60000000000002,1766187833.404],[123.78789999999999,10.284101,223.90000000000003,1766187850.404],[123.78792300000001,10.284155,225.10000000000002,1766187859.404],[123.787921,10.284165,225.10000000000002,1766187860.404],[123.78789999999999,10.284269999999999,225.69999999999999,1766187877.404],[123.78788299999999,10.28429,225.90000000000003,1766187880.404],[123.787886,10.284312999999999,225.90000000000003,1766187884.404],[123.787876,10.284341,225.60000000000002,1766187887.404],[123.787874,10.284356000000001,225.69999999999999,1766187888.404],[123.787843,10.284525,228.80000000000001,1766187914.404],[123.787841,10.284528,228.80000000000001,1766187915.404],[123.78784400000001,10.284538,227.80000000000001,1766188091.404],[123.78789399999999,10.284547999999999,231.19999999999999,1766188092.404],[123.78789399999999,10.28457,231.10000000000002,1766188095.404],[123.787843,10.284653,230.10000000000002,1766188104.404],[123.787841,10.284658,229.90000000000003,1766188105.404],[123.787825,10.284708,229.5,1766188112.404],[123.787798,10.284738000000001,228.19999999999999,1766188124.404],[123.787796,10.284765,225.10000000000002,1766188146.404],[123.787818,10.284776000000001,225.19999999999999,1766188150.404],[123.787791,10.284772999999999,226.60000000000002,1766188194.404],[123.78778800000001,10.28478,226.60000000000002,1766188195.404],[123.787784,10.284777999999999,226.80000000000001,1766188196.404],[123.78775400000001,10.284810999999999,227.10000000000002,1766188220.404],[123.787761,10.284834999999999,226.80000000000001,1766188222.404],[123.787751,10.284858,226.60000000000002,1766188229.404],[123.78775400000001,10.284879999999999,226,1766188233.404],[123.787775,10.284896,225.40000000000003,1766188240.404],[123.787784,10.284926,226,1766188245.404],[123.787783,10.284931,226,1766188246.404],[123.78774900000001,10.284948,226.10000000000002,1766188256.404],[123.78770799999999,10.28491,234.10000000000002,1766188312.404],[123.787736,10.284926,235.10000000000002,1766188321.404],[123.787738,10.284938,235.40000000000003,1766188322.404],[123.78774,10.284948,235.40000000000003,1766188323.404],[123.787738,10.284955,235.60000000000002,1766188324.404],[123.78771399999999,10.284955,235.69999999999999,1766188328.404],[123.787696,10.284940000000001,235.90000000000003,1766188333.404],[123.787718,10.284926,236.90000000000003,1766188343.404],[123.78774300000001,10.284931,239.69999999999999,1766188389.404],[123.787775,10.284993,240,1766188393.404],[123.787779,10.285005999999999,240.10000000000002,1766188394.404],[123.787811,10.285100999999999,240.69999999999999,1766188401.404],[123.787783,10.285145999999999,241,1766188405.404],[123.78777599999999,10.285155,241.10000000000002,1766188406.404],[123.787738,10.285238,241.69999999999999,1766188415.404],[123.78772600000001,10.285304999999999,242.5,1766188422.404],[123.787728,10.285315000000001,242.60000000000002,1766188423.404],[123.787733,10.285318,242.90000000000003,1766188424.404],[123.787685,10.285354999999999,245.10000000000002,1766188462.404],[123.7877,10.285375999999999,244.30000000000001,1766188463.404],[123.787711,10.285455000000001,243.80000000000001,1766188472.404],[123.787711,10.285463,243.80000000000001,1766188473.404],[123.787746,10.285550000000001,243.80000000000001,1766188483.404],[123.787751,10.285622999999999,243.90000000000003,1766188495.404],[123.787753,10.285625,243.90000000000003,1766188496.404],[123.78773,10.285617999999999,244.60000000000002,1766188504.404],[123.787706,10.285631,246.30000000000001,1766188515.404],[123.787691,10.285667999999999,247.19999999999999,1766188520.404],[123.787688,10.285734,248.30000000000001,1766188525.404],[123.787685,10.285746,248.40000000000003,1766188526.404],[123.787673,10.285778000000001,248.30000000000001,1766188529.404],[123.787615,10.285848,248.30000000000001,1766188537.404],[123.78758999999999,10.285898,247.5,1766188543.404],[123.787586,10.285902999999999,247.30000000000001,1766188544.404],[123.787503,10.285936,245.69999999999999,1766188553.404],[123.787436,10.285976,244.19999999999999,1766188560.404],[123.78743,10.285981,244,1766188561.404],[123.787329,10.286047999999999,242.80000000000001,1766188576.404],[123.787288,10.286028,243.69999999999999,1766188579.404],[123.787271,10.286020000000001,243.90000000000003,1766188580.404],[123.78719599999999,10.286001000000001,245.60000000000002,1766188585.404],[123.787133,10.286004999999999,248.5,1766188591.404],[123.78711,10.285983,251,1766188599.404],[123.787115,10.285976,251.40000000000003,1766188600.404],[123.78708,10.285943,253.30000000000001,1766188609.404],[123.786976,10.28593,257.10000000000002,1766188625.404],[123.786975,10.285907999999999,260.60000000000002,1766188652.404],[123.787003,10.285918000000001,260.5,1766188653.404],[123.78701,10.285920000000001,260.39999999999998,1766188654.404],[123.787053,10.285938,259.89999999999998,1766188659.404],[123.787075,10.285924,260.10000000000002,1766188699.404],[123.78717,10.285914999999999,255.30000000000001,1766188700.404],[123.787188,10.2859,255,1766188715.404],[123.787181,10.285836,256.30000000000001,1766188734.404],[123.78708899999999,10.285825000000001,258.80000000000001,1766188735.404],[123.78708,10.285825000000001,259,1766188736.404],[123.787048,10.285828,259.39999999999998,1766188748.404],[123.787075,10.285893,260.39999999999998,1766188762.404],[123.78709600000001,10.285907999999999,260.89999999999998,1766188773.404],[123.78712299999999,10.285902999999999,260.5,1766188779.404],[123.78713,10.285909999999999,260.60000000000002,1766188780.404],[123.787128,10.285918000000001,260.69999999999999,1766188781.404],[123.787076,10.285945999999999,260.60000000000002,1766188792.404],[123.78698,10.285914999999999,260.5,1766188799.404],[123.786968,10.285913000000001,260.5,1766188800.404],[123.78687600000001,10.285876,263.80000000000001,1766188860.404],[123.786996,10.285852999999999,264.5,1766188900.404],[123.78700499999999,10.285855,264.5,1766188901.404],[123.787059,10.285875000000001,263.60000000000002,1766188908.404],[123.78710599999999,10.285923,263.69999999999999,1766188914.404],[123.78711699999999,10.28595,262,1766188924.404],[123.787086,10.28595,261.69999999999999,1766188929.404],[123.787068,10.285947999999999,261.5,1766188930.404],[123.787013,10.285936,261.5,1766188933.404],[123.786933,10.285895,262.30000000000001,1766188940.404],[123.78689799999999,10.285886,262.69999999999999,1766188944.404],[123.786888,10.285883,262.69999999999999,1766188945.404],[123.786795,10.285852999999999,262.5,1766188953.404],[123.78677999999999,10.285857999999999,260.80000000000001,1766188972.404],[123.786873,10.285823000000001,264.30000000000001,1766188976.404],[123.786883,10.285819999999999,264.69999999999999,1766188977.404],[123.786935,10.285828,265.69999999999999,1766188981.404],[123.787029,10.285871,266.89999999999998,1766188989.404],[123.78704,10.285883,267.10000000000002,1766188990.404],[123.78707,10.285907999999999,267.60000000000002,1766188993.404],[123.78711,10.285985999999999,272.10000000000002,1766189002.404],[123.787111,10.286047999999999,276.80000000000001,1766189018.404],[123.787111,10.286058000000001,277,1766189019.404],[123.78711,10.286091000000001,277.89999999999998,1766189023.404],[123.787083,10.286125999999999,278.89999999999998,1766189065.404],[123.787081,10.285996000000001,281.39999999999998,1766189074.404],[123.78708,10.285976,281.19999999999999,1766189075.404],[123.78704999999999,10.285888,280,1766189080.404],[123.787026,10.285857,279,1766189096.404],[123.786998,10.285883,277.5,1766189111.404],[123.786993,10.285881,277.5,1766189112.404],[123.787018,10.285845999999999,278.10000000000002,1766189126.404],[123.787055,10.285878,277.80000000000001,1766189128.404],[123.78702800000001,10.285875000000001,278.30000000000001,1766189135.404],[123.787013,10.28584,279.39999999999998,1766189284.404],[123.787015,10.285875000000001,279.10000000000002,1766189285.404],[123.787021,10.285875000000001,279.19999999999999,1766189286.404],[123.787076,10.285933,279.5,1766189292.404],[123.787108,10.285995,279.60000000000002,1766189300.404],[123.78711,10.286006,279.5,1766189301.404],[123.78712299999999,10.286099999999999,280.30000000000001,1766189312.404],[123.78711,10.286168,282,1766189337.404],[123.787093,10.28618,282.30000000000001,1766189338.404],[123.787091,10.286185,282.60000000000002,1766189339.404],[123.78708899999999,10.286241,285.69999999999999,1766189350.404],[123.787126,10.286275,288.10000000000002,1766189358.404],[123.78713500000001,10.286348,290.19999999999999,1766189366.404],[123.787133,10.286353,290.39999999999998,1766189367.404],[123.78713,10.286365,290.39999999999998,1766189368.404],[123.78717399999999,10.286358,291.89999999999998,1766189386.404],[123.787155,10.286372999999999,293.5,1766189396.404],[123.787093,10.286376000000001,296.5,1766189420.404],[123.787116,10.286428000000001,297.60000000000002,1766189422.404],[123.787116,10.286429999999999,297.60000000000002,1766189423.404],[123.787126,10.286483,297.69999999999999,1766189432.404],[123.787145,10.286498,298.10000000000002,1766189443.404],[123.78714600000001,10.286523000000001,298.19999999999999,1766189445.404],[123.787128,10.286571,298.69999999999999,1766189452.404],[123.787103,10.286588999999999,299.30000000000001,1766189457.404],[123.78709600000001,10.286585000000001,299.39999999999998,1766189458.404],[123.787049,10.286581999999999,299,1766189489.404],[123.787003,10.286605,299,1766189521.404],[123.787021,10.286574999999999,299.5,1766189537.404],[123.787041,10.286595999999999,299.39999999999998,1766189555.404],[123.787043,10.286595,299.5,1766189556.404],[123.787038,10.286595,299.69999999999999,1766189560.404],[123.786833,10.285811000000001,278.89999999999998,1766189561.404],[123.78678499999999,10.285793,278.69999999999999,1766189570.404],[123.786776,10.285791,278.69999999999999,1766189571.404],[123.786721,10.285785000000001,279.39999999999998,1766189578.404],[123.78667299999999,10.285795999999999,280.5,1766189586.404],[123.786601,10.285786,281.39999999999998,1766189595.404],[123.786593,10.285793,281.60000000000002,1766189596.404],[123.786581,10.2858,281.80000000000001,1766189597.404],[123.786556,10.285788999999999,281.60000000000002,1766189604.404],[123.786553,10.285814999999999,280.5,1766189612.404],[123.78653300000001,10.285828,280,1766189617.404],[123.786485,10.285845,279.5,1766189628.404],[123.786423,10.28585,279.89999999999998,1766189637.404],[123.786413,10.285850999999999,280.10000000000002,1766189638.404],[123.786383,10.285855,281.10000000000002,1766189644.404],[123.786366,10.285875000000001,281.39999999999998,1766189648.404],[123.78624499999999,10.285868000000001,278.89999999999998,1766189666.404],[123.786231,10.285863000000001,278.5,1766189667.404],[123.78614899999999,10.285833,274.80000000000001,1766189675.404],[123.786131,10.28584,273.69999999999999,1766189677.404],[123.78609299999999,10.285812999999999,272.39999999999998,1766189680.404],[123.786078,10.285807999999999,272.10000000000002,1766189681.404],[123.786045,10.2858,271.60000000000002,1766189684.404],[123.78603,10.285776,270.69999999999999,1766189686.404],[123.785951,10.285736,267,1766189694.404],[123.785945,10.285733,266.5,1766189695.404],[123.785873,10.285674999999999,261,1766189707.404],[123.78582900000001,10.285667999999999,259.10000000000002,1766189713.404],[123.78581,10.285641,258.10000000000002,1766189718.404],[123.785805,10.285633000000001,258.10000000000002,1766189719.404],[123.785813,10.285651,256.80000000000001,1766189728.404],[123.78587899999999,10.285703,255.40000000000003,1766189734.404],[123.785888,10.285733,255.40000000000003,1766189738.404],[123.785873,10.285738,255.60000000000002,1766189739.404],[123.78584600000001,10.285761000000001,256.60000000000002,1766189743.404],[123.785833,10.285741,256.19999999999999,1766189750.404],[123.78581800000001,10.285615999999999,256.89999999999998,1766189765.404],[123.785811,10.285613,257,1766189766.404],[123.785781,10.28557,258.89999999999998,1766189774.404],[123.785785,10.285520999999999,260.30000000000001,1766189782.404],[123.785775,10.285475999999999,260.89999999999998,1766189787.404],[123.785743,10.285455000000001,261.30000000000001,1766189792.404],[123.78573,10.285451,261.5,1766189793.404],[123.785676,10.285439999999999,262.30000000000001,1766189798.404],[123.78557499999999,10.285368,262.80000000000001,1766189811.404],[123.785563,10.285365000000001,263,1766189812.404],[123.785453,10.285313,263.69999999999999,1766189823.404],[123.785438,10.285291000000001,263.69999999999999,1766189826.404],[123.785421,10.285292999999999,263.60000000000002,1766189829.404],[123.785411,10.285283,263.69999999999999,1766189830.404],[123.785403,10.285275,263.69999999999999,1766189831.404],[123.78534399999999,10.285171,263.89999999999998,1766189844.404],[123.78531,10.285130000000001,264.60000000000002,1766189852.404],[123.785301,10.285131,264.69999999999999,1766189853.404],[123.785241,10.285131,265.39999999999998,1766189865.404],[123.785196,10.285159999999999,265.60000000000002,1766189871.404],[123.78517100000001,10.285155,265.60000000000002,1766189872.404],[123.785156,10.285169,264.39999999999998,1766189876.404],[123.785156,10.285185,263.89999999999998,1766189877.404],[123.78515,10.285188,263.80000000000001,1766189878.404],[123.785115,10.285193,263.30000000000001,1766189882.404],[123.785085,10.285164999999999,262,1766189890.404],[123.785006,10.285138,262.19999999999999,1766189895.404],[123.784989,10.285135,262,1766189896.404],[123.784931,10.285164,257,1766189908.404],[123.78481600000001,10.285148,249,1766189926.404],[123.78480399999999,10.285145999999999,248.69999999999999,1766189927.404],[123.784733,10.285100999999999,247.80000000000001,1766189936.404],[123.784629,10.285093,243.30000000000001,1766189948.404],[123.78461900000001,10.285086,242.80000000000001,1766189949.404],[123.78452900000001,10.285033,239.90000000000003,1766189957.404],[123.784468,10.285028000000001,235.69999999999999,1766189966.404],[123.784463,10.285031,235.30000000000001,1766189967.404],[123.784431,10.285069999999999,233.90000000000003,1766189973.404],[123.78441100000001,10.285079,233.40000000000003,1766189976.404],[123.784335,10.285093,234.5,1766189989.404],[123.784313,10.285076,234.60000000000002,1766189991.404],[123.784296,10.285064999999999,234.69999999999999,1766189992.404],[123.784221,10.285019999999999,235.40000000000003,1766189998.404],[123.784156,10.285003,236.60000000000002,1766190003.404],[123.78414100000001,10.285,236.80000000000001,1766190004.404],[123.784075,10.284985000000001,238.5,1766190010.404],[123.784021,10.284926,240.40000000000003,1766190016.404],[123.78400999999999,10.284917999999999,240.60000000000002,1766190017.404],[123.78398300000001,10.284903,241.30000000000001,1766190020.404],[123.78393800000001,10.284843,241.69999999999999,1766190026.404],[123.78394299999999,10.284818,242.5,1766190031.404],[123.783934,10.284765,244,1766190039.404],[123.783923,10.28476,244.10000000000002,1766190040.404],[123.783895,10.284735,244.40000000000003,1766190044.404],[123.78386999999999,10.284689999999999,246.19999999999999,1766190049.404],[123.783855,10.284598000000001,248,1766190060.404],[123.783856,10.284596000000001,248,1766190061.404],[123.78387499999999,10.284573999999999,248.30000000000001,1766190066.404],[123.78389900000001,10.284578,247.69999999999999,1766190069.404],[123.783925,10.284563,248,1766190076.404],[123.783906,10.28454,248.19999999999999,1766190080.404],[123.783925,10.284523,248.5,1766190086.404],[123.783931,10.284488,246.10000000000002,1766190090.404],[123.783928,10.284481,245.19999999999999,1766190091.404],[123.78393,10.284446000000001,242.40000000000003,1766190094.404],[123.783963,10.284420000000001,238,1766190101.404],[123.784024,10.284401000000001,236.60000000000002,1766190107.404],[123.78404,10.284376,236.80000000000001,1766190110.404],[123.784048,10.284368000000001,236.60000000000002,1766190111.404],[123.784088,10.284348,237.19999999999999,1766190116.404],[123.784148,10.284278,237.10000000000002,1766190128.404],[123.784136,10.284246,235.60000000000002,1766190132.404],[123.784131,10.284236,235.40000000000003,1766190133.404],[123.78411,10.284181,232.69999999999999,1766190144.404],[123.78413,10.284143,231.40000000000003,1766190150.404],[123.784126,10.284115999999999,230.5,1766190153.404],[123.78415800000001,10.284071000000001,228.90000000000003,1766190166.404],[123.78415800000001,10.284063,228.90000000000003,1766190167.404],[123.784173,10.284038000000001,230.19999999999999,1766190175.404],[123.784171,10.283953,231.40000000000003,1766190187.404],[123.784138,10.283909,230.60000000000002,1766190201.404],[123.784138,10.283908,230.5,1766190202.404],[123.784165,10.283905000000001,230.40000000000003,1766190209.404],[123.784183,10.283886000000001,230.10000000000002,1766190212.404],[123.78418000000001,10.283842999999999,230.10000000000002,1766190218.404],[123.78419100000001,10.283825,230,1766190222.404],[123.78422,10.283825999999999,230.10000000000002,1766190225.404],[123.784228,10.283825,230.19999999999999,1766190226.404],[123.78428,10.283798000000001,230.60000000000002,1766190233.404],[123.784285,10.283776,230.60000000000002,1766190236.404],[123.78428099999999,10.283758000000001,230.80000000000001,1766190238.404],[123.784266,10.283745,230.5,1766190241.404],[123.784235,10.283721,230.80000000000001,1766190246.404],[123.784221,10.283721,231,1766190247.404],[123.784215,10.283719,231.19999999999999,1766190248.404],[123.78416,10.283704999999999,233.80000000000001,1766190259.404],[123.784148,10.283683,234.69999999999999,1766190263.404],[123.784153,10.283658000000001,236.19999999999999,1766190267.404],[123.78418000000001,10.283618000000001,239.19999999999999,1766190278.404],[123.784166,10.28359,240.30000000000001,1766190282.404],[123.78415800000001,10.283580000000001,240.40000000000003,1766190283.404],[123.78414600000001,10.283521,241.40000000000003,1766190289.404],[123.784166,10.283458,245.30000000000001,1766190302.404],[123.78415800000001,10.283393,248.10000000000002,1766190309.404],[123.784156,10.283376000000001,248.40000000000003,1766190310.404],[123.78411800000001,10.283226000000001,253.69999999999999,1766190326.404],[123.784113,10.28322,253.80000000000001,1766190327.404],[123.78409000000001,10.283203,254.10000000000002,1766190332.404],[123.784041,10.283191,253.80000000000001,1766190337.404],[123.784001,10.283160000000001,256,1766190346.404],[123.783948,10.283137999999999,257.69999999999999,1766190350.404],[123.78394,10.283136000000001,257.89999999999998,1766190351.404],[123.783933,10.283116,259,1766190370.404],[123.783951,10.283175999999999,257.19999999999999,1766190371.404],[123.783931,10.283243000000001,255.69999999999999,1766190380.404],[123.783978,10.283255,252.90000000000003,1766190393.404],[123.783985,10.283251,252.5,1766190394.404],[123.78396100000001,10.283141000000001,249,1766190408.404],[123.784003,10.283099999999999,249,1766190415.404],[123.784013,10.283091000000001,248.80000000000001,1766190416.404],[123.784036,10.283071,248.5,1766190418.404],[123.784068,10.283016,247.90000000000003,1766190422.404],[123.78410599999999,10.282985,247.69999999999999,1766190427.404],[123.784113,10.282976,247.5,1766190428.404],[123.784176,10.282926,247.19999999999999,1766190434.404],[123.784193,10.282883,246.10000000000002,1766190445.404],[123.784246,10.282890999999999,246.69999999999999,1766190454.404],[123.78425900000001,10.282893,246.69999999999999,1766190455.404],[123.78434900000001,10.282893,248.19999999999999,1766190461.404],[123.784426,10.282870000000001,250.19999999999999,1766190468.404],[123.78443900000001,10.282868000000001,250.40000000000003,1766190469.404],[123.78447,10.282863000000001,251.40000000000003,1766190472.404],[123.784513,10.282874,251.60000000000002,1766190479.404],[123.784531,10.282864999999999,250.19999999999999,1766190490.404],[123.78457299999999,10.282795,252.80000000000001,1766190504.404],[123.78456300000001,10.282788,252.90000000000003,1766190505.404],[123.78455,10.282788,253.10000000000002,1766190506.404],[123.78453399999999,10.282766000000001,253.80000000000001,1766190508.404],[123.78452299999999,10.282717999999999,254.60000000000002,1766190512.404],[123.784508,10.282700999999999,254.80000000000001,1766190514.404],[123.784448,10.282674999999999,256.30000000000001,1766190519.404],[123.78443799999999,10.282674999999999,256.39999999999998,1766190520.404],[123.78438300000001,10.282658,256.89999999999998,1766190524.404],[123.784356,10.282626,258.10000000000002,1766190527.404],[123.78434300000001,10.282584999999999,259.5,1766190530.404],[123.78434300000001,10.282571000000001,259.89999999999998,1766190531.404],[123.784311,10.282503,262.30000000000001,1766190542.404],[123.78431500000001,10.282476000000001,263.89999999999998,1766190546.404],[123.784301,10.282453,264.69999999999999,1766190550.404],[123.784246,10.282443000000001,264.60000000000002,1766190553.404],[123.784243,10.282436000000001,265.10000000000002,1766190554.404],[123.784221,10.282413,266.19999999999999,1766190558.404],[123.784181,10.282413999999999,266.30000000000001,1766190560.404],[123.78414100000001,10.282394999999999,266.80000000000001,1766190563.404],[123.784108,10.282393000000001,266.69999999999999,1766190565.404],[123.784103,10.282387999999999,267,1766190566.404],[123.78404500000001,10.282387999999999,265.39999999999998,1766190581.404],[123.783923,10.282413999999999,264.5,1766190589.404],[123.783908,10.282413999999999,264.5,1766190590.404],[123.78382000000001,10.282373,264.39999999999998,1766190597.404],[123.783805,10.282333,264.19999999999999,1766190600.404],[123.783805,10.282321,264.30000000000001,1766190601.404],[123.78379,10.282298000000001,264.80000000000001,1766190604.404],[123.78380300000001,10.282223,266,1766190612.404],[123.78378600000001,10.282173,266.60000000000002,1766190617.404],[123.783783,10.282166,266.5,1766190618.404],[123.783726,10.282135,267.89999999999998,1766190624.404],[123.783691,10.282085,268.5,1766190630.404],[123.78366,10.282080000000001,269.5,1766190634.404],[123.783658,10.282074,269.69999999999999,1766190635.404],[123.783648,10.28205,270.19999999999999,1766190638.404],[123.783681,10.282033,269.89999999999998,1766190639.404],[123.783691,10.281995,270.10000000000002,1766190641.404],[123.78369000000001,10.281971,270.39999999999998,1766190643.404],[123.783661,10.281921000000001,270.89999999999998,1766190651.404],[123.783655,10.281916000000001,271,1766190652.404],[123.78357800000001,10.281801,272.69999999999999,1766190663.404],[123.783574,10.281783000000001,272.80000000000001,1766190664.404],[123.783591,10.281700000000001,272,1766190671.404],[123.783625,10.281681000000001,271.69999999999999,1766190673.404],[123.78357800000001,10.281644999999999,272.30000000000001,1766190682.404],[123.783574,10.281641,272.39999999999998,1766190683.404],[123.783449,10.281561,272.69999999999999,1766190695.404],[123.783438,10.281556,272.60000000000002,1766190696.404],[123.7834,10.281533,272.39999999999998,1766190699.404],[123.783383,10.281504999999999,272.30000000000001,1766190701.404],[123.783328,10.281459999999999,272,1766190706.404],[123.78331300000001,10.281447999999999,271.80000000000001,1766190707.404],[123.783221,10.281396000000001,271.19999999999999,1766190713.404],[123.783186,10.281347999999999,270.39999999999998,1766190717.404],[123.783175,10.281336,270.10000000000002,1766190718.404],[123.783078,10.281288,269,1766190727.404],[123.783034,10.281285,269.19999999999999,1766190731.404],[123.78300400000001,10.281293,268.89999999999998,1766190734.404],[123.782996,10.281293,268.69999999999999,1766190735.404],[123.78296899999999,10.281276,268.60000000000002,1766190740.404],[123.78296899999999,10.281250999999999,268.30000000000001,1766190744.404],[123.782901,10.281155999999999,268,1766190756.404],[123.782903,10.281146,267.80000000000001,1766190757.404],[123.782865,10.281045000000001,268.80000000000001,1766190768.404],[123.782888,10.281001,269.80000000000001,1766190774.404],[123.782866,10.280972999999999,269.80000000000001,1766190776.404],[123.782865,10.28096,269.89999999999998,1766190777.404],[123.782836,10.280889999999999,270,1766190784.404],[123.78288499999999,10.280806,268.60000000000002,1766190793.404],[123.78289599999999,10.280796,268.39999999999998,1766190794.404],[123.78296,10.280766,268.10000000000002,1766190802.404],[123.783001,10.280759,267.5,1766190806.404],[123.783055,10.280728,266.5,1766190814.404],[123.783055,10.280721,266.39999999999998,1766190815.404],[123.783046,10.28069,266.69999999999999,1766190819.404],[123.78307599999999,10.28063,266,1766190827.404],[123.783086,10.280545999999999,264.89999999999998,1766190834.404],[123.783083,10.280533,264.69999999999999,1766190835.404],[123.78309299999999,10.280367999999999,262.19999999999999,1766190851.404],[123.783101,10.280355999999999,262.19999999999999,1766190852.404],[123.783131,10.280306,261.89999999999998,1766190857.404],[123.783126,10.280288000000001,262.10000000000002,1766190858.404]]]}}]}
