{"type":"FeatureCollection","features":[{"type":"Feature","id":"5f7e05f2-d3f4-4bb2-bcd4-33694abd566b","properties":{"id":"5f7e05f2-d3f4-4bb2-bcd4-33694abd566b","updated_date":"2026-04-30T06:40:14Z","time_created":"2026-04-28T22:19:50Z","last_updated_on_server":"2026-04-30T06:40:14.798639","db_insert_date":"2026-04-30T06:39:55Z","deleted":false,"title":"April 29, 2026 at 11:55\u202fAM","public":false,"color":"#000000","hexcolor":"#000000","is_active":true,"revision":1777531214,"notes":"","track_type":"track","routing_mode":null,"uploaded_gpx_to_osm":null,"flag":null,"source":null,"cover_photo_id":null,"distance":10627.321787968167,"total_ascent":337.16666666666663,"total_descent":326.33333333333331,"stopped_time":3422,"total_time":17702,"average_speed":0.60034582465078334,"moving_time":14280,"moving_speed":0.7442102092414683,"activities":[],"imported":true,"folder":"5846eda4-747f-4498-a291-2d262ecd3479","privacy_level":null,"sync_to_mobile":null,"preferred_link":"/public/MOUEsxDuIxlzmttt8z3e2mx9","favorite_count":0,"comment_count":0,"comments":[],"user_photo_count":0,"latitude":10.31473872814453,"longitude":123.76751976854086,"writable":false},"style":{"stroke":"#000000"},"geometry":{"type":"MultiLineString","coordinates":[[[123.77887,10.322329,493,1777414790],[123.77856,10.32225,488,1777414795],[123.77848,10.322298,482,1777414816],[123.77837,10.322323000000001,475,1777414826],[123.7783,10.322381,473,1777414833],[123.77821,10.322425000000001,476,1777414841],[123.77811,10.322473,475,1777414848],[123.77800999999999,10.322525000000001,471,1777414858],[123.77793,10.322590999999999,469,1777414867],[123.77784,10.322646000000001,470,1777414876],[123.77775,10.322683,471,1777414883],[123.77764999999999,10.322685999999999,469,1777414893],[123.77755999999999,10.322723,471,1777414899],[123.77746999999999,10.322723999999999,470,1777414906],[123.77737,10.32274,469,1777414916],[123.77728,10.322718999999999,469,1777414922],[123.77721,10.322657,468,1777414930],[123.77710999999999,10.322609,473,1777414937],[123.77704,10.322549,477,1777414947],[123.77697000000001,10.322464,476,1777414955],[123.7769,10.322397,477,1777414963],[123.77683,10.322319,475,1777414973],[123.77676,10.322244,474,1777414981],[123.77672,10.32216,475,1777414987],[123.77667,10.322074000000001,475,1777414996],[123.77661000000001,10.322001,474,1777415003],[123.77656,10.321927000000001,475,1777415010],[123.77651,10.321835,475,1777415021],[123.77647,10.321747999999999,473,1777415030],[123.77643,10.321664999999999,474,1777415040],[123.77639000000001,10.321579,475,1777415047],[123.77630000000001,10.321536,477,1777415057],[123.77625,10.321619999999999,476,1777415068],[123.77625,10.321719999999999,474,1777415078],[123.77623,10.321818,473,1777415087],[123.77621000000001,10.321906,470,1777415096],[123.77615,10.32198,468,1777415107],[123.77607999999999,10.322043000000001,466,1777415116],[123.77602,10.322120999999999,464,1777415124],[123.77598,10.322213,460,1777415134],[123.77592,10.322296,457,1777415143],[123.77585999999999,10.322371,457,1777415152],[123.7758,10.32246,457,1777415162],[123.77581000000001,10.322573,459,1777415174],[123.77583,10.322663,462,1777415183],[123.77585000000001,10.322749999999999,463,1777415191],[123.77589999999999,10.322850000000001,464,1777415200],[123.77592,10.322948999999999,461,1777415209],[123.77594999999999,10.323043,461,1777415222],[123.77589,10.323115,458,1777415341],[123.77581000000001,10.323274,457,1777415358],[123.77576999999999,10.323368,457,1777415367],[123.7757,10.32343,457,1777415377],[123.77562,10.323489,459,1777415388],[123.77555,10.323549,461,1777415394],[123.77549,10.323632999999999,456,1777415417],[123.7754,10.323672,458,1777415428],[123.77531,10.323708,456,1777415438],[123.77521,10.323722999999999,457,1777415449],[123.77512,10.323758,455,1777415456],[123.77504,10.323699,454,1777415469],[123.77493,10.323637,453,1777415479],[123.77489,10.323549,453,1777415487],[123.77482999999999,10.323473,452,1777415495],[123.77473999999999,10.323408000000001,453,1777415505],[123.77466,10.323345,452,1777415513],[123.77459,10.323269,450,1777415520],[123.77452,10.323195,449,1777415529],[123.77446999999999,10.323116000000001,449,1777415537],[123.77446999999999,10.323003,448,1777415548],[123.77444,10.322915999999999,446,1777415570],[123.77446999999999,10.322827999999999,447,1777415579],[123.77453,10.322747,447,1777415588],[123.77457,10.322659,448,1777415597],[123.77463,10.322585999999999,446,1777415606],[123.77468,10.322509,448,1777415616],[123.7747,10.322414,448,1777415627],[123.77464000000001,10.322342000000001,448,1777415635],[123.77453,10.322284,446,1777415643],[123.77446,10.322234,445,1777415647],[123.77437999999999,10.322156,445,1777415652],[123.77423,10.322160999999999,442,1777415663],[123.77415000000001,10.322122,441,1777415672],[123.77406000000001,10.32208,441,1777415679],[123.77397000000001,10.322055000000001,440,1777415686],[123.77388000000001,10.322042,438,1777415694],[123.77378,10.322029000000001,437,1777415703],[123.77368,10.322003,436,1777415711],[123.77359,10.321987999999999,437,1777415720],[123.77349,10.321972000000001,436,1777415729],[123.7734,10.321956999999999,434,1777415736],[123.77330000000001,10.321963999999999,433,1777415743],[123.77321000000001,10.321978,432,1777415750],[123.77311,10.321999999999999,428,1777415759],[123.77301,10.321979000000001,426,1777415768],[123.77291,10.32197,425,1777415776],[123.77281000000001,10.321952,425,1777415784],[123.77272000000001,10.321923999999999,424,1777415792],[123.77263000000001,10.321949,422,1777415800],[123.77254000000001,10.321941000000001,420,1777415814],[123.77245000000001,10.321911999999999,419,1777415822],[123.77236000000001,10.321884000000001,419,1777415830],[123.77227000000001,10.321847,420,1777415838],[123.77218000000001,10.321823,420,1777415845],[123.77209000000001,10.321777000000001,420,1777415852],[123.77200999999999,10.321747999999999,422,1777415860],[123.77191000000001,10.321752999999999,421,1777415868],[123.77182999999999,10.321705,421,1777415876],[123.77172,10.321683,420,1777415884],[123.77162,10.321671,421,1777415892],[123.77153,10.321635000000001,421,1777415900],[123.77143,10.321593,421,1777415908],[123.77135,10.321538,423,1777415920],[123.77127,10.321488,422,1777415928],[123.77119,10.321431,421,1777415935],[123.77110999999999,10.321377999999999,421,1777415942],[123.77101999999999,10.321324000000001,419,1777415950],[123.77094,10.321270999999999,419,1777415958],[123.77097999999999,10.321173999999999,420,1777415965],[123.77104,10.321101000000001,420,1777415971],[123.771,10.320999,421,1777415982],[123.77095,10.320912,424,1777415994],[123.77095,10.320819999999999,425,1777416001],[123.77096,10.320724999999999,428,1777416010],[123.77093000000001,10.320639,432,1777416024],[123.7709,10.320544,434,1777416034],[123.77087,10.320451,437,1777416043],[123.77081,10.320373,440,1777416083],[123.77073,10.320311,438,1777416096],[123.77064,10.320259,439,1777416105],[123.77056,10.320211,438,1777416116],[123.77049,10.32015,440,1777416123],[123.77039000000001,10.320095999999999,443,1777416134],[123.77032,10.320029999999999,445,1777416144],[123.77021999999999,10.320033,445,1777416152],[123.77016,10.319952000000001,444,1777416241],[123.77007999999999,10.319872,443,1777416293],[123.77003999999999,10.319774000000001,446,1777416305],[123.77003000000001,10.31968,447,1777416319],[123.76994000000001,10.319651,449,1777416338],[123.76985000000001,10.319616,449,1777416345],[123.76984,10.319523999999999,451,1777416354],[123.76974,10.319488,452,1777416363],[123.76964,10.319464,458,1777416387],[123.76955,10.319481,457,1777416396],[123.76945000000001,10.319443,455,1777416407],[123.76938,10.319374,454,1777416415],[123.76931999999999,10.319295,454,1777416425],[123.76929,10.319203999999999,454,1777416432],[123.76935,10.319133000000001,453,1777416442],[123.76940999999999,10.319065999999999,454,1777416458],[123.76949,10.319005000000001,455,1777416467],[123.76958,10.318975,455,1777416476],[123.76969,10.318943000000001,459,1777416556],[123.76975,10.318851,460,1777416588],[123.76983,10.318799,460,1777416603],[123.76994999999999,10.318782000000001,461,1777416741],[123.77001,10.318694000000001,467,1777416758],[123.76997,10.318607999999999,465,1777416767],[123.76990000000001,10.318546,463,1777416775],[123.76983,10.318472999999999,462,1777416799],[123.76983,10.318371000000001,461,1777416813],[123.7698,10.318282999999999,461,1777416861],[123.76974,10.318193000000001,462,1777416875],[123.76973,10.318091000000001,458,1777416993],[123.76976000000001,10.317993,461,1777417002],[123.7698,10.317907999999999,461,1777417010],[123.76991,10.317852,462,1777417020],[123.77,10.317816000000001,464,1777417030],[123.7701,10.317805,464,1777417037],[123.77018,10.31775,467,1777417047],[123.77028,10.317762,466,1777417057],[123.77036,10.317704000000001,467,1777417066],[123.77045,10.31761,467,1777417125],[123.77051,10.317541,466,1777417136],[123.77056,10.317456999999999,466,1777417146],[123.77061,10.317378,464,1777417173],[123.77066000000001,10.317292999999999,462,1777417186],[123.77061,10.317205,463,1777417203],[123.77054,10.317130000000001,460,1777417215],[123.77045,10.317000999999999,456,1777417257],[123.77052,10.316916000000001,458,1777417269],[123.77055,10.316820999999999,456,1777417280],[123.77063,10.316765999999999,454,1777417290],[123.77070999999999,10.316724000000001,453,1777417297],[123.77074,10.316625999999999,450,1777417307],[123.77076,10.316521,450,1777417317],[123.77078,10.316424,450,1777417326],[123.77083,10.316341,451,1777417337],[123.77105,10.316236999999999,456,1777417443],[123.77114,10.316186,457,1777417527],[123.77110999999999,10.316074,456,1777417545],[123.77108,10.315953,457,1777417569],[123.77105,10.315861,457,1777417579],[123.77101,10.315769,458,1777417590],[123.77094,10.315701000000001,458,1777417600],[123.77088000000001,10.315626,459,1777417612],[123.77079999999999,10.315562999999999,459,1777417624],[123.77075000000001,10.315477,459,1777417638],[123.77070999999999,10.315379999999999,459,1777417650],[123.77070999999999,10.315276000000001,459,1777417666],[123.77077,10.315197,459,1777417676],[123.77081,10.315110000000001,459,1777417686],[123.77085,10.315021,459,1777417695],[123.77088000000001,10.314923,460,1777417705],[123.77091,10.314826999999999,459,1777417723],[123.77097000000001,10.314752,461,1777417733],[123.77097000000001,10.314657,462,1777417743],[123.77104,10.314591,462,1777417753],[123.77114,10.314591,460,1777417766],[123.77124000000001,10.314613,460,1777417777],[123.77134,10.314624999999999,461,1777417788],[123.77144,10.314622999999999,461,1777417798],[123.77153,10.314612,462,1777417820],[123.77164,10.314584,461,1777417832],[123.77173000000001,10.314555,462,1777417842],[123.77185,10.314568,461,1777417854],[123.77191999999999,10.314501,460,1777417865],[123.77198,10.314418999999999,458,1777417877],[123.77203,10.314342999999999,456,1777417892],[123.77203,10.314246000000001,457,1777417922],[123.77202,10.314083,459,1777417962],[123.77200000000001,10.313979,462,1777417975],[123.77204999999999,10.313896,464,1777418026],[123.77207,10.313808,465,1777418037],[123.77213,10.313712000000001,466,1777418048],[123.77217,10.313628,468,1777418058],[123.77226,10.313594,469,1777418067],[123.77235,10.313549999999999,470,1777418077],[123.77242,10.313483,471,1777418090],[123.77251,10.313428,472,1777418213],[123.77258,10.313347,472,1777418374],[123.77265,10.313266,472,1777418384],[123.77273,10.313192000000001,474,1777418395],[123.77276999999999,10.313105,475,1777418405],[123.77284,10.313033000000001,476,1777418416],[123.77292,10.312961,477,1777418428],[123.77296,10.312863,478,1777418438],[123.77293,10.312741000000001,480,1777418700],[123.77293,10.312645,481,1777418711],[123.77290000000001,10.312550999999999,482,1777418722],[123.77290000000001,10.312457999999999,483,1777418732],[123.77285999999999,10.312362,485,1777418743],[123.7728,10.312276000000001,486,1777418753],[123.77276000000001,10.312187,488,1777418765],[123.7727,10.312113999999999,488,1777418775],[123.77264,10.312022000000001,489,1777418786],[123.7726,10.311932000000001,492,1777418796],[123.77256,10.311840999999999,493,1777418807],[123.77252,10.311743999999999,494,1777418817],[123.77249,10.311646,497,1777418827],[123.77253,10.311555,499,1777418838],[123.77261,10.311510999999999,499,1777418848],[123.77272000000001,10.311481000000001,499,1777418858],[123.77285000000001,10.311423,498,1777418872],[123.77294000000001,10.31146,497,1777418883],[123.77303999999999,10.311496999999999,497,1777419055],[123.77315,10.311496999999999,496,1777419065],[123.77325,10.311453999999999,496,1777419074],[123.77334,10.311386000000001,496,1777419084],[123.7734,10.311303000000001,497,1777419107],[123.77345,10.31122,498,1777419330],[123.77352,10.311146000000001,498,1777419342],[123.77357000000001,10.311052,499,1777419352],[123.77361000000001,10.310969,500,1777419361],[123.77368,10.310879,503,1777419371],[123.77376,10.31081,504,1777419381],[123.77385,10.31077,503,1777419391],[123.77394,10.310734999999999,502,1777419399],[123.77403,10.310670999999999,502,1777419410],[123.77406000000001,10.310585,503,1777419419],[123.77406999999999,10.310479000000001,503,1777419500],[123.77401999999999,10.310378,505,1777419538],[123.77391,10.31033,508,1777419561],[123.77384000000001,10.310271999999999,510,1777419592],[123.77374,10.310247,512,1777419601],[123.77365,10.31021,514,1777419610],[123.77359,10.310136,515,1777419618],[123.77351,10.310086999999999,515,1777419626],[123.77347,10.309996999999999,516,1777419634],[123.77343999999999,10.309889999999999,517,1777419644],[123.77341,10.309803,517,1777419652],[123.77336,10.309699,515,1777419662],[123.77334999999999,10.309592,516,1777419673],[123.77333,10.3095,516,1777419682],[123.77332,10.309411000000001,515,1777419690],[123.77330000000001,10.309303,516,1777419700],[123.77329,10.309191999999999,517,1777419710],[123.77330000000001,10.309098000000001,517,1777419719],[123.77328,10.309006999999999,518,1777419727],[123.77330000000001,10.308909,519,1777419736],[123.77331,10.308813000000001,520,1777419744],[123.77330000000001,10.308704000000001,520,1777419754],[123.77330000000001,10.308612,521,1777419762],[123.77329,10.308522999999999,523,1777419771],[123.77327,10.308429,522,1777419779],[123.77321999999999,10.308341,522,1777419789],[123.77315,10.308285,523,1777419797],[123.77305,10.308261999999999,523,1777419807],[123.773,10.30817,523,1777419817],[123.77297,10.308066999999999,524,1777419829],[123.77293,10.307983999999999,524,1777419837],[123.77285000000001,10.307912999999999,526,1777419972],[123.77278,10.307852,526,1777419981],[123.7727,10.307782,527,1777419990],[123.77263000000001,10.307717999999999,529,1777419998],[123.77254000000001,10.307667,529,1777420006],[123.77246,10.307627,529,1777420014],[123.77237,10.307558,531,1777420024],[123.7723,10.307499999999999,533,1777420032],[123.77222999999999,10.307444,534,1777420040],[123.77213999999999,10.307399999999999,534,1777420048],[123.77204999999999,10.307411,534,1777420057],[123.77196000000001,10.307397999999999,535,1777420065],[123.77186,10.307392,536,1777420073],[123.77175,10.307401,537,1777420083],[123.77164,10.307401,538,1777420093],[123.77166,10.307309999999999,537,1777420103],[123.77173999999999,10.307257,536,1777420111],[123.77181,10.307185,535,1777420120],[123.77189,10.307100999999999,538,1777420131],[123.77195,10.307031,540,1777420140],[123.77200999999999,10.306953999999999,541,1777420149],[123.77206,10.30687,543,1777420158],[123.77212,10.306782,545,1777420169],[123.77222999999999,10.306784,545,1777420179],[123.77233,10.306793000000001,546,1777420189],[123.77242,10.306803,546,1777420198],[123.77234,10.306746,548,1777420221],[123.77225,10.306711,548,1777420229],[123.77216,10.306684000000001,548,1777420237],[123.77204,10.306684000000001,550,1777420376],[123.77195,10.306673999999999,552,1777420384],[123.77189,10.306749999999999,555,1777420437],[123.77182000000001,10.306825999999999,554,1777420478],[123.77171,10.306799,556,1777420944],[123.77160000000001,10.30682,558,1777420954],[123.77149,10.306831000000001,560,1777420964],[123.7714,10.306873,563,1777421019],[123.77128999999999,10.306894,563,1777421029],[123.77119999999999,10.306900000000001,565,1777421038],[123.77110999999999,10.306958,568,1777421051],[123.77101999999999,10.307022999999999,568,1777421695],[123.77092,10.307074999999999,569,1777421708],[123.77082,10.307109000000001,569,1777421718],[123.77072,10.307141,570,1777421727],[123.77063,10.307174,572,1777421735],[123.77056,10.307230000000001,572,1777421745],[123.77047,10.307286,571,1777421753],[123.77042,10.307380999999999,574,1777421761],[123.77039000000001,10.307489,577,1777421773],[123.77041,10.307594999999999,580,1777421784],[123.77043,10.307686,580,1777421793],[123.77043,10.307785000000001,581,1777421803],[123.77039000000001,10.307888,581,1777421819],[123.77034999999999,10.307973,582,1777421828],[123.77030999999999,10.308056000000001,583,1777421836],[123.77025999999999,10.308139000000001,582,1777421844],[123.7702,10.308210000000001,582,1777421852],[123.77011,10.308279000000001,581,1777421862],[123.77002,10.308325,582,1777422071],[123.76994000000001,10.308375,582,1777422080],[123.76984,10.308431000000001,582,1777422091],[123.76975,10.308491999999999,583,1777422101],[123.76967,10.308540000000001,584,1777422108],[123.76958999999999,10.308489,584,1777422120],[123.76956,10.308384999999999,582,1777422134],[123.76949999999999,10.308309,580,1777422155],[123.76942,10.308237999999999,579,1777422165],[123.76931999999999,10.308273,578,1777422174],[123.76922999999999,10.308297,576,1777422183],[123.76913,10.308282,573,1777422227],[123.76902,10.308255000000001,572,1777422239],[123.76891999999999,10.308260000000001,573,1777422250],[123.76886,10.308346,575,1777422258],[123.76884,10.308441999999999,572,1777422268],[123.76879,10.308524999999999,570,1777422288],[123.76872,10.308586999999999,569,1777422299],[123.76861,10.308611000000001,569,1777422595],[123.7685,10.308631,568,1777422605],[123.76839,10.308668000000001,566,1777422615],[123.76828999999999,10.30869,566,1777422623],[123.76818,10.308704000000001,564,1777422634],[123.76809,10.308705,562,1777422643],[123.76801,10.308633,562,1777422653],[123.76802000000001,10.30851,559,1777422665],[123.768,10.308422,558,1777422673],[123.76793000000001,10.308351,555,1777422683],[123.76785,10.308308,553,1777422694],[123.76774,10.308311,550,1777422705],[123.76765,10.308369000000001,546,1777422716],[123.76756,10.308422,544,1777422726],[123.76748000000001,10.308476000000001,542,1777422736],[123.76739000000001,10.308539,539,1777422748],[123.76727,10.308541999999999,537,1777422762],[123.76716999999999,10.308531,535,1777422777],[123.76709,10.308486,534,1777422788],[123.76702,10.308403,535,1777422799],[123.76692,10.308413,534,1777422813],[123.76681000000001,10.308441,537,1777422826],[123.7667,10.30843,541,1777422893],[123.76661,10.308374000000001,542,1777422910],[123.76651,10.308332999999999,544,1777422924],[123.76643,10.30827,547,1777422935],[123.76635,10.308209,549,1777422945],[123.76627000000001,10.308164,549,1777422953],[123.76617,10.308132000000001,549,1777422963],[123.76607,10.308083,549,1777422974],[123.76598,10.308064999999999,548,1777422983],[123.76587000000001,10.308063000000001,549,1777422992],[123.76578000000001,10.308047,548,1777423001],[123.76568,10.308026,546,1777423034],[123.76560000000001,10.308085,544,1777423046],[123.76558,10.30818,543,1777423079],[123.76549,10.308211999999999,543,1777423093],[123.7654,10.308258,543,1777423103],[123.76532,10.308313999999999,542,1777423111],[123.76523,10.308356,541,1777423121],[123.76515000000001,10.308422,542,1777423151],[123.76506000000001,10.308471000000001,541,1777423161],[123.76497000000001,10.308534,541,1777423171],[123.76488999999999,10.308593999999999,542,1777423180],[123.76482,10.308653,543,1777423188],[123.76475000000001,10.308714,543,1777423196],[123.76468,10.308776999999999,544,1777423204],[123.76461,10.308837,545,1777423212],[123.76454,10.308897999999999,547,1777423220],[123.76445,10.308963,549,1777423231],[123.76436,10.309006999999999,552,1777423322],[123.76429,10.309066,555,1777423332],[123.76425,10.309165999999999,555,1777423343],[123.76423,10.309255,553,1777423354],[123.76419,10.309336,551,1777423365],[123.76412999999999,10.309409,550,1777423375],[123.76405,10.309483999999999,549,1777423386],[123.76396,10.309543,548,1777423469],[123.76387,10.3096,547,1777423480],[123.76378,10.309668,547,1777423489],[123.7637,10.309727000000001,547,1777423497],[123.76362,10.309763999999999,547,1777423505],[123.76353,10.309701,548,1777423515],[123.76345999999999,10.309628999999999,549,1777423523],[123.76338,10.309583999999999,550,1777423534],[123.76327000000001,10.309568000000001,553,1777423612],[123.76317,10.309604999999999,554,1777423622],[123.76305000000001,10.309651000000001,555,1777423795],[123.76296000000001,10.309663,555,1777423828],[123.76285,10.309639000000001,556,1777423877],[123.76276,10.309620000000001,556,1777423900],[123.76267,10.309604999999999,557,1777423908],[123.76257,10.309563000000001,559,1777423916],[123.76246999999999,10.309530000000001,561,1777423964],[123.76239,10.309475000000001,563,1777423973],[123.76232,10.309395,565,1777423984],[123.76227,10.309296,568,1777424010],[123.76222,10.309203999999999,571,1777424024],[123.76223,10.309106,572,1777424034],[123.76219,10.309013,572,1777424045],[123.7621,10.308915000000001,571,1777424055],[123.76204,10.30883,569,1777424067],[123.76197999999999,10.30875,569,1777424077],[123.76192,10.308662999999999,569,1777424088],[123.76183,10.308603,567,1777424102],[123.76175000000001,10.308551,564,1777424184],[123.76166000000001,10.308493,564,1777424195],[123.76159,10.308437,561,1777424262],[123.76152,10.308382,558,1777424281],[123.76141,10.308369000000001,556,1777424294],[123.76130999999999,10.308349,554,1777424304],[123.76123,10.308320999999999,551,1777424314],[123.76114,10.308279000000001,548,1777424326],[123.76107,10.308217000000001,546,1777424338],[123.76091,10.308085999999999,542,1777424476],[123.76085,10.308007,540,1777424555],[123.76079,10.307935000000001,539,1777424568],[123.76069,10.307878000000001,537,1777424604],[123.76063000000001,10.307791999999999,536,1777424614],[123.76056,10.307705,537,1777424625],[123.76047,10.30767,538,1777424633],[123.76038,10.307632999999999,535,1777424642],[123.76027999999999,10.307591,535,1777424653],[123.76018000000001,10.307534,536,1777424662],[123.76008,10.307551999999999,537,1777424682],[123.76018999999999,10.307556999999999,537,1777424697],[123.7602,10.307663,533,1777424710],[123.76029,10.307706,532,1777424719],[123.76034,10.307632,534,1777425371],[123.76025,10.307574000000001,535,1777425380],[123.76016,10.307523,536,1777425388],[123.76009000000001,10.307453000000001,536,1777425397],[123.76000000000001,10.307395,537,1777425469],[123.75991999999999,10.307323999999999,538,1777425501],[123.75982999999999,10.307297999999999,540,1777425514],[123.75973999999999,10.307256000000001,540,1777425522],[123.75966,10.30721,540,1777425530],[123.75958,10.307157999999999,540,1777425539],[123.75949,10.307093999999999,538,1777425551],[123.75942000000001,10.307043,538,1777425559],[123.75933000000001,10.306986,538,1777425571],[123.75924999999999,10.306943,536,1777425585],[123.75915999999999,10.306857000000001,536,1777425607],[123.7591,10.306770999999999,537,1777425617],[123.75902000000001,10.306713999999999,536,1777425626],[123.75894,10.306661,534,1777425635],[123.75888,10.306587,532,1777425644],[123.75881,10.306506000000001,530,1777425654],[123.75876,10.306418000000001,529,1777425664],[123.75867,10.306314,527,1777425696],[123.75857000000001,10.306233000000001,528,1777425708],[123.7585,10.306165,528,1777425716],[123.75839999999999,10.30611,526,1777425729],[123.75830000000001,10.306107000000001,527,1777425737],[123.7582,10.30611,527,1777425745],[123.7581,10.306103999999999,526,1777425754],[123.758,10.306072,528,1777425763],[123.75794999999999,10.305986000000001,528,1777425772],[123.75789,10.305909,528,1777425800],[123.75783,10.305833,529,1777425808],[123.75779,10.305742,528,1777425817],[123.75773,10.305655,528,1777425827],[123.75767999999999,10.305567999999999,526,1777425837],[123.75763999999999,10.305481,524,1777425846],[123.75757,10.305406,526,1777425855],[123.75749,10.305338000000001,529,1777425864],[123.75742,10.305266,530,1777425877],[123.75736000000001,10.305172000000001,531,1777425890],[123.75732000000001,10.305084000000001,530,1777425900],[123.75726,10.305006000000001,529,1777425910],[123.75717,10.30494,529,1777425920],[123.75708,10.304899000000001,528,1777425930],[123.75698,10.304859,527,1777425942],[123.75691999999999,10.304777,526,1777425951],[123.75685,10.304702000000001,527,1777425959],[123.75679,10.304629,527,1777425967],[123.75673999999999,10.304558,526,1777425975],[123.75667,10.304480999999999,528,1777425984],[123.75662,10.304392999999999,526,1777425996],[123.7565,10.304455000000001,520,1777426512],[123.75642000000001,10.30453,519,1777426523],[123.75635,10.304601999999999,518,1777426533],[123.75626,10.304650000000001,517,1777426543],[123.75620000000001,10.304724999999999,516,1777426553],[123.75612,10.304774999999999,514,1777426563],[123.75602000000001,10.304793,512,1777426572],[123.75594,10.304846,511,1777426580],[123.75582,10.304978,509,1777426599],[123.75574,10.30505,506,1777426610],[123.75566999999999,10.305122000000001,503,1777426622],[123.75557999999999,10.30517,501,1777426634],[123.75548000000001,10.305198000000001,498,1777426644],[123.75539000000001,10.305205000000001,495,1777426654],[123.75525,10.305251,493,1777426673],[123.75515,10.305318,490,1777426693],[123.75507,10.305365999999999,486,1777426740],[123.75499000000001,10.305408,485,1777426781],[123.75490000000001,10.305445000000001,482,1777426816],[123.75483,10.305505999999999,481,1777426847],[123.75474,10.305558,481,1777426874],[123.75466,10.305623000000001,481,1777426893],[123.7546,10.3057,480,1777426903],[123.75458,10.305797999999999,478,1777426917],[123.75454000000001,10.305892,477,1777426931],[123.75451,10.305994,475,1777426942],[123.75449,10.306092,474,1777426956],[123.75445000000001,10.306174,471,1777426972],[123.75436000000001,10.306272999999999,466,1777427001],[123.75427999999999,10.306387000000001,462,1777427020],[123.75427000000001,10.306486,459,1777427038],[123.75421,10.306557,459,1777427048],[123.75415,10.306632,457,1777427059],[123.75409999999999,10.306724000000001,453,1777427076],[123.75408,10.306813999999999,449,1777427090],[123.75409999999999,10.306925,446,1777427130],[123.75411,10.307017,443,1777427142],[123.75418000000001,10.307095,441,1777427154],[123.75424,10.307193,437,1777427169],[123.75425,10.307308000000001,433,1777427185],[123.75429,10.307399999999999,431,1777427195],[123.75433,10.307487999999999,429,1777427208],[123.75438,10.307615,426,1777427253],[123.75440999999999,10.307705,422,1777427269],[123.75445000000001,10.307795,418,1777427284],[123.75447,10.307881,415,1777427295],[123.75447,10.308014,411,1777427406],[123.75445000000001,10.308113000000001,406,1777427423],[123.75448,10.308211,404,1777427446],[123.75456,10.30827,401,1777427974],[123.75454000000001,10.308376000000001,398,1777427995],[123.75453,10.308503999999999,391,1777428022],[123.75453,10.308598999999999,387,1777428044],[123.75457,10.308700999999999,384,1777428059],[123.75456,10.308802,382,1777428071],[123.75462,10.308885,377,1777428090],[123.75461,10.308986000000001,373,1777428103],[123.75462,10.309093000000001,368,1777428171],[123.75461,10.309200000000001,362,1777428195],[123.75462,10.309294,356,1777428213],[123.75461,10.309407,351,1777428253],[123.75461,10.309506000000001,344,1777428272],[123.7546,10.309602999999999,341,1777428291],[123.75461,10.309704999999999,339,1777428306],[123.75463999999999,10.309806,335,1777428319],[123.75467,10.309912000000001,332,1777428336],[123.75463000000001,10.310003999999999,330,1777428357],[123.75463000000001,10.310105999999999,327,1777428377],[123.75461,10.310197000000001,324,1777428393],[123.75454000000001,10.310283,321,1777428413],[123.75452,10.310389000000001,320,1777428427],[123.75449,10.310477000000001,320,1777428445],[123.75444,10.310574000000001,321,1777428458],[123.75438,10.310663999999999,321,1777428469],[123.75432000000001,10.310750000000001,321,1777428480],[123.75424,10.310836,321,1777428489],[123.75417,10.310897000000001,320,1777428500],[123.75408,10.310948,318,1777428511],[123.75398,10.311004000000001,316,1777428521],[123.75404,10.311092,317,1777428532],[123.75409999999999,10.311176,316,1777428546],[123.75413,10.311264,317,1777428556],[123.75421,10.311347,319,1777428565],[123.75427000000001,10.311434,320,1777428574],[123.75433,10.31151,319,1777428583],[123.75440999999999,10.311584,320,1777428592],[123.75447,10.311666000000001,320,1777428601],[123.75456,10.311731,319,1777428609],[123.75466,10.311776999999999,318,1777428618],[123.75474,10.311840999999999,318,1777428626],[123.7548,10.311909999999999,319,1777428634],[123.75490000000001,10.311965000000001,320,1777428644],[123.75498,10.312036000000001,319,1777428652],[123.75507,10.312087999999999,320,1777428659],[123.75516,10.31216,319,1777428668],[123.75525,10.312207000000001,320,1777428678],[123.75534,10.312265,319,1777428686],[123.75543999999999,10.312324,317,1777428695],[123.75552999999999,10.312377,318,1777428703],[123.7556,10.312438999999999,319,1777428712],[123.75569,10.312485000000001,320,1777428721],[123.75578,10.312542000000001,318,1777428731],[123.75587,10.312592,318,1777428739],[123.75595,10.312632000000001,318,1777428747],[123.75604,10.312676,319,1777428755],[123.75613,10.312721,320,1777428763],[123.75622,10.312780999999999,320,1777428772],[123.75631,10.312848000000001,321,1777428781],[123.75637999999999,10.312913,321,1777428789],[123.75646,10.312972,320,1777428797],[123.75653,10.313045000000001,321,1777428806],[123.75659,10.31312,322,1777428814],[123.75666,10.313193,323,1777428822],[123.75673,10.313276999999999,322,1777428831],[123.75679,10.313343,323,1777428839],[123.75687000000001,10.313426,323,1777428848],[123.75693,10.313508000000001,324,1777428857],[123.75700000000001,10.313579000000001,324,1777428865],[123.75706,10.313654,325,1777428873],[123.75713,10.313723,325,1777428881],[123.75718999999999,10.313822,325,1777428892],[123.75723000000001,10.313901,325,1777428900],[123.75725,10.314009,328,1777428984],[123.75731,10.314104,328,1777428994],[123.75736999999999,10.31418,329,1777429002],[123.75744,10.314244,329,1777429010],[123.75751,10.314298000000001,330,1777429018],[123.75761,10.314347,331,1777429042],[123.75771,10.314404,332,1777429051],[123.75779,10.314467,332,1777429059],[123.75788,10.314514000000001,335,1777429067],[123.75798,10.31457,334,1777429077],[123.75805,10.314632,336,1777429085],[123.75814,10.314686999999999,335,1777429093],[123.75821999999999,10.314736,334,1777429101],[123.75832,10.314793,333,1777429111],[123.75839999999999,10.314859,333,1777429119],[123.75848999999999,10.314920000000001,333,1777429128],[123.75857999999999,10.314978,333,1777429136],[123.75866000000001,10.315035999999999,333,1777429144],[123.75874,10.315098000000001,334,1777429152],[123.75886,10.315179000000001,335,1777429163],[123.75895,10.315238000000001,335,1777429172],[123.75902000000001,10.315313,335,1777429181],[123.75912,10.315340000000001,335,1777429189],[123.75920000000001,10.315405,336,1777429197],[123.7593,10.315450999999999,335,1777429205],[123.75939,10.315495,336,1777429214],[123.75946,10.315562999999999,337,1777429227],[123.75957,10.315606000000001,338,1777429237],[123.75966,10.315638,339,1777429245],[123.75977,10.315655,340,1777429254],[123.75986,10.315674,339,1777429262],[123.75996000000001,10.315671,339,1777429270],[123.76007,10.315670000000001,339,1777429279],[123.76021,10.315613000000001,339,1777429293],[123.76031999999999,10.3156,339,1777429303],[123.76042,10.315569,340,1777429313],[123.76053,10.315543999999999,341,1777429327],[123.76063000000001,10.315524999999999,341,1777429336],[123.76071,10.315474999999999,342,1777429345],[123.76088,10.315467,342,1777429392],[123.76098,10.315462999999999,343,1777429402],[123.76109,10.315481,344,1777429414],[123.76118,10.315524999999999,346,1777429423],[123.76127,10.315557999999999,348,1777429434],[123.76137,10.315583,348,1777429443],[123.76147,10.3156,349,1777429452],[123.76157000000001,10.315607,350,1777429462],[123.76167,10.315642,351,1777429499],[123.76176,10.315683999999999,352,1777429507],[123.76186,10.315709,354,1777429516],[123.76195,10.315769,355,1777429528],[123.76204,10.315803000000001,356,1777429536],[123.76213,10.315837999999999,356,1777429545],[123.76222,10.315865000000001,356,1777429553],[123.76233000000001,10.315904,357,1777429563],[123.76242000000001,10.315927,358,1777429573],[123.76251000000001,10.315958,359,1777429581],[123.76261,10.316001,361,1777429592],[123.76273,10.31602,361,1777429652],[123.76282,10.316041999999999,361,1777429661],[123.76291999999999,10.316084,363,1777429670],[123.76300000000001,10.316151,364,1777429680],[123.76309000000001,10.316217999999999,364,1777429691],[123.76314000000001,10.316291,365,1777429700],[123.76321,10.316386,366,1777429710],[123.76327000000001,10.316473,367,1777429719],[123.76331999999999,10.316558000000001,369,1777429728],[123.76338,10.316637999999999,371,1777429737],[123.76345999999999,10.316708,377,1777429830],[123.76355,10.316776000000001,380,1777429845],[123.76366,10.316844,381,1777429857],[123.76375,10.31687,381,1777429865],[123.76383,10.316922,381,1777429873],[123.76394000000001,10.316948999999999,380,1777429883],[123.76403000000001,10.316981,380,1777429891],[123.76412999999999,10.317009000000001,381,1777429900],[123.76423,10.317049000000001,383,1777429910],[123.76430000000001,10.317123,384,1777429918],[123.76441,10.317171,386,1777429929],[123.76448000000001,10.317249,387,1777429937],[123.76457000000001,10.317309,388,1777429946],[123.76465,10.317379000000001,388,1777429956],[123.76475000000001,10.317437999999999,387,1777429966],[123.76482,10.317526000000001,387,1777429973],[123.76488999999999,10.317584999999999,387,1777429980],[123.76497999999999,10.317637,388,1777429990],[123.76506999999999,10.317672,388,1777429999],[123.76514,10.317731999999999,388,1777430006],[123.76524999999999,10.317777,389,1777430020],[123.76533999999999,10.317843,389,1777430028],[123.76542000000001,10.317895999999999,390,1777430037],[123.76551000000001,10.31795,391,1777430045],[123.76559,10.318035,392,1777430056],[123.76568,10.318082,391,1777430065],[123.76579,10.318173,391,1777430078],[123.76587000000001,10.318231000000001,392,1777430086],[123.76594,10.318289,393,1777430093],[123.76600000000001,10.318356,395,1777430100],[123.76609000000001,10.318425,396,1777430108],[123.76616,10.318484,397,1777430116],[123.76622,10.318555,399,1777430125],[123.76629,10.318631999999999,400,1777430132],[123.76636000000001,10.318709,400,1777430143],[123.76642,10.318777000000001,400,1777430151],[123.76648,10.318852,402,1777430160],[123.76652,10.318937,403,1777430168],[123.7666,10.318999,406,1777430177],[123.76667,10.319065,408,1777430185],[123.76674,10.319151,409,1777430195],[123.76683,10.31922,410,1777430205],[123.76692,10.319264,409,1777430215],[123.76701,10.319293999999999,410,1777430222],[123.7671,10.319322,412,1777430230],[123.7672,10.319298,412,1777430247],[123.76729,10.319348,413,1777430256],[123.76739000000001,10.319364,414,1777430265],[123.76752,10.319438,414,1777430281],[123.76759,10.319502,413,1777430286],[123.76767,10.319566999999999,414,1777430293],[123.76777,10.319580999999999,414,1777430303],[123.76786,10.319623,413,1777430311],[123.76796,10.319744999999999,417,1777430323],[123.76804,10.319786000000001,424,1777430344],[123.7681,10.319867,422,1777430466],[123.76828,10.319891999999999,420,1777430482],[123.76836,10.319953,421,1777430491],[123.7685,10.320047000000001,425,1777430506],[123.76859,10.320069999999999,426,1777430514],[123.76872,10.320099000000001,425,1777430522],[123.76876,10.320178,423,1777430528],[123.7688,10.320271999999999,421,1777430535],[123.76889,10.320309999999999,420,1777430542],[123.76899,10.320323,419,1777430550],[123.76909999999999,10.32043,420,1777430561],[123.76918999999999,10.320463999999999,421,1777430569],[123.76926,10.320558,420,1777430581],[123.76933,10.320624,420,1777430589],[123.76942,10.320693,420,1777430599],[123.76951,10.320739,421,1777430607],[123.76957,10.320808,422,1777430612],[123.76967999999999,10.320869999999999,424,1777430625],[123.76979,10.320876,425,1777430634],[123.76989,10.320897,426,1777430645],[123.76998,10.320883,425,1777430652],[123.77009,10.320855999999999,424,1777430660],[123.7702,10.32084,424,1777430668],[123.77030999999999,10.320842000000001,422,1777430677],[123.77043,10.32086,423,1777430687],[123.77052999999999,10.320919,422,1777430708],[123.7706,10.320999,422,1777430723],[123.77068,10.321092,423,1777430734],[123.77078,10.321137999999999,422,1777430744],[123.77086,10.32119,423,1777430752],[123.77094,10.321239,422,1777430759],[123.77101999999999,10.321308,422,1777430767],[123.77109,10.321365,422,1777430775],[123.77115999999999,10.321437,423,1777430783],[123.77124999999999,10.321477,424,1777430791],[123.77134,10.321524,424,1777430798],[123.77143,10.32159,424,1777430806],[123.77152,10.32165,424,1777430817],[123.77162,10.321709,424,1777430827],[123.77173000000001,10.321712,423,1777430835],[123.77182000000001,10.321743,423,1777430843],[123.77191999999999,10.321764,422,1777430851],[123.77202,10.321781,421,1777430859],[123.77213,10.321807,421,1777430869],[123.77222,10.321782000000001,421,1777430876],[123.77231,10.321838,420,1777430883],[123.77239,10.321892,419,1777430890],[123.77249,10.321929000000001,420,1777430898],[123.77258999999999,10.321936000000001,420,1777430906],[123.77267999999999,10.321942999999999,421,1777430922],[123.7728,10.321967000000001,422,1777430932],[123.77289,10.32199,424,1777430940],[123.773,10.322009,425,1777430949],[123.7731,10.322004,426,1777430960],[123.77319,10.321999,428,1777430967],[123.77331,10.321994999999999,429,1777430979],[123.77341,10.321994,432,1777430987],[123.77351,10.321982,434,1777430995],[123.77361000000001,10.322001,436,1777431003],[123.77370999999999,10.322008,437,1777431010],[123.77381,10.322031000000001,438,1777431021],[123.7739,10.322041,440,1777431029],[123.77401,10.322075999999999,440,1777431042],[123.7741,10.322113,442,1777431047],[123.77419,10.322176000000001,441,1777431055],[123.77428999999999,10.322169000000001,442,1777431090],[123.77442000000001,10.32225,444,1777431101],[123.77452,10.322324999999999,446,1777431111],[123.77461,10.322388,447,1777431124],[123.77464000000001,10.322516,448,1777431139],[123.77460000000001,10.322596000000001,449,1777431147],[123.77457,10.322683,449,1777431154],[123.7745,10.322755000000001,449,1777431161],[123.77444,10.322843000000001,450,1777431172],[123.77445,10.322939,448,1777431200],[123.77451000000001,10.323117,449,1777431235],[123.77454,10.323214,451,1777431244],[123.77461,10.323285,453,1777431253],[123.77466,10.323387,454,1777431264],[123.77475,10.323437999999999,454,1777431272],[123.77482999999999,10.323542,455,1777431282],[123.77489,10.32363,456,1777431293],[123.77495999999999,10.323699,456,1777431300],[123.77504,10.32375,456,1777431310],[123.77513,10.323812,455,1777431318],[123.77524,10.323822,455,1777431326],[123.77531999999999,10.323772,456,1777431332],[123.77540999999999,10.323719000000001,457,1777431340],[123.77555,10.323627,459,1777431368],[123.77558999999999,10.323708,458,1777431374],[123.77551,10.323627,458,1777431381],[123.77540999999999,10.323577,460,1777431492],[123.77554000000001,10.323653999999999,460,1777431633],[123.77564,10.323525999999999,459,1777431653],[123.77571,10.323426,458,1777431664],[123.77578,10.323361999999999,461,1777431674],[123.77584,10.323271,464,1777431688],[123.77587,10.323175000000001,461,1777431696],[123.77591,10.323079999999999,461,1777431705],[123.77589999999999,10.322965999999999,460,1777431712],[123.77589,10.322862000000001,461,1777431719],[123.77585000000001,10.322770999999999,463,1777431728],[123.7758,10.322694,465,1777431737],[123.77578,10.322585999999999,462,1777431743],[123.7758,10.322482000000001,460,1777431751],[123.77585000000001,10.322393,459,1777431760],[123.77589999999999,10.322312999999999,458,1777431768],[123.77596,10.322238,458,1777431776],[123.77603999999999,10.322151,461,1777431789],[123.77609,10.322075,464,1777431798],[123.77615,10.321982999999999,467,1777431812],[123.77618,10.321894,470,1777431823],[123.77621000000001,10.321794000000001,471,1777431833],[123.77621000000001,10.321693,475,1777431844],[123.77627,10.321607,478,1777431856],[123.77637,10.321602,479,1777431870],[123.77643,10.321685,479,1777431882],[123.77645,10.321776,477,1777431894],[123.77651,10.321859999999999,477,1777431902],[123.77657000000001,10.321947,477,1777431913],[123.77663,10.322027,477,1777431921],[123.77670000000001,10.322113999999999,477,1777431930],[123.77674,10.322213,478,1777431939],[123.77679000000001,10.322295,478,1777431948],[123.77684000000001,10.322369999999999,477,1777431957],[123.77691,10.322445,478,1777431988],[123.77697000000001,10.32253,477,1777431998],[123.77703,10.322599,479,1777432007],[123.77710999999999,10.322649999999999,481,1777432015],[123.77719999999999,10.322699999999999,482,1777432023],[123.77731,10.322729000000001,483,1777432032],[123.77741,10.322737999999999,485,1777432041],[123.77751000000001,10.322735,484,1777432047],[123.77761,10.322723999999999,486,1777432055],[123.7777,10.322687999999999,486,1777432063],[123.7778,10.322654,484,1777432071],[123.77791000000001,10.322606,484,1777432083],[123.77800000000001,10.322564,485,1777432091],[123.77809999999999,10.322509,487,1777432102],[123.7782,10.322449000000001,489,1777432112],[123.77828,10.322416,491,1777432123],[123.77837,10.322374999999999,492,1777432130],[123.77846,10.322316000000001,492,1777432138],[123.77849999999999,10.322225,493,1777432150],[123.77842,10.322191,496,1777432168],[123.77831999999999,10.322184999999999,497,1777432197],[123.77840999999999,10.322209000000001,493,1777432254],[123.77856,10.32222,494,1777432408],[123.77879,10.322215,493,1777432480],[123.77901,10.322160999999999,492,1777432484],[123.77916999999999,10.322131000000001,493,1777432487],[123.77943,10.322061,491,1777432492]]]}}]}
