{"type":"FeatureCollection","features":[{"type":"Feature","id":"bb12c739-f11e-49bd-a690-83cee6170c1b","properties":{"id":"bb12c739-f11e-49bd-a690-83cee6170c1b","updated_date":"2026-08-16T07:47:39Z","time_created":"2026-08-15T22:39:45Z","last_updated_on_server":"2026-08-16T07:47:39.668337","db_insert_date":"2026-08-16T07:47:39Z","deleted":false,"title":"Sunday Morning Hiking","public":false,"color":"#000000","hexcolor":"#000000","is_active":true,"revision":1786866459,"notes":"","track_type":"track","routing_mode":null,"uploaded_gpx_to_osm":null,"flag":null,"source":null,"cover_photo_id":null,"distance":5722.7532164882814,"total_ascent":180.87144470214844,"total_descent":458.32955932617188,"stopped_time":1824.3333330154419,"total_time":13151,"average_speed":0.43515726686094452,"moving_time":11326.666666984558,"moving_speed":0.50524601674464398,"activities":[],"imported":true,"folder":"ef43df56-efab-4b5a-93bd-8e91caec1886","privacy_level":null,"sync_to_mobile":null,"preferred_link":"/public/v1IEdObZDcUrDG9AFdqRzbCB","favorite_count":0,"comment_count":0,"comments":[],"user_photo_count":0,"latitude":10.290983397219369,"longitude":123.75073023234127,"writable":false},"style":{"stroke":"#000000"},"geometry":{"type":"MultiLineString","coordinates":[[[123.74497700000001,10.305852,360.60223388671875,1786833585],[123.744956,10.305876,307.51751708984375,1786833595],[123.744996,10.305853000000001,306.22625732421875,1786833608],[123.745002,10.305828999999999,306.44158935546875,1786833621],[123.74500399999999,10.30585,306.87408447265625,1786833633],[123.744991,10.305871,308.231201171875,1786833640],[123.744984,10.305846000000001,309.3828125,1786833657],[123.744991,10.305816999999999,308.73321533203125,1786833663],[123.74499400000001,10.305816,308.5333251953125,1786833664],[123.74501600000001,10.3058,306.22216796875,1786833673],[123.74498199999999,10.305839000000001,306.12469482421875,1786833726],[123.74508,10.305797999999999,307.5302734375,1786833775],[123.74508400000001,10.305794000000001,307.6123046875,1786833776],[123.745103,10.305745,311.382080078125,1786833791],[123.745124,10.305730000000001,313.54931640625,1786833798],[123.745172,10.305721,315.78125,1786833806],[123.745221,10.305733,318.8753662109375,1786833822],[123.745225,10.305731,319.344482421875,1786833823],[123.74533,10.305725000000001,323.6710205078125,1786833845],[123.745379,10.305711000000001,323.06378173828125,1786833857],[123.745395,10.305685,327.478271484375,1786833868],[123.74539799999999,10.305681,327.7216796875,1786833869],[123.74542099999999,10.305662,329.101318359375,1786833882],[123.74547,10.305648,331.09765625,1786833895],[123.74552,10.305650999999999,331.65374755859375,1786833913],[123.745565,10.305671999999999,331.144287109375,1786833922],[123.745569,10.305674,331.2462158203125,1786833923],[123.745622,10.305680000000001,334.3062744140625,1786833937],[123.74574,10.30574,339.1181640625,1786833975],[123.745745,10.305742,339.2196044921875,1786833976],[123.74579300000001,10.305771999999999,339.37762451171875,1786834011],[123.74583,10.305709999999999,343.4451904296875,1786834053],[123.745867,10.305671,345.3858642578125,1786834068],[123.74587,10.305669,345.4339599609375,1786834069],[123.745885,10.305617,349.01458740234375,1786834090],[123.745879,10.305567,351.828125,1786834117],[123.74589899999999,10.305550999999999,352.3726806640625,1786834124],[123.745892,10.305527,352.7320556640625,1786834134],[123.745912,10.305508,354.072998046875,1786834143],[123.745912,10.305505999999999,354.0794677734375,1786834144],[123.745958,10.305443,357.283447265625,1786834178],[123.74591100000001,10.305422999999999,358.31591796875,1786834198],[123.745919,10.305398,360.44891357421875,1786834207],[123.745941,10.305379,362.2608642578125,1786834217],[123.745941,10.305376000000001,362.60675048828125,1786834218],[123.74595600000001,10.305353,364.8521728515625,1786834229],[123.745997,10.305202,370.6610107421875,1786834271],[123.745997,10.305198000000001,370.705810546875,1786834272],[123.745954,10.305166,373.319580078125,1786834299],[123.745942,10.305142999999999,374.293701171875,1786834310],[123.74591700000001,10.305135,374.391845703125,1786834320],[123.745915,10.305054999999999,379.0682373046875,1786834406],[123.745915,10.305023,381.27093505859375,1786834413],[123.745932,10.305002,382.5528564453125,1786834418],[123.745925,10.304976999999999,383.2420654296875,1786834425],[123.74593299999999,10.304952999999999,384.43817138671875,1786834431],[123.745954,10.304936,385.5040283203125,1786834437],[123.745971,10.304887000000001,387.9080810546875,1786834453],[123.745974,10.304883999999999,387.8292236328125,1786834454],[123.74606,10.304826,391.141845703125,1786834488],[123.746073,10.304779999999999,392.937255859375,1786834501],[123.746093,10.304757,394.5208740234375,1786834507],[123.746098,10.304755,394.69000244140625,1786834508],[123.746127,10.304747000000001,396.3675537109375,1786834516],[123.746177,10.304691999999999,397.5836181640625,1786834679],[123.74618100000001,10.304667,398.886474609375,1786834686],[123.746202,10.304652000000001,399.8807373046875,1786834693],[123.7462,10.304622999999999,402.0635986328125,1786834705],[123.746199,10.304618,402.43017578125,1786834706],[123.74620299999999,10.304561,402.9447021484375,1786834717],[123.746264,10.304513,406.87823486328125,1786834738],[123.746274,10.304459,408.915283203125,1786834753],[123.746274,10.304454,409.0562744140625,1786834754],[123.74627,10.304359,411.730224609375,1786834772],[123.746245,10.304283,413.507568359375,1786834785],[123.74624300000001,10.304277000000001,413.665771484375,1786834786],[123.746227,10.304225000000001,415.4132080078125,1786834801],[123.74623800000001,10.304176999999999,417.054443359375,1786834816],[123.746262,10.304176999999999,418.41552734375,1786834824],[123.746307,10.304207,420.13238525390625,1786834835],[123.746312,10.304207999999999,420.21624755859375,1786834836],[123.746343,10.304207,420.8179931640625,1786834845],[123.746348,10.304183,422.2064208984375,1786834852],[123.746369,10.304169999999999,423.4808349609375,1786834857],[123.746393,10.304128,424.45849609375,1786834900],[123.74644000000001,10.304095999999999,427.50909423828125,1786834918],[123.746444,10.304093,427.537353515625,1786834919],[123.74651299999999,10.304052,430.6243896484375,1786834938],[123.746561,10.304053,432.24920654296875,1786834980],[123.746605,10.304024,433.7696533203125,1786834991],[123.74660900000001,10.304026,434.144287109375,1786834992],[123.74673799999999,10.304031,439.1461181640625,1786835022],[123.74679500000001,10.304046,442.3525390625,1786835035],[123.74679999999999,10.304046,442.4432373046875,1786835036],[123.746804,10.303995,444.39288330078125,1786835052],[123.74677800000001,10.303931,445.8594970703125,1786835091],[123.74677,10.303879999999999,446.96990966796875,1786835098],[123.746769,10.303872,446.87274169921875,1786835099],[123.74675499999999,10.303720999999999,451.4234619140625,1786835124],[123.746736,10.303697,452.10546875,1786835129],[123.746731,10.303691000000001,452.095703125,1786835130],[123.74668800000001,10.303604,452.537109375,1786835144],[123.746663,10.303526,453.09765625,1786835156],[123.746662,10.303521,452.88714599609375,1786835157],[123.746636,10.303438,453.9853515625,1786835200],[123.74658100000001,10.303357999999999,452.461669921875,1786835214],[123.746579,10.303354000000001,452.50848388671875,1786835215],[123.746489,10.303214000000001,453.1019287109375,1786835247],[123.746484,10.303205999999999,453.30511474609375,1786835248],[123.746403,10.303057000000001,457.28570556640625,1786835270],[123.746399,10.303051,457.38189697265625,1786835271],[123.746359,10.302977,459.98223876953125,1786835295],[123.746354,10.302875999999999,461.36572265625,1786835312],[123.746354,10.30287,461.45294189453125,1786835313],[123.746358,10.302813,463.7724609375,1786835326],[123.74634,10.302771,464.75714111328125,1786835335],[123.74634399999999,10.302726,466.93316650390625,1786835345],[123.746337,10.302695999999999,467.82470703125,1786835351],[123.746337,10.302690999999999,468.0179443359375,1786835352],[123.746334,10.302612,470.238525390625,1786835367],[123.74630399999999,10.302511000000001,472.85888671875,1786835448],[123.74630000000001,10.302505,472.842529296875,1786835449],[123.746267,10.302432,475.439697265625,1786835464],[123.746258,10.302382,478.118408203125,1786835475],[123.746228,10.302339,481.26416015625,1786835486],[123.74622599999999,10.302334999999999,481.4288330078125,1786835487],[123.74614699999999,10.302165,482.545654296875,1786835516],[123.746143,10.302156999999999,482.3177490234375,1786835517],[123.746089,10.302065000000001,482.5458984375,1786835530],[123.74603500000001,10.302007,482.9512939453125,1786835540],[123.74603,10.302002,482.982421875,1786835541],[123.745946,10.301914,484.825439453125,1786835558],[123.745923,10.301864999999999,486.5584716796875,1786835567],[123.74592199999999,10.301862,486.666259765625,1786835568],[123.74585999999999,10.301811000000001,489.0814208984375,1786835584],[123.745846,10.301767,491.504150390625,1786835595],[123.74582599999999,10.30175,493.15673828125,1786835601],[123.74584,10.301723000000001,494.10546875,1786835607],[123.74584400000001,10.301719,494.08935546875,1786835608],[123.745856,10.301693999999999,494.738037109375,1786835614],[123.745862,10.301615999999999,497.738037109375,1786835632],[123.745897,10.301544,499.421142578125,1786835646],[123.74590000000001,10.301539999999999,499.5958251953125,1786835647],[123.74600599999999,10.301463999999999,500.798583984375,1786835668],[123.746013,10.301437999999999,501.556640625,1786835696],[123.745994,10.301415,502.244873046875,1786835701],[123.74599000000001,10.301413,502.29736328125,1786835702],[123.745868,10.301409,504.99267578125,1786835863],[123.745814,10.301418999999999,506.861083984375,1786835873],[123.74580899999999,10.301420999999999,507.121337890625,1786835874],[123.74573100000001,10.301428,508.9693603515625,1786835887],[123.74566299999999,10.301417000000001,509.891357421875,1786835897],[123.745637,10.301402,510.06201171875,1786835901],[123.745632,10.301399,510.07373046875,1786835902],[123.745553,10.301339,512.0087890625,1786835916],[123.74550499999999,10.301275,513.40478515625,1786835929],[123.745502,10.301269,513.3914794921875,1786835930],[123.745458,10.301171,513.9365234375,1786835945],[123.745441,10.301155,514.1864013671875,1786835948],[123.745392,10.301147,514.7603759765625,1786835955],[123.745385,10.301147,514.8292236328125,1786835956],[123.745262,10.301163000000001,514.671875,1786835973],[123.74520800000001,10.301159,513.480224609375,1786835981],[123.7452,10.301157999999999,513.2923583984375,1786835982],[123.74507,10.301118000000001,512.6864013671875,1786835999],[123.74502699999999,10.301092000000001,513.423828125,1786836006],[123.745019,10.30109,513.494140625,1786836007],[123.744924,10.30104,516.5771484375,1786836024],[123.744895,10.301003,517.135009765625,1786836032],[123.74488700000001,10.30097,517.126220703125,1786836037],[123.74488599999999,10.300962,517.03369140625,1786836038],[123.744879,10.300912,516.1123046875,1786836045],[123.744889,10.300793000000001,515.1680908203125,1786836061],[123.744888,10.300786,515.28564453125,1786836062],[123.744856,10.300713999999999,515.615234375,1786836073],[123.744857,10.300611999999999,513.661376953125,1786836086],[123.74485799999999,10.300604,513.7021484375,1786836087],[123.744877,10.300502,511.97021484375,1786836103],[123.744889,10.300478,512.0947265625,1786836106],[123.74492499999999,10.300445,511.932373046875,1786836113],[123.744933,10.30044,511.8614501953125,1786836114],[123.745086,10.30035,512.01416015625,1786836138],[123.74509399999999,10.300347,511.7255859375,1786836139],[123.745278,10.300283,512.760009765625,1786836162],[123.745285,10.300279,512.846923828125,1786836163],[123.74532499999999,10.300248,512.9908447265625,1786836170],[123.74538800000001,10.300146,512.149658203125,1786836187],[123.745391,10.300141,511.93798828125,1786836188],[123.745429,10.300075,510.72802734375,1786836199],[123.745491,10.300001,508.696533203125,1786836213],[123.74549399999999,10.299993000000001,508.5595703125,1786836214],[123.74555599999999,10.299818999999999,506.7666015625,1786836244],[123.745558,10.299813,506.7353515625,1786836245],[123.745616,10.299765000000001,506.724609375,1786836255],[123.74570900000001,10.299712,507.1668701171875,1786836268],[123.745715,10.299707,507.28173828125,1786836269],[123.745741,10.29969,507.2418212890625,1786836273],[123.74571,10.299647999999999,505.9072265625,1786836291],[123.74569200000001,10.2996,504.4510498046875,1786836318],[123.745718,10.299590999999999,504.1075439453125,1786836353],[123.74574,10.299606000000001,504.928466796875,1786836358],[123.745746,10.299609999999999,505.033935546875,1786836359],[123.745817,10.299632000000001,506.73583984375,1786836372],[123.74590499999999,10.299581,506.033203125,1786836385],[123.74591100000001,10.299576999999999,505.990966796875,1786836386],[123.745977,10.299498,506.5810546875,1786836399],[123.746043,10.299454000000001,508.181396484375,1786836410],[123.74605,10.299452,508.26416015625,1786836411],[123.746212,10.299371000000001,509.5848388671875,1786836436],[123.746219,10.299367999999999,509.606201171875,1786836437],[123.746387,10.299300000000001,512.3643798828125,1786836465],[123.746392,10.299299,512.5048828125,1786836466],[123.74644000000001,10.299270999999999,512.153076171875,1786836500],[123.746483,10.299155000000001,508.947265625,1786836521],[123.74648500000001,10.299151,508.70703125,1786836522],[123.746514,10.298977000000001,502.272705078125,1786836554],[123.746514,10.298971,502.1055908203125,1786836555],[123.74654,10.298904,500.315673828125,1786836564],[123.746618,10.298840999999999,498.341064453125,1786836577],[123.74662600000001,10.298836,498.23681640625,1786836578],[123.746776,10.298738999999999,496.9716796875,1786836606],[123.74678299999999,10.298734,496.760498046875,1786836607],[123.74694,10.298641,496.70263671875,1786836627],[123.74694700000001,10.298636999999999,496.7158203125,1786836628],[123.74709300000001,10.298522999999999,495.47607421875,1786836651],[123.74709900000001,10.298519000000001,495.2196044921875,1786836652],[123.747163,10.298477,493.859619140625,1786836664],[123.747209,10.29846,493.764404296875,1786836671],[123.747264,10.298455000000001,493.705810546875,1786836679],[123.747272,10.298454,493.617919921875,1786836680],[123.747355,10.298435,494.0584716796875,1786836690],[123.747454,10.298394999999999,494.863525390625,1786836704],[123.747463,10.298397,494.9478759765625,1786836705],[123.74749799999999,10.298399,495.57568359375,1786836709],[123.747623,10.298344,495.88818359375,1786836728],[123.74763,10.298339,496.0687255859375,1786836729],[123.747657,10.298325999999999,496.46044921875,1786836733],[123.747728,10.298321,497.72509765625,1786836744],[123.747805,10.298342,500.479248046875,1786836756],[123.747811,10.298344999999999,500.76806640625,1786836757],[123.74787600000001,10.298389999999999,502.926513671875,1786836770],[123.747973,10.298406,503.0379638671875,1786836783],[123.747979,10.298406999999999,502.79345703125,1786836784],[123.74806,10.298404,502.8680419921875,1786836796],[123.74815599999999,10.298419000000001,504.92431640625,1786836809],[123.74816300000001,10.29842,505.1375732421875,1786836810],[123.748261,10.298411,507.140625,1786836824],[123.74830300000001,10.298392,507.023681640625,1786836830],[123.748324,10.298370999999999,506.7952880859375,1786836834],[123.748329,10.298366,506.728759765625,1786836835],[123.748439,10.298215000000001,505.928955078125,1786836859],[123.74844299999999,10.298207,505.91162109375,1786836860],[123.748537,10.298050999999999,501.68798828125,1786836896],[123.74853899999999,10.298045999999999,501.544189453125,1786836897],[123.748553,10.298018000000001,500.798583984375,1786836902],[123.748656,10.297898999999999,498.630126953125,1786836924],[123.74866299999999,10.297893999999999,498.634521484375,1786836925],[123.748768,10.297834999999999,498.05615234375,1786836939],[123.74882599999999,10.297821000000001,498.575439453125,1786836946],[123.748835,10.297821000000001,498.79736328125,1786836947],[123.748946,10.297822,499.794189453125,1786836960],[123.749021,10.297843,501.660400390625,1786836973],[123.749027,10.297844,501.816650390625,1786836974],[123.74919300000001,10.297912999999999,504.510986328125,1786836995],[123.749202,10.297916000000001,504.451416015625,1786836996],[123.749235,10.297931,504.70458984375,1786837000],[123.749375,10.297961000000001,503.546142578125,1786837016],[123.74938299999999,10.297964,503.18603515625,1786837017],[123.749556,10.298028,502.7518310546875,1786837042],[123.74956400000001,10.298028,502.606689453125,1786837043],[123.74975499999999,10.298055,504.669921875,1786837066],[123.749763,10.298056000000001,504.75634765625,1786837067],[123.74985700000001,10.298075000000001,504.2318115234375,1786837077],[123.74992399999999,10.298041,503.999755859375,1786837086],[123.749927,10.29804,503.9796142578125,1786837087],[123.749927,10.298014999999999,503.96142578125,1786837111],[123.749943,10.298059,504.5126953125,1786837553],[123.750044,10.298082000000001,505.466796875,1786837569],[123.750051,10.298081,505.61181640625,1786837570],[123.75023,10.298090999999999,509.899169921875,1786837600],[123.750235,10.298092,509.9967041015625,1786837601],[123.75028399999999,10.298112,512.260986328125,1786837612],[123.75039099999999,10.298181,515.789794921875,1786837635],[123.750395,10.298183,515.930419921875,1786837636],[123.750494,10.298206,518.1759033203125,1786837655],[123.750574,10.298206,519.672607421875,1786837668],[123.750581,10.298204999999999,519.7266845703125,1786837669],[123.750682,10.298211999999999,521.309814453125,1786837687],[123.750755,10.298189000000001,521.516357421875,1786837697],[123.75076,10.298185,521.593505859375,1786837698],[123.750849,10.298143,521.799072265625,1786837711],[123.750925,10.298128,523.31884765625,1786837723],[123.75093200000001,10.298124,523.4857177734375,1786837724],[123.751119,10.298126999999999,524.591064453125,1786837747],[123.751125,10.298128,524.4979248046875,1786837748],[123.751206,10.29814,524.369384765625,1786837759],[123.751255,10.298054,522.1549072265625,1786837779],[123.75125800000001,10.298050999999999,522.087890625,1786837780],[123.75130799999999,10.29799,518.903076171875,1786837793],[123.75132600000001,10.297946,517.903076171875,1786837799],[123.751328,10.2979,517.7138671875,1786837804],[123.75133,10.297891999999999,517.8048095703125,1786837805],[123.751332,10.297834999999999,517.8857421875,1786837812],[123.751294,10.297800000000001,517.79541015625,1786837820],[123.751276,10.297757000000001,516.8056640625,1786837829],[123.751274,10.297723,515.7913818359375,1786837834],[123.75127500000001,10.297715999999999,515.721923828125,1786837835],[123.751302,10.297637999999999,515.1865234375,1786837845],[123.751367,10.297556999999999,515.19482421875,1786837858],[123.751372,10.297549,515.423828125,1786837859],[123.75142099999999,10.297491000000001,514.595458984375,1786837868],[123.75144,10.297421999999999,513.0474853515625,1786837881],[123.751462,10.297402,512.057373046875,1786837894],[123.75146599999999,10.297396000000001,511.825927734375,1786837895],[123.75161199999999,10.297272,511.1265869140625,1786837919],[123.75161900000001,10.297266,511.0711669921875,1786837920],[123.751712,10.297186999999999,511.64111328125,1786837937],[123.751757,10.29716,511.51611328125,1786837945],[123.75176500000001,10.297158,511.49169921875,1786837946],[123.751858,10.297141999999999,508.918701171875,1786838023],[123.751932,10.297167,508.62451171875,1786838032],[123.75194,10.297169,508.5849609375,1786838033],[123.75210800000001,10.297214,504.2568359375,1786838055],[123.75211400000001,10.297214,503.9334716796875,1786838056],[123.752126,10.297219,502.503662109375,1786838095],[123.75201199999999,10.29715,501.8780517578125,1786838111],[123.752005,10.297143,501.633056640625,1786838112],[123.751863,10.297008,498.696044921875,1786838135],[123.751856,10.297002000000001,498.54638671875,1786838136],[123.751761,10.29692,495.123046875,1786838152],[123.751715,10.296893000000001,495.1839599609375,1786838177],[123.75170900000001,10.296889,494.998046875,1786838178],[123.75164599999999,10.296841000000001,493.474609375,1786838231],[123.75162,10.296835,492.7109375,1786838236],[123.751554,10.29679,490.68115234375,1786838251],[123.75155100000001,10.296784000000001,490.475830078125,1786838252],[123.751486,10.296742,487.16552734375,1786838262],[123.751458,10.296649,484.0518798828125,1786838275],[123.75145500000001,10.296642,483.8187255859375,1786838276],[123.75147,10.296564999999999,481.3076171875,1786838290],[123.751437,10.296498,479.74853515625,1786838299],[123.751409,10.296481,479.1441650390625,1786838302],[123.751401,10.296476,479.0662841796875,1786838303],[123.751323,10.296402,477.018310546875,1786838316],[123.75129099999999,10.296343999999999,476.132080078125,1786838323],[123.751285,10.296336999999999,476.035400390625,1786838324],[123.751227,10.296282,473.889892578125,1786838332],[123.751206,10.296215,472.1595458984375,1786838340],[123.751188,10.296194,471.30908203125,1786838343],[123.751182,10.296186000000001,471.1690673828125,1786838344],[123.75117299999999,10.296132,470.221923828125,1786838353],[123.751152,10.296084,468.95684814453125,1786838359],[123.75109500000001,10.296030999999999,467.53271484375,1786838368],[123.75109,10.296028,467.44659423828125,1786838369],[123.75102800000001,10.295983,465.6893310546875,1786838380],[123.750984,10.295977000000001,465.52734375,1786838387],[123.750939,10.295954,464.68389892578125,1786838398],[123.750934,10.295952,464.74908447265625,1786838399],[123.75089699999999,10.295918,463.80609130859375,1786838406],[123.7509,10.295893,463.17474365234375,1786838411],[123.750879,10.295849,461.8770751953125,1786838416],[123.750839,10.295811,460.91802978515625,1786838421],[123.75083100000001,10.295802999999999,460.85882568359375,1786838422],[123.75073999999999,10.295723000000001,459.52447509765625,1786838433],[123.750711,10.295681,458.64251708984375,1786838439],[123.75071,10.295671,458.5828857421875,1786838440],[123.750696,10.295623000000001,458.317138671875,1786838445],[123.75062200000001,10.295522999999999,458.08673095703125,1786838456],[123.750615,10.295515999999999,458.203125,1786838457],[123.750595,10.295493,458.65216064453125,1786838460],[123.750533,10.295362000000001,461.29296875,1786838477],[123.75053,10.295351999999999,461.40203857421875,1786838478],[123.750495,10.295260000000001,461.55987548828125,1786838488],[123.750444,10.295206,460.51678466796875,1786838496],[123.750439,10.295197999999999,460.416748046875,1786838497],[123.75040300000001,10.295151000000001,459.8564453125,1786838506],[123.750404,10.295125000000001,459.6214599609375,1786838513],[123.750415,10.295102999999999,459.09295654296875,1786838516],[123.75044,10.295094000000001,458.678955078125,1786838521],[123.75045299999999,10.295071999999999,458.0460205078125,1786838525],[123.75048200000001,10.295057,457.064697265625,1786838530],[123.750489,10.295055,456.676513671875,1786838531],[123.750568,10.294986,452.87750244140625,1786838549],[123.750643,10.294969999999999,451.5496826171875,1786838563],[123.750648,10.294969999999999,451.388427734375,1786838564],[123.750696,10.294941,448.92681884765625,1786838580],[123.75073,10.294962999999999,449.021484375,1786838585],[123.750782,10.295016,451.67041015625,1786838594],[123.750788,10.295021999999999,452.001220703125,1786838595],[123.750829,10.295064999999999,453.0672607421875,1786838602],[123.75089,10.295170000000001,452.378173828125,1786838617],[123.750893,10.295178,452.0732421875,1786838618],[123.750935,10.295268999999999,449.9725341796875,1786838630],[123.75096499999999,10.295303000000001,447.8319091796875,1786838637],[123.75099299999999,10.295318999999999,445.9200439453125,1786838644],[123.750998,10.29532,445.6539306640625,1786838645],[123.751047,10.295342,443.40008544921875,1786838653],[123.75107,10.295339,442.56182861328125,1786838657],[123.75112300000001,10.295247,438.739013671875,1786838673],[123.751124,10.295239,438.4583740234375,1786838674],[123.751124,10.295169,437.197265625,1786838683],[123.751113,10.295126,436.5653076171875,1786838688],[123.751087,10.295075000000001,436.5689697265625,1786838694],[123.751082,10.295067,436.404052734375,1786838695],[123.75107,10.295035,436.80859375,1786838701],[123.75109,10.294964,433.958740234375,1786838716],[123.75108,10.294891,432.6243896484375,1786838741],[123.75107800000001,10.294885000000001,432.26324462890625,1786838742],[123.751025,10.294722999999999,426.181884765625,1786838769],[123.75102200000001,10.294719000000001,426.125244140625,1786838770],[123.751018,10.294692,424.85504150390625,1786838773],[123.75099299999999,10.294646,423.3594970703125,1786838780],[123.750939,10.294608,422.69976806640625,1786838790],[123.750923,10.294584,422.023681640625,1786838799],[123.750922,10.29458,421.845947265625,1786838800],[123.75088,10.294484000000001,419.056640625,1786838814],[123.750868,10.294411,416.6463623046875,1786838824],[123.75086400000001,10.294401000000001,416.643798828125,1786838825],[123.750835,10.294357,416.206298828125,1786838831],[123.750832,10.294332000000001,416.13067626953125,1786838838],[123.750829,10.294282000000001,413.84527587890625,1786838854],[123.750843,10.294225000000001,410.76544189453125,1786838867],[123.750844,10.294222,410.61328125,1786838868],[123.75086400000001,10.294141,406.9613037109375,1786838893],[123.750822,10.294079999999999,401.3603515625,1786838934],[123.750833,10.294053999999999,399.88372802734375,1786838944],[123.750838,10.294051,399.722900390625,1786838945],[123.750862,10.294005,397.5052490234375,1786838961],[123.750851,10.293983000000001,396.16705322265625,1786838975],[123.75088700000001,10.293915999999999,392.0390625,1786839004],[123.750888,10.293885,390.986572265625,1786839023],[123.750888,10.29388,390.82244873046875,1786839024],[123.750901,10.293854,389.77410888671875,1786839040],[123.75095399999999,10.29382,388.4368896484375,1786839091],[123.751023,10.293834,389.05426025390625,1786839098],[123.751031,10.293835,389.0264892578125,1786839099],[123.751087,10.293829000000001,388.27734375,1786839105],[123.751204,10.293858,385.8375244140625,1786839133],[123.751211,10.293858999999999,385.71868896484375,1786839134],[123.751234,10.293863,385.597412109375,1786839142],[123.75130299999999,10.293847,382.3546142578125,1786839159],[123.75138,10.293861,380.76727294921875,1786839172],[123.751383,10.293856999999999,380.6290283203125,1786839173],[123.75140399999999,10.293835,379.1182861328125,1786839179],[123.751465,10.293803,378.67303466796875,1786839187],[123.75153899999999,10.293786000000001,378.802734375,1786839195],[123.751549,10.293785,378.7835693359375,1786839196],[123.751662,10.293779000000001,378.69378662109375,1786839208],[123.751716,10.293763999999999,378.028564453125,1786839214],[123.751724,10.293761999999999,377.90167236328125,1786839215],[123.75183,10.293730999999999,375.7294921875,1786839228],[123.751903,10.293732,373.4921875,1786839240],[123.75191,10.29373,373.3309326171875,1786839241],[123.75198399999999,10.293709,369.8590087890625,1786839560],[123.75208499999999,10.293734000000001,370.2542724609375,1786839575],[123.75209099999999,10.293736000000001,370.20745849609375,1786839576],[123.752205,10.293787,369.00537109375,1786839593],[123.752259,10.293792,368.293212890625,1786839601],[123.75226499999999,10.293789,368.19287109375,1786839602],[123.752374,10.293735,364.1636962890625,1786839621],[123.75241699999999,10.293703000000001,360.62664794921875,1786839648],[123.75245200000001,10.293687,360.4940185546875,1786839649],[123.75246799999999,10.293663,357.617919921875,1786839670],[123.752521,10.293631,354.95269775390625,1786839688],[123.752548,10.293632000000001,354.270751953125,1786839690],[123.752545,10.293608000000001,354.0552978515625,1786839759],[123.75256299999999,10.293585999999999,351.594482421875,1786839765],[123.752566,10.293585,351.5078125,1786839766],[123.752644,10.293556000000001,348.14013671875,1786839781],[123.752696,10.2935,344.623291015625,1786839811],[123.752702,10.293471,343.76806640625,1786839816],[123.7527,10.293464999999999,343.4622802734375,1786839817],[123.752698,10.293421,341.8258056640625,1786839824],[123.75271100000001,10.293405,341.970458984375,1786839825],[123.752736,10.293412,341.6715087890625,1786839826],[123.752717,10.293400999999999,341.20159912109375,1786839835],[123.75269400000001,10.293359000000001,339.382568359375,1786839843],[123.75269299999999,10.293353,339.004150390625,1786839844],[123.75265,10.293243,335.138671875,1786839865],[123.75261999999999,10.293198,333.673583984375,1786839874],[123.75261399999999,10.293194,333.3636474609375,1786839875],[123.752601,10.293170999999999,332.59844970703125,1786839882],[123.752596,10.293106,330.87353515625,1786839893],[123.75256400000001,10.293070999999999,330.10986328125,1786839900],[123.752567,10.293042,329.63427734375,1786839911],[123.752567,10.293036000000001,329.3896484375,1786839912],[123.752511,10.292945,325.4371337890625,1786839932],[123.752441,10.292913,323.42987060546875,1786839948],[123.752437,10.292909,323.0899658203125,1786839949],[123.752414,10.292890999999999,322.11968994140625,1786839954],[123.752398,10.292849,319.3695068359375,1786839970],[123.75244600000001,10.292833999999999,318.396484375,1786839975],[123.752438,10.292808000000001,315.3614501953125,1786839988],[123.752416,10.292786,314.435546875,1786839993],[123.752415,10.292782000000001,314.3758544921875,1786839994],[123.752403,10.292707,313.49737548828125,1786840007],[123.752455,10.292624999999999,313.185546875,1786840022],[123.752456,10.292623000000001,313.21197509765625,1786840023],[123.752504,10.292573000000001,314.575927734375,1786840035],[123.75252,10.292528000000001,313.4102783203125,1786840045],[123.752511,10.292503999999999,313.45068359375,1786840050],[123.752515,10.292472999999999,312.36346435546875,1786840057],[123.75251400000001,10.292469000000001,312.29095458984375,1786840058],[123.75255,10.292381000000001,309.4351806640625,1786840073],[123.75256299999999,10.292304,308.37060546875,1786840083],[123.752562,10.292294999999999,308.18145751953125,1786840084],[123.75254200000001,10.292177000000001,307.2783203125,1786840099],[123.752565,10.292128999999999,306.8380126953125,1786840106],[123.752566,10.292123,306.7862548828125,1786840107],[123.75260400000001,10.292085,305.09716796875,1786840132],[123.752627,10.292077000000001,303.2064208984375,1786840144],[123.752624,10.29205,301.916748046875,1786840162],[123.752697,10.292071,298.509765625,1786840189],[123.752703,10.292069,298.3258056640625,1786840190],[123.752762,10.292059999999999,295,1786840202],[123.752774,10.292013000000001,295.86773681640625,1786840208],[123.752762,10.291993,292.2410888671875,1786840277],[123.752735,10.291988999999999,291.808837890625,1786840281],[123.752735,10.291987000000001,291.82415771484375,1786840282],[123.75273300000001,10.291933999999999,289.04730224609375,1786840333],[123.75272,10.291911000000001,287.86358642578125,1786840351],[123.75272099999999,10.291862,284.60357666015625,1786840398],[123.752747,10.291815,281.552001953125,1786840440],[123.752747,10.291814,281.5216064453125,1786840441],[123.75277199999999,10.291808,280.02301025390625,1786840465],[123.75278299999999,10.291734999999999,276.12957763671875,1786840650],[123.752809,10.291691999999999,272.8985595703125,1786840663],[123.75281200000001,10.29166,271.83941650390625,1786840668],[123.752815,10.291657000000001,271.65899658203125,1786840669],[123.752843,10.291646999999999,269.53363037109375,1786840676],[123.75287400000001,10.291608,266.99237060546875,1786840689],[123.752849,10.291566,265.69451904296875,1786840732],[123.752859,10.291542,264.4571533203125,1786840735],[123.752888,10.291523,262.63482666015625,1786840741],[123.752893,10.29152,262.1934814453125,1786840742],[123.75291199999999,10.291467000000001,259.9307861328125,1786840761],[123.752944,10.29144,257.3189697265625,1786840768],[123.752951,10.291418999999999,256.3699951171875,1786840771],[123.752939,10.291399,255.82330322265625,1786840777],[123.752914,10.291387,256.43603515625,1786840781],[123.752914,10.291385999999999,256.4439697265625,1786840782],[123.75293600000001,10.291402,257.4544677734375,1786840798],[123.75295199999999,10.29139,257.2835693359375,1786840802],[123.752961,10.291369,255.7628173828125,1786840807],[123.753006,10.291344,254.47772216796875,1786840828],[123.753005,10.291316999999999,253.739501953125,1786840833],[123.753023,10.291293,252.3406982421875,1786840839],[123.75303099999999,10.291296000000001,252.2640380859375,1786840840],[123.75308800000001,10.291290999999999,253.3873291015625,1786840853],[123.753146,10.291342999999999,250.0789794921875,1786840969],[123.753204,10.291349,248.73516845703125,1786840979],[123.753214,10.291349,248.7255859375,1786840980],[123.753244,10.29134,247.6441650390625,1786840984],[123.75331199999999,10.291282000000001,246.11553955078125,1786841006],[123.753366,10.291268000000001,243.24749755859375,1786841018],[123.753367,10.291264999999999,243.1810302734375,1786841019],[123.753416,10.291247,241.1907958984375,1786841031],[123.75346500000001,10.291249000000001,240.8243408203125,1786841038],[123.753485,10.291238,240.0211181640625,1786841041],[123.753517,10.291194000000001,238.88104248046875,1786841053],[123.753523,10.291193,239.065185546875,1786841054],[123.75359899999999,10.291093999999999,236.5228271484375,1786841083],[123.753649,10.291065,236.28271484375,1786841092],[123.753654,10.291060999999999,236.3009033203125,1786841093],[123.753683,10.291036,234.85687255859375,1786841102],[123.753726,10.291031,235.08648681640625,1786841106],[123.75376799999999,10.291002000000001,233.1068115234375,1786841131],[123.75376799999999,10.290983000000001,233.244140625,1786841149],[123.753793,10.290972,232.62603759765625,1786841150],[123.753794,10.290969,232.6220703125,1786841151],[123.753816,10.290948999999999,232.248779296875,1786841152],[123.75379,10.290945000000001,230.2236328125,1786841170],[123.753777,10.290894,228.3927001953125,1786841216],[123.75378000000001,10.290868,227.81488037109375,1786841230],[123.75380800000001,10.290827,224.7010498046875,1786841245],[123.75381,10.290797,222.969482421875,1786841259],[123.75381,10.290793000000001,222.863525390625,1786841260],[123.75382399999999,10.290692999999999,220.643310546875,1786841354],[123.753799,10.290703000000001,218.3912353515625,1786841375],[123.7538,10.290680999999999,215.3895263671875,1786841413],[123.753783,10.290651,214.148681640625,1786841416],[123.75378000000001,10.290645,213.8199462890625,1786841417],[123.753789,10.290594,209.127197265625,1786841434],[123.75381,10.290578999999999,213.052490234375,1786841476],[123.753801,10.290539000000001,211.79193115234375,1786841480],[123.75382999999999,10.290495,212.443603515625,1786841490],[123.753829,10.290495,212.4334716796875,1786841491],[123.75381899999999,10.290473,213.12890625,1786841511],[123.753843,10.290478,214.30450439453125,1786841533],[123.75386399999999,10.290466,213.9090576171875,1786841537],[123.753889,10.290471999999999,213.72283935546875,1786841540],[123.753947,10.290428,211.2652587890625,1786841563],[123.75394900000001,10.290417,210.900146484375,1786841564],[123.75395,10.290416,210.5294189453125,1786841565],[123.754009,10.290379,209.86962890625,1786841614],[123.754006,10.290355999999999,210.5521240234375,1786841619],[123.75403,10.29035,209.6436767578125,1786841631],[123.75404899999999,10.290330000000001,208.83355712890625,1786841637],[123.754045,10.290300999999999,204.5413818359375,1786841644],[123.75404399999999,10.290297000000001,203.49755859375,1786841645],[123.754068,10.290217,198.09210205078125,1786841720],[123.754091,10.290205,196.859619140625,1786841725],[123.754116,10.290210999999999,197.298095703125,1786841732],[123.754155,10.290175,195.986328125,1786841753],[123.754158,10.290172,195.9713134765625,1786841754],[123.754189,10.29013,193.9488525390625,1786841766],[123.75421,10.290055000000001,190.7940673828125,1786841781],[123.7542,10.290036000000001,191.8924560546875,1786841784],[123.75417299999999,10.290025,192.3831787109375,1786841789],[123.75417,10.290024000000001,192.3258056640625,1786841790],[123.75415,10.290004,193.25616455078125,1786841798],[123.754149,10.289977,193.12310791015625,1786841804],[123.754172,10.289910000000001,191.62420654296875,1786841825],[123.75420200000001,10.289861999999999,190.491455078125,1786841838],[123.754204,10.289858000000001,190.95068359375,1786841839],[123.75428700000001,10.289731,185.15478515625,1786841898],[123.754293,10.289702999999999,184.24560546875,1786841916],[123.754295,10.289701000000001,183.8916015625,1786841917],[123.754317,10.289687000000001,181.04376220703125,1786841956],[123.75436500000001,10.289682000000001,178.157470703125,1786841969],[123.754411,10.289662999999999,175.9736328125,1786841984],[123.754412,10.289638999999999,175.01751708984375,1786841989],[123.75443799999999,10.289626999999999,176.29638671875,1786842032],[123.75447,10.289483000000001,171.6068115234375,1786842156],[123.754458,10.289455999999999,172.5224609375,1786842254],[123.754458,10.289453999999999,172.793212890625,1786842255],[123.754473,10.289402000000001,173.2503662109375,1786842269],[123.75454999999999,10.289298,172.15106201171875,1786842330],[123.75460099999999,10.289239999999999,169.39111328125,1786842358],[123.75464599999999,10.289216,164.6292724609375,1786842395],[123.754696,10.289208,162.2781982421875,1786842410],[123.7547,10.289206999999999,161.856689453125,1786842411],[123.754722,10.289192999999999,161.56610107421875,1786842439],[123.754749,10.289197,163.0081787109375,1786842448],[123.754774,10.289187999999999,162.9910888671875,1786842457],[123.75479,10.289167000000001,160.712646484375,1786842467],[123.754801,10.289121,158.90008544921875,1786842486],[123.754823,10.289103000000001,159.702392578125,1786842490],[123.754828,10.289099999999999,159.86279296875,1786842491],[123.75493400000001,10.288997999999999,157.19281005859375,1786842524],[123.754948,10.288971,157.0257568359375,1786842531],[123.754948,10.288970000000001,156.93170166015625,1786842532],[123.754964,10.288949000000001,155.072509765625,1786842546],[123.754966,10.288886,151.5869140625,1786842563],[123.755025,10.288850999999999,149.52191162109375,1786842584],[123.75502899999999,10.288853,149.3233642578125,1786842585],[123.755059,10.288845,149.08245849609375,1786842595],[123.755082,10.288859,149.04150390625,1786842601],[123.755092,10.288764,146.837158203125,1786842602],[123.755047,10.288701,146.79742431640625,1786842612],[123.75504100000001,10.288693,146.88482666015625,1786842613],[123.75497300000001,10.288613,147.593017578125,1786842627],[123.754908,10.288577999999999,147.3992919921875,1786842635],[123.754903,10.288573,147.8314208984375,1786842636],[123.754874,10.288555000000001,146.904541015625,1786842641],[123.754829,10.288576000000001,148.62640380859375,1786842649],[123.75475299999999,10.288500000000001,148.2906494140625,1786842661],[123.754746,10.288494999999999,148.071533203125,1786842662],[123.754729,10.288423,147.50506591796875,1786842674],[123.75468499999999,10.288339000000001,147.62420654296875,1786842687],[123.754678,10.288330999999999,147.361083984375,1786842688],[123.75461300000001,10.288169999999999,145.234375,1786842740],[123.75460699999999,10.288163000000001,144.85626220703125,1786842741],[123.754533,10.288088,145.28057861328125,1786842757],[123.75451,10.288019999999999,144.08209228515625,1786842768],[123.75450600000001,10.288019,144.04449462890625,1786842769],[123.75449,10.288001,143.8707275390625,1786842774],[123.754454,10.288,144.2921142578125,1786842779],[123.75443300000001,10.287983000000001,145.01422119140625,1786842781],[123.754413,10.287939,145.873291015625,1786842787],[123.754391,10.287915,145.19921875,1786842792],[123.75439,10.28791,144.9107666015625,1786842793],[123.75431,10.287805000000001,143.234130859375,1786842812],[123.75430799999999,10.287804,143.5684814453125,1786842813],[123.754285,10.287763,143.30389404296875,1786842821],[123.754217,10.287703,141.94964599609375,1786842835],[123.754212,10.287701,141.493896484375,1786842836],[123.754183,10.287687999999999,142.70721435546875,1786842843],[123.754124,10.287639,146.03912353515625,1786842856],[123.754076,10.287627000000001,144.9591064453125,1786842863],[123.754051,10.287607,145.5203857421875,1786842866],[123.754046,10.287599,145.4991455078125,1786842867],[123.75394799999999,10.287561,148.7586669921875,1786842883],[123.753902,10.287512,150.21099853515625,1786842892],[123.753896,10.287506,150.45526123046875,1786842893],[123.753833,10.287459999999999,149.284912109375,1786842904],[123.753784,10.287440999999999,147.724853515625,1786842916],[123.753755,10.287395999999999,146.07220458984375,1786842927],[123.75376,10.287391,145.31805419921875,1786842928],[123.75376,10.287361000000001,144.701416015625,1786842933],[123.753744,10.287319,143.018798828125,1786842941],[123.75367900000001,10.287240000000001,143.322509765625,1786842960],[123.753675,10.287236999999999,143.20928955078125,1786842961],[123.753652,10.287222,143.34942626953125,1786842968],[123.753659,10.287198,143.71771240234375,1786842977],[123.753585,10.287100000000001,143.03271484375,1786842994],[123.753574,10.287094,143.09027099609375,1786842995],[123.75351499999999,10.287032,143.210693359375,1786843009],[123.753441,10.286979000000001,142.09130859375,1786843057],[123.75343700000001,10.286978,142.13153076171875,1786843058],[123.753409,10.28698,141.63116455078125,1786843063],[123.75337,10.286953,141.28204345703125,1786843071],[123.753338,10.286915,142.50518798828125,1786843079],[123.753321,10.286866,142.138916015625,1786843086],[123.753321,10.286859,141.82220458984375,1786843087],[123.75331199999999,10.286827000000001,140.06744384765625,1786843092],[123.753325,10.286803000000001,137.0823974609375,1786843105],[123.75332299999999,10.286784000000001,135.3912353515625,1786843155],[123.753354,10.286752,131.20654296875,1786843160],[123.753365,10.286702,129.4757080078125,1786843178],[123.753373,10.286697,129.0093994140625,1786843179],[123.7534,10.286675000000001,128.810546875,1786843185],[123.75340199999999,10.286697,128.894775390625,1786843237],[123.75339200000001,10.286721,128.94342041015625,1786843241],[123.753399,10.286728999999999,132.6400146484375,1786843243],[123.753423,10.286721999999999,132.266357421875,1786843244],[123.753435,10.286669,128.97528076171875,1786843250],[123.753434,10.286661,128.3798828125,1786843251],[123.75343700000001,10.286605,127.3485107421875,1786843256],[123.753461,10.286564,125.68963623046875,1786843263],[123.753452,10.286541,125.9229736328125,1786843267],[123.753474,10.286492000000001,123.9046630859375,1786843288],[123.753474,10.286493,123.9150390625,1786843289],[123.753508,10.286471000000001,123.1534423828125,1786843344],[123.75350400000001,10.28651,124.37579345703125,1786843391],[123.753483,10.286498,124.3865966796875,1786843394],[123.753483,10.286473000000001,123.09979248046875,1786843400],[123.75346999999999,10.286498,125.9937744140625,1786843428],[123.753466,10.286503,126.31146240234375,1786843429],[123.753463,10.286533,127.10479736328125,1786843436],[123.753491,10.286572,127.2265625,1786843442],[123.753477,10.286553,126.30853271484375,1786843478],[123.753479,10.286500999999999,125.673583984375,1786843490],[123.753506,10.286479999999999,125.28948974609375,1786843493],[123.753511,10.286478000000001,125.65045166015625,1786843494],[123.753466,10.286445000000001,122.1702880859375,1786843524],[123.753485,10.286435000000001,122.34649658203125,1786843535],[123.75348200000001,10.286410999999999,123.5185546875,1786843539],[123.75349799999999,10.286390000000001,122.918701171875,1786843625],[123.753473,10.286377,124.375244140625,1786843630],[123.753462,10.286377999999999,124.499267578125,1786843631],[123.75345299999999,10.286382,124.3812255859375,1786843632],[123.753502,10.286379,122.18927001953125,1786843656],[123.753516,10.286356,122.4432373046875,1786843660],[123.753528,10.286356,121.78424072265625,1786843901],[123.753528,10.286350000000001,121.8243408203125,1786843902],[123.753514,10.286324,121.18157958984375,1786843913],[123.753523,10.286300000000001,119.74420166015625,1786843917],[123.753479,10.286206999999999,117.34344482421875,1786843966],[123.75343700000001,10.286218,117.66607666015625,1786843975],[123.753435,10.286213999999999,117.28961181640625,1786843976],[123.753433,10.28619,117.53265380859375,1786843981],[123.753415,10.286172000000001,117.01165771484375,1786843987],[123.75341,10.286151,116.671630859375,1786843991],[123.75342499999999,10.286129000000001,116.9329833984375,1786843996],[123.75343100000001,10.286047999999999,117.3819580078125,1786844010],[123.753432,10.286041000000001,117.6678466796875,1786844011],[123.75345,10.285919,116.619384765625,1786844026],[123.75343599999999,10.285897,116.36932373046875,1786844030],[123.753412,10.285881,116.602783203125,1786844033],[123.753417,10.285878,117.6058349609375,1786844034],[123.753426,10.285850999999999,118.40740966796875,1786844037],[123.75341,10.285822,121.0118408203125,1786844042],[123.753336,10.285752,125.435791015625,1786844056],[123.75333000000001,10.28575,126.27362060546875,1786844057],[123.75329499999999,10.285716000000001,123.36651611328125,1786844067],[123.75321599999999,10.285696,122.2301025390625,1786844077],[123.75319399999999,10.285681,122.90338134765625,1786844081],[123.75318799999999,10.285679,123.209716796875,1786844082],[123.753128,10.285628000000001,120.0174560546875,1786844095],[123.75310500000001,10.285626000000001,119.9940185546875,1786844099],[123.75305,10.285568,117.90576171875,1786844111],[123.753047,10.285565,117.54833984375,1786844112],[123.753052,10.285517,116.34222412109375,1786844136],[123.753078,10.28548,115.7867431640625,1786844153],[123.75308099999999,10.285458,116.114990234375,1786844160],[123.753137,10.285456999999999,114.0260009765625,1786844167],[123.753145,10.285455000000001,114.074951171875,1786844168],[123.753196,10.285443000000001,114.9620361328125,1786844176],[123.75325100000001,10.285394,115.00543212890625,1786844190],[123.753305,10.285382,114.63720703125,1786844199],[123.75331199999999,10.285379000000001,114.3048095703125,1786844200],[123.753365,10.285367000000001,113.82708740234375,1786844208],[123.753426,10.285326,112.2086181640625,1786844217],[123.753434,10.285311,112.00396728515625,1786844219],[123.753463,10.285299999999999,111.0501708984375,1786844222],[123.753466,10.285292999999999,110.7769775390625,1786844223],[123.753479,10.285266,111.24017333984375,1786844228],[123.753502,10.285253000000001,111.925048828125,1786844234],[123.753528,10.285220000000001,111.6243896484375,1786844241],[123.753567,10.285151000000001,111.1885986328125,1786844254],[123.753568,10.285145,111.03460693359375,1786844255],[123.753598,10.285066,110.75091552734375,1786844268],[123.753624,10.285031,111.69427490234375,1786844276],[123.753618,10.284981999999999,110.6812744140625,1786844284],[123.753619,10.284974999999999,110.5731201171875,1786844285],[123.753638,10.284898999999999,108.97271728515625,1786844296],[123.753632,10.284874,108.40753173828125,1786844299],[123.753603,10.284844,109.4693603515625,1786844307],[123.75360000000001,10.284814000000001,110.0955810546875,1786844314],[123.75359899999999,10.28481,110.36981201171875,1786844315],[123.753564,10.284663,113.99981689453125,1786844343],[123.75354799999999,10.284637,113.45458984375,1786844347],[123.75354299999999,10.284630999999999,113.6231689453125,1786844348],[123.75347499999999,10.284594999999999,114.36700439453125,1786844359],[123.75338000000001,10.284566,115.640625,1786844375],[123.753373,10.284566,115.4766845703125,1786844376],[123.753254,10.284551,117.35675048828125,1786844398],[123.753202,10.284530999999999,116.5281982421875,1786844405],[123.75319500000001,10.284527000000001,117.36907958984375,1786844406],[123.753169,10.284511999999999,116.24896240234375,1786844410],[123.753095,10.284497999999999,115.100341796875,1786844420],[123.753023,10.284462,113.14373779296875,1786844432],[123.753021,10.284459999999999,113.18914794921875,1786844433],[123.75300300000001,10.284445,110.8037109375,1786844442],[123.752988,10.284411,110.73870849609375,1786844443],[123.7529,10.284366,108.24560546875,1786844479],[123.75286800000001,10.284364999999999,109.007568359375,1786844484],[123.752863,10.284363000000001,107.8385009765625,1786844485],[123.75283399999999,10.284364,108.497802734375,1786844494],[123.752735,10.284338,109.4293212890625,1786844542],[123.75269,10.284299000000001,109.3023681640625,1786844549],[123.752684,10.284293,108.415771484375,1786844550],[123.75266000000001,10.284306000000001,109.75146484375,1786844554],[123.75266000000001,10.284284,107.00933837890625,1786844561],[123.752618,10.284245,99.66998291015625,1786844591],[123.75259699999999,10.284255999999999,100.61474609375,1786844596],[123.752573,10.284242000000001,100.967041015625,1786844600],[123.752568,10.28424,101.7576904296875,1786844601],[123.752549,10.284203,101.2562255859375,1786844614],[123.752526,10.284198,102.06610107421875,1786844618],[123.752461,10.284128000000001,100.64501953125,1786844637],[123.752454,10.284126000000001,100.204345703125,1786844638],[123.752442,10.284072999999999,99.3841552734375,1786844656],[123.752408,10.284045000000001,100.7662353515625,1786844659],[123.752396,10.284022,99.5023193359375,1786844663],[123.752431,10.283987,94.343505859375,1786844671],[123.752431,10.283981000000001,93.5625,1786844672],[123.752437,10.283887,96.399169921875,1786844697],[123.752409,10.283813,99.89569091796875,1786844715],[123.752405,10.283804999999999,99.9180908203125,1786844716],[123.752386,10.283777000000001,100.27838134765625,1786844720],[123.752352,10.283671,99.697509765625,1786844736],[123.752357,10.283643,99.771240234375,1786844740],[123.752357,10.283633,99.891357421875,1786844741],[123.75234500000001,10.28356,99.582763671875,1786844753],[123.752263,10.283492000000001,100.1156005859375,1786844774],[123.752262,10.28349,99.9300537109375,1786844775],[123.752241,10.283473000000001,100.47052001953125,1786844780],[123.75223200000001,10.283448,100.0194091796875,1786844783],[123.752207,10.283455999999999,101.9368896484375,1786844789],[123.75218099999999,10.283417,104.0333251953125,1786844805],[123.752157,10.283423000000001,101.77777099609375,1786844810],[123.75214099999999,10.283398999999999,102.70074462890625,1786844817],[123.75214099999999,10.283395000000001,102.705810546875,1786844818],[123.752104,10.283357000000001,101.6575927734375,1786844828],[123.752042,10.28332,98.84564208984375,1786844842],[123.75200700000001,10.283277999999999,98.4779052734375,1786844853],[123.751999,10.283276000000001,98.4488525390625,1786844854],[123.75195100000001,10.283245000000001,98.45172119140625,1786844865],[123.751926,10.283246999999999,98.2291259765625,1786844868],[123.75186100000001,10.283218,98.71405029296875,1786844881],[123.75183699999999,10.283196999999999,98.5439453125,1786844885],[123.751835,10.283196,98.82177734375,1786844886],[123.751808,10.28314,98.85137939453125,1786844896],[123.751746,10.283109,97.63079833984375,1786844912],[123.75173599999999,10.283080999999999,97.1295166015625,1786844918],[123.751735,10.283083,97.18646240234375,1786844919],[123.751727,10.283042999999999,96.4310302734375,1786844920],[123.751671,10.283072000000001,94.09033203125,1786844925],[123.751616,10.283007,90.34307861328125,1786844934],[123.75161199999999,10.283002,90.1563720703125,1786844935],[123.751565,10.282982000000001,86.94989013671875,1786844940],[123.751554,10.282963000000001,86.92529296875,1786844942],[123.751577,10.282928999999999,92.85150146484375,1786844959],[123.75156,10.282916,89.4482421875,1786844961],[123.751563,10.282895999999999,92.9974365234375,1786844966],[123.751552,10.282885,93.2740478515625,1786844967],[123.75154999999999,10.282883,93.26104736328125,1786844968],[123.75155599999999,10.282837000000001,96.74920654296875,1786844997],[123.751475,10.282736999999999,95.304931640625,1786845017],[123.75147,10.282729,95.4906005859375,1786845018],[123.75145999999999,10.282671000000001,94.24859619140625,1786845030],[123.751414,10.282612,93.2025146484375,1786845042],[123.751408,10.282560999999999,92.57110595703125,1786845051],[123.751408,10.282556,92.2742919921875,1786845052],[123.751419,10.282527999999999,90.81982421875,1786845057],[123.751418,10.282378,87.782958984375,1786845078],[123.75142099999999,10.282370999999999,87.26470947265625,1786845079],[123.75142099999999,10.282317000000001,89.353515625,1786845087],[123.751402,10.282234000000001,86.6787109375,1786845097],[123.751384,10.282202,84.98388671875,1786845102],[123.75137700000001,10.282203000000001,85.32086181640625,1786845103],[123.751364,10.282149,84.947998046875,1786845113],[123.751339,10.282142,86.7469482421875,1786845117],[123.751327,10.282120000000001,87.020263671875,1786845125],[123.751305,10.282112,87.6094970703125,1786845127],[123.751289,10.282063000000001,88.2882080078125,1786845133],[123.751288,10.282061000000001,88.90582275390625,1786845134],[123.75125300000001,10.28199,88.7938232421875,1786845151],[123.751226,10.281983,89.0865478515625,1786845154],[123.751164,10.281931999999999,90.4737548828125,1786845166],[123.751161,10.281927,90.109130859375,1786845167],[123.751135,10.281904000000001,89.88983154296875,1786845171],[123.751127,10.281839,89.3411865234375,1786845184],[123.75111,10.281817999999999,89.04180908203125,1786845194],[123.75111699999999,10.281791999999999,89.9931640625,1786845200],[123.751138,10.281772999999999,88.829833984375,1786845205],[123.751142,10.281774,89.43414306640625,1786845206],[123.75122,10.281715999999999,88.7772216796875,1786845233],[123.751255,10.281650000000001,87.150390625,1786845246],[123.751261,10.281646,86.9312744140625,1786845247],[123.751273,10.281593000000001,85.274169921875,1786845259],[123.75125800000001,10.281471,86.6063232421875,1786845281],[123.751255,10.281463,86.32952880859375,1786845282],[123.75122399999999,10.281418,87.22833251953125,1786845288],[123.751114,10.281352999999999,92.77081298828125,1786845307],[123.751103,10.281351000000001,92.0250244140625,1786845308],[123.75109500000001,10.28134,95.0594482421875,1786845313],[123.75102699999999,10.281333999999999,99.5111083984375,1786845325],[123.75100500000001,10.281323,99.14447021484375,1786845328],[123.75095899999999,10.281276,94.527099609375,1786845338],[123.750958,10.281276,94.2232666015625,1786845339],[123.75094799999999,10.281271,94.30084228515625,1786845340],[123.750928,10.281280000000001,92.1219482421875,1786845342],[123.750911,10.281269,93.681396484375,1786845344],[123.750894,10.281226999999999,96.2945556640625,1786845353],[123.750871,10.281219,94.3104248046875,1786845361],[123.750844,10.281171000000001,93.24658203125,1786845372],[123.75084099999999,10.281164,93.7099609375,1786845373],[123.750828,10.281139,92.6932373046875,1786845381],[123.75076900000001,10.281103999999999,89.9405517578125,1786845393],[123.75076799999999,10.281082,87.9686279296875,1786845397],[123.75073,10.281052000000001,86.89996337890625,1786845402],[123.750725,10.281048999999999,87.48638916015625,1786845403],[123.750708,10.281029,87.0350341796875,1786845408],[123.75067,10.281022,87.0606689453125,1786845413],[123.75066,10.280999,86.5194091796875,1786845417],[123.75067,10.280950000000001,85.7391357421875,1786845423],[123.750654,10.280924000000001,85.5804443359375,1786845427],[123.750654,10.280923,85.749755859375,1786845428],[123.75068,10.280855000000001,82.529541015625,1786845443],[123.75073,10.280803000000001,83.42132568359375,1786845463],[123.750743,10.280775,83.034423828125,1786845466],[123.750744,10.280767000000001,82.79156494140625,1786845467],[123.75076799999999,10.280713,83.1273193359375,1786845475],[123.750846,10.280612,82.01409912109375,1786845504],[123.75085,10.280609999999999,82.12652587890625,1786845505],[123.750896,10.280599,84.52789306640625,1786845511],[123.75092600000001,10.280567,84.519287109375,1786845518],[123.750989,10.280525000000001,83.36956787109375,1786845528],[123.75099299999999,10.280523000000001,83.321044921875,1786845529],[123.751019,10.28051,82.3043212890625,1786845535],[123.751092,10.280503,79.0789794921875,1786845546],[123.751122,10.280465,78.65594482421875,1786845554],[123.751147,10.280450999999999,79.98529052734375,1786845558],[123.751152,10.280449000000001,80.58917236328125,1786845559],[123.751177,10.280434,80.65411376953125,1786845564],[123.751279,10.280326000000001,81.59588623046875,1786845585],[123.751283,10.280317,81.42694091796875,1786845586],[123.751279,10.280165999999999,79.92822265625,1786845614],[123.751306,10.280138000000001,81.5413818359375,1786845618],[123.75132000000001,10.280132,81.2259521484375,1786845619],[123.751332,10.280132999999999,81.009521484375,1786845620],[123.751332,10.280106,76.13726806640625,1786845622],[123.75126299999999,10.279980999999999,76.9752197265625,1786845647],[123.751262,10.279975,77.02020263671875,1786845648],[123.75121799999999,10.279911,77.5008544921875,1786845661],[123.75114000000001,10.279845,77.16998291015625,1786845678],[123.751136,10.279842,77.283447265625,1786845679],[123.751093,10.279802999999999,79.026611328125,1786845691],[123.751076,10.279714,77.17156982421875,1786845703],[123.751052,10.279693999999999,76.0264892578125,1786845708],[123.75104899999999,10.27969,76.0347900390625,1786845709],[123.751037,10.279664,76.1529541015625,1786845713],[123.751003,10.279631,76.46673583984375,1786845720],[123.75091999999999,10.279567,77.51446533203125,1786845736],[123.75091500000001,10.279564000000001,77.541259765625,1786845737],[123.750874,10.279522999999999,77.7041015625,1786845747],[123.75076,10.279476000000001,79.84918212890625,1786845763],[123.75075200000001,10.279472999999999,80.0885009765625,1786845764],[123.75066,10.279418,81.572509765625,1786845777],[123.750596,10.279365,79.669189453125,1786845787],[123.75058900000001,10.27936,79.44793701171875,1786845788],[123.75045799999999,10.279242,77.3819580078125,1786845807],[123.750452,10.279235999999999,77.36407470703125,1786845808],[123.75037,10.27909,78.1693115234375,1786845827],[123.750364,10.279083999999999,77.8837890625,1786845828],[123.750326,10.279038999999999,78.5343017578125,1786845835],[123.750265,10.278931999999999,79.372314453125,1786845853],[123.750263,10.278926,79.4310302734375,1786845854],[123.750229,10.278778000000001,79.146240234375,1786845878],[123.750235,10.27875,78.97589111328125,1786845890],[123.750238,10.278745000000001,78.930908203125,1786845891],[123.750264,10.278733000000001,78.8001708984375,1786845897],[123.750274,10.278713,79.24676513671875,1786845902],[123.750298,10.278718,80.91119384765625,1786845909],[123.75038499999999,10.278674000000001,79.3824462890625,1786845931],[123.75039,10.278673,79.3516845703125,1786845932],[123.750501,10.278655000000001,78.24560546875,1786845944],[123.75058199999999,10.278653,77.98651123046875,1786845956],[123.750592,10.278654,77.9219970703125,1786845957],[123.75062200000001,10.278658,78.08856201171875,1786845960],[123.750744,10.278719000000001,77.40557861328125,1786845974],[123.750753,10.278722999999999,77.3831787109375,1786845975],[123.750803,10.278756,78.36651611328125,1786845982],[123.750924,10.27881,79.36767578125,1786845999],[123.75093200000001,10.278812,79.4866943359375,1786846000],[123.751037,10.278855999999999,79.2069091796875,1786846013],[123.751103,10.278864,79.1888427734375,1786846020],[123.75111200000001,10.278860999999999,79.04180908203125,1786846021],[123.75120800000001,10.278841,77.794189453125,1786846032],[123.751266,10.278803,76.91552734375,1786846039],[123.751274,10.278796,76.83929443359375,1786846040],[123.751321,10.278752000000001,74.538818359375,1786846047],[123.751375,10.278677,73.6983642578125,1786846056],[123.75138099999999,10.278669000000001,73.7119140625,1786846057],[123.751465,10.278542,73.1705322265625,1786846073],[123.751469,10.278534000000001,73.2110595703125,1786846074],[123.75149999999999,10.278473999999999,72.8499755859375,1786846081],[123.751525,10.278385999999999,73.1005859375,1786846090],[123.751527,10.278376,73.1126708984375,1786846091],[123.751561,10.278219,73.7052001953125,1786846107],[123.751563,10.278211000000001,73.79400634765625,1786846108],[123.75156200000001,10.278058,71.1900634765625,1786846124],[123.751559,10.278048,71.05584716796875,1786846125],[123.751552,10.277975,70.61181640625,1786846133],[123.751527,10.27788,70.619873046875,1786846144],[123.75152300000001,10.277873,70.85955810546875,1786846145],[123.75152799999999,10.277789,72.10028076171875,1786846155],[123.751572,10.277711,73.11285400390625,1786846165],[123.75157900000001,10.277706,73.1856689453125,1786846166],[123.751653,10.277638,73.50274658203125,1786846178],[123.751679,10.277563000000001,74.294677734375,1786846187],[123.751683,10.277552999999999,74.21392822265625,1786846188],[123.751791,10.277411000000001,74.547119140625,1786846207],[123.75179799999999,10.277404000000001,74.365234375,1786846208],[123.75192300000001,10.277302000000001,73.32489013671875,1786846225],[123.75193,10.277296,73.6136474609375,1786846226],[123.752073,10.277195000000001,72.52410888671875,1786846245],[123.752083,10.277191999999999,72.3941650390625,1786846246],[123.752246,10.277117000000001,72.53948974609375,1786846265],[123.752256,10.277113,72.2559814453125,1786846266],[123.752353,10.277077,70.75885009765625,1786846277],[123.752433,10.277062000000001,70.1151123046875,1786846286],[123.752442,10.277059,69.9813232421875,1786846287],[123.75261999999999,10.277060000000001,71.0758056640625,1786846307],[123.75263,10.277061,71.248291015625,1786846308],[123.752742,10.277048000000001,71.5911865234375,1786846320],[123.75279500000001,10.277030999999999,71.8221435546875,1786846326],[123.752805,10.277028,71.8836669921875,1786846327],[123.752972,10.276991000000001,70.3336181640625,1786846345],[123.75297999999999,10.276987999999999,70.2252197265625,1786846346],[123.753106,10.276948000000001,70.496826171875,1786846361],[123.75315000000001,10.276918,70.30511474609375,1786846367],[123.753157,10.276911999999999,70.3262939453125,1786846368],[123.753311,10.276859,69.56182861328125,1786846384],[123.75332,10.276856,69.5457763671875,1786846385],[123.7534,10.276821999999999,69.142333984375,1786846394],[123.753462,10.276782000000001,68.23834228515625,1786846402],[123.75346999999999,10.276776999999999,68.20220947265625,1786846403],[123.75354799999999,10.276729,68.11865234375,1786846413],[123.753601,10.276674999999999,67.27685546875,1786846421],[123.753607,10.276668000000001,67.1904296875,1786846422],[123.753728,10.276564,66.50628662109375,1786846439],[123.753733,10.276555,66.46197509765625,1786846440],[123.75378600000001,10.276475,66.27490234375,1786846450],[123.75381299999999,10.276396,65.72747802734375,1786846460],[123.753815,10.276388000000001,65.75152587890625,1786846461],[123.75381899999999,10.276225,67.03863525390625,1786846479],[123.753818,10.276217000000001,67.10650634765625,1786846480],[123.753783,10.276038,67.84442138671875,1786846501],[123.75378000000001,10.27603,67.886962890625,1786846502],[123.753753,10.275874,68.4476318359375,1786846519],[123.75375099999999,10.275865,68.43280029296875,1786846520],[123.753725,10.275715999999999,68.1700439453125,1786846536],[123.75372400000001,10.275707000000001,68.13775634765625,1786846537],[123.75372,10.275646999999999,67.14068603515625,1786846544],[123.753691,10.275592,67.1600341796875,1786846551],[123.75368,10.275544,66.3760986328125,1786846556],[123.753677,10.275535,66.5645751953125,1786846557],[123.753657,10.275465000000001,67.46832275390625,1786846565],[123.75366099999999,10.275377000000001,67.865234375,1786846575],[123.75366099999999,10.275369,68.03753662109375,1786846576],[123.753671,10.27528,66.13934326171875,1786846600],[123.75369999999999,10.275214,64.89361572265625,1786846607],[123.75370700000001,10.275207,64.80303955078125,1786846608],[123.75374100000001,10.275164999999999,63.8114013671875,1786846617],[123.75377899999999,10.275154000000001,63.2747802734375,1786846621],[123.753823,10.275109,64.09783935546875,1786846628],[123.75384,10.275109,63.1248779296875,1786846629],[123.75384699999999,10.275107,63.08795166015625,1786846630],[123.753871,10.275126,62.42303466796875,1786846635],[123.753928,10.275091,63.05792236328125,1786846644],[123.754012,10.275071000000001,63.35430908203125,1786846654],[123.75402,10.275072,63.32574462890625,1786846655],[123.75418999999999,10.275065,64.5540771484375,1786846671],[123.75420099999999,10.275065,64.5347900390625,1786846672],[123.75436500000001,10.275055,64.89483642578125,1786846688],[123.754374,10.275054000000001,64.851806640625,1786846689],[123.75447800000001,10.275041,64.593017578125,1786846700],[123.754502,10.275053,64.29815673828125,1786846703],[123.754524,10.275035000000001,64.33148193359375,1786846706],[123.754524,10.275034,64.33233642578125,1786846707],[123.75462,10.275043999999999,64.16925048828125,1786846726],[123.75470300000001,10.275039,63.23406982421875,1786846735],[123.754712,10.275039,62.98614501953125,1786846736]]]}}]}
