{"type":"FeatureCollection","features":[{"type":"Feature","id":"9d575282-8b5a-4397-8a84-03773d846963","properties":{"id":"9d575282-8b5a-4397-8a84-03773d846963","updated_date":"2026-07-18T12:41:47Z","time_created":"2026-07-17T22:28:13Z","last_updated_on_server":"2026-07-18T12:41:47.026863","db_insert_date":"2026-07-18T04:55:42Z","deleted":false,"title":"Mt. Naupa Trail Loop","public":false,"color":"#000000","hexcolor":"#000000","is_active":true,"revision":1784378507,"notes":"","track_type":"track","routing_mode":"","uploaded_gpx_to_osm":null,"flag":null,"source":"Android samsung SM-A065F","cover_photo_id":null,"distance":10961.153595375192,"total_ascent":420.58611111111128,"total_descent":457.13611111111101,"stopped_time":2560.0833334922791,"total_time":19457,"average_speed":0.5633527057293104,"moving_time":16896.916666507721,"moving_speed":0.64870732404698894,"activities":["hiking"],"imported":false,"folder":"5846eda4-747f-4498-a291-2d262ecd3479","privacy_level":"private","sync_to_mobile":null,"preferred_link":"/public/wB0ST6LkybX7ESvnZ3CGW40h","favorite_count":0,"comment_count":0,"comments":[],"user_photo_count":0,"latitude":10.263903612224269,"longitude":123.7250085066931,"writable":false},"style":{"stroke":"#000000"},"geometry":{"type":"MultiLineString","coordinates":[[[123.738756,10.26919,348.40000000000003,1784327294],[123.738755,10.269185,293.30000000000001,1784327303],[123.738755,10.269185,293.30000000000001,1784327304],[123.73872,10.269185999999999,292.10000000000002,1784327491],[123.73871,10.269171,293.30000000000001,1784327502],[123.73878499999999,10.269185999999999,293.39999999999998,1784327503],[123.738834,10.269233,293.5,1784327542],[123.73876799999999,10.269261,296.69999999999999,1784327543],[123.73876,10.269259999999999,296.60000000000002,1784327544],[123.73875099999999,10.269271,296.5,1784327568],[123.73877299999999,10.269361,296,1784327569],[123.738788,10.269387999999999,296.19999999999999,1784327587],[123.73879599999999,10.269538000000001,299.39999999999998,1784327591],[123.73879599999999,10.269556,299.69999999999999,1784327592],[123.738816,10.269598,300.10000000000002,1784327594],[123.738856,10.269641,300.80000000000001,1784327609],[123.73885,10.269736,301.19999999999999,1784327610],[123.73881299999999,10.269855,300.5,1784327629],[123.738803,10.269863000000001,300.5,1784327630],[123.73870100000001,10.269956000000001,300.89999999999998,1784327642],[123.738636,10.27004,301.30000000000001,1784327738],[123.738636,10.27004,301.30000000000001,1784327739],[123.738534,10.270042999999999,303.10000000000002,1784327769],[123.73850299999999,10.270035,303.60000000000002,1784327784],[123.73862099999999,10.270023,304,1784327799],[123.73854300000001,10.270026,305.5,1784327811],[123.738534,10.27003,305.60000000000002,1784327812],[123.738433,10.270051,305.39999999999998,1784327837],[123.73842500000001,10.270046000000001,305.69999999999999,1784327915],[123.738354,10.270099999999999,311.30000000000001,1784327918],[123.73825600000001,10.270153000000001,315.30000000000001,1784327944],[123.738248,10.270158,315.30000000000001,1784327945],[123.73821,10.270193000000001,315.69999999999999,1784327950],[123.73807499999999,10.270263,317.30000000000001,1784328008],[123.738101,10.270277999999999,317.19999999999999,1784328010],[123.73809799999999,10.270276000000001,317.10000000000002,1784328011],[123.738023,10.270291,317.10000000000002,1784328019],[123.737981,10.270254,317.10000000000002,1784328024],[123.737956,10.270248,317.19999999999999,1784328026],[123.73801,10.270273,317.60000000000002,1784328036],[123.73801,10.270273,317.60000000000002,1784328037],[123.73800799999999,10.270315999999999,317.89999999999998,1784328044],[123.738023,10.27033,318,1784328097],[123.738083,10.270301,320.10000000000002,1784328098],[123.738043,10.270308,320.69999999999999,1784328102],[123.737994,10.270284999999999,321.39999999999998,1784328107],[123.737988,10.27028,321.5,1784328108],[123.737948,10.270253,322.39999999999998,1784328114],[123.73782300000001,10.270227999999999,324.39999999999998,1784328135],[123.73782,10.270215,324.69999999999999,1784328160],[123.73772,10.270200000000001,324.5,1784328162],[123.73771499999999,10.270201,324.5,1784328163],[123.73760799999999,10.270215,324.30000000000001,1784328178],[123.737555,10.270265,324.39999999999998,1784328181],[123.737531,10.270261,323.89999999999998,1784328182],[123.737505,10.270243000000001,323.5,1784328185],[123.737498,10.270243000000001,323.5,1784328186],[123.737461,10.270168,322.10000000000002,1784328207],[123.73746,10.270148000000001,321.89999999999998,1784328272],[123.737476,10.270153000000001,322.80000000000001,1784328301],[123.737431,10.270125,324.30000000000001,1784328302],[123.737431,10.270098000000001,324.30000000000001,1784328322],[123.737341,10.270133,323.19999999999999,1784328324],[123.73734,10.270133,323.39999999999998,1784328325],[123.737073,10.270106,321.10000000000002,1784328454],[123.73706799999999,10.270115000000001,321.10000000000002,1784328455],[123.73697799999999,10.270128,324,1784328507],[123.736913,10.270158,325.30000000000001,1784328508],[123.73690499999999,10.270170999999999,325.60000000000002,1784328518],[123.736966,10.270128,326.69999999999999,1784328520],[123.73697300000001,10.270123,326.80000000000001,1784328521],[123.73706799999999,10.270075,328,1784328544],[123.737008,10.27009,328.39999999999998,1784328560],[123.73699999999999,10.270096000000001,328.39999999999998,1784328561],[123.73695499999999,10.27013,328.89999999999998,1784328566],[123.73690499999999,10.270137999999999,329,1784328572],[123.73689299999999,10.270160000000001,329.19999999999999,1784328609],[123.736796,10.270205000000001,330.89999999999998,1784328610],[123.736791,10.270216,331,1784328611],[123.73677600000001,10.27022,331,1784328612],[123.736745,10.270216,331.19999999999999,1784328623],[123.736678,10.270291,332.69999999999999,1784328624],[123.736654,10.270358,334,1784328632],[123.736673,10.270391,334.30000000000001,1784328635],[123.736673,10.270391,334.30000000000001,1784328636],[123.736645,10.270488,333.89999999999998,1784328664],[123.73659499999999,10.270521,331.10000000000002,1784328665],[123.736598,10.270550999999999,330.5,1784328673],[123.736543,10.270595999999999,329.89999999999998,1784328675],[123.736535,10.270598,329.80000000000001,1784328676],[123.73653,10.270593,329.39999999999998,1784328690],[123.736526,10.270681,329.80000000000001,1784328704],[123.73644,10.270725000000001,331.19999999999999,1784328705],[123.736446,10.270759999999999,331,1784328709],[123.736465,10.270783,332.19999999999999,1784328713],[123.736465,10.270783,332.19999999999999,1784328714],[123.73646599999999,10.27089,336.10000000000002,1784328736],[123.736391,10.270948000000001,338.30000000000001,1784328737],[123.73638800000001,10.270986000000001,338.5,1784328739],[123.736288,10.271020999999999,338.80000000000001,1784328749],[123.73627,10.271026000000001,338.80000000000001,1784328750],[123.73625800000001,10.271036,338.80000000000001,1784328751],[123.736261,10.271053,338.80000000000001,1784328768],[123.736193,10.271115999999999,338.39999999999998,1784328769],[123.736176,10.27112,338,1784328800],[123.73614499999999,10.271186,336.19999999999999,1784328801],[123.736121,10.271191,336.10000000000002,1784328808],[123.73609999999999,10.271233000000001,335.5,1784328809],[123.735998,10.271286,334.89999999999998,1784328902],[123.735983,10.271288999999999,334.89999999999998,1784328903],[123.735933,10.271311000000001,334.89999999999998,1784328910],[123.735868,10.271361000000001,334.89999999999998,1784328917],[123.735811,10.271371,334.89999999999998,1784328920],[123.73579599999999,10.271375000000001,334.89999999999998,1784328921],[123.735769,10.271388,334.89999999999998,1784328938],[123.735676,10.271364999999999,334.60000000000002,1784328939],[123.73563300000001,10.271341,335,1784328953],[123.73551999999999,10.271353,335.89999999999998,1784328956],[123.73549,10.271364999999999,336.10000000000002,1784328959],[123.735483,10.271368000000001,336.19999999999999,1784328960],[123.73546899999999,10.271373000000001,336.5,1784328976],[123.73536,10.271355,334.5,1784328996],[123.73527300000001,10.271390999999999,333.19999999999999,1784328997],[123.73524,10.271421,333.80000000000001,1784329005],[123.73520499999999,10.271436,333.69999999999999,1784329007],[123.73518799999999,10.271440999999999,333.5,1784329008],[123.73516100000001,10.271445999999999,333.39999999999998,1784329010],[123.735091,10.271509999999999,332.5,1784329020],[123.735055,10.271508000000001,332.60000000000002,1784329032],[123.734956,10.271463000000001,333.60000000000002,1784329058],[123.734858,10.271493,333.89999999999998,1784329059],[123.734846,10.271493,333.89999999999998,1784329060],[123.73482799999999,10.271485,333.89999999999998,1784329072],[123.73469299999999,10.271535,333,1784329085],[123.734538,10.271540999999999,331.5,1784329116],[123.734525,10.271554999999999,331.39999999999998,1784329117],[123.734525,10.271561,331.19999999999999,1784329184],[123.734435,10.271545,330.60000000000002,1784329185],[123.734443,10.271535,330.39999999999998,1784329198],[123.734405,10.271585,329.89999999999998,1784329199],[123.734353,10.271625999999999,330,1784329220],[123.734324,10.271570000000001,330,1784329221],[123.734336,10.271559999999999,330,1784329222],[123.734341,10.271547999999999,330.30000000000001,1784329223],[123.734238,10.271514,332.39999999999998,1784329247],[123.73422600000001,10.271525,332.5,1784329287],[123.73430999999999,10.271559999999999,332.60000000000002,1784329288],[123.73432,10.271540999999999,332.69999999999999,1784329341],[123.734208,10.271535999999999,331.60000000000002,1784329462],[123.73411400000001,10.271509999999999,337,1784329463],[123.73411,10.271502999999999,337.30000000000001,1784329464],[123.73413600000001,10.271407999999999,341.19999999999999,1784329518],[123.73412999999999,10.271400999999999,341.19999999999999,1784329670],[123.73415799999999,10.271316000000001,342.10000000000002,1784329671],[123.734171,10.271395,342.30000000000001,1784329678],[123.734173,10.271407999999999,342.5,1784329679],[123.73417999999999,10.271409999999999,342.60000000000002,1784329721],[123.73407899999999,10.271393,345.60000000000002,1784329728],[123.734041,10.271393,346.39999999999998,1784329729],[123.734019,10.271405,347,1784329734],[123.733985,10.271398,348,1784329737],[123.73397300000001,10.271381,348.19999999999999,1784329738],[123.733976,10.271381,348.39999999999998,1784329739],[123.733921,10.271323000000001,349.5,1784329844],[123.73390999999999,10.271413000000001,352.69999999999999,1784329845],[123.73391100000001,10.271390999999999,354.10000000000002,1784329951],[123.73387099999999,10.271463000000001,357.19999999999999,1784330104],[123.73386000000001,10.271459999999999,357.30000000000001,1784330105],[123.73385500000001,10.271443,357.80000000000001,1784330212],[123.73391599999999,10.271513000000001,359.10000000000002,1784330213],[123.73391599999999,10.271523,359.30000000000001,1784330282],[123.733858,10.271533,357.39999999999998,1784330283],[123.733825,10.271553000000001,357.60000000000002,1784330293],[123.733861,10.271526,357.89999999999998,1784330295],[123.73386499999999,10.271523,358.10000000000002,1784330296],[123.73387,10.271518,358.10000000000002,1784330297],[123.733771,10.27159,357,1784330367],[123.733754,10.271680999999999,354.89999999999998,1784330368],[123.733634,10.271741,355.19999999999999,1784330382],[123.733631,10.271743000000001,355.10000000000002,1784330383],[123.73353899999999,10.271718,360.10000000000002,1784330554],[123.73350499999999,10.271725999999999,361.10000000000002,1784330572],[123.733406,10.271720999999999,362.60000000000002,1784330573],[123.73329099999999,10.271680999999999,365.19999999999999,1784330613],[123.733285,10.271675,365.39999999999998,1784330614],[123.733283,10.271663,365.69999999999999,1784330652],[123.733193,10.271637999999999,367.5,1784330653],[123.733121,10.271545,368.30000000000001,1784330672],[123.73306100000001,10.271546000000001,368.69999999999999,1784330684],[123.73299,10.271563,369.30000000000001,1784330685],[123.732985,10.271558000000001,369.60000000000002,1784330686],[123.732916,10.271557,371,1784330699],[123.732828,10.271513000000001,376.80000000000001,1784330709],[123.732704,10.271531,380.69999999999999,1784330780],[123.73269999999999,10.271531,380.69999999999999,1784330781],[123.73265499999999,10.271528,381.10000000000002,1784330786],[123.732553,10.271455,383.19999999999999,1784330804],[123.732545,10.271405,384.69999999999999,1784330809],[123.73254300000001,10.271400999999999,384.89999999999998,1784330810],[123.732596,10.271345999999999,387.80000000000001,1784330844],[123.732668,10.271353,389.30000000000001,1784330857],[123.73270599999999,10.271345,390.19999999999999,1784330858],[123.73272799999999,10.271323000000001,391,1784330863],[123.732731,10.271315,391.19999999999999,1784330864],[123.73283000000001,10.27126,393.89999999999998,1784330908],[123.732895,10.271279,396,1784331416],[123.732805,10.271307999999999,398.30000000000001,1784331733],[123.73279100000001,10.271315,398.19999999999999,1784331734],[123.73272299999999,10.271364999999999,397.89999999999998,1784331741],[123.73263300000001,10.271369999999999,397.19999999999999,1784331747],[123.732623,10.271375000000001,397.10000000000002,1784331748],[123.73254300000001,10.271381,396,1784331763],[123.732446,10.271464999999999,395.10000000000002,1784331770],[123.732443,10.271469,395.10000000000002,1784331771],[123.732344,10.271658,400.39999999999998,1784331800],[123.73234600000001,10.271678,401.10000000000002,1784331862],[123.73238600000001,10.271592999999999,406.80000000000001,1784331863],[123.73238600000001,10.271585999999999,407,1784331864],[123.732395,10.271576,407.39999999999998,1784331891],[123.73233,10.27167,408.30000000000001,1784331959],[123.732313,10.271762000000001,407,1784332019],[123.73220999999999,10.271827999999999,409,1784332093],[123.732118,10.271853999999999,410.5,1784332094],[123.732113,10.271858,410.69999999999999,1784332095],[123.73200900000001,10.271910999999999,413.5,1784332140],[123.73191,10.271943,416.30000000000001,1784332165],[123.731821,10.271966000000001,418.19999999999999,1784332166],[123.731701,10.27197,421.39999999999998,1784332180],[123.73169,10.271971000000001,421.60000000000002,1784332181],[123.73158100000001,10.271971000000001,425.89999999999998,1784332195],[123.73148,10.272045,430.10000000000002,1784332241],[123.73140600000001,10.272057999999999,430.60000000000002,1784332246],[123.731398,10.272055,430.60000000000002,1784332247],[123.731328,10.272065,430.80000000000001,1784332255],[123.73129299999999,10.27206,430.80000000000001,1784332270],[123.731441,10.272033,432.80000000000001,1784332276],[123.73144600000001,10.272033,432.89999999999998,1784332277],[123.73145599999999,10.272033,433.30000000000001,1784332336],[123.731289,10.27206,433.69999999999999,1784332355],[123.731346,10.272045,433.69999999999999,1784332356],[123.731354,10.272043,433.69999999999999,1784332357],[123.731436,10.272038,433.10000000000002,1784332366],[123.73146,10.272045,433.10000000000002,1784332418],[123.731324,10.272073000000001,433.30000000000001,1784332426],[123.731313,10.272074999999999,433.30000000000001,1784332427],[123.731216,10.272088999999999,433.80000000000001,1784332441],[123.73101800000001,10.272088999999999,434.39999999999998,1784332500],[123.73089899999999,10.272119999999999,437.30000000000001,1784332569],[123.730891,10.272121,437.30000000000001,1784332570],[123.73078599999999,10.272150999999999,440.19999999999999,1784332680],[123.73066300000001,10.272221,442.80000000000001,1784332738],[123.73059600000001,10.272288,445.69999999999999,1784332739],[123.730586,10.272288,446.39999999999998,1784332800],[123.730531,10.272365000000001,447.89999999999998,1784332801],[123.730526,10.27237,447.89999999999998,1784332802],[123.730431,10.272437999999999,447.80000000000001,1784332921],[123.730428,10.272544999999999,449.60000000000002,1784332936],[123.730385,10.272633000000001,451,1784332954],[123.730366,10.272726,452.19999999999999,1784332973],[123.73036500000001,10.272729999999999,452.30000000000001,1784332974],[123.730333,10.272930000000001,460.5,1784333091],[123.730283,10.273035999999999,462.19999999999993,1784333109],[123.73026400000001,10.273151,464.60000000000002,1784333170],[123.730266,10.273156,464.89999999999998,1784333171],[123.73023499999999,10.273258,468.5,1784333184],[123.730146,10.273339999999999,472,1784333194],[123.730146,10.273474999999999,477.19999999999993,1784333225],[123.730143,10.273479999999999,477.39999999999998,1784333226],[123.730136,10.273488,477.89999999999998,1784333265],[123.730135,10.2736,479.10000000000002,1784333286],[123.730153,10.273713000000001,479.39999999999998,1784333350],[123.730126,10.273804999999999,479.10000000000002,1784333351],[123.73013899999999,10.273813000000001,479.19999999999993,1784333372],[123.730155,10.273906,480.19999999999993,1784333373],[123.730158,10.273908,480.29999999999995,1784333374],[123.730165,10.274234999999999,483.5,1784333499],[123.730081,10.274273000000001,484.10000000000002,1784333500],[123.73008,10.274276,484.19999999999993,1784333501],[123.729985,10.27431,484.39999999999998,1784333522],[123.729968,10.274305999999999,484.39999999999998,1784333644],[123.729906,10.274343,485.89999999999998,1784333645],[123.729816,10.274455,487.69999999999993,1784333679],[123.72980800000001,10.274468000000001,487.79999999999995,1784333680],[123.7298,10.274476,488,1784333681],[123.729811,10.274489000000001,488.79999999999995,1784333732],[123.729814,10.274595,492.29999999999995,1784333750],[123.72977,10.274673,493.10000000000002,1784333751],[123.729781,10.27478,494,1784333790],[123.72980099999999,10.27481,494.39999999999998,1784333795],[123.72980099999999,10.274818,494.29999999999995,1784333796],[123.729806,10.274925,493.79999999999995,1784333826],[123.72974600000001,10.275061000000001,493.69999999999993,1784333848],[123.72972300000001,10.275161000000001,494,1784333850],[123.729713,10.275174,494.10000000000002,1784333851],[123.729691,10.275221,494.60000000000002,1784333856],[123.729688,10.27529,495.39999999999998,1784333864],[123.72970599999999,10.275304999999999,498.19999999999993,1784333926],[123.729691,10.275328,498.19999999999993,1784333929],[123.72968899999999,10.27533,498.19999999999993,1784333930],[123.729676,10.27521,498.79999999999995,1784333962],[123.72969399999999,10.275247999999999,500.5,1784333963],[123.72969399999999,10.2753,500.5,1784333968],[123.72969399999999,10.275308000000001,500.39999999999998,1784333969],[123.729645,10.275361,499.69999999999993,1784333975],[123.729446,10.275446000000001,498.69999999999993,1784334049],[123.72943600000001,10.275449999999999,498.69999999999993,1784334050],[123.729411,10.275454999999999,499.19999999999993,1784334072],[123.729326,10.275444999999999,499.10000000000002,1784334098],[123.729376,10.275430999999999,499.5,1784334107],[123.72938600000001,10.27543,499.69999999999993,1784334108],[123.729416,10.275444999999999,499.89999999999998,1784334120],[123.72929499999999,10.275449999999999,499.19999999999993,1784334156],[123.729175,10.27542,498.5,1784334160],[123.729163,10.27542,498.39999999999998,1784334161],[123.729111,10.27542,498.10000000000002,1784334166],[123.729085,10.275408000000001,497.89999999999998,1784334171],[123.729001,10.275397999999999,497.39999999999998,1784334177],[123.728988,10.275396000000001,497.19999999999993,1784334178],[123.72887299999999,10.275404999999999,495.5,1784334187],[123.72881599999999,10.275423,495.19999999999993,1784334192],[123.72880499999999,10.275428,495.10000000000002,1784334193],[123.72869300000001,10.275518,495.19999999999993,1784334209],[123.728593,10.275573,495.5,1784334220],[123.72858600000001,10.27558,495.5,1784334221],[123.728551,10.27571,496.60000000000002,1784334253],[123.728495,10.275816000000001,496.89999999999998,1784334256],[123.72842900000001,10.2759,497.19999999999993,1784334275],[123.728426,10.275911000000001,497.29999999999995,1784334276],[123.72836,10.275983999999999,497.5,1784334311],[123.728313,10.275903,498,1784334312],[123.72831499999999,10.275874999999999,498.29999999999995,1784334315],[123.72831499999999,10.275874999999999,498.29999999999995,1784334316],[123.72824799999999,10.275676000000001,500.29999999999995,1784334351],[123.72824,10.275601,501,1784334358],[123.72824,10.275593000000001,501.10000000000002,1784334359],[123.728201,10.275361,504.19999999999993,1784334385],[123.728201,10.275361,504.19999999999993,1784334386],[123.728123,10.27524,506.79999999999995,1784334413],[123.727968,10.275235,507.89999999999998,1784334420],[123.72796099999999,10.275235,507.89999999999998,1784334421],[123.727875,10.2752,507,1784334434],[123.72779,10.275118000000001,505.19999999999993,1784334450],[123.727738,10.275043,504.29999999999995,1784334458],[123.72773100000001,10.275031,504.19999999999993,1784334459],[123.72771299999999,10.275001,504.10000000000002,1784334462],[123.72761800000001,10.274908,502.39999999999998,1784334490],[123.72760599999999,10.274918,502.29999999999995,1784334491],[123.72760100000001,10.27491,502.39999999999998,1784334492],[123.72748,10.274763,502.89999999999998,1784334535],[123.727363,10.274713999999999,501.69999999999993,1784334555],[123.727356,10.274713,501.5,1784334556],[123.72723999999999,10.274710000000001,499.79999999999995,1784334594],[123.72712799999999,10.274691000000001,496.10000000000002,1784334610],[123.72704,10.274660000000001,493,1784334611],[123.727024,10.274663,492.19999999999993,1784334635],[123.726963,10.274592999999999,488.69999999999993,1784334636],[123.726958,10.274585,488.5,1784334637],[123.726938,10.274525000000001,487,1784334650],[123.726855,10.274466,483.10000000000002,1784334659],[123.72675,10.274414999999999,478.5,1784334686],[123.726713,10.274312999999999,476.10000000000002,1784334702],[123.72671,10.274312999999999,476,1784334703],[123.726608,10.274267999999999,474.19999999999993,1784334781],[123.726539,10.274206,471.79999999999995,1784334782],[123.726505,10.274101,466.69999999999993,1784334807],[123.726484,10.274098,462.69999999999993,1784334831],[123.726421,10.274020999999999,462.60000000000002,1784334832],[123.726416,10.274015,462.5,1784334833],[123.726403,10.273999999999999,459.19999999999993,1784334871],[123.726326,10.273994999999999,457.19999999999993,1784334872],[123.726359,10.273878,452.80000000000001,1784334885],[123.726359,10.273878,452.80000000000001,1784334886],[123.72637,10.273764999999999,452.60000000000002,1784334933],[123.726411,10.273673,451.5,1784334957],[123.72633999999999,10.273588,450.30000000000001,1784334983],[123.72631,10.273498,448,1784334984],[123.726311,10.273491,447.89999999999998,1784334985],[123.72631,10.273483000000001,444.5,1784335056],[123.726163,10.273510999999999,442.19999999999999,1784335097],[123.726136,10.273536,437,1784335217],[123.72608099999999,10.273561000000001,436,1784335219],[123.72607600000001,10.273567999999999,436,1784335220],[123.726078,10.273581,435.80000000000001,1784335239],[123.726034,10.273661000000001,433.69999999999999,1784335240],[123.725824,10.273751000000001,430.10000000000002,1784335279],[123.725746,10.27384,427.89999999999998,1784335305],[123.72573300000001,10.273840999999999,427.80000000000001,1784335306],[123.725686,10.273853000000001,426.60000000000002,1784335316],[123.725641,10.27389,424.30000000000001,1784335336],[123.725566,10.273923,423.60000000000002,1784335337],[123.72551300000001,10.273928,424,1784335345],[123.72551300000001,10.273928,424,1784335346],[123.725328,10.274056,419,1784335412],[123.72523099999999,10.274077999999999,417,1784335420],[123.72513600000001,10.274076000000001,412.89999999999998,1784335428],[123.725128,10.274075,412.5,1784335429],[123.725111,10.274070999999999,411.69999999999999,1784335444],[123.72501800000001,10.274098,406.30000000000001,1784335445],[123.72495000000001,10.274168,401.69999999999999,1784335462],[123.724886,10.27417,399,1784335464],[123.724881,10.274168,398.69999999999999,1784335465],[123.724751,10.274146,392.30000000000001,1784335496],[123.724626,10.274055000000001,388,1784335502],[123.72461300000001,10.274048000000001,387.80000000000001,1784335503],[123.724563,10.27399,386.60000000000002,1784335513],[123.724536,10.273982999999999,386.10000000000002,1784335514],[123.724503,10.274003,385.39999999999998,1784335536],[123.724423,10.27394,385.39999999999998,1784335538],[123.72441999999999,10.273935,385.5,1784335539],[123.724379,10.273899999999999,386.10000000000002,1784335544],[123.724403,10.273899999999999,386.39999999999998,1784335554],[123.724428,10.273937999999999,386.5,1784335567],[123.724335,10.273978,386.5,1784335570],[123.724323,10.27398,386.5,1784335571],[123.72410000000001,10.27403,390.89999999999998,1784335608],[123.72398,10.274025999999999,391.69999999999999,1784335629],[123.72397100000001,10.274031000000001,391.60000000000002,1784335630],[123.723872,10.274039,390,1784335651],[123.723658,10.27399,386.69999999999999,1784335694],[123.723645,10.27399,386.60000000000002,1784335695],[123.72362800000001,10.273985,386.19999999999999,1784335702],[123.723719,10.27397,384.5,1784335726],[123.723636,10.274008,384.80000000000001,1784335727],[123.723615,10.274010000000001,384.80000000000001,1784335765],[123.723561,10.274056,384.89999999999998,1784335766],[123.723551,10.274061,384.89999999999998,1784335767],[123.723525,10.274063,384.5,1784335789],[123.723455,10.273996,383.60000000000002,1784335790],[123.723468,10.273895,383.10000000000002,1784335830],[123.72341900000001,10.273795,380.19999999999999,1784335898],[123.723356,10.27375,379.39999999999998,1784335907],[123.72335,10.273738,379.30000000000001,1784335908],[123.723291,10.273490000000001,373.10000000000002,1784335935],[123.723288,10.273481,373,1784335936],[123.723269,10.273415999999999,371,1784335944],[123.72327799999999,10.273408,370.39999999999998,1784335958],[123.72328,10.273313,368,1784335959],[123.723268,10.273298,367.69999999999999,1784335965],[123.723283,10.273266,367.19999999999999,1784335966],[123.723285,10.273253,367.19999999999999,1784335967],[123.723293,10.273218,367,1784335971],[123.723285,10.27312,366.19999999999999,1784335980],[123.723341,10.272988,364.69999999999999,1784335993],[123.723341,10.272988,364.69999999999999,1784335994],[123.72335099999999,10.272923,364.30000000000001,1784336014],[123.72349,10.272800999999999,364.69999999999999,1784336033],[123.723501,10.272796,364.69999999999999,1784336034],[123.72355899999999,10.272771000000001,364.60000000000002,1784336039],[123.723643,10.272710999999999,363.60000000000002,1784336048],[123.72365499999999,10.272705999999999,363.30000000000001,1784336049],[123.72371,10.272643,361.5,1784336058],[123.72380800000001,10.272593000000001,361.19999999999999,1784336067],[123.723816,10.272591,361.30000000000001,1784336068],[123.723868,10.272565999999999,361.39999999999998,1784336074],[123.72392600000001,10.272561,361.69999999999999,1784336079],[123.724019,10.272498000000001,362.60000000000002,1784336090],[123.72402099999999,10.272487999999999,362.69999999999999,1784336091],[123.724035,10.27244,363.39999999999998,1784336101],[123.72403300000001,10.272351,364.89999999999998,1784336108],[123.724008,10.272320000000001,364.60000000000002,1784336124],[123.723928,10.272259999999999,365,1784336125],[123.72392000000001,10.272252999999999,365.10000000000002,1784336126],[123.723805,10.272173,368,1784336144],[123.723771,10.272121,369.60000000000002,1784336147],[123.72375099999999,10.272038,372.10000000000002,1784336155],[123.723748,10.272030000000001,372.30000000000001,1784336156],[123.723735,10.271946,373,1784336165],[123.723736,10.271836,376.39999999999998,1784336174],[123.723736,10.271822999999999,376.60000000000002,1784336175],[123.723688,10.271603000000001,380.69999999999999,1784336242],[123.72368400000001,10.271595,380.69999999999999,1784336243],[123.723663,10.271570000000001,380.69999999999999,1784336252],[123.723688,10.271508000000001,380,1784336253],[123.72371099999999,10.271516,379.39999999999998,1784336256],[123.723716,10.27154,378.5,1784336259],[123.72374600000001,10.271568,377.5,1784336263],[123.723721,10.271566,375.39999999999998,1784336275],[123.723715,10.271554999999999,375.30000000000001,1784336276],[123.72370600000001,10.271545,375.30000000000001,1784336277],[123.723688,10.27148,374.69999999999999,1784336285],[123.723703,10.271393,375,1784336292],[123.72369999999999,10.271381,375,1784336293],[123.72374499999999,10.271205999999999,376.80000000000001,1784336308],[123.72374499999999,10.271195000000001,377.30000000000001,1784336309],[123.723755,10.271093,378.80000000000001,1784336318],[123.723738,10.271018,379.69999999999999,1784336325],[123.72373899999999,10.271006,379.69999999999999,1784336326],[123.723726,10.270936000000001,379.5,1784336333],[123.72373,10.270892999999999,380.10000000000002,1784336337],[123.723713,10.270849999999999,380.80000000000001,1784336342],[123.72371800000001,10.270835999999999,380.80000000000001,1784336343],[123.723719,10.270825,380.89999999999998,1784336344],[123.723716,10.270652999999999,384.10000000000002,1784336361],[123.72371800000001,10.270638,384,1784336362],[123.723721,10.270576,383.30000000000001,1784336371],[123.723761,10.270505999999999,382.69999999999999,1784336373],[123.723783,10.270440000000001,383.30000000000001,1784336380],[123.723783,10.270440000000001,383.30000000000001,1784336381],[123.723786,10.270416000000001,383.69999999999999,1784336382],[123.723833,10.270355,384,1784336406],[123.723855,10.27031,384.10000000000002,1784336407],[123.72394799999999,10.270196,384,1784336423],[123.72395299999999,10.270191000000001,383.89999999999998,1784336424],[123.724046,10.270023,384.30000000000001,1784336440],[123.724051,10.270009999999999,384.5,1784336441],[123.724101,10.269826,386.19999999999999,1784336457],[123.724101,10.269814999999999,386.39999999999998,1784336458],[123.724109,10.26972,387.60000000000002,1784336466],[123.72410000000001,10.269646,387.69999999999999,1784336472],[123.72409500000001,10.269638,387.69999999999999,1784336473],[123.72410600000001,10.269583000000001,387.60000000000002,1784336478],[123.72410600000001,10.269515999999999,388.10000000000002,1784336483],[123.724093,10.269461,388.80000000000001,1784336488],[123.724091,10.269453,388.89999999999998,1784336489],[123.72410499999999,10.269371,388.89999999999998,1784336496],[123.72410000000001,10.269280999999999,389.39999999999998,1784336504],[123.724103,10.269271,389.5,1784336505],[123.724109,10.269181,390.5,1784336514],[123.72405999999999,10.269083999999999,391.19999999999999,1784336522],[123.72405500000001,10.269069999999999,391.39999999999998,1784336523],[123.723983,10.268893,394.10000000000002,1784336539],[123.72398,10.268884999999999,394.10000000000002,1784336540],[123.723978,10.268848999999999,394.89999999999998,1784336544],[123.723913,10.268763,395.30000000000001,1784336554],[123.723906,10.268725,395.10000000000002,1784336557],[123.72390300000001,10.268713,395.10000000000002,1784336558],[123.723855,10.26854,395,1784336576],[123.72385300000001,10.268533,395,1784336577],[123.723855,10.268397999999999,393.69999999999999,1784336595],[123.723866,10.268356000000001,392.89999999999998,1784336599],[123.723868,10.268350999999999,392.80000000000001,1784336600],[123.72389,10.268295999999999,391.89999999999998,1784336605],[123.72393099999999,10.268241,391.10000000000002,1784336611],[123.72394799999999,10.268203,390.69999999999999,1784336615],[123.723958,10.268196,390.5,1784336616],[123.723961,10.268125,388.69999999999999,1784336620],[123.723975,10.268091,388,1784336623],[123.723991,10.268069000000001,386,1784336629],[123.724065,10.268020999999999,384.80000000000001,1784336635],[123.72407,10.268013,384.60000000000002,1784336636],[123.72413899999999,10.267968,383.10000000000002,1784336648],[123.724148,10.267891000000001,383.10000000000002,1784336651],[123.724161,10.267866,383,1784336653],[123.724165,10.267854,382.89999999999998,1784336654],[123.724169,10.26782,382.89999999999998,1784336657],[123.724186,10.267804999999999,382.89999999999998,1784336659],[123.72418999999999,10.267785,383.10000000000002,1784336661],[123.724181,10.267751000000001,381.89999999999998,1784336672],[123.724188,10.267620000000001,380.5,1784336684],[123.72418999999999,10.267611,380.5,1784336685],[123.724206,10.267543,380.80000000000001,1784336692],[123.724296,10.267358,381.19999999999999,1784336710],[123.724295,10.267345000000001,381.30000000000001,1784336711],[123.724289,10.267283000000001,382,1784336717],[123.724256,10.267193000000001,383,1784336724],[123.724251,10.267177999999999,383.19999999999999,1784336725],[123.72422899999999,10.267123,383.19999999999999,1784336729],[123.72417799999999,10.267059,383.89999999999998,1784336734],[123.72416800000001,10.267054999999999,383.89999999999998,1784336735],[123.72411099999999,10.267004999999999,384.10000000000002,1784336741],[123.72407,10.266923999999999,384.10000000000002,1784336750],[123.72407,10.266918,384.19999999999999,1784336751],[123.724113,10.266786,385.60000000000002,1784336867],[123.724116,10.266750999999999,385.69999999999999,1784336870],[123.72410600000001,10.266778,385.19999999999999,1784336882],[123.724108,10.266786,384.89999999999998,1784336883],[123.72411099999999,10.266819999999999,384.39999999999998,1784336906],[123.724126,10.266723000000001,383.89999999999998,1784336913],[123.724146,10.266666000000001,383.69999999999999,1784336918],[123.72415100000001,10.266654000000001,383.60000000000002,1784336919],[123.724181,10.266584999999999,383.10000000000002,1784336929],[123.72417799999999,10.266520999999999,381.60000000000002,1784336932],[123.72416,10.266481000000001,381,1784336935],[123.724155,10.266468,380.89999999999998,1784336936],[123.724109,10.266385,379.39999999999998,1784336943],[123.724048,10.266328,378.10000000000002,1784336950],[123.72404,10.266321,378,1784336951],[123.723975,10.266280999999999,377.5,1784336959],[123.72395400000001,10.266245,377.30000000000001,1784336962],[123.723911,10.266208000000001,378.10000000000002,1784336967],[123.723905,10.266201000000001,378,1784336968],[123.72385300000001,10.266161,378.10000000000002,1784336973],[123.72380099999999,10.266081,379.5,1784336982],[123.723795,10.266076,379.60000000000002,1784336983],[123.72377400000001,10.266050999999999,379.89999999999998,1784336986],[123.723755,10.265941,378.80000000000001,1784337006],[123.723688,10.265860999999999,378.39999999999998,1784337015],[123.72368299999999,10.265853999999999,378.30000000000001,1784337016],[123.723536,10.265748,378.10000000000002,1784337032],[123.723525,10.265743000000001,378,1784337033],[123.723446,10.265665,378.19999999999999,1784337043],[123.723405,10.265599999999999,379,1784337050],[123.723403,10.265591000000001,379.10000000000002,1784337051],[123.723378,10.265468,382.5,1784337067],[123.72332,10.265366,387.10000000000002,1784337086],[123.723198,10.265283,390.30000000000001,1784337104],[123.723198,10.265283,390.30000000000001,1784337105],[123.7231,10.265215,392.19999999999999,1784337119],[123.72307000000001,10.265185000000001,393,1784337120],[123.72305,10.265146,393.5,1784337124],[123.72305,10.265146,393.5,1784337125],[123.723021,10.26506,395.80000000000001,1784337137],[123.72296,10.264976000000001,397.89999999999998,1784337148],[123.72290599999999,10.264878,399.39999999999998,1784337164],[123.722905,10.264875,399.5,1784337165],[123.722835,10.264791000000001,400.60000000000002,1784337176],[123.722708,10.264699999999999,401.5,1784337193],[123.722703,10.264690999999999,401.39999999999998,1784337194],[123.722514,10.264609999999999,399,1784337228],[123.722413,10.264586,397.30000000000001,1784337230],[123.72240499999999,10.264581,397.10000000000002,1784337231],[123.722251,10.264513000000001,395,1784337273],[123.72215300000001,10.264426,393.69999999999999,1784337290],[123.722146,10.264417999999999,393.69999999999999,1784337291],[123.722069,10.264346,392.69999999999999,1784337305],[123.72195600000001,10.264291,391.89999999999998,1784337467],[123.72190000000001,10.264284999999999,392.30000000000001,1784337472],[123.721889,10.264281,392.39999999999998,1784337473],[123.721845,10.264268,392.19999999999999,1784337477],[123.721745,10.264213,390.60000000000002,1784337528],[123.721693,10.26422,390.5,1784337533],[123.72168600000001,10.264220999999999,390.60000000000002,1784337534],[123.721633,10.264238000000001,390,1784337542],[123.721493,10.264231000000001,390.10000000000002,1784337552],[123.721481,10.264233000000001,390,1784337553],[123.721391,10.264222999999999,389,1784337564],[123.72136500000001,10.264199,388.5,1784337568],[123.72123999999999,10.264139999999999,384.5,1784337587],[123.721236,10.264135,384.10000000000002,1784337588],[123.72114000000001,10.264080999999999,380.60000000000002,1784337600],[123.721096,10.264073,379.60000000000002,1784337604],[123.721063,10.26404,377.80000000000001,1784337609],[123.72103300000001,10.264025,376.69999999999999,1784337612],[123.721023,10.264023,376.30000000000001,1784337613],[123.720901,10.26389,370.39999999999998,1784337642],[123.720821,10.263831,368.10000000000002,1784337643],[123.720811,10.263831,367.89999999999998,1784337644],[123.720795,10.263828,367.5,1784337661],[123.720676,10.263864999999999,363.30000000000001,1784337678],[123.72058800000001,10.263901000000001,361,1784337679],[123.72044,10.263869,358.10000000000002,1784337698],[123.72042999999999,10.263864999999999,358,1784337699],[123.72034600000001,10.263806000000001,356.60000000000002,1784337711],[123.720316,10.263711000000001,356.10000000000002,1784337724],[123.720303,10.263601,357.19999999999999,1784337741],[123.720303,10.263589,357.10000000000002,1784337742],[123.720311,10.26357,357,1784337753],[123.720243,10.263479999999999,354.19999999999999,1784337757],[123.720185,10.263438000000001,351.5,1784337770],[123.72013800000001,10.263434999999999,349.19999999999999,1784337772],[123.72013,10.263434999999999,348.80000000000001,1784337773],[123.719908,10.263496,340.10000000000002,1784337798],[123.71989600000001,10.263495000000001,339.89999999999998,1784337799],[123.71976600000001,10.263481000000001,334.60000000000002,1784337815],[123.719641,10.263441,330.10000000000002,1784337842],[123.719555,10.263401,328.19999999999999,1784337843],[123.719526,10.263398,327.80000000000001,1784337846],[123.719526,10.263398,327.80000000000001,1784337847],[123.719413,10.263356,326.10000000000002,1784337858],[123.719348,10.263313,324.60000000000002,1784337866],[123.719348,10.263313,324.60000000000002,1784337867],[123.719326,10.263298000000001,324.10000000000002,1784337869],[123.71924300000001,10.263166,322.30000000000001,1784337882],[123.71914099999999,10.263096000000001,322,1784337899],[123.71913600000001,10.263097999999999,322,1784337900],[123.719021,10.263073,321.19999999999999,1784337925],[123.718884,10.263106000000001,321.39999999999998,1784337936],[123.718884,10.263106000000001,321.39999999999998,1784337937],[123.71881999999999,10.263095,321,1784337944],[123.718895,10.263097999999999,322.5,1784337950],[123.718985,10.263085,323.19999999999999,1784337958],[123.71899999999999,10.263085,323.30000000000001,1784337959],[123.718998,10.263095,324.10000000000002,1784337970],[123.71891100000001,10.263085,325.89999999999998,1784337973],[123.718884,10.263102999999999,326.39999999999998,1784338056],[123.718789,10.263095,326,1784338057],[123.71875799999999,10.263073,325.69999999999999,1784338060],[123.718745,10.263064999999999,325.69999999999999,1784338061],[123.718705,10.263025000000001,325.30000000000001,1784338066],[123.718538,10.262945,326.69999999999999,1784338125],[123.718538,10.262945,326.69999999999999,1784338126],[123.71846499999999,10.262886,329.5,1784338138],[123.718386,10.262803,332.30000000000001,1784338155],[123.718343,10.262781,332.60000000000002,1784338166],[123.71827999999999,10.262698,333.5,1784338168],[123.71827,10.262686,333.60000000000002,1784338169],[123.718176,10.262600000000001,333,1784338183],[123.718085,10.262553,331.89999999999998,1784338189],[123.717963,10.262554,330.69999999999999,1784338201],[123.71795299999999,10.262553,330.60000000000002,1784338202],[123.717933,10.262543000000001,330.10000000000002,1784338203],[123.717783,10.262523,327.30000000000001,1784338215],[123.717769,10.262521,326.89999999999998,1784338216],[123.717585,10.262498000000001,321.89999999999998,1784338245],[123.717493,10.262445,319.19999999999999,1784338247],[123.717485,10.262435999999999,318.89999999999998,1784338248],[123.71743600000001,10.262351000000001,317.5,1784338257],[123.71739100000001,10.262301000000001,316.39999999999998,1784338265],[123.717383,10.262297999999999,316.10000000000002,1784338266],[123.71728299999999,10.262231,315.10000000000002,1784338322],[123.71722,10.262136,313.39999999999998,1784338340],[123.717203,10.262117999999999,312.60000000000002,1784338345],[123.717173,10.26211,311.89999999999998,1784338346],[123.717173,10.262100999999999,311.69999999999999,1784338347],[123.71715500000001,10.262093,311.30000000000001,1784338348],[123.717133,10.26207,310.30000000000001,1784338351],[123.717096,10.262055999999999,309.39999999999998,1784338354],[123.71708,10.262032,308,1784338363],[123.716981,10.262021000000001,305.19999999999999,1784338371],[123.71695099999999,10.262008,305.10000000000002,1784338374],[123.71695099999999,10.262008,305.10000000000002,1784338375],[123.716885,10.261983000000001,304.5,1784338381],[123.71681100000001,10.261893000000001,303.39999999999998,1784338391],[123.71680499999999,10.261881000000001,303.19999999999999,1784338392],[123.716773,10.261828,302.19999999999999,1784338397],[123.71667600000001,10.261760000000001,300.5,1784338408],[123.716668,10.261753000000001,300.39999999999998,1784338409],[123.71666999999999,10.261773,299.69999999999999,1784338436],[123.716748,10.261798000000001,300.19999999999999,1784338444],[123.716763,10.261839999999999,300.19999999999999,1784338448],[123.716768,10.261850000000001,300.10000000000002,1784338449],[123.716779,10.261877999999999,300.10000000000002,1784338452],[123.71687300000001,10.261956,300.60000000000002,1784338463],[123.716881,10.261960999999999,300.60000000000002,1784338464],[123.716981,10.262,300.89999999999998,1784338483],[123.717088,10.262026000000001,301.60000000000002,1784338531],[123.716993,10.262013,302.39999999999998,1784338532],[123.71698600000001,10.262010999999999,302.5,1784338533],[123.71697500000001,10.262006,302.60000000000002,1784338555],[123.716966,10.261898,302.5,1784338570],[123.71699099999999,10.261786000000001,301.69999999999999,1784338590],[123.717043,10.261699999999999,298.60000000000002,1784338624],[123.717071,10.261613000000001,297.5,1784338625],[123.717073,10.261608000000001,297.5,1784338626],[123.717108,10.261490999999999,294.80000000000001,1784338686],[123.717118,10.261196,289.10000000000002,1784338731],[123.717125,10.261184999999999,288.89999999999998,1784338732],[123.717178,10.26108,287.60000000000002,1784338744],[123.717181,10.261055000000001,287,1784338757],[123.71716000000001,10.260963,286.60000000000002,1784338770],[123.71719,10.26092,286.89999999999998,1784338775],[123.71719,10.26092,286.89999999999998,1784338776],[123.717276,10.260808000000001,287.5,1784338803],[123.717215,10.260716,287.30000000000001,1784338827],[123.717203,10.260617999999999,288,1784338829],[123.717203,10.260611000000001,288,1784338830],[123.717221,10.260551,288,1784338841],[123.71719299999999,10.260496,287.80000000000001,1784338842],[123.717198,10.260448999999999,287.60000000000002,1784338863],[123.71717599999999,10.260349,286.89999999999998,1784338865],[123.71717599999999,10.260343000000001,286.80000000000001,1784338866],[123.717196,10.260228,285.60000000000002,1784338898],[123.717156,10.260097999999999,283,1784338918],[123.717146,10.260005,282.10000000000002,1784338937],[123.717145,10.260001000000001,282.10000000000002,1784338938],[123.717178,10.259891,281.30000000000001,1784338995],[123.717146,10.259803,280.69999999999999,1784338996],[123.717128,10.259658,279.60000000000002,1784339042],[123.717139,10.259566,278,1784339043],[123.717139,10.259565,278,1784339044],[123.717145,10.259553,277.89999999999998,1784339058],[123.717118,10.259466,277,1784339059],[123.71702500000001,10.259403000000001,275.89999999999998,1784339078],[123.716875,10.259340999999999,274.69999999999999,1784339092],[123.716875,10.259340999999999,274.69999999999999,1784339093],[123.716775,10.259345,273.69999999999999,1784339104],[123.716736,10.259335999999999,273.30000000000001,1784339109],[123.716688,10.259233999999999,270.89999999999998,1784339111],[123.716583,10.259179,267.10000000000002,1784339128],[123.716573,10.259181,266.89999999999998,1784339129],[123.716448,10.259141,263,1784339143],[123.71638900000001,10.259086,260.30000000000001,1784339167],[123.71627100000001,10.259053,260.10000000000002,1784339190],[123.716263,10.259050999999999,260.19999999999999,1784339191],[123.71614099999999,10.259036,260.69999999999999,1784339214],[123.71592800000001,10.259029999999999,260.19999999999999,1784339231],[123.715818,10.258993,259.60000000000002,1784339243],[123.715808,10.258981,259,1784339244],[123.71571,10.258965,257.69999999999999,1784339254],[123.715611,10.25892,254.59999999999999,1784339269],[123.715593,10.258929999999999,254.09999999999999,1784339285],[123.71550000000001,10.258925,252.70000000000002,1784339286],[123.715491,10.258931,252.59999999999999,1784339287],[123.715486,10.258936,252.59999999999999,1784339288],[123.715446,10.258965999999999,252.40000000000001,1784339292],[123.715338,10.258971000000001,251.30000000000004,1784339298],[123.71534,10.258971000000001,250.59999999999999,1784339299],[123.71524100000001,10.258945000000001,246.20000000000002,1784339319],[123.715233,10.25895,245.70000000000002,1784339698],[123.715146,10.258915999999999,248.00000000000003,1784339699],[123.715141,10.258896,247.80000000000004,1784339706],[123.71511,10.258875,247.30000000000004,1784339707],[123.71507800000001,10.258865999999999,246.80000000000004,1784339710],[123.71507800000001,10.258865999999999,246.80000000000004,1784339711],[123.715006,10.258785,243.40000000000001,1784339761],[123.714838,10.258743000000001,247.70000000000002,1784339803],[123.714716,10.258741000000001,248.09999999999999,1784339817],[123.714713,10.258737999999999,248.09999999999999,1784339818],[123.714626,10.258673,249.20000000000002,1784339835],[123.714591,10.258627000000001,249,1784339871],[123.714455,10.258604999999999,245.20000000000002,1784339907],[123.714443,10.258606,245.00000000000003,1784339908],[123.71440800000001,10.258604999999999,243.59999999999999,1784339913],[123.714388,10.258611,243.09999999999999,1784339915],[123.71438499999999,10.258621,242.70000000000002,1784339953],[123.714189,10.258516,237.59999999999999,1784339976],[123.71418799999999,10.258514999999999,237.50000000000003,1784339977],[123.714071,10.258457999999999,235.50000000000003,1784340007],[123.713919,10.258414999999999,232.40000000000001,1784340012],[123.71391,10.258406000000001,231.59999999999999,1784340013],[123.713881,10.2584,230.40000000000001,1784340064],[123.713778,10.258445999999999,230.09999999999999,1784340071],[123.713621,10.258393,229.50000000000003,1784340085],[123.713611,10.258395,229.50000000000003,1784340086],[123.71351,10.258395,230.80000000000004,1784340102],[123.713391,10.258407999999999,232.80000000000004,1784340119],[123.713371,10.2584,232.50000000000003,1784340121],[123.713263,10.258419999999999,232.30000000000004,1784340177],[123.713261,10.258418000000001,232.20000000000002,1784340178],[123.713165,10.258395,230,1784340263],[123.71307400000001,10.25841,228,1784340295],[123.71298299999999,10.25841,230.30000000000004,1784340307],[123.71295600000001,10.258400999999999,230.50000000000003,1784340309],[123.71295000000001,10.258391,230.50000000000003,1784340310],[123.712945,10.258378,230.70000000000002,1784340363],[123.712836,10.258366000000001,231.30000000000004,1784340366],[123.712735,10.258330000000001,231.50000000000003,1784340382],[123.712688,10.258328000000001,231.20000000000002,1784340385],[123.712688,10.258328000000001,231.20000000000002,1784340386],[123.712486,10.258315,231.59999999999999,1784340427],[123.71235,10.258251,231.00000000000003,1784340449],[123.712335,10.258243,230.90000000000001,1784340450],[123.712226,10.258233000000001,229.80000000000004,1784340468],[123.712203,10.25822,229.59999999999999,1784340474],[123.712138,10.258205999999999,229.40000000000001,1784340475],[123.71211,10.258222999999999,229.20000000000002,1784340486],[123.712008,10.258228000000001,228.70000000000002,1784340488],[123.711994,10.258235000000001,228.70000000000002,1784340489],[123.711916,10.258238,228.30000000000004,1784340495],[123.711871,10.258215999999999,228.09999999999999,1784340506],[123.711755,10.258193,226.70000000000002,1784340509],[123.71165499999999,10.258138000000001,225.40000000000001,1784340519],[123.711651,10.258134999999999,225.30000000000004,1784340520],[123.711536,10.258105,226.00000000000003,1784340581],[123.71142399999999,10.258113,225.59999999999999,1784340582],[123.711361,10.258063999999999,225.50000000000003,1784340586],[123.711355,10.258056,225.50000000000003,1784340587],[123.711298,10.257986000000001,224.50000000000003,1784340617],[123.711243,10.257956,223.90000000000001,1784340647],[123.711191,10.257863,223.40000000000001,1784340648],[123.711168,10.257838,223.09999999999999,1784340649],[123.711161,10.257823,223.00000000000003,1784340650],[123.71117,10.257763000000001,222.59999999999999,1784340653],[123.711116,10.257631,220.40000000000001,1784340663],[123.71111000000001,10.257621,220.20000000000002,1784340664],[123.711099,10.257586,219.30000000000004,1784340667],[123.71106899999999,10.257553,218.09999999999999,1784340815],[123.710976,10.25755,216,1784340848],[123.710876,10.257465,215.09999999999999,1784340885],[123.710876,10.257465,215.09999999999999,1784340886],[123.71082,10.257372999999999,213.70000000000002,1784340894],[123.710798,10.257291,213.00000000000003,1784340899],[123.710798,10.257281000000001,212.80000000000004,1784340900],[123.710758,10.257175,210,1784340946],[123.71070400000001,10.257080999999999,209.30000000000004,1784341044],[123.710671,10.256895999999999,205.40000000000001,1784341097],[123.71064800000001,10.2569,205.20000000000002,1784341098],[123.71063100000001,10.256895999999999,205.09999999999999,1784341110],[123.710644,10.256805999999999,203.59999999999999,1784341111],[123.71062999999999,10.256748,202.80000000000004,1784341116],[123.71064,10.256701,202.40000000000001,1784341120],[123.710638,10.256686,202.20000000000002,1784341121],[123.710643,10.256618,200.69999999999999,1784341126],[123.710635,10.256558,199.19999999999999,1784341131],[123.710621,10.256544999999999,198.80000000000001,1784341136],[123.710621,10.256499,198,1784341137],[123.71062499999999,10.256486000000001,197.90000000000001,1784341138],[123.710618,10.256394999999999,196.09999999999999,1784341145],[123.710595,10.256321,193.69999999999999,1784341152],[123.710589,10.256311,193.40000000000001,1784341153],[123.71057500000001,10.256195,189.40000000000001,1784341166],[123.71054599999999,10.256093,186.5,1784341175],[123.710543,10.256079,186.30000000000001,1784341176],[123.710559,10.255922999999999,181.19999999999999,1784341191],[123.710536,10.255788000000001,178.19999999999999,1784341205],[123.710536,10.255777999999999,178.09999999999999,1784341206],[123.710561,10.255706,176.40000000000001,1784341212],[123.710573,10.255615000000001,173.19999999999999,1784341219],[123.710578,10.255603000000001,172.5,1784341220],[123.710588,10.255566,171.30000000000001,1784341223],[123.710576,10.255493,166.40000000000001,1784341230],[123.710593,10.255445,163.90000000000001,1784341233],[123.710598,10.255435,163.40000000000001,1784341234],[123.710626,10.255321,155.90000000000001,1784341247],[123.710643,10.2553,154.90000000000001,1784341248],[123.710644,10.255269999999999,152.59999999999999,1784341251],[123.71064800000001,10.25526,152.40000000000001,1784341252],[123.71065299999999,10.255236,151,1784341583],[123.710641,10.255155999999999,148.59999999999999,1784341584],[123.710683,10.255103999999999,147.59999999999999,1784341590],[123.71070400000001,10.255050000000001,146.40000000000001,1784341595],[123.710706,10.255039999999999,146.19999999999999,1784341596],[123.710763,10.254989999999999,144.5,1784341602],[123.710798,10.254970999999999,143.69999999999999,1784341605],[123.710823,10.254923,141.5,1784341611],[123.71083299999999,10.254915,141.30000000000001,1784341612],[123.71085600000001,10.254875,140.09999999999999,1784341617],[123.71088399999999,10.254795,137.80000000000001,1784341625],[123.710888,10.254759999999999,136.90000000000001,1784341628],[123.710893,10.25475,136.5,1784341629],[123.710949,10.254580000000001,130.09999999999999,1784341644],[123.710953,10.254564999999999,129.59999999999999,1784341645],[123.710976,10.254500999999999,126.30000000000001,1784341650],[123.710988,10.25442,123.5,1784341657],[123.710988,10.254401,122.70000000000002,1784341658],[123.71100800000001,10.254268,117.20000000000002,1784341670],[123.711021,10.254235,116.40000000000001,1784341672],[123.711026,10.254213999999999,116.09999999999999,1784341673],[123.71104800000001,10.254066,111.40000000000001,1784341684],[123.71104800000001,10.254053000000001,111,1784341685],[123.711108,10.253905,103.20000000000002,1784341698],[123.711116,10.253893,102.90000000000001,1784341699],[123.711219,10.253695,98,1784341717],[123.711226,10.253678000000001,97.900000000000006,1784341718],[123.71125600000001,10.253633000000001,97.300000000000011,1784341736],[123.71126,10.253541,96.099999999999994,1784341737],[123.711281,10.253468,95.5,1784341744],[123.71130100000001,10.253432999999999,95.099999999999994,1784341747],[123.71130599999999,10.253420999999999,95.099999999999994,1784341748],[123.71133399999999,10.253366,94.599999999999994,1784341753],[123.711426,10.253295,94.700000000000017,1784341761],[123.711438,10.253288,94.700000000000017,1784341762],[123.71157100000001,10.253193,96,1784341776],[123.711579,10.25319,96.099999999999994,1784341777],[123.711743,10.253071,96.099999999999994,1784341795],[123.71175599999999,10.253066,96.200000000000017,1784341796],[123.711821,10.253038,95.700000000000017,1784341802],[123.711915,10.253015,94.800000000000011,1784341809],[123.71193,10.25301,94.900000000000006,1784341810],[123.712008,10.253000999999999,94,1784341816],[123.71207,10.252971000000001,94.300000000000011,1784341822],[123.712101,10.252966000000001,94.300000000000011,1784341825],[123.71211,10.252965,94.300000000000011,1784341826],[123.71221799999999,10.252924999999999,94.200000000000017,1784341836],[123.712266,10.252931,94.200000000000017,1784341839],[123.71229099999999,10.252917999999999,94.599999999999994,1784341841],[123.712299,10.252915,94.700000000000017,1784341842],[123.71235299999999,10.252872999999999,95,1784341848],[123.712433,10.252836,94.800000000000011,1784341855],[123.712444,10.252831,94.800000000000011,1784341856],[123.712486,10.252818,94.900000000000006,1784341859],[123.71251599999999,10.252796,95.099999999999994,1784341862],[123.71256,10.252791,94.700000000000017,1784341864],[123.712591,10.252776000000001,95,1784341867],[123.71260100000001,10.252776000000001,95.099999999999994,1784341868],[123.712678,10.25277,94.700000000000017,1784341875],[123.71275799999999,10.252732999999999,94.900000000000006,1784341882],[123.71277000000001,10.25273,94.900000000000006,1784341883],[123.712791,10.252706,94.599999999999994,1784341889],[123.71284799999999,10.252687999999999,94.099999999999994,1784341891],[123.712936,10.252685,93.200000000000017,1784341898],[123.712951,10.252689999999999,92.900000000000006,1784341899],[123.713013,10.252682999999999,92.5,1784341906],[123.71306800000001,10.252700000000001,92.300000000000011,1784341913],[123.71313600000001,10.252700000000001,91.700000000000017,1784341918],[123.713148,10.252700000000001,91.5,1784341919],[123.71324,10.252738000000001,91.200000000000017,1784341926],[123.713301,10.252751,91.5,1784341932],[123.71331499999999,10.252753,91.800000000000011,1784341933],[123.71348,10.252821000000001,90.599999999999994,1784341951],[123.7135,10.252865,90,1784341954],[123.713508,10.25287,89.900000000000006,1784341955],[123.713611,10.252967999999999,87.800000000000011,1784341970],[123.713666,10.253000999999999,87.099999999999994,1784341974],[123.713691,10.253005,86.900000000000006,1784341975],[123.713723,10.253018000000001,86.5,1784341986],[123.713798,10.253083,85.200000000000017,1784341987],[123.713965,10.253178999999999,84.099999999999994,1784342005],[123.713983,10.253185,84,1784342006],[123.714056,10.253213000000001,83.700000000000017,1784342012],[123.714158,10.253213000000001,85,1784342019],[123.71417099999999,10.253208000000001,85.200000000000017,1784342020],[123.714361,10.253218,83.800000000000011,1784342037],[123.714369,10.253216,83.900000000000006,1784342038],[123.714446,10.253201000000001,82.700000000000017,1784342051],[123.714506,10.253176,81.5,1784342066],[123.714595,10.253133,80.700000000000017,1784342067],[123.714601,10.253105,80.700000000000017,1784342070],[123.714601,10.253105,80.700000000000017,1784342071],[123.71465999999999,10.253050999999999,80.900000000000006,1784342085],[123.714736,10.253007999999999,80.599999999999994,1784342088],[123.714764,10.253007999999999,80.800000000000011,1784342090],[123.71477299999999,10.253007999999999,80.700000000000017,1784342091],[123.71481,10.253016000000001,80.400000000000006,1784342099],[123.71499799999999,10.253012999999999,78.700000000000017,1784342108],[123.715013,10.253012999999999,78.700000000000017,1784342109],[123.715113,10.253012999999999,78.900000000000006,1784342115],[123.71516,10.253033,78.099999999999994,1784342118],[123.715175,10.253038,78,1784342119],[123.715261,10.253064999999999,77.300000000000011,1784342129],[123.715351,10.253056000000001,76.099999999999994,1784342132],[123.715356,10.253055,76,1784342133],[123.71559999999999,10.253068000000001,75,1784342158],[123.715615,10.253066,74.900000000000006,1784342159],[123.71564100000001,10.253078,73.599999999999994,1784342170],[123.71574099999999,10.253078,73.099999999999994,1784342173],[123.715825,10.253064999999999,72.200000000000017,1784342179],[123.71584300000001,10.253064999999999,72.200000000000017,1784342180],[123.715898,10.253066,71.400000000000006,1784342185],[123.71601099999999,10.253036,69.200000000000017,1784342195],[123.716021,10.253036,69.099999999999994,1784342196],[123.716179,10.252986,66.5,1784342211],[123.716193,10.252983,66.5,1784342212],[123.71622600000001,10.252978000000001,66.400000000000006,1784342215],[123.71629299999999,10.252988,66.099999999999994,1784342220],[123.716441,10.252917999999999,65.900000000000006,1784342234],[123.716449,10.25292,65.700000000000017,1784342235],[123.716483,10.25291,65.700000000000017,1784342238],[123.716616,10.252903,64.700000000000017,1784342248],[123.716623,10.252898,64.400000000000006,1784342249],[123.716695,10.252883000000001,63.399999999999999,1784342257],[123.716731,10.25286,63.20000000000001,1784342261],[123.71678300000001,10.252845000000001,63.499999999999993,1784342265],[123.716793,10.252843,63.499999999999993,1784342266],[123.716813,10.252829999999999,63.800000000000004,1784342269],[123.716943,10.252815999999999,63.899999999999999,1784342279],[123.71695800000001,10.252818,63.899999999999999,1784342280],[123.717069,10.252789999999999,63.999999999999993,1784342290],[123.717123,10.252788000000001,63.20000000000001,1784342294],[123.717136,10.252788000000001,62.999999999999993,1784342295],[123.71717599999999,10.252794,63.399999999999999,1784342298],[123.71732799999999,10.252745000000001,63.800000000000004,1784342313],[123.71732799999999,10.252745000000001,63.800000000000004,1784342314],[123.717405,10.252715,65.300000000000011,1784342321],[123.717473,10.252706,65.300000000000011,1784342325],[123.71748100000001,10.252700000000001,65.400000000000006,1784342326],[123.71755,10.252666,66,1784342332],[123.71764899999999,10.252655000000001,66.300000000000011,1784342339],[123.717665,10.252653,66.400000000000006,1784342340],[123.717731,10.25264,66.700000000000017,1784342344],[123.71777299999999,10.252644999999999,66.700000000000017,1784342358],[123.717896,10.252594999999999,68,1784342361],[123.717905,10.252592999999999,68.200000000000017,1784342362],[123.717951,10.252575999999999,68.900000000000006,1784342367],[123.71799799999999,10.252545,69.800000000000011,1784342376],[123.718086,10.252535,69.599999999999994,1784342380],[123.718098,10.252533,69.300000000000011,1784342381],[123.718143,10.252535999999999,69.400000000000006,1784342384],[123.718158,10.252528,69.5,1784342387],[123.718276,10.252518,70.800000000000011,1784342394],[123.718276,10.252518,70.800000000000011,1784342395],[123.71836,10.252458000000001,71.700000000000017,1784342405],[123.718498,10.252447999999999,72.300000000000011,1784342419],[123.718611,10.252424,73.700000000000017,1784342429],[123.718626,10.252428,73.800000000000011,1784342430],[123.71863999999999,10.252433,74,1784342431],[123.718718,10.252418,74.200000000000017,1784342436],[123.718789,10.252428,73.300000000000011,1784342440],[123.71880299999999,10.252431,73.099999999999994,1784342441],[123.718935,10.252466,73,1784342450],[123.719008,10.252461,72.900000000000006,1784342454],[123.719038,10.252473,72.700000000000017,1784342455],[123.71914,10.252509999999999,71.800000000000011,1784342464],[123.719216,10.252483,70,1784342471],[123.71923099999999,10.252475,69.900000000000006,1784342472],[123.71924300000001,10.252466,69.700000000000017,1784342473],[123.719306,10.252463000000001,69.200000000000017,1784342487],[123.719466,10.252471,68.900000000000006,1784342493],[123.719466,10.252471,68.900000000000006,1784342494],[123.71962600000001,10.252414999999999,69.599999999999994,1784342505],[123.719641,10.252420000000001,69.700000000000017,1784342506],[123.719713,10.252388,70.099999999999994,1784342512],[123.719745,10.252359999999999,70.099999999999994,1784342516],[123.719813,10.252340999999999,69,1784342523],[123.719821,10.252340999999999,68.900000000000006,1784342524],[123.719945,10.252291,68.200000000000017,1784342534],[123.719956,10.252285000000001,68.099999999999994,1784342535],[123.720135,10.252205,67.300000000000011,1784342550],[123.720144,10.252198999999999,67.200000000000017,1784342551],[123.72018300000001,10.252160999999999,67.300000000000011,1784342559],[123.72031800000001,10.252108,67.800000000000011,1784342567],[123.720321,10.252105,68.099999999999994,1784342568],[123.72038999999999,10.252068,68,1784342574],[123.72045,10.25201,67.800000000000011,1784342582],[123.72045799999999,10.252000000000001,67.800000000000011,1784342583],[123.72051500000001,10.251941,67.700000000000017,1784342589],[123.720545,10.25193,67.599999999999994,1784342591],[123.720583,10.251931000000001,67.400000000000006,1784342593],[123.720601,10.251927999999999,67.400000000000006,1784342594],[123.72064,10.251901,67.099999999999994,1784342599],[123.720648,10.251885,67,1784342601],[123.72069500000001,10.251868,66.5,1784342606],[123.720715,10.251849,66,1784342611],[123.72078,10.251830999999999,66.5,1784342616],[123.72079100000001,10.251823,66.5,1784342617],[123.720823,10.251813,66.400000000000006,1784342619],[123.720956,10.251733,66.300000000000011,1784342631],[123.720966,10.251728,66.300000000000011,1784342632],[123.721039,10.251711,66.099999999999994,1784342638],[123.72114999999999,10.251669,66.800000000000011,1784342647],[123.721164,10.251663000000001,66.700000000000017,1784342648],[123.721208,10.251595999999999,66.099999999999994,1784342654],[123.72127,10.251545,65.599999999999994,1784342660],[123.72128499999999,10.251536,65.400000000000006,1784342661],[123.721448,10.251469999999999,63.899999999999999,1784342675],[123.721448,10.251469999999999,63.899999999999999,1784342676],[123.72163999999999,10.251405999999999,65.300000000000011,1784342692],[123.72165099999999,10.251405,65.200000000000017,1784342693],[123.721773,10.251351,65.800000000000011,1784342702],[123.72178599999999,10.251344,66,1784342703],[123.721906,10.251295000000001,66.200000000000017,1784342723],[123.72202,10.251288000000001,66.200000000000017,1784342725],[123.72202900000001,10.251283000000001,66.099999999999994,1784342726],[123.722128,10.25128,65,1784342734],[123.72228800000001,10.251231000000001,65.700000000000017,1784342750],[123.72229900000001,10.251231000000001,65.700000000000017,1784342751],[123.72242900000001,10.251156,66.5,1784342763],[123.722476,10.251163,66.300000000000011,1784342766],[123.722498,10.251170999999999,66,1784342767],[123.722543,10.251194999999999,65.700000000000017,1784342770],[123.722565,10.251218,65.900000000000006,1784342772],[123.722576,10.251306,65.700000000000017,1784342778],[123.72258100000001,10.251325,65.700000000000017,1784342779],[123.722561,10.25141,67.599999999999994,1784342785],[123.722573,10.251467999999999,68.599999999999994,1784342790],[123.722566,10.251474999999999,68.800000000000011,1784342791],[123.722543,10.251552999999999,71.200000000000017,1784342798],[123.72254599999999,10.251655,72.700000000000017,1784342806],[123.72254100000001,10.251663000000001,73,1784342807],[123.722489,10.251813,74,1784342822],[123.722489,10.251825,74.099999999999994,1784342823],[123.722493,10.251861,74.099999999999994,1784342827],[123.722463,10.251948000000001,72.300000000000011,1784342848],[123.72247,10.252022999999999,72.099999999999994,1784342857],[123.72247,10.252036,72,1784342858],[123.72248399999999,10.252068,71.900000000000006,1784342870],[123.722505,10.252167999999999,72.099999999999994,1784342873],[123.7225,10.252196,72,1784342878],[123.722511,10.252266000000001,72.300000000000011,1784342884],[123.7225,10.252274999999999,72.200000000000017,1784342885],[123.722514,10.252312999999999,72.300000000000011,1784342888],[123.72251,10.252351000000001,72.200000000000017,1784342891],[123.722521,10.252445,72.200000000000017,1784342899],[123.722521,10.252458000000001,72.300000000000011,1784342900],[123.722538,10.252504999999999,72.5,1784342905],[123.72254,10.252530999999999,72.800000000000011,1784342907],[123.722528,10.252565000000001,73.400000000000006,1784342914],[123.722565,10.25263,74.300000000000011,1784342918],[123.722566,10.252644999999999,74.300000000000011,1784342919],[123.722576,10.252682999999999,74.5,1784342922],[123.722533,10.252788000000001,74.599999999999994,1784342929],[123.72253499999999,10.252806,74.800000000000011,1784342930],[123.722551,10.252896,76.200000000000017,1784342936],[123.72254100000001,10.252991,76.099999999999994,1784342945],[123.72254,10.253005,76.099999999999994,1784342946],[123.72250099999999,10.253158000000001,76.700000000000017,1784342958],[123.722506,10.253213000000001,77,1784342963],[123.722505,10.253226,77.200000000000017,1784342964],[123.722489,10.253251000000001,77.5,1784342966],[123.722489,10.253323999999999,79.099999999999994,1784342972],[123.72247299999999,10.253375,79.700000000000017,1784342975],[123.722465,10.253394999999999,79.900000000000006,1784342976],[123.722391,10.253527999999999,79.300000000000011,1784342986],[123.72235999999999,10.253551,78.5,1784342988],[123.722353,10.253563,77.800000000000011,1784342989],[123.72233900000001,10.25361,76.900000000000006,1784342993],[123.72227100000001,10.253688,75.700000000000017,1784343000],[123.722256,10.2537,75.5,1784343001],[123.722244,10.253726,75.099999999999994,1784343009],[123.722191,10.253776,74.400000000000006,1784343010],[123.72220299999999,10.253911,75.5,1784343022],[123.7222,10.253919,75.5,1784343023],[123.722189,10.253935,75.800000000000011,1784343025],[123.722151,10.253951000000001,76.200000000000017,1784343041],[123.722193,10.254106,77.5,1784343047],[123.722196,10.254116,77.5,1784343048],[123.722205,10.254142999999999,77.599999999999994,1784343050],[123.7222,10.254181000000001,77.599999999999994,1784343053],[123.722258,10.254306,78.099999999999994,1784343063],[123.72226499999999,10.254320999999999,78,1784343064],[123.722296,10.254428000000001,78.5,1784343072],[123.72229900000001,10.254481,78.900000000000006,1784343077],[123.722296,10.254493,79.099999999999994,1784343078],[123.72229299999999,10.254573000000001,80,1784343086],[123.72227599999999,10.254661,80.300000000000011,1784343094],[123.72227599999999,10.254661,80.300000000000011,1784343095],[123.722263,10.25479,81.300000000000011,1784343106],[123.72227599999999,10.254913,82.5,1784343120],[123.722283,10.254918,82.599999999999994,1784343121],[123.722346,10.255018,84.099999999999994,1784343141],[123.722375,10.255041,84.200000000000017,1784343143],[123.72240600000001,10.255103,84.300000000000011,1784343154],[123.722413,10.25511,84.400000000000006,1784343155],[123.722448,10.255143,84.700000000000017,1784343160],[123.722481,10.255155,85.200000000000017,1784343171],[123.72256,10.255239,86.300000000000011,1784343175],[123.72256,10.255239,86.300000000000011,1784343176],[123.722598,10.255278000000001,86.900000000000006,1784343180],[123.722623,10.255288,87,1784343182],[123.722658,10.255338,87,1784343185],[123.72269300000001,10.25536,87.099999999999994,1784343188],[123.722705,10.255376,87,1784343189],[123.72286800000001,10.255488,85.700000000000017,1784343205],[123.722888,10.255525,85.5,1784343208],[123.7229,10.255531,85.5,1784343209],[123.722953,10.255558000000001,85.5,1784343215],[123.72298600000001,10.255599999999999,85.400000000000006,1784343219],[123.72303100000001,10.25563,85.5,1784343224],[123.723038,10.255641000000001,85.5,1784343225],[123.72308,10.255715,84.200000000000017,1784343232],[123.72314,10.255786000000001,83.300000000000011,1784343239],[123.723146,10.255796,83.300000000000011,1784343240],[123.723181,10.25583,83.099999999999994,1784343250],[123.723305,10.25591,83.599999999999994,1784343256],[123.72331800000001,10.255917999999999,83.700000000000017,1784343257],[123.723376,10.255951,83.599999999999994,1784343263],[123.723456,10.256031,84.700000000000017,1784343272],[123.723466,10.256041,84.700000000000017,1784343273],[123.72363300000001,10.256079,86.800000000000011,1784343288],[123.723643,10.256081,86.800000000000011,1784343289],[123.72372799999999,10.256081,87.5,1784343297],[123.723795,10.256095999999999,87.599999999999994,1784343305],[123.723806,10.2561,87.700000000000017,1784343306],[123.723883,10.256103,88.700000000000017,1784343320],[123.723995,10.256148,90.300000000000011,1784343323],[123.724051,10.256209999999999,91.400000000000006,1784343328],[123.72405999999999,10.256231,91.5,1784343329],[123.724166,10.256364,94.5,1784343343],[123.724171,10.256373,94.700000000000017,1784343344],[123.72427999999999,10.256437999999999,94.900000000000006,1784343354],[123.724305,10.256466,94.900000000000006,1784343357],[123.72431899999999,10.256478,94.900000000000006,1784343358],[123.724379,10.256520999999999,94.5,1784343365],[123.724481,10.256551,93.700000000000017,1784343373],[123.724493,10.256554,93.599999999999994,1784343374],[123.72453299999999,10.256581000000001,92.599999999999994,1784343379],[123.72460599999999,10.256603,92.700000000000017,1784343385],[123.724661,10.256631,92.099999999999994,1784343390],[123.724673,10.256638000000001,92.200000000000017,1784343391],[123.724733,10.256653,92.5,1784343397],[123.72482599999999,10.256722999999999,93.900000000000006,1784343409],[123.724868,10.256774999999999,94.599999999999994,1784343414],[123.724878,10.256779999999999,94.700000000000017,1784343415],[123.72491599999999,10.256795,95.400000000000006,1784343419],[123.72501099999999,10.256803,96.300000000000011,1784343426],[123.725025,10.256805999999999,96.300000000000011,1784343427],[123.725111,10.256838,95.900000000000006,1784343433],[123.72516400000001,10.256878,94.800000000000011,1784343438],[123.725178,10.256885,94.700000000000017,1784343439],[123.72530999999999,10.257008000000001,91.5,1784343455],[123.72532099999999,10.257020000000001,91.099999999999994,1784343456],[123.72535499999999,10.257068,90.800000000000011,1784343460],[123.72538,10.257126,90.099999999999994,1784343465],[123.725416,10.257171,89.900000000000006,1784343470],[123.725421,10.257180999999999,89.900000000000006,1784343471],[123.72551,10.25733,89,1784343487],[123.72551799999999,10.257338000000001,88.900000000000006,1784343488],[123.72555800000001,10.257401,89.200000000000017,1784343495],[123.72559800000001,10.257501,89.700000000000017,1784343504],[123.72560799999999,10.257512999999999,89.700000000000017,1784343505],[123.72569799999999,10.25765,89.5,1784343522],[123.725701,10.257650999999999,89.599999999999994,1784343523],[123.72577099999999,10.257731,90.700000000000017,1784343557],[123.72579399999999,10.257771,91.200000000000017,1784343561],[123.725818,10.257785999999999,91.400000000000006,1784343563],[123.72582300000001,10.257795,91.599999999999994,1784343564],[123.725848,10.257858000000001,92.099999999999994,1784343571],[123.725925,10.257933,93.599999999999994,1784343582],[123.725928,10.257942999999999,93.900000000000006,1784343583],[123.72594100000001,10.25798,94.599999999999994,1784343586],[123.725983,10.258027999999999,96.200000000000017,1784343592],[123.726006,10.258086,98.400000000000006,1784343599],[123.72600300000001,10.258100000000001,98.5,1784343600],[123.72600799999999,10.258111,98.5,1784343601],[123.72599099999999,10.258203,97.300000000000011,1784343625],[123.725995,10.258253,96.900000000000006,1784343631],[123.72608099999999,10.258368000000001,96.200000000000017,1784343646],[123.726089,10.258381,96.099999999999994,1784343647],[123.726135,10.258538,95.5,1784343661],[123.726136,10.258552999999999,95.300000000000011,1784343662],[123.72614299999999,10.258588,95.200000000000017,1784343665],[123.72619,10.258675999999999,95.300000000000011,1784343673],[123.72621100000001,10.258775,96.900000000000006,1784343684],[123.726213,10.258786000000001,97,1784343685],[123.72621100000001,10.258832999999999,97.700000000000017,1784343689],[123.72626,10.258958,98.300000000000011,1784343701],[123.726266,10.258965,98.400000000000006,1784343702],[123.726303,10.259029999999999,98.599999999999994,1784343709],[123.726313,10.259071,99,1784343713],[123.726348,10.259119999999999,99.099999999999994,1784343718],[123.726353,10.259128,99.099999999999994,1784343719],[123.72645799999999,10.259276,101.80000000000001,1784343740],[123.72645799999999,10.259276,101.80000000000001,1784343741],[123.72666,10.259437999999999,107.09999999999999,1784343765],[123.72666,10.259437999999999,107.09999999999999,1784343766],[123.726765,10.259532999999999,108,1784343777],[123.72681799999999,10.259596,109.09999999999999,1784343784],[123.726823,10.259604,109.30000000000001,1784343785],[123.72687999999999,10.259690000000001,112.09999999999999,1784343798],[123.726878,10.259726000000001,112.90000000000001,1784343799],[123.72689099999999,10.25977,113,1784343802],[123.72689,10.259788,112.90000000000001,1784343803],[123.72689800000001,10.25986,113.40000000000001,1784343808],[123.726945,10.25995,114.20000000000002,1784343817],[123.72695,10.259957999999999,114.40000000000001,1784343818],[123.726985,10.260001000000001,115.30000000000001,1784343823],[123.727041,10.260028,116.30000000000001,1784343831],[123.727079,10.260065000000001,116.80000000000001,1784343837],[123.727079,10.260065000000001,116.80000000000001,1784343838],[123.727146,10.260103000000001,117,1784343844],[123.72721300000001,10.260156,117.20000000000002,1784343852],[123.727248,10.260228,116.80000000000001,1784343860],[123.727255,10.260241000000001,116.70000000000002,1784343861],[123.727281,10.260316,116.40000000000001,1784343868],[123.727335,10.260389999999999,117.40000000000001,1784343877],[123.727341,10.260400000000001,117.59999999999999,1784343878],[123.72748,10.260551,117.70000000000002,1784343896],[123.727486,10.260558,117.70000000000002,1784343897],[123.72753400000001,10.260616000000001,118.70000000000002,1784343911],[123.7276,10.260766,120.30000000000001,1784343918],[123.72760599999999,10.260770000000001,120.40000000000001,1784343919],[123.727645,10.260835999999999,120.80000000000001,1784343928],[123.727678,10.260866,120.80000000000001,1784343939],[123.727728,10.260954999999999,122,1784343942],[123.727735,10.260987999999999,122.40000000000001,1784343945],[123.72774,10.260998000000001,122.59999999999999,1784343946],[123.72774800000001,10.261011,123,1784344051],[123.727733,10.261101999999999,124,1784344061],[123.72774099999999,10.26127,126.20000000000002,1784344077],[123.727744,10.261278000000001,126.30000000000001,1784344078],[123.72783800000001,10.261469999999999,130.90000000000001,1784344107],[123.72783099999999,10.261558000000001,132.59999999999999,1784344109],[123.727834,10.261568,133,1784344110],[123.727891,10.26164,134.40000000000001,1784344122],[123.72792,10.261733,135.59999999999999,1784344128],[123.72792,10.261744999999999,135.90000000000001,1784344129],[123.72790000000001,10.261805000000001,136.19999999999999,1784344133],[123.72790500000001,10.261900000000001,135.5,1784344140],[123.727903,10.26191,135.59999999999999,1784344141],[123.727875,10.262031,137,1784344151],[123.72790500000001,10.262105,136.80000000000001,1784344157],[123.72790999999999,10.262117999999999,136.80000000000001,1784344158],[123.727915,10.262133,136.69999999999999,1784344159],[123.72797,10.262173000000001,138,1784344169],[123.72799999999999,10.262233,138.40000000000001,1784344174],[123.72803,10.262257999999999,138.40000000000001,1784344177],[123.728043,10.262261000000001,138.40000000000001,1784344178],[123.72819,10.262346000000001,139.59999999999999,1784344201],[123.728233,10.262384000000001,139,1784344211],[123.728343,10.262396000000001,140.09999999999999,1784344220],[123.728351,10.262401000000001,140.19999999999999,1784344221],[123.72844600000001,10.262390999999999,140.09999999999999,1784344231],[123.728576,10.262392999999999,140,1784344242],[123.728711,10.262347999999999,140.5,1784344253],[123.728728,10.262340999999999,140.30000000000001,1784344254],[123.728951,10.262285,140.09999999999999,1784344273],[123.728961,10.262281,140.09999999999999,1784344274],[123.729028,10.262255,140.30000000000001,1784344281],[123.72903100000001,10.262231,140.59999999999999,1784344299],[123.729096,10.262124999999999,141.30000000000001,1784344302],[123.729186,10.262045000000001,141.5,1784344318],[123.729195,10.262038,141.5,1784344319],[123.72930599999999,10.261936,140.19999999999999,1784344339],[123.72942999999999,10.261875,141,1784344347],[123.729496,10.261863,140.80000000000001,1784344348],[123.729506,10.261863,140.80000000000001,1784344349],[123.729641,10.261850000000001,141.19999999999999,1784344374],[123.72975599999999,10.261908,143.09999999999999,1784344379],[123.729786,10.261934999999999,143.40000000000001,1784344381],[123.72979100000001,10.261944,143.40000000000001,1784344382],[123.72983600000001,10.261979999999999,144.19999999999999,1784344407],[123.72986899999999,10.262086,146.19999999999999,1784344422],[123.72991500000001,10.262174999999999,147.40000000000001,1784344423],[123.72990799999999,10.262181,147.90000000000001,1784344436],[123.72990799999999,10.262288,150.30000000000001,1784344438],[123.72990799999999,10.262308000000001,150.59999999999999,1784344439],[123.729883,10.262403000000001,152,1784344516],[123.729936,10.262581000000001,154.30000000000001,1784344536],[123.729939,10.262594999999999,154.5,1784344537],[123.730006,10.262756,159.5,1784344562],[123.730073,10.262855999999999,162.5,1784344581],[123.73009999999999,10.262945,165,1784344582],[123.73010600000001,10.262955,165,1784344583],[123.730181,10.263036,165.5,1784344593],[123.730293,10.263108000000001,166.5,1784344605],[123.730333,10.263147999999999,167.30000000000001,1784344609],[123.730346,10.263161,167.5,1784344610],[123.73049,10.263286000000001,171.90000000000001,1784344629],[123.73054999999999,10.263373,174.19999999999999,1784344639],[123.73054999999999,10.263373,174.19999999999999,1784344640],[123.730653,10.263498999999999,176.69999999999999,1784344664],[123.73070800000001,10.263623000000001,178.19999999999999,1784344668],[123.73071299999999,10.263633,178.40000000000001,1784344669],[123.73075799999999,10.263718000000001,178.5,1784344679],[123.730771,10.263828,178,1784344732],[123.73090500000001,10.263980999999999,181.59999999999999,1784344767],[123.73091100000001,10.263985999999999,181.80000000000001,1784344768],[123.730929,10.263987999999999,182.09999999999999,1784344781],[123.73099999999999,10.264048000000001,185,1784344782],[123.731055,10.264154,188.09999999999999,1784344794],[123.73107400000001,10.26417,188.90000000000001,1784344805],[123.73114099999999,10.26427,190.19999999999999,1784344809],[123.73114099999999,10.26427,190.19999999999999,1784344810],[123.731171,10.264305999999999,190.09999999999999,1784344813],[123.731201,10.264379999999999,190.40000000000001,1784344820],[123.731201,10.264417999999999,191.09999999999999,1784344827],[123.731228,10.264468000000001,191.30000000000001,1784344829],[123.731233,10.264476,191.40000000000001,1784344830],[123.731308,10.264602999999999,192.69999999999999,1784344855],[123.731471,10.264763,195.59999999999999,1784344871],[123.731481,10.26477,195.5,1784344872],[123.731578,10.264794999999999,196.69999999999999,1784344880],[123.731621,10.264841000000001,197.09999999999999,1784344885],[123.73162600000001,10.264853,197.30000000000001,1784344886],[123.73164,10.264889999999999,197.80000000000001,1784344889],[123.731662,10.264908,198,1784344897],[123.731709,10.265001,200.19999999999999,1784344904],[123.73175000000001,10.265053,200,1784344910],[123.731758,10.265063,199.90000000000001,1784344911],[123.731829,10.265167999999999,200.40000000000001,1784344939],[123.731916,10.265221,202.30000000000004,1784344940],[123.731936,10.265233,202.59999999999999,1784344960],[123.732041,10.265236,204.20000000000002,1784344962],[123.73205,10.265238,204.40000000000001,1784344963],[123.732088,10.265245999999999,205.20000000000002,1784344967],[123.73212599999999,10.265226,205.70000000000002,1784344984],[123.73222,10.265233,207.30000000000004,1784344985],[123.732268,10.265140000000001,207.09999999999999,1784345001],[123.732281,10.265131,207.09999999999999,1784345002],[123.73229000000001,10.265126,207.09999999999999,1784345003],[123.732512,10.265026000000001,206,1784345046],[123.732606,10.264995000000001,206.70000000000002,1784345067],[123.732613,10.264989999999999,206.70000000000002,1784345068],[123.732686,10.264927999999999,207.09999999999999,1784345082],[123.732778,10.264901,207.20000000000002,1784345083],[123.732854,10.264891,206.90000000000001,1784345168],[123.73286299999999,10.264887999999999,206.90000000000001,1784345169],[123.73303300000001,10.264835,208.00000000000003,1784345187],[123.73315599999999,10.264765000000001,208.59999999999999,1784345198],[123.73317,10.264759,208.50000000000003,1784345199],[123.73324100000001,10.264725,207.90000000000001,1784345207],[123.733306,10.264651000000001,207.09999999999999,1784345212],[123.733315,10.264645,207.00000000000003,1784345213],[123.733391,10.264581,205.80000000000004,1784345232],[123.733458,10.26449,204.90000000000001,1784345247],[123.73348799999999,10.264400999999999,205.20000000000002,1784345248],[123.73348799999999,10.264393,204.90000000000001,1784345249],[123.73345999999999,10.264226000000001,205.00000000000003,1784345327],[123.733501,10.264103,205.09999999999999,1784345331],[123.733501,10.264103,205.09999999999999,1784345332],[123.73356,10.264033,205.30000000000004,1784345341],[123.73359499999999,10.264010000000001,205.59999999999999,1784345353],[123.733688,10.263996000000001,206.50000000000003,1784345354],[123.733735,10.264003000000001,207.50000000000003,1784345358],[123.733743,10.264011,207.70000000000002,1784345359],[123.73384799999999,10.264060000000001,210.30000000000004,1784345373],[123.73385500000001,10.264053000000001,210.90000000000001,1784345387],[123.733934,10.264113,211.40000000000001,1784345388],[123.733943,10.264127999999999,211.50000000000003,1784345564],[123.733921,10.264218,213.09999999999999,1784345565],[123.733943,10.264234999999999,213.70000000000002,1784345568],[123.733946,10.264238000000001,214.00000000000003,1784345569],[123.734061,10.264310999999999,218,1784345587],[123.734225,10.264455,223.40000000000001,1784345610],[123.734233,10.26446,223.50000000000003,1784345611],[123.734343,10.264576,224.50000000000003,1784345626],[123.734435,10.264697999999999,225.50000000000003,1784345651],[123.734443,10.264706,225.59999999999999,1784345652],[123.73454599999999,10.264875,228.50000000000003,1784345672],[123.73455300000001,10.264908,229.20000000000002,1784345681],[123.73454599999999,10.26498,230.09999999999999,1784345682],[123.73454599999999,10.264995000000001,230.30000000000004,1784345683],[123.734539,10.265166000000001,231.50000000000003,1784345705],[123.73451300000001,10.265245999999999,231.80000000000004,1784345709],[123.734509,10.265255,231.80000000000004,1784345710],[123.734483,10.265318000000001,232.00000000000003,1784345716],[123.734466,10.265413000000001,233.30000000000004,1784345725],[123.734466,10.265420000000001,233.59999999999999,1784345726],[123.734393,10.26553,236.20000000000002,1784345738],[123.734381,10.265643000000001,237.50000000000003,1784345748],[123.73438899999999,10.265673,237.50000000000003,1784345750],[123.734386,10.265688000000001,237.50000000000003,1784345751],[123.73440100000001,10.265801,237.30000000000004,1784345760],[123.734425,10.265843,237.30000000000004,1784345765],[123.734425,10.265843,237.30000000000004,1784345766],[123.734449,10.265898,238.00000000000003,1784345772],[123.73451300000001,10.265957999999999,238.30000000000004,1784345778],[123.734525,10.265969999999999,238.30000000000004,1784345779],[123.73465,10.266088,238.50000000000003,1784345798],[123.734663,10.266181,239.59999999999999,1784345840],[123.734663,10.26619,239.70000000000002,1784345841],[123.734695,10.266233,239.90000000000001,1784345849],[123.734746,10.266273,240.59999999999999,1784345851],[123.73478299999999,10.266330999999999,241.70000000000002,1784345855],[123.73479500000001,10.266344999999999,241.90000000000001,1784345856],[123.73485599999999,10.266481000000001,243.90000000000001,1784345869],[123.73485599999999,10.266481000000001,243.90000000000001,1784345870],[123.734886,10.26657,244.90000000000001,1784345879],[123.734936,10.26666,245.59999999999999,1784345889],[123.73493999999999,10.266667999999999,245.70000000000002,1784345890],[123.734978,10.266793,247.59999999999999,1784345905],[123.735086,10.266888,249.20000000000002,1784345916],[123.7351,10.266895999999999,249.20000000000002,1784345917],[123.735173,10.267008000000001,249.59999999999999,1784345941],[123.73521100000001,10.267094999999999,251.30000000000004,1784345942],[123.735215,10.267101,251.40000000000001,1784345943],[123.735241,10.267146,251.70000000000002,1784345947],[123.735271,10.267313,252.80000000000004,1784345963],[123.73528,10.267326000000001,252.80000000000004,1784345964],[123.735308,10.267358,252.50000000000003,1784345967],[123.735373,10.267495,252.00000000000003,1784345980],[123.73537399999999,10.267500999999999,252.09999999999999,1784345981],[123.735388,10.267528,252.40000000000001,1784345984],[123.73538499999999,10.267548,252.80000000000004,1784345990],[123.735439,10.267659999999999,253.00000000000003,1784345997],[123.735445,10.267673,253.09999999999999,1784345998],[123.735438,10.267688,252.90000000000001,1784346011],[123.73557599999999,10.267853000000001,254,1784346052],[123.73567,10.267887999999999,256.30000000000001,1784346072],[123.735679,10.26788,256.39999999999998,1784346083],[123.735771,10.267913,254.90000000000001,1784346084],[123.735788,10.267916,254.70000000000002,1784346085],[123.73590799999999,10.267891000000001,252.20000000000002,1784346094],[123.735995,10.267849999999999,251.00000000000003,1784346101],[123.736,10.267841000000001,250.70000000000002,1784346102],[123.736085,10.267787999999999,249.50000000000003,1784346115],[123.73619100000001,10.26774,249.40000000000001,1784346120],[123.73619100000001,10.26774,249.40000000000001,1784346121],[123.736226,10.267725,249.30000000000004,1784346123],[123.736373,10.267709999999999,250.70000000000002,1784346147],[123.73645,10.267763,252.00000000000003,1784346151],[123.736458,10.267768,252.09999999999999,1784346152],[123.736543,10.267801,253.00000000000003,1784346236],[123.736558,10.267821,253.20000000000002,1784346248],[123.736621,10.267935,254.40000000000001,1784346260],[123.736633,10.268039999999999,256,1784346262],[123.736636,10.268053,256.10000000000002,1784346263],[123.736671,10.268162999999999,257.39999999999998,1784346272],[123.73670799999999,10.268193,258.30000000000001,1784346275],[123.736738,10.268238,259.80000000000001,1784346279],[123.736746,10.268246,260.10000000000002,1784346280],[123.73683,10.268335,264.80000000000001,1784346292],[123.736853,10.268348,265.39999999999998,1784346375],[123.736941,10.268452999999999,267.80000000000001,1784346386],[123.73703500000001,10.2685,268.80000000000001,1784346388],[123.73705,10.268495,268.89999999999998,1784346389],[123.737145,10.268598000000001,269.89999999999998,1784346403],[123.737223,10.268649999999999,270.10000000000002,1784346409],[123.737233,10.268658,270.19999999999999,1784346410],[123.73731100000001,10.268732999999999,272,1784346423],[123.737438,10.268921000000001,275.89999999999998,1784346540],[123.737441,10.26892,275.80000000000001,1784346541],[123.737516,10.268969999999999,276.60000000000002,1784346582],[123.737723,10.269021,280.30000000000001,1784346598],[123.737735,10.269023000000001,280.5,1784346599],[123.737793,10.269043,281.19999999999999,1784346604],[123.737886,10.269095,283.19999999999999,1784346612],[123.73790099999999,10.269107999999999,283.5,1784346613],[123.737931,10.269133,284.39999999999998,1784346616],[123.73803599999999,10.26914,287.69999999999999,1784346629],[123.738151,10.269121,290.89999999999998,1784346644],[123.738203,10.269126,291.80000000000001,1784346649],[123.738215,10.269133,291.69999999999999,1784346650],[123.738488,10.269113000000001,296.30000000000001,1784346683],[123.73851500000001,10.269102999999999,296.89999999999998,1784346684],[123.738525,10.2691,297.10000000000002,1784346685],[123.738615,10.269083999999999,298.60000000000002,1784346704],[123.738765,10.269095999999999,302.30000000000001,1784346710],[123.738765,10.269095999999999,302.30000000000001,1784346711],[123.738765,10.269095999999999,302.30000000000001,1784346751]]]}}]}
