{"type":"FeatureCollection","features":[{"type":"Feature","id":"2b7e81d1-18f9-4b46-a8ce-a00c15ee7eb8","properties":{"id":"2b7e81d1-18f9-4b46-a8ce-a00c15ee7eb8","updated_date":"2026-08-21T04:50:57Z","time_created":"2026-08-20T22:18:50Z","last_updated_on_server":"2026-08-21T04:50:57.336498","db_insert_date":"2026-08-21T04:50:46Z","deleted":false,"title":"August 21, 2026 at 7:18\u202fAM","public":false,"color":"#A726BC","hexcolor":"#A726BC","is_active":true,"revision":1787287857,"notes":"","track_type":"track","routing_mode":null,"uploaded_gpx_to_osm":null,"flag":null,"source":null,"cover_photo_id":null,"distance":5264.7071503020588,"total_ascent":268.66666666666669,"total_descent":251.00000000000003,"stopped_time":1566,"total_time":13018,"average_speed":0.40441751039345974,"moving_time":11452,"moving_speed":0.45971945077733661,"activities":[],"imported":true,"folder":"ea200b67-1744-46a6-bf72-4933fc52ada7","privacy_level":null,"sync_to_mobile":null,"preferred_link":"/public/Bm14oLq9sbj6sSzow0kEG5Cp","favorite_count":0,"comment_count":0,"comments":[],"user_photo_count":0,"latitude":10.243791925541466,"longitude":123.76001904717509,"writable":false},"style":{"stroke":"#A726BC"},"geometry":{"type":"MultiLineString","coordinates":[[[123.76121999999999,10.248338,252,1787264330],[123.76128,10.248267999999999,250,1787264339],[123.76134999999999,10.248182,248,1787264350],[123.76139999999999,10.248101,247,1787264358],[123.76148999999999,10.248046,246,1787264369],[123.76157000000001,10.247987,246,1787264377],[123.76164,10.247937,245,1787264385],[123.76173,10.24788,247,1787264395],[123.76183,10.247824,250,1787264407],[123.76191,10.247750999999999,252,1787264418],[123.76201,10.24769,253,1787264432],[123.76209,10.247655,256,1787264444],[123.76219,10.247627,258,1787264457],[123.7623,10.247607,260,1787264553],[123.76241,10.247574,261,1787264567],[123.76251000000001,10.247566000000001,263,1787264577],[123.76261,10.247545000000001,266,1787264588],[123.76271,10.247540000000001,267,1787264597],[123.76281,10.247536,270,1787264607],[123.76291999999999,10.247547000000001,271,1787264616],[123.76304,10.247538,272,1787264636],[123.76315,10.247531,272,1787264646],[123.76325,10.24752,272,1787264655],[123.76336000000001,10.247494,274,1787264665],[123.76345999999999,10.247496999999999,276,1787264675],[123.7634,10.247425,275,1787264796],[123.76331999999999,10.247351,275,1787264877],[123.76325,10.247258,277,1787264888],[123.76322,10.247175,278,1787264932],[123.76321,10.247081,278,1787264979],[123.76321,10.246879,276,1787265007],[123.76325,10.246783000000001,275,1787265021],[123.76331,10.246703,274,1787265037],[123.76335,10.246585,273,1787265096],[123.76339,10.246499999999999,269,1787265119],[123.76344,10.246416,264,1787265139],[123.76345999999999,10.246316,260,1787265161],[123.76354000000001,10.246252,258,1787265182],[123.7636,10.246172,255,1787265202],[123.76369,10.246024,251,1787265301],[123.76375,10.245943,250,1787265312],[123.76382,10.245854,247,1787265401],[123.76392,10.245842,245,1787265416],[123.76401,10.245787,243,1787265499],[123.76402,10.245696000000001,241,1787265518],[123.76411,10.245714,241,1787265539],[123.76416999999999,10.245635,239,1787265559],[123.76421999999999,10.245545,235,1787265643],[123.76425999999999,10.245457999999999,233,1787265749],[123.76429,10.245364,227,1787265767],[123.76437,10.245310999999999,226,1787265786],[123.76439999999999,10.24522,225,1787265803],[123.76430999999999,10.245203999999999,222,1787265817],[123.76442,10.245231,223,1787265865],[123.76446,10.245134999999999,219,1787265887],[123.76454,10.245047,217,1787266021],[123.76455,10.244952,214,1787266045],[123.76461999999999,10.244892,212,1787266060],[123.76464,10.244764,209,1787266174],[123.76467,10.244662999999999,206,1787266191],[123.76469,10.244559000000001,205,1787266205],[123.76466000000001,10.244465,203,1787266232],[123.76465,10.244370999999999,202,1787266243],[123.76463,10.244266,200,1787266257],[123.76463,10.244076,197,1787266285],[123.76466000000001,10.243969999999999,196,1787266297],[123.76472,10.243880000000001,195,1787266403],[123.76477,10.243778000000001,194,1787266417],[123.76479,10.243676000000001,190,1787266432],[123.76479999999999,10.243572,188,1787266448],[123.76479999999999,10.243467000000001,184,1787266511],[123.76486,10.243382,181,1787266669],[123.76491,10.243307,180,1787266713],[123.76493000000001,10.243202999999999,177,1787266744],[123.76497999999999,10.243107999999999,175,1787266985],[123.765,10.243009000000001,172,1787266999],[123.765,10.24291,171,1787267109],[123.76502000000001,10.242815999999999,167,1787267128],[123.76503,10.242706999999999,164,1787267144],[123.76508,10.242628,161,1787267157],[123.76512,10.242524,159,1787267174],[123.76512,10.242429,157,1787267202],[123.76515999999999,10.24234,155,1787267215],[123.76522,10.242271000000001,154,1787267291],[123.76526,10.242189,154,1787267301],[123.76533999999999,10.242112000000001,153,1787267314],[123.76539,10.242024000000001,150,1787267327],[123.76546,10.24197,147,1787267361],[123.76555,10.241915000000001,144,1787267381],[123.76566,10.241909,143,1787267403],[123.76575,10.241859,140,1787267423],[123.76584,10.24184,138,1787267441],[123.76591000000001,10.241773,134,1787267456],[123.76597,10.241695,133,1787267468],[123.76604,10.241619,131,1787267480],[123.76611,10.241543,126,1787267496],[123.7662,10.241512999999999,124,1787267507],[123.7663,10.241498999999999,123,1787267515],[123.76639,10.241451,125,1787267525],[123.76646,10.24137,124,1787267538],[123.76656,10.241338000000001,121,1787267554],[123.76664,10.241269000000001,115,1787267745],[123.76669,10.241243000000001,114,1787267883],[123.76672000000001,10.241201,114,1787267884],[123.76687,10.241080999999999,112,1787267911],[123.76693,10.241002999999999,110,1787267921],[123.76701,10.240957,108,1787267938],[123.76709,10.240902,106,1787267951],[123.76716,10.240824999999999,106,1787268046],[123.76723,10.240755999999999,104,1787268072],[123.76729,10.240684,102,1787268099],[123.76738,10.240633000000001,99,1787268112],[123.7675,10.240456,91,1787268151],[123.76756,10.240266,85,1787268185],[123.76752,10.240175000000001,80,1787268207],[123.76745,10.240099000000001,79,1787268220],[123.76738,10.240038,77,1787268256],[123.76730999999999,10.239928000000001,75,1787268389],[123.7672,10.239846999999999,71,1787268581],[123.7671,10.239825,68,1787268594],[123.76701,10.239798,64,1787268606],[123.76692,10.23977,63,1787268618],[123.76683,10.239720999999999,61,1787268629],[123.76674,10.239680999999999,58,1787268645],[123.76661,10.239628,56,1787268661],[123.76658999999999,10.239516999999999,50,1787268692],[123.76671,10.239426,48,1787268710],[123.76672000000001,10.239338,45,1787268723],[123.76676,10.239247000000001,43,1787268739],[123.76665,10.239297000000001,40,1787268766],[123.76656,10.239321,42,1787268776],[123.76643,10.239341,41,1787269290],[123.76633,10.239397,40,1787269299],[123.76622,10.239418000000001,39,1787269309],[123.76609000000001,10.239470000000001,38,1787269321],[123.76599,10.239493,39,1787269330],[123.76588,10.239523,39,1787269338],[123.76577,10.239539000000001,38,1787269346],[123.76567,10.239552,39,1787269354],[123.76555999999999,10.239545,38,1787269376],[123.76545,10.239549,38,1787269385],[123.76535,10.239542,39,1787269393],[123.76524999999999,10.239532000000001,39,1787269401],[123.76515000000001,10.239516999999999,39,1787269410],[123.76505,10.239513000000001,39,1787269418],[123.76495,10.239499,39,1787269426],[123.76485,10.23949,39,1787269434],[123.76476,10.239471,40,1787269441],[123.76466000000001,10.239475000000001,39,1787269448],[123.76455,10.239471999999999,40,1787269458],[123.76443999999999,10.239506,42,1787269466],[123.76434999999999,10.239514,45,1787269474],[123.76424,10.239514,48,1787269484],[123.76414,10.239534000000001,52,1787269492],[123.76406,10.239564,55,1787269499],[123.76396,10.239587,58,1787269508],[123.76385999999999,10.239570000000001,60,1787269514],[123.76378,10.23963,63,1787269526],[123.76367,10.239628,63,1787270193],[123.76351,10.239689,63,1787270209],[123.76335,10.239663999999999,62,1787270226],[123.76325,10.239641000000001,61,1787270236],[123.76316,10.239589,64,1787270245],[123.76306,10.239561999999999,64,1787270253],[123.76297,10.239561,65,1787270300],[123.76288,10.239511,67,1787270310],[123.76277,10.239478,69,1787270323],[123.76272,10.239383999999999,69,1787270332],[123.76260000000001,10.239324,65,1787270344],[123.76245,10.239293,62,1787270357],[123.76231,10.239262999999999,61,1787270368],[123.76221,10.239224,62,1787270376],[123.76212,10.239179,63,1787270385],[123.76202000000001,10.239177,62,1787270402],[123.76191,10.239136999999999,59,1787270411],[123.76181,10.239094,61,1787270420],[123.76173,10.239032999999999,64,1787270429],[123.76161999999999,10.239001,66,1787270438],[123.76148000000001,10.238996,68,1787270449],[123.76139000000001,10.238958999999999,69,1787270457],[123.76130999999999,10.238901,69,1787270471],[123.76121000000001,10.238864,66,1787270482],[123.76102,10.238864,65,1787270537],[123.76093,10.238815000000001,69,1787270550],[123.76084,10.238777000000001,72,1787270560],[123.76074,10.238754,73,1787270567],[123.76065,10.238716999999999,75,1787270577],[123.76056,10.238674,77,1787270586],[123.76047,10.238683,79,1787270596],[123.76036000000001,10.238667,80,1787270605],[123.76025,10.238654,82,1787270616],[123.76014000000001,10.238637000000001,82,1787270625],[123.76009000000001,10.238553,85,1787270635],[123.75998,10.238528000000001,88,1787270644],[123.75984,10.238489,91,1787270659],[123.75975,10.238455,92,1787270670],[123.75964,10.238443,93,1787270680],[123.75954,10.238452000000001,95,1787270695],[123.75945,10.238341999999999,97,1787270783],[123.75937,10.238299,101,1787270795],[123.75926,10.238288000000001,101,1787270938],[123.75933000000001,10.238365,100,1787270985],[123.75942999999999,10.238405999999999,101,1787271093],[123.75936,10.238465,94,1787271215],[123.75927,10.238474999999999,96,1787271226],[123.75917,10.238455,96,1787271236],[123.75908,10.238455999999999,98,1787271247],[123.75897999999999,10.238441,99,1787271256],[123.75883,10.238433000000001,101,1787271303],[123.75869,10.238465,98,1787271370],[123.75859,10.238454000000001,97,1787271381],[123.7585,10.238479,97,1787271392],[123.75839999999999,10.238496,98,1787271420],[123.75830000000001,10.238517999999999,99,1787271430],[123.7582,10.238543,100,1787271440],[123.75811,10.238586,101,1787271450],[123.75803000000001,10.238628,103,1787271461],[123.75793,10.238638999999999,103,1787271471],[123.75784,10.238678999999999,103,1787271480],[123.75774,10.238712,105,1787271506],[123.75763999999999,10.238728999999999,105,1787271518],[123.75754000000001,10.238758000000001,105,1787271529],[123.75744,10.238802,106,1787271540],[123.75734,10.238837999999999,107,1787271550],[123.75724,10.238878,109,1787271561],[123.75715,10.238889,110,1787271571],[123.75706,10.238951999999999,112,1787271581],[123.75699,10.23901,113,1787271591],[123.75691,10.239072999999999,114,1787271601],[123.75682999999999,10.239141999999999,115,1787271611],[123.75675,10.23922,116,1787271621],[123.75671,10.2393,118,1787271632],[123.75664999999999,10.239393,119,1787271645],[123.75659,10.239471999999999,119,1787271655],[123.75655999999999,10.239561,118,1787271676],[123.7565,10.239649,118,1787271688],[123.75646,10.239737,117,1787271699],[123.75642000000001,10.239839999999999,117,1787271711],[123.75637999999999,10.239927,117,1787271722],[123.75637,10.240017,117,1787271757],[123.75629000000001,10.240114999999999,119,1787271787],[123.75626,10.240209,121,1787271799],[123.75627,10.240307,120,1787271808],[123.75624999999999,10.240443000000001,123,1787271822],[123.75626,10.240539,127,1787271834],[123.75628,10.240639,130,1787271844],[123.75624000000001,10.240722,133,1787271852],[123.75622,10.240831,137,1787271864],[123.75618,10.240914,137,1787271873],[123.75614,10.241016999999999,138,1787271883],[123.75611000000001,10.241115000000001,139,1787272289],[123.75606999999999,10.241213999999999,138,1787272299],[123.75604,10.24131,138,1787272308],[123.756,10.241402000000001,140,1787272317],[123.75593000000001,10.24155,138,1787272372],[123.75588999999999,10.241641,138,1787272380],[123.75584000000001,10.241728,139,1787272388],[123.75579,10.241820000000001,138,1787272397],[123.75575000000001,10.241915000000001,140,1787272406],[123.75570999999999,10.242005000000001,139,1787272415],[123.75566000000001,10.242084999999999,141,1787272424],[123.75561999999999,10.242177999999999,143,1787272432],[123.75557000000001,10.242267999999999,146,1787272441],[123.7555,10.242343,151,1787272450],[123.75543999999999,10.242417,154,1787272459],[123.75537,10.242489000000001,156,1787272468],[123.75530000000001,10.242566,160,1787272477],[123.75523,10.242642,162,1787272522],[123.75516,10.242706,162,1787272532],[123.75509,10.242777999999999,163,1787272549],[123.75503,10.242856,164,1787272559],[123.75497,10.242922999999999,163,1787272569],[123.75490000000001,10.243001,163,1787272587],[123.75483,10.243088999999999,163,1787272598],[123.75476,10.243169,166,1787272611],[123.7547,10.243247,166,1787272620],[123.75463000000001,10.243320000000001,166,1787272629],[123.75456,10.243399999999999,167,1787272638],[123.75449,10.243468,167,1787272666],[123.75443,10.243544999999999,166,1787272676],[123.75435,10.243615,166,1787272692],[123.75427999999999,10.243693,168,1787272702],[123.7542,10.243753999999999,168,1787272712],[123.75414000000001,10.243846,169,1787272723],[123.75407,10.243921,169,1787272733],[123.754,10.243988,171,1787272743],[123.75394,10.244073,175,1787272752],[123.75385,10.244142999999999,176,1787272762],[123.75378000000001,10.244216,178,1787272771],[123.75371,10.244297,179,1787272781],[123.75364999999999,10.24437,180,1787272790],[123.75355999999999,10.244437,180,1787272799],[123.75348,10.244490000000001,180,1787272807],[123.7534,10.244533000000001,180,1787272816],[123.75331,10.244583,180,1787272825],[123.75321,10.244611000000001,180,1787272834],[123.75313,10.244671,180,1787272843],[123.75322,10.244709,181,1787272870],[123.75331,10.244667,181,1787272880],[123.75341,10.244623000000001,181,1787272890],[123.7535,10.244571000000001,182,1787272900],[123.75359,10.244514000000001,183,1787272910],[123.75367,10.244573000000001,184,1787272921],[123.75373999999999,10.244641,184,1787272932],[123.75382,10.244705,185,1787272944],[123.75389,10.244775000000001,186,1787272955],[123.75398,10.244801000000001,188,1787273021],[123.75403,10.244885999999999,191,1787273036],[123.75413,10.244866999999999,192,1787273049],[123.75421,10.244826,190,1787273066],[123.75432000000001,10.244821999999999,190,1787273087],[123.75440999999999,10.244863,191,1787273098],[123.75451,10.244885,191,1787273109],[123.7547,10.244929000000001,195,1787273138],[123.7548,10.24493,199,1787273157],[123.75491,10.244947,201,1787273265],[123.755,10.244909,206,1787273278],[123.7551,10.244904999999999,205,1787273298],[123.7552,10.244914,206,1787273343],[123.75530000000001,10.245008,208,1787273359],[123.75539999999999,10.245031000000001,209,1787273444],[123.75548000000001,10.245096,209,1787273455],[123.75557999999999,10.245115999999999,211,1787273464],[123.75563,10.245215999999999,213,1787273489],[123.75561999999999,10.245312,213,1787273499],[123.75572,10.245170999999999,213,1787273572],[123.75579999999999,10.245244,214,1787273596],[123.75582,10.245123,214,1787273639],[123.75593000000001,10.245101,214,1787273649],[123.75603,10.24508,215,1787273660],[123.75613,10.245008,218,1787274012],[123.75622,10.244965000000001,218,1787274025],[123.75632,10.244923999999999,221,1787274066],[123.75641,10.244895,223,1787274082],[123.75649,10.244854,223,1787274092],[123.75660999999999,10.244853000000001,230,1787274122],[123.75671,10.244821999999999,233,1787274141],[123.7568,10.244795,235,1787274155],[123.75689,10.244778,236,1787274170],[123.75699,10.24478,238,1787274186],[123.75698,10.244899999999999,243,1787274224],[123.75695,10.244996,248,1787274239],[123.75693,10.245091,252,1787274261],[123.75688,10.245174,256,1787274283],[123.75696000000001,10.245233000000001,267,1787274500],[123.75687000000001,10.245335000000001,267,1787274534],[123.75681,10.245428,272,1787274605],[123.75689,10.245479,274,1787274620],[123.75693,10.245561,277,1787274638],[123.75694,10.245652,279,1787274653],[123.75686,10.245714,278,1787274683],[123.75685,10.245811,281,1787274698],[123.7568,10.245905,283,1787274713],[123.75672,10.245977,284,1787274725],[123.75660999999999,10.246053,287,1787274749],[123.75657,10.246153,287,1787274762],[123.7565,10.246223000000001,289,1787274776],[123.75642000000001,10.246270000000001,288,1787274791],[123.75633999999999,10.246321,291,1787274810],[123.75624999999999,10.246382000000001,290,1787274820],[123.75617,10.246437,290,1787274830],[123.7561,10.246502,290,1787274842],[123.75604,10.246584,289,1787274853],[123.75597,10.246661,290,1787274864],[123.7559,10.246722999999999,289,1787274880],[123.75584000000001,10.246797000000001,290,1787275188],[123.75577,10.246926999999999,291,1787275203],[123.75582,10.247016,292,1787275212],[123.7559,10.247055,292,1787275244],[123.756,10.247116999999999,296,1787275265],[123.75615999999999,10.247154999999999,299,1787275328],[123.75631,10.247202,305,1787275344],[123.7564,10.247226,308,1787275354],[123.75649,10.247273,308,1787275375],[123.75655,10.247353,307,1787275388],[123.75655,10.247494,311,1787275408],[123.75653,10.247585000000001,312,1787275421],[123.75646999999999,10.247665,313,1787275433],[123.75646,10.247762,312,1787275446],[123.75646999999999,10.247871999999999,310,1787275458],[123.75649,10.247973,310,1787275469],[123.75646999999999,10.248066,308,1787275482],[123.7565,10.248198,302,1787275561],[123.7565,10.248298,300,1787275575],[123.75651000000001,10.248404000000001,299,1787275588],[123.75653,10.248506000000001,297,1787275602],[123.75660999999999,10.248583,295,1787275617],[123.75669000000001,10.248651000000001,296,1787275627],[123.75675,10.248728,295,1787275639],[123.75678000000001,10.248813,292,1787275699],[123.75687000000001,10.248884,293,1787275712],[123.75695,10.248951999999999,293,1787275723],[123.75700999999999,10.249033000000001,290,1787275734],[123.75704,10.249127,286,1787275749],[123.75705000000001,10.249221,283,1787275776],[123.75702,10.249321999999999,276,1787275821],[123.75707,10.249415000000001,272,1787275858],[123.75707,10.249506,268,1787275930],[123.75709000000001,10.249599999999999,263,1787275956],[123.75703,10.249675999999999,261,1787276021],[123.75704,10.249767,259,1787276032],[123.75712,10.249876,259,1787276176],[123.75715,10.249974,261,1787276186],[123.75718000000001,10.250062,264,1787276204],[123.75722,10.25015,267,1787276215],[123.75729,10.250215000000001,270,1787276231],[123.75735,10.250302,273,1787276365],[123.75745000000001,10.250408,277,1787276383],[123.75754000000001,10.250463999999999,281,1787276473],[123.75763000000001,10.250512000000001,286,1787276487],[123.75772000000001,10.250563,288,1787276499],[123.75781000000001,10.250557000000001,291,1787276513],[123.75791,10.250565,293,1787276524],[123.75801,10.250546999999999,294,1787276536],[123.75811,10.25056,296,1787276546],[123.7582,10.250582,299,1787276559],[123.75830000000001,10.250589,302,1787276577],[123.75843,10.250517,304,1787276619],[123.75852,10.250475,303,1787276631],[123.75861999999999,10.250451999999999,303,1787276646],[123.7587,10.250491,304,1787276659],[123.75879,10.250526000000001,307,1787276676],[123.75891,10.250536,308,1787276694],[123.75901,10.250488000000001,308,1787276705],[123.75906999999999,10.250406,306,1787276719],[123.75917,10.250382999999999,307,1787276805],[123.75926,10.250334000000001,306,1787276817],[123.75932,10.250254999999999,306,1787276828],[123.7594,10.250201000000001,307,1787276840],[123.75949,10.250154999999999,306,1787276850],[123.75958,10.250099000000001,306,1787276860],[123.75968,10.25005,305,1787276871],[123.75975,10.249981999999999,303,1787276885],[123.75982,10.249909000000001,301,1787276900],[123.7599,10.249857,299,1787276912],[123.75996000000001,10.249776000000001,297,1787276930],[123.76002,10.249706,297,1787276947],[123.76011,10.249669000000001,291,1787276966],[123.76021,10.249599,286,1787276980],[123.76027999999999,10.249525999999999,285,1787276989],[123.76031999999999,10.249323,281,1787277024],[123.76038,10.24925,276,1787277037],[123.76045999999999,10.249193999999999,277,1787277203],[123.76049,10.249104000000001,273,1787277217],[123.76057,10.249040000000001,272,1787277230],[123.76063000000001,10.248948,268,1787277245],[123.76072000000001,10.248918,267,1787277259],[123.76078,10.24884,265,1787277274],[123.76078,10.248696000000001,262,1787277297],[123.76085999999999,10.248626,261,1787277309],[123.76093,10.248551000000001,258,1787277320],[123.76098,10.248468000000001,256,1787277332],[123.76106,10.248405,252,1787277342],[123.76109,10.248367999999999,252,1787277348]]]}}]}
