{"type":"FeatureCollection","features":[{"type":"Feature","id":"84dd32a6-c31b-4bdd-afe1-d4fd3ab0f8d9","properties":{"id":"84dd32a6-c31b-4bdd-afe1-d4fd3ab0f8d9","updated_date":"2026-07-20T11:57:16Z","time_created":"2026-06-04T22:31:33Z","last_updated_on_server":"2026-07-20T11:57:16.837602","db_insert_date":"2026-07-20T11:57:16Z","deleted":false,"title":"Friday Morning Hiking","public":false,"color":"#00A478","hexcolor":"#00A478","is_active":true,"revision":1784548636,"notes":"","track_type":"track","routing_mode":null,"uploaded_gpx_to_osm":null,"flag":null,"source":null,"cover_photo_id":null,"distance":1458.2535037841319,"total_ascent":33.316666666666634,"total_descent":10.599999999999994,"stopped_time":470,"total_time":3788,"average_speed":0.38496660606761668,"moving_time":3318,"moving_speed":0.4394977407426558,"activities":[],"imported":true,"folder":"5d8b4b7a-2592-474e-a787-f12ee220c8bb","privacy_level":null,"sync_to_mobile":null,"preferred_link":"/public/nmL741DmvcxE3bVuBC9KtVB2","favorite_count":0,"comment_count":0,"comments":[],"user_photo_count":0,"latitude":10.310433114642393,"longitude":123.84384958659491,"writable":false},"style":{"stroke":"#00A478"},"geometry":{"type":"MultiLineString","coordinates":[[[123.84683800000001,10.3095,216.19999999999999,1780612293],[123.84654500000001,10.309441,200.10000000000002,1780612358],[123.84661,10.309369999999999,200.30000000000001,1780612413],[123.846486,10.309671,196.80000000000001,1780612475],[123.84656,10.309733,196.60000000000002,1780612488],[123.84645999999999,10.309704999999999,196.5,1780612502],[123.846496,10.309551000000001,192.5,1780612529],[123.846513,10.309685999999999,182.19999999999999,1780612551],[123.84633599999999,10.309664,183.30000000000001,1780612579],[123.84638,10.310115,186.10000000000002,1780612639],[123.846453,10.310067999999999,184.5,1780612664],[123.846316,10.309972999999999,185.90000000000003,1780612698],[123.84631400000001,10.310228,188.40000000000003,1780612751],[123.84629099999999,10.310276,190.90000000000003,1780612815],[123.846166,10.310188,188.10000000000002,1780612853],[123.84609,10.310263000000001,183,1780612863],[123.8462,10.310354999999999,179.60000000000002,1780612879],[123.84606100000001,10.310298,178.10000000000002,1780612990],[123.846148,10.310313000000001,179.80000000000001,1780613020],[123.84603799999999,10.310406,185.10000000000002,1780613084],[123.846148,10.310385,181.69999999999999,1780613131],[123.84598,10.310415000000001,180.10000000000002,1780613182],[123.84581300000001,10.310665999999999,180.40000000000003,1780613261],[123.84540800000001,10.310765999999999,176.5,1780613378],[123.845646,10.310738000000001,174.30000000000001,1780613424],[123.845478,10.310810999999999,186.40000000000003,1780613474],[123.845336,10.310756,193.19999999999999,1780613498],[123.845095,10.310971,197,1780613565],[123.844765,10.311025000000001,196.60000000000002,1780613603],[123.84489000000001,10.311021,191.40000000000003,1780613681],[123.844814,10.311095999999999,193.10000000000002,1780613705],[123.844274,10.311204999999999,196,1780613833],[123.844166,10.311118,191.19999999999999,1780613898],[123.843513,10.311405000000001,197,1780614051],[123.843339,10.311275,195.80000000000001,1780614253],[123.8433,10.311391,200.30000000000001,1780614304],[123.842978,10.311446,197.40000000000003,1780614477],[123.842873,10.311249999999999,197.80000000000001,1780614532],[123.842866,10.311386000000001,196.90000000000003,1780614609],[123.842761,10.311268,200.19999999999999,1780614641],[123.842906,10.310848999999999,201.19999999999999,1780614814],[123.842665,10.310848,209.60000000000002,1780614868],[123.842096,10.310236,210.90000000000003,1780614978],[123.84196300000001,10.309908,211.30000000000001,1780615042],[123.841606,10.309816,210.69999999999999,1780615174],[123.841733,10.309803,213.60000000000002,1780615204],[123.841505,10.30945,218.10000000000002,1780615320],[123.841416,10.309602999999999,223.5,1780615411],[123.841528,10.309528,219.19999999999999,1780615421],[123.841803,10.30979,215.80000000000001,1780615498],[123.84156900000001,10.309716,214.69999999999999,1780615645],[123.841258,10.310157999999999,229.5,1780615769],[123.84083099999999,10.310352999999999,232.40000000000003,1780615878],[123.840976,10.310535,223.80000000000001,1780615925],[123.84057,10.310873000000001,216.10000000000002,1780616081]]]}}]}
