{"type":"FeatureCollection","id":"94d2430c-1480-44cb-a457-15358913df20","properties":{"id":"94d2430c-1480-44cb-a457-15358913df20","name":"zz_gpx","updated_date":"2026-07-20T12:34:02Z","time_created":"2026-07-20T12:34:02Z","notes":"","cover_photo_id":null,"deleted":false,"sync_to_mobile":null},"features":[{"type":"Feature","properties":{"id":"ef287237-4903-4944-b695-fd2b97107a74","updated_date":"2026-07-20T12:34:02Z","time_created":"2026-07-13T00:15:21Z","last_updated_on_server":"2026-07-20T12:34:02.828831","db_insert_date":"2026-07-20T12:34:02Z","deleted":false,"title":"Monday Morning Hiking","public":false,"color":"{0.000, 0.000, 0.000, 1.000}","hexcolor":"#000000","is_active":true,"revision":1784550842,"notes":"","track_type":"track","routing_mode":null,"uploaded_gpx_to_osm":null,"flag":null,"source":null,"cover_photo_id":null,"distance":677.93867053688382,"total_ascent":3.3833333333333542,"total_descent":91.716666666666669,"stopped_time":0,"total_time":1258,"average_speed":0.53890196386079792,"moving_time":1258,"moving_speed":0.53890196386079792,"activities":[],"imported":true,"folder":"94d2430c-1480-44cb-a457-15358913df20","privacy_level":null,"sync_to_mobile":null,"preferred_link":"/public/n03OPWRezpUy5EEK5FCVb5Rg","user_displayname":"onenet","username":"pislatpov","user_email":"onenet.cebu@gmail.com","user_id":3135682,"created_by":{"id":3135682,"displayName":"onenet","link":"/profile/3135682/","image":"https://www.gaiagps.com/profile/3135682/photo/"},"favorite_count":0,"comment_count":0,"comments":[],"user_photo_count":0,"latitude":10.286944740150719,"longitude":123.78939980292006,"writable":false},"style":{"stroke":"#000000"},"geometry":{"type":"MultiLineString","coordinates":[[[123.787779,10.285518,270.30000000000001,1783901721],[123.787786,10.28552,270.39999999999998,1783901722],[123.787811,10.285501,270.30000000000001,1783901726],[123.787836,10.285505000000001,270.19999999999999,1783901730],[123.787853,10.285518,270.10000000000002,1783901733],[123.78787800000001,10.285518,269.89999999999998,1783901736],[123.78790100000001,10.285575,268.60000000000002,1783901745],[123.78789999999999,10.285576000000001,268.39999999999998,1783901746],[123.787953,10.285633000000001,267,1783901754],[123.787941,10.285689,266.10000000000002,1783901769],[123.78796800000001,10.285681,265.69999999999999,1783901770],[123.787975,10.285672999999999,265.69999999999999,1783901771],[123.788031,10.285613,266.10000000000002,1783901782],[123.788043,10.285615,265,1783901817],[123.78813,10.285652000000001,261,1783901834],[123.788178,10.285715,259.19999999999999,1783901853],[123.788185,10.285716000000001,259,1783901854],[123.788241,10.285716000000001,259.30000000000001,1783901859],[123.78829399999999,10.285698,259.39999999999998,1783901862],[123.788308,10.285679999999999,259.19999999999999,1783901864],[123.78833299999999,10.285693,257,1783901868],[123.78833,10.285701,256.69999999999999,1783901869],[123.78830600000001,10.285716000000001,255.80000000000001,1783901876],[123.78832300000001,10.285705,253.40000000000003,1783901891],[123.78832300000001,10.285681,252.5,1783901895],[123.788319,10.285663,251.40000000000003,1783901900],[123.788296,10.285636,249,1783901918],[123.78837900000001,10.285603,245.5,1783901920],[123.788383,10.285601,245.30000000000001,1783901921],[123.78840599999999,10.285584999999999,244.90000000000003,1783901925],[123.788398,10.285546,241.69999999999999,1783901956],[123.788388,10.285548,236.80000000000001,1783901993],[123.788471,10.285558,232.10000000000002,1783901994],[123.78855299999999,10.285538000000001,230.69999999999999,1783902005],[123.78855799999999,10.285541,230.60000000000002,1783902006],[123.788589,10.285536,230.30000000000001,1783902010],[123.788633,10.285576000000001,229.69999999999999,1783902023],[123.78869299999999,10.285608,225.90000000000003,1783902038],[123.788736,10.285591,225.69999999999999,1783902048],[123.78873900000001,10.285596,225.80000000000001,1783902049],[123.788731,10.285655,225.69999999999999,1783902058],[123.788743,10.285667999999999,226.40000000000003,1783902066],[123.78873299999999,10.285705,227.40000000000003,1783902067],[123.788751,10.285723000000001,228.19999999999999,1783902071],[123.788803,10.285721000000001,229.5,1783902076],[123.788821,10.28572,229.69999999999999,1783902077],[123.78884600000001,10.285721000000001,229.80000000000001,1783902080],[123.788894,10.28575,229.80000000000001,1783902086],[123.788935,10.28576,229.19999999999999,1783902090],[123.788945,10.285788999999999,228.90000000000003,1783902092],[123.788949,10.285800999999999,228.90000000000003,1783902093],[123.788968,10.285831,229.30000000000001,1783902097],[123.78900299999999,10.285940999999999,231.10000000000002,1783902116],[123.788973,10.285959999999999,230.80000000000001,1783902120],[123.78897000000001,10.285966,230.60000000000002,1783902121],[123.788993,10.28598,230.10000000000002,1783902127],[123.788996,10.286002999999999,229.80000000000001,1783902130],[123.78903099999999,10.286063,229.5,1783902138],[123.789086,10.286066,229.80000000000001,1783902146],[123.789091,10.286066,229.69999999999999,1783902147],[123.789118,10.28608,229.60000000000002,1783902153],[123.789126,10.286096000000001,230,1783902186],[123.789131,10.286149999999999,231.90000000000003,1783902187],[123.78915600000001,10.286148000000001,232.40000000000003,1783902190],[123.789171,10.286166,232.69999999999999,1783902193],[123.789148,10.286215,233.19999999999999,1783902201],[123.789146,10.286218999999999,233.30000000000001,1783902202],[123.789205,10.286263999999999,233.30000000000001,1783902215],[123.78927299999999,10.286235,234.40000000000003,1783902222],[123.789275,10.286268,235,1783902226],[123.789281,10.286273,235.10000000000002,1783902227],[123.78935300000001,10.286327999999999,234.69999999999999,1783902235],[123.789401,10.286338000000001,234.10000000000002,1783902240],[123.78941,10.28637,233,1783902246],[123.789411,10.286375,233.10000000000002,1783902247],[123.789413,10.286413,232.60000000000002,1783902251],[123.789428,10.286431,232.19999999999999,1783902254],[123.78945299999999,10.286433000000001,231.90000000000003,1783902258],[123.78948800000001,10.2865,230.5,1783902274],[123.789513,10.286519999999999,230.19999999999999,1783902278],[123.789518,10.286523000000001,230.30000000000001,1783902279],[123.78961099999999,10.286548,226.90000000000003,1783902295],[123.789671,10.286602999999999,222.10000000000002,1783902305],[123.78967299999999,10.286606000000001,221.80000000000001,1783902306],[123.789698,10.286656000000001,220.19999999999999,1783902314],[123.789731,10.286688,218.69999999999999,1783902322],[123.78973499999999,10.286759999999999,218.30000000000001,1783902330],[123.789731,10.286768,218.19999999999999,1783902331],[123.789776,10.286804999999999,217.80000000000001,1783902340],[123.78978600000001,10.286825,217.40000000000003,1783902342],[123.78978600000001,10.286873,217.40000000000003,1783902350],[123.789761,10.286928,218.10000000000002,1783902360],[123.78974599999999,10.286982999999999,218.5,1783902365],[123.789755,10.287001,218.5,1783902367],[123.789796,10.287023,219,1783902373],[123.789811,10.287041,219.19999999999999,1783902376],[123.789806,10.287049,219.10000000000002,1783902377],[123.78980799999999,10.287053,219.10000000000002,1783902378],[123.789818,10.28708,219.80000000000001,1783902384],[123.78980300000001,10.287101,220.10000000000002,1783902387],[123.789823,10.287141,220.10000000000002,1783902396],[123.789818,10.287179999999999,219.90000000000003,1783902400],[123.78982999999999,10.287217999999999,218.60000000000002,1783902413],[123.789833,10.287226,218.5,1783902414],[123.789843,10.287255,218.19999999999999,1783902418],[123.78986999999999,10.287283,217.69999999999999,1783902423],[123.789911,10.287300999999999,218.19999999999999,1783902429],[123.78995,10.287341,218.5,1783902441],[123.789951,10.28735,218.30000000000001,1783902442],[123.789973,10.287383,216.80000000000001,1783902444],[123.789981,10.287421,217.10000000000002,1783902448],[123.78998300000001,10.287445999999999,216.80000000000001,1783902451],[123.78996100000001,10.287508000000001,216.19999999999999,1783902461],[123.78996600000001,10.287518,216.30000000000001,1783902462],[123.78996600000001,10.287523,216.30000000000001,1783902463],[123.79006099999999,10.287556,216.5,1783902471],[123.790111,10.287608000000001,214.69999999999999,1783902480],[123.79011300000001,10.287613,214.30000000000001,1783902481],[123.79012299999999,10.28764,212.30000000000001,1783902486],[123.79016799999999,10.287663,210.10000000000002,1783902493],[123.790176,10.287685,209.60000000000002,1783902496],[123.79022000000001,10.287713,208,1783902503],[123.79022999999999,10.287739999999999,206.60000000000002,1783902508],[123.790238,10.287741,206.5,1783902509],[123.790268,10.287751,205.90000000000003,1783902513],[123.79029800000001,10.287788000000001,204.60000000000002,1783902519],[123.790283,10.287826000000001,203.5,1783902523],[123.79029199999999,10.287853,202,1783902534],[123.790323,10.287872999999999,200.69999999999999,1783902543],[123.790328,10.287868,200.5,1783902544],[123.79035500000001,10.287855,200,1783902549],[123.790424,10.287860999999999,198,1783902561],[123.79044,10.287881,197.60000000000002,1783902564],[123.79048400000001,10.287908,196.19999999999999,1783902577],[123.79048299999999,10.287915,196,1783902578],[123.79048400000001,10.28792,195.90000000000003,1783902579],[123.790538,10.287998,193.10000000000002,1783902600],[123.79052,10.288035000000001,191.90000000000003,1783902606],[123.79049000000001,10.288050999999999,190.80000000000001,1783902611],[123.79048299999999,10.288053,190.60000000000002,1783902612],[123.790453,10.288040000000001,189.30000000000001,1783902645],[123.790423,10.288129,187.69999999999999,1783902646],[123.790301,10.288201000000001,186.19999999999999,1783902661],[123.790296,10.288206000000001,186.19999999999999,1783902662],[123.790228,10.288228,187.69999999999999,1783902668],[123.790178,10.288256000000001,188.19999999999999,1783902681],[123.790153,10.288243,188.69999999999999,1783902684],[123.790153,10.288240999999999,188.69999999999999,1783902685],[123.79016,10.288233999999999,188.5,1783902726],[123.790143,10.288278999999999,186.80000000000001,1783902727],[123.79012400000001,10.2883,187.40000000000003,1783902776],[123.79007,10.288295,186.90000000000003,1783902777],[123.790071,10.288304999999999,186,1783902819],[123.789998,10.288275000000001,187.30000000000001,1783902820],[123.78996600000001,10.288281,187.30000000000001,1783902824],[123.789958,10.288285,187.30000000000001,1783902825],[123.78995,10.288285,187.19999999999999,1783902826],[123.78993,10.28833,186,1783902836],[123.789823,10.288371,185.5,1783902849],[123.789815,10.288376,185.60000000000002,1783902850],[123.789781,10.288380999999999,185.19999999999999,1783902854],[123.78972,10.288418,183.40000000000003,1783902864],[123.78968,10.288451,181.60000000000002,1783902876],[123.789663,10.288482999999999,181.60000000000002,1783902880],[123.789653,10.288487999999999,181.60000000000002,1783902881],[123.78963899999999,10.288511,181,1783902886],[123.789635,10.288598,180.40000000000003,1783902898],[123.789616,10.288656,180.30000000000001,1783902907],[123.789621,10.288660999999999,180.19999999999999,1783902908],[123.78959,10.288812999999999,182,1783902931],[123.789579,10.288828000000001,182,1783902932],[123.789575,10.288841,182.10000000000002,1783902933],[123.78953300000001,10.288883,181.80000000000001,1783902938],[123.789511,10.288886,179.60000000000002,1783902976],[123.7895,10.288976,182.30000000000001,1783902977],[123.789483,10.288995,181.80000000000001,1783902979]]]}}]}
