{"type":"FeatureCollection","features":[{"type":"Feature","id":"3a7313a7-70c6-4aa3-a489-9fdc6db17143","properties":{"id":"3a7313a7-70c6-4aa3-a489-9fdc6db17143","updated_date":"2026-05-23T23:03:55Z","time_created":"2026-04-02T22:14:59Z","last_updated_on_server":"2026-05-23T23:03:55.808481","db_insert_date":"2026-05-19T08:23:49Z","deleted":false,"title":"April 3, 2026 at 9:44\u202fAM","public":false,"color":"#000000","hexcolor":"#000000","is_active":true,"revision":1779577435,"notes":"","track_type":"track","routing_mode":null,"uploaded_gpx_to_osm":null,"flag":null,"source":null,"cover_photo_id":null,"distance":5271.8252903575813,"total_ascent":246.33333333333337,"total_descent":235.5,"stopped_time":4160,"total_time":12524,"average_speed":0.42093782260919682,"moving_time":8364,"moving_speed":0.63029953256307758,"activities":[],"imported":true,"folder":"5846eda4-747f-4498-a291-2d262ecd3479","privacy_level":null,"sync_to_mobile":null,"preferred_link":"/public/W3igvNbZEtb4J2fjcOUD1mxp","favorite_count":0,"comment_count":0,"comments":[],"user_photo_count":0,"latitude":10.320792290083077,"longitude":123.79250847862853,"writable":false},"style":{"stroke":"#000000"},"geometry":{"type":"MultiLineString","coordinates":[[[123.78798999999999,10.315548,592,1775168099],[123.78803000000001,10.31565,589,1775168304],[123.788,10.315744,586,1775168318],[123.78798999999999,10.315848000000001,583,1775168385],[123.78801,10.315951,580,1775168482],[123.78801,10.316046999999999,576,1775168494],[123.78804,10.316136,575,1775168503],[123.788,10.316235000000001,573,1775168524],[123.78805,10.316314,571,1775168557],[123.78809,10.316401000000001,569,1775168577],[123.78814,10.316482000000001,570,1775168586],[123.78818,10.316595,572,1775168613],[123.78809,10.316637999999999,571,1775168688],[123.78806,10.316741,569,1775168701],[123.78804,10.316841999999999,571,1775168713],[123.78802,10.316953,571,1775168726],[123.78796,10.317041,570,1775168735],[123.78789999999999,10.317109,570,1775168746],[123.7878,10.317152,570,1775168849],[123.78771999999999,10.317224,570,1775168989],[123.78765,10.31729,568,1775169004],[123.78762,10.317410000000001,566,1775169104],[123.78756,10.317488000000001,562,1775169115],[123.78749999999999,10.317572,556,1775169201],[123.78740999999999,10.317624,557,1775169219],[123.78740000000001,10.317723000000001,556,1775169228],[123.78742,10.317837000000001,553,1775169251],[123.78738,10.317920000000001,553,1775169260],[123.78733,10.318004,553,1775169271],[123.78727000000001,10.31809,547,1775169283],[123.78725,10.318182,544,1775169298],[123.78725,10.318288000000001,540,1775169323],[123.78724,10.318381,537,1775169336],[123.78722,10.318474999999999,534,1775169348],[123.78719,10.318579,532,1775169359],[123.78713,10.318669999999999,530,1775169371],[123.78704,10.31873,528,1775169383],[123.78695,10.318763000000001,526,1775169397],[123.78686999999999,10.318814,525,1775169408],[123.78677,10.318868,523,1775169421],[123.78668,10.318909,520,1775169441],[123.78659,10.318970999999999,519,1775169451],[123.78651000000001,10.319038000000001,517,1775169462],[123.78644,10.319110999999999,512,1775169477],[123.78642000000001,10.319203,510,1775169592],[123.78637000000001,10.319292000000001,505,1775169724],[123.78635,10.319381999999999,503,1775169823],[123.78633000000001,10.319475000000001,497,1775169840],[123.78635,10.319578,493,1775169888],[123.78631,10.319668,489,1775169972],[123.7863,10.319775,483,1775169990],[123.78628,10.319883000000001,477,1775170053],[123.78628,10.320005,472,1775170238],[123.7863,10.3201,467,1775170294],[123.78627,10.320201000000001,465,1775170310],[123.78634,10.320276,459,1775170411],[123.78643,10.320273,457,1775170421],[123.78651000000001,10.320328,456,1775170479],[123.78644,10.320427,451,1775170499],[123.78635,10.320487999999999,447,1775170514],[123.78644,10.320516,443,1775170534],[123.78655999999999,10.320494,444,1775170585],[123.78655000000001,10.320601999999999,441,1775170601],[123.78637999999999,10.320778000000001,425,1775170676],[123.78632,10.320864,422,1775170857],[123.78644,10.320729999999999,421,1775170875],[123.78637000000001,10.320852,419,1775170931],[123.78631,10.320933999999999,416,1775170951],[123.78627,10.321016,412,1775170971],[123.78622,10.321099999999999,409,1775170990],[123.78619999999999,10.321191000000001,406,1775171005],[123.78624000000001,10.321282,405,1775171013],[123.78627,10.321394,404,1775171023],[123.78634,10.321471000000001,404,1775171031],[123.78641,10.321539,403,1775171039],[123.78649,10.321604000000001,404,1775171049],[123.78659,10.321675000000001,401,1775171063],[123.78668999999999,10.321637000000001,402,1775171494],[123.78682999999999,10.321655,402,1775171505],[123.78694,10.321645,402,1775171515],[123.78707,10.321607,403,1775171527],[123.78717,10.321600999999999,404,1775171533],[123.7873,10.321662,403,1775171544],[123.78738,10.321719999999999,401,1775171554],[123.78743,10.321851000000001,399,1775171569],[123.78747,10.32194,398,1775171575],[123.78749999999999,10.322044,396,1775171583],[123.78753,10.322143000000001,395,1775171593],[123.78756,10.322257,394,1775171603],[123.78758999999999,10.322366000000001,393,1775171612],[123.78762,10.322455,393,1775171620],[123.78762,10.322559,394,1775171629],[123.78764,10.322656,393,1775171638],[123.78766,10.322756999999999,393,1775171647],[123.78771,10.322832,392,1775171655],[123.78780999999999,10.322882,392,1775171663],[123.78791,10.322881000000001,392,1775171671],[123.78802,10.322882,392,1775171680],[123.78812000000001,10.322857000000001,391,1775171688],[123.78821000000001,10.322837,391,1775171696],[123.78831,10.322822,391,1775171705],[123.78842,10.322818,392,1775171714],[123.78852000000001,10.322808,392,1775171722],[123.78861999999999,10.322812000000001,391,1775171731],[123.78870999999999,10.322827999999999,389,1775171739],[123.78881,10.322868,388,1775171748],[123.7889,10.322929,386,1775171757],[123.78897000000001,10.322991999999999,385,1775171765],[123.78906000000001,10.323043999999999,384,1775171774],[123.78914,10.323091,383,1775171784],[123.78927,10.323111000000001,383,1775171794],[123.78937999999999,10.323104000000001,383,1775171804],[123.78949,10.323086999999999,384,1775171812],[123.78959,10.323081,384,1775171820],[123.7897,10.323053,384,1775171830],[123.78982000000001,10.323029999999999,385,1775171837],[123.78992,10.323053,384,1775171847],[123.79002,10.323069,384,1775171854],[123.79012,10.323104000000001,383,1775171862],[123.79024,10.323180000000001,382,1775171874],[123.79040000000001,10.32352,373,1775171912],[123.79048,10.323598,372,1775171916],[123.79064,10.323644,368,1775171930],[123.79074,10.323605000000001,370,1775171940],[123.79084,10.323598,372,1775171946],[123.79095,10.323575,375,1775171956],[123.79106,10.323603,375,1775171963],[123.79116999999999,10.323608999999999,373,1775171971],[123.79127,10.32362,372,1775171979],[123.79138,10.323582999999999,372,1775171988],[123.79148000000001,10.323542,373,1775171997],[123.7916,10.323489,374,1775172005],[123.79170000000001,10.323539999999999,373,1775172017],[123.79174999999999,10.323632,373,1775172023],[123.79177,10.323727999999999,372,1775172029],[123.79177,10.323829,369,1775172037],[123.79183,10.323954000000001,368,1775172048],[123.79195,10.32405,367,1775172061],[123.79201999999999,10.324112,367,1775172068],[123.79222,10.324153000000001,366,1775172086],[123.79231,10.324203000000001,364,1775172094],[123.79242000000001,10.324228,363,1775172103],[123.79250999999999,10.324261,362,1775172111],[123.79261,10.324273,362,1775172119],[123.79276,10.324318999999999,363,1775172132],[123.79288,10.324351999999999,363,1775172141],[123.79299,10.324393000000001,362,1775172149],[123.7931,10.324401999999999,361,1775172159],[123.79319,10.324438000000001,360,1775172168],[123.79331999999999,10.324457000000001,359,1775172175],[123.79342,10.324481,357,1775172185],[123.79352,10.324482,357,1775172193],[123.79362999999999,10.324498,356,1775172202],[123.79373,10.3245,355,1775172212],[123.79394000000001,10.324540000000001,355,1775172228],[123.79405,10.324578000000001,353,1775172237],[123.79416999999999,10.324593,353,1775172246],[123.79428,10.324623000000001,353,1775172255],[123.79438,10.324638999999999,351,1775172263],[123.79447,10.324652,351,1775172271],[123.79456999999999,10.324678,351,1775172279],[123.79465999999999,10.324702,350,1775172285],[123.79476,10.324622,350,1775172293],[123.79501999999999,10.324578000000001,353,1775172316],[123.79510999999999,10.324517999999999,352,1775172324],[123.79522,10.324444,352,1775172332],[123.79535,10.324471000000001,349,1775172345],[123.79543,10.324418,348,1775172350],[123.79555000000001,10.324439,349,1775172358],[123.79574,10.324517999999999,348,1775172373],[123.79584,10.324546,347,1775172382],[123.79593,10.324579999999999,345,1775172392],[123.79603,10.324579,344,1775172401],[123.79613999999999,10.324536999999999,345,1775172409],[123.79624,10.324471000000001,344,1775172418],[123.79631000000001,10.324401999999999,344,1775172426],[123.79644999999999,10.324298000000001,345,1775172439],[123.79653999999999,10.324244,344,1775172450],[123.79662,10.324178,345,1775172458],[123.7967,10.324127000000001,346,1775172466],[123.79682,10.324083,343,1775172478],[123.79692,10.324036,344,1775172487],[123.79702,10.324033,344,1775172500],[123.79712000000001,10.324026,343,1775172509],[123.79721000000001,10.32404,340,1775172518],[123.79731,10.32408,339,1775172527],[123.7974,10.324111,340,1775172534],[123.79751,10.324164,339,1775172545],[123.79761999999999,10.324256999999999,336,1775172559],[123.79773,10.324342,331,1775172569],[123.79782,10.324396,328,1775172580],[123.79791,10.324446,327,1775172588],[123.79799,10.324496,325,1775172596],[123.79807,10.324551,325,1775172604],[123.79815000000001,10.3246,324,1775172612],[123.79825,10.324624999999999,323,1775172621],[123.79836,10.324631,324,1775172628],[123.79846999999999,10.324664,324,1775172637],[123.79855999999999,10.32469,325,1775172645],[123.79867,10.324719,327,1775172653],[123.79876,10.324731,326,1775172662],[123.79867,10.324679,329,1775172673],[123.79858,10.324657999999999,330,1775172682],[123.79849,10.324586,329,1775172693],[123.79841999999999,10.32452,332,1775172702],[123.79835,10.324453999999999,335,1775172713],[123.79826,10.324408999999999,336,1775172729],[123.79814,10.324268,337,1775172838],[123.79801,10.324204,341,1775172868],[123.79789,10.324187999999999,344,1775172940],[123.7978,10.324152,345,1775172952],[123.79765999999999,10.324099,347,1775173293],[123.79759,10.324033999999999,349,1775173306],[123.79751,10.323971,351,1775173371],[123.79742,10.323921,357,1775173413],[123.79737,10.323843,355,1775173494],[123.79729,10.323786,362,1775173505],[123.79721000000001,10.323727999999999,365,1775173516],[123.79712000000001,10.32368,367,1775173547],[123.79703000000001,10.323627999999999,366,1775173611],[123.79694000000001,10.323554,367,1775173627],[123.79662999999999,10.321647,471,1775175975],[123.79658000000001,10.321721,476,1775176015],[123.79669,10.321698,475,1775176175],[123.7968,10.321695999999999,479,1775176187],[123.79689999999999,10.321697,483,1775176199],[123.79698999999999,10.321725000000001,485,1775176240],[123.79709,10.321744000000001,487,1775176251],[123.79718,10.321766,488,1775176262],[123.79729,10.321789000000001,491,1775176274],[123.79736,10.321643999999999,492,1775176562],[123.79725999999999,10.321626999999999,495,1775176587],[123.79714,10.321555,498,1775176605],[123.79706,10.321503,499,1775176615],[123.79697,10.321457000000001,501,1775176627],[123.79687,10.321422,503,1775176638],[123.79678,10.321384,504,1775176647],[123.79669,10.321349,506,1775176660],[123.79656,10.321294,510,1775176809],[123.79644,10.321285,512,1775176819],[123.79633,10.321313,517,1775176838],[123.79622999999999,10.321336000000001,516,1775176941],[123.79613000000001,10.321372,518,1775176952],[123.79595999999999,10.321324000000001,521,1775177077],[123.79583,10.321268,529,1775177115],[123.79575,10.321191000000001,533,1775177173],[123.79564000000001,10.321205000000001,536,1775177211],[123.7955,10.321185,538,1775177291],[123.7953,10.321244999999999,541,1775177313],[123.79514,10.321301999999999,544,1775177392],[123.79503,10.321401,544,1775177408],[123.79492999999999,10.321403999999999,545,1775177419],[123.79483,10.321418,545,1775177429],[123.79473,10.321412,546,1775177439],[123.79463,10.321382,546,1775177450],[123.79473,10.321398,545,1775177541],[123.79463,10.321395000000001,545,1775177588],[123.79452000000001,10.321376000000001,547,1775177599],[123.79443999999999,10.321323,548,1775177608],[123.79438,10.321228,550,1775177618],[123.79441,10.321133,551,1775177629],[123.79447999999999,10.321061,552,1775177639],[123.79455,10.320993,554,1775177649],[123.79463,10.320930000000001,556,1775177661],[123.79472,10.320923000000001,558,1775177671],[123.79488000000001,10.320942000000001,558,1775177889],[123.79498,10.320943,558,1775177898],[123.79508,10.320952,558,1775177906],[123.79518,10.320914,557,1775177916],[123.79526,10.320872,556,1775177925],[123.79536,10.320841,557,1775177934],[123.79546999999999,10.320826,557,1775177942],[123.79558,10.320827,557,1775177950],[123.79567,10.320842000000001,557,1775177958],[123.79577,10.320838,556,1775177966],[123.79586999999999,10.320823000000001,555,1775177974],[123.79597,10.320812999999999,556,1775177982],[123.79607,10.320779999999999,555,1775177992],[123.79617,10.320728000000001,556,1775178002],[123.79626,10.320696,555,1775178010],[123.79636000000001,10.320679,555,1775178018],[123.79646,10.320672,555,1775178025],[123.79657,10.320665999999999,555,1775178033],[123.79667000000001,10.320650000000001,556,1775178041],[123.79678,10.320649,556,1775178050],[123.79689,10.320674,556,1775178058],[123.79698999999999,10.320689,556,1775178066],[123.79707999999999,10.320691999999999,556,1775178074],[123.79716999999999,10.320652000000001,556,1775178082],[123.79715,10.320551,558,1775178140],[123.79705,10.320527999999999,560,1775178149],[123.79696,10.320489999999999,563,1775178159],[123.79687,10.320444,566,1775178169],[123.79680999999999,10.320364,569,1775178183],[123.79679,10.320259999999999,571,1775178214],[123.79676000000001,10.320167,573,1775178270],[123.79673,10.320074,575,1775178280],[123.79671,10.319981,576,1775178288],[123.79667000000001,10.319887,577,1775178297],[123.79666,10.319789999999999,576,1775178305],[123.79665,10.319686000000001,575,1775178313],[123.79662999999999,10.319591000000001,575,1775178322],[123.79658000000001,10.319502,577,1775178332],[123.79653999999999,10.319424,578,1775178340],[123.79644,10.319404,578,1775178461],[123.79634,10.319392000000001,578,1775178469],[123.79624,10.31941,578,1775178477],[123.79613000000001,10.319429,580,1775178485],[123.79603,10.31941,581,1775178493],[123.79593,10.319398,581,1775178500],[123.79583,10.319348,582,1775178508],[123.79572,10.319338999999999,583,1775178517],[123.79562,10.319326,584,1775178527],[123.79552,10.319290000000001,585,1775178536],[123.79541999999999,10.319253,585,1775178545],[123.79533000000001,10.319208,584,1775178557],[123.79526,10.319146999999999,582,1775178624],[123.79518,10.319088000000001,583,1775178633],[123.79509,10.319051,581,1775178643],[123.79498,10.319001999999999,583,1775178712],[123.79483,10.318961,579,1775178731],[123.79473,10.31894,578,1775178741],[123.79483999999999,10.318954,577,1775178784],[123.79492999999999,10.318999,580,1775178815],[123.79503,10.319032999999999,582,1775178822],[123.79492999999999,10.319006999999999,579,1775178853],[123.79483,10.318963999999999,578,1775178864],[123.79473,10.318949999999999,577,1775178873],[123.79463,10.318951999999999,577,1775178881],[123.79454,10.318992,577,1775178889],[123.79443000000001,10.319094,577,1775178901],[123.79434999999999,10.319163,578,1775178911],[123.79428,10.319235000000001,581,1775178921],[123.79418,10.319274,582,1775178930],[123.79412000000001,10.319172999999999,580,1775178951],[123.79413,10.319069000000001,578,1775178959],[123.79414,10.318968999999999,579,1775178967],[123.79414,10.31887,579,1775178975],[123.79398999999999,10.318842,581,1775178999],[123.79392,10.318901,580,1775179007],[123.79383,10.318962000000001,580,1775179017],[123.79378,10.319044999999999,579,1775179027],[123.79364,10.319051999999999,581,1775179051],[123.79353999999999,10.319029,581,1775179060],[123.79344,10.319032,582,1775179069],[123.79334,10.319048,585,1775179079],[123.79325,10.319113,584,1775179090],[123.79313999999999,10.319122,587,1775179107],[123.79306,10.319156,588,1775179130],[123.79295999999999,10.319098,589,1775179140],[123.79286,10.319057000000001,590,1775179152],[123.79276,10.319043000000001,592,1775179164],[123.79266,10.319017000000001,594,1775179223],[123.79259,10.318953,594,1775179380],[123.79254,10.318864,592,1775179929],[123.79243,10.318827000000001,589,1775179941],[123.79234,10.318860000000001,588,1775179954],[123.79224000000001,10.318797999999999,588,1775179965],[123.79212,10.318725000000001,586,1775179978],[123.79201999999999,10.318694000000001,586,1775179985],[123.79197000000001,10.318617,586,1775179995],[123.79191,10.318524,585,1775180005],[123.79183999999999,10.318453999999999,585,1775180011],[123.79174,10.318426000000001,586,1775180019],[123.79163,10.318440000000001,588,1775180031],[123.79159,10.318353999999999,588,1775180039],[123.79154,10.318251999999999,587,1775180050],[123.79145,10.318212000000001,587,1775180058],[123.79136,10.318177,586,1775180067],[123.79124,10.318148000000001,586,1775180076],[123.79114,10.318125,584,1775180088],[123.79104,10.31808,584,1775180096],[123.79095,10.31804,583,1775180105],[123.79089,10.317971,583,1775180115],[123.79085000000001,10.317876,583,1775180125],[123.79079,10.317784,583,1775180137],[123.79076999999999,10.317695000000001,586,1775180145],[123.79075,10.317595000000001,586,1775180154],[123.7907,10.317499,586,1775180165],[123.79058999999999,10.31738,587,1775180179],[123.79055,10.317287,587,1775180189],[123.79051,10.317195,589,1775180197],[123.79040999999999,10.317045999999999,588,1775180218],[123.79045000000001,10.316943,587,1775180224],[123.79046,10.316853999999999,587,1775180235],[123.79055,10.316796,585,1775180246],[123.79051,10.316660000000001,584,1775180259],[123.79043,10.316617000000001,584,1775180265],[123.79037,10.316544,583,1775180274],[123.79031000000001,10.316457,581,1775180284],[123.79022000000001,10.316418000000001,580,1775180295],[123.79012,10.316414,580,1775180302],[123.78992,10.316470000000001,580,1775180318],[123.78977999999999,10.316473999999999,584,1775180340],[123.78968999999999,10.316426,584,1775180349],[123.78967,10.316328,586,1775180358],[123.78966,10.316234,586,1775180368],[123.78967,10.316136,586,1775180378],[123.78968,10.316034999999999,586,1775180392],[123.78967,10.315932999999999,585,1775180400],[123.78966,10.315832,584,1775180408],[123.78963,10.315734000000001,585,1775180417],[123.78961,10.315638999999999,584,1775180425],[123.78961,10.315545,585,1775180433],[123.78959999999999,10.315446,584,1775180441],[123.78955999999999,10.31535,583,1775180449],[123.7895,10.315265999999999,582,1775180457],[123.78943,10.315184,583,1775180465],[123.78934,10.315136000000001,583,1775180473],[123.78926,10.315066,583,1775180482],[123.78915000000001,10.315064,583,1775180500],[123.78907,10.31513,583,1775180509],[123.78898,10.31518,585,1775180518],[123.78891,10.315234,587,1775180526],[123.78882,10.315284,589,1775180534],[123.78873,10.315329999999999,589,1775180543],[123.78863,10.315364000000001,590,1775180551],[123.78854,10.315396,592,1775180560],[123.78843999999999,10.315417,593,1775180569],[123.78834000000001,10.315447000000001,594,1775180578],[123.78825000000001,10.315481,595,1775180586],[123.78813,10.315499000000001,596,1775180600],[123.78804,10.315533,597,1775180611],[123.788,10.315562999999999,596,1775180623]]]}}]}
