{"type":"FeatureCollection","features":[{"type":"Feature","id":"8a219b07-23ff-434e-b94d-90fbdce18b0c","properties":{"id":"8a219b07-23ff-434e-b94d-90fbdce18b0c","updated_date":"2024-10-30T10:47:04Z","time_created":"2024-04-24T13:15:56Z","last_updated_on_server":"2026-02-14T08:17:59.192778","db_insert_date":"2024-10-30T10:46:50Z","deleted":false,"title":"Pangilatan Peak Route","public":false,"color":"#000000","hexcolor":"#000000","is_active":true,"revision":1771057079,"notes":"","track_type":"route","routing_mode":"pedestrian","uploaded_gpx_to_osm":null,"flag":null,"source":null,"cover_photo_id":null,"distance":2564.3526732602459,"total_ascent":155.97899199999998,"total_descent":151.57892399999997,"stopped_time":0,"total_time":0,"average_speed":0,"moving_time":0,"moving_speed":0,"activities":[],"imported":false,"folder":"5846eda4-747f-4498-a291-2d262ecd3479","privacy_level":null,"sync_to_mobile":null,"preferred_link":"/public/GCc2X3NV90QqD77bd4x3qqDC","favorite_count":0,"comment_count":0,"comments":[],"user_photo_count":0,"latitude":10.24793813790431,"longitude":123.75850776563991,"writable":false},"style":{"stroke":"#000000"},"geometry":{"type":"MultiLineString","coordinates":[[[123.76156,10.247996000000001,239.708493,0],[123.76141200000001,10.248082999999999,242.263519,0],[123.760868,10.248761,255.794748,0],[123.760847,10.24888,258.35744599999998,0],[123.760729,10.249025,262.27084400000001,0],[123.760565,10.249115,265.94032399999998,0],[123.760187,10.249722,282.97455400000001,0],[123.760104,10.249734999999999,284.23913299999998,0],[123.759986,10.24987,289.901702,0],[123.75908200000001,10.250538000000001,296.51414699999998,0],[123.758602,10.250700999999999,298.11312199999998,0],[123.758205,10.250959999999999,295.72136,0],[123.758205,10.250959999999999,295.72136,0],[123.757677,10.250548,281.24760900000001,0],[123.757322,10.250247,264.42940700000003,0],[123.757194,10.250049000000001,256.39678900000001,0],[123.75708400000001,10.249698,252.78918100000001,0],[123.757086,10.249048999999999,276.19213300000001,0],[123.75659,10.248498,286.72392300000001,0],[123.756541,10.247989,303.47357499999998,0],[123.75653,10.247729,306.24959999999999,0],[123.756629,10.247514000000001,301.01519999999999,0],[123.756618,10.247377999999999,296.81309599999997,0],[123.756502,10.247253000000001,295.71903600000002,0],[123.755988,10.247063000000001,298.55012699999997,0],[123.75587400000001,10.247018000000001,297.05709999999999,0],[123.75583,10.246950999999999,295.96110099999999,0],[123.75596,10.246758,293.21813100000003,0],[123.75617699999999,10.246486000000001,285.2303,0],[123.75660999999999,10.246237000000001,274.10471699999999,0],[123.756626,10.246088,275.34611699999999,0],[123.75675699999999,10.246055,272.12903299999999,0],[123.75692600000001,10.245839999999999,271.023955,0],[123.756927,10.245763999999999,269.54962599999999,0],[123.75699,10.245727,266.78387500000002,0],[123.757014,10.245663,264.73647199999999,0],[123.75694300000001,10.245507999999999,263.09852899999998,0],[123.756878,10.245474,260.84211299999998,0],[123.756877,10.245419,258.50591900000001,0],[123.756939,10.245362,257.23542800000001,0],[123.75702699999999,10.245297000000001,253.21350100000001,0],[123.75695399999999,10.245196999999999,250.09761800000001,0],[123.756975,10.244921,237.68105199999999,0],[123.757105,10.244821,234.38459,0],[123.757109,10.244771999999999,232.609126,0],[123.75720200000001,10.244837,235.590643,0],[123.757465,10.244828999999999,234.51987500000001,0],[123.757625,10.244878999999999,231.35643999999999,0],[123.757625,10.244878999999999,231.35643999999999,0],[123.75784,10.244945,224.73176000000001,0],[123.758218,10.24532,212.588269,0],[123.758304,10.245486,211.85612699999999,0],[123.758454,10.245483,211.631339,0],[123.75852399999999,10.245459,211.375629,0],[123.75861,10.245486,212.24320599999999,0],[123.758827,10.245424999999999,211.121916,0],[123.758999,10.245454000000001,212.32667599999999,0],[123.75909,10.245583,216.228275,0],[123.75910399999999,10.245588,216.34700000000001,0],[123.75910399999999,10.245588,216.34700000000001,0],[123.75911000000001,10.245571999999999,216.081107,0],[123.759381,10.245614,216.67925500000001,0],[123.759652,10.245656,218.038825,0],[123.759759,10.245673,218.34637900000001,0],[123.759759,10.245673,218.34637900000001,0],[123.759761,10.245699,218.44888900000001,0],[123.75998199999999,10.246166000000001,215.31281300000001,0],[123.75998800000001,10.246264999999999,213.89899800000001,0],[123.75994799999999,10.246349,213.24255400000001,0],[123.759807,10.246482,215.14269100000001,0],[123.75973399999999,10.246606,217.29418000000001,0],[123.759715,10.246831,218.19152600000001,0],[123.75969499999999,10.247035,218.29389599999999,0],[123.75964999999999,10.247401,217.07079200000001,0],[123.75952599999999,10.24762,216.01687000000001,0],[123.759316,10.247833999999999,214.908041,0],[123.759107,10.247949999999999,216.27644799999999,0],[123.758965,10.248011999999999,218.48647399999999,0],[123.75889100000001,10.248061,218.87280000000001,0],[123.75889100000001,10.248061,218.87280000000001,0],[123.75889100000001,10.248061,218.87280000000001,0],[123.758822,10.248165,220.26982599999999,0],[123.758763,10.248441,222.21360000000001,0],[123.75867700000001,10.248632000000001,227.092387,0],[123.75838299999999,10.249010999999999,231.806802,0],[123.75823699999999,10.249192000000001,232.93025900000001,0],[123.758212,10.249237000000001,234.01141100000001,0],[123.75822599999999,10.249274,233.66307499999999,0],[123.758273,10.249302999999999,232.32859099999999,0],[123.758363,10.249320000000001,230.52356800000001,0],[123.75859800000001,10.249321,229.502478,0],[123.75892399999999,10.249271,231.14680000000001,0],[123.759247,10.249172,237.579858,0],[123.75962,10.249012,240.4864,0],[123.760018,10.248825999999999,241.266671,0],[123.760194,10.248733,242.957942,0],[123.76066299999999,10.248507,247.32338100000001,0],[123.760829,10.248377,247.10561899999999,0],[123.760947,10.24831,245.59663699999999,0],[123.761071,10.248248999999999,244.10856100000001,0]]]}}]}
