{"type":"FeatureCollection","features":[{"type":"Feature","id":"9dc79658-c11a-42fb-bef6-92132b4fd7b5","properties":{"id":"9dc79658-c11a-42fb-bef6-92132b4fd7b5","updated_date":"2026-06-15T09:04:15Z","time_created":"2026-06-05T22:36:56Z","last_updated_on_server":"2026-06-15T09:04:15.329011","db_insert_date":"2026-06-06T12:06:00Z","deleted":false,"title":"June 6, 2026 at 9:42\u202fAM","public":false,"color":"#000000","hexcolor":"#000000","is_active":true,"revision":1781514255,"notes":"","track_type":"track","routing_mode":null,"uploaded_gpx_to_osm":null,"flag":null,"source":null,"cover_photo_id":null,"distance":5422.7122104497757,"total_ascent":27.333333333333258,"total_descent":537.83333333333326,"stopped_time":2182,"total_time":11145,"average_speed":0.48656009066395478,"moving_time":8963,"moving_speed":0.60501084574916608,"activities":[],"imported":true,"folder":"5846eda4-747f-4498-a291-2d262ecd3479","privacy_level":"private","sync_to_mobile":null,"preferred_link":"/public/jUUAeVWu87lXJ0DB7xnfMH6v","favorite_count":0,"comment_count":0,"comments":[],"user_photo_count":0,"latitude":10.359678229768523,"longitude":123.76773458441401,"writable":false},"style":{"stroke":"#000000"},"geometry":{"type":"MultiLineString","coordinates":[[[123.78679,10.362295,729,1780699016],[123.78666,10.362337,720,1780699126],[123.78655999999999,10.362349999999999,722,1780699134],[123.78645,10.362363,725,1780699141],[123.78636,10.362356999999999,727,1780699147],[123.78626,10.362363,730,1780699155],[123.78617,10.362351,733,1780699163],[123.78607,10.362334000000001,736,1780699171],[123.78597000000001,10.362311999999999,739,1780699179],[123.78586,10.362287999999999,742,1780699190],[123.78574999999999,10.362272000000001,745,1780699239],[123.78564,10.362231,750,1780699254],[123.78552999999999,10.362213000000001,751,1780699265],[123.78543000000001,10.362202999999999,752,1780699273],[123.78534000000001,10.362201000000001,753,1780699281],[123.78524,10.362218,754,1780699289],[123.78513,10.362239000000001,754,1780699318],[123.78503000000001,10.362266,755,1780699328],[123.78494999999999,10.362323999999999,755,1780699336],[123.78491,10.362405000000001,754,1780699344],[123.78489999999999,10.362507000000001,753,1780699352],[123.78493,10.362593,754,1780699360],[123.78497,10.362679,755,1780699368],[123.78487,10.362679999999999,755,1780699386],[123.78478,10.362609000000001,751,1780699397],[123.78473,10.362531000000001,750,1780699405],[123.78465,10.362477999999999,751,1780699413],[123.78458000000001,10.362413999999999,750,1780699421],[123.78449999999999,10.362366,749,1780699429],[123.78440999999999,10.362318,748,1780699438],[123.78431999999999,10.362268,748,1780699448],[123.78422999999999,10.362223999999999,748,1780699456],[123.78416,10.362175000000001,748,1780699465],[123.78409000000001,10.362088,747,1780699475],[123.78400999999999,10.362031,749,1780699483],[123.78391000000001,10.362009,749,1780699491],[123.78381,10.362004000000001,749,1780699499],[123.78372,10.362022,749,1780699507],[123.78363,10.362028,751,1780699515],[123.78354,10.362024,751,1780699523],[123.78342000000001,10.362019999999999,751,1780699538],[123.78333000000001,10.362000999999999,751,1780699546],[123.78322,10.361974,752,1780699554],[123.78312,10.361945,752,1780699562],[123.78303,10.361927,753,1780699570],[123.78294,10.361890000000001,752,1780699579],[123.78283999999999,10.361834,751,1780699589],[123.78278,10.361749,750,1780699599],[123.78276,10.361658,749,1780699607],[123.78281,10.361575,748,1780699617],[123.7829,10.361516999999999,746,1780699627],[123.78297999999999,10.36145,746,1780699638],[123.78306000000001,10.361375000000001,745,1780699649],[123.78313,10.361299000000001,745,1780699659],[123.78317,10.361214,744,1780699667],[123.78314,10.361117,743,1780699675],[123.78307,10.361027999999999,744,1780699683],[123.78299,10.360958,744,1780699691],[123.7829,10.360912000000001,745,1780699699],[123.78282,10.360868,745,1780699707],[123.78272,10.360829000000001,744,1780699716],[123.78264,10.360782,744,1780699724],[123.78255,10.360745,745,1780699732],[123.78245,10.360704,746,1780699740],[123.78236,10.360670000000001,746,1780699748],[123.78227,10.360625000000001,747,1780699756],[123.78218,10.360583999999999,748,1780699764],[123.78209,10.360548,749,1780699772],[123.78198999999999,10.360526999999999,749,1780699780],[123.78189999999999,10.360502,750,1780699788],[123.78182,10.36045,751,1780699796],[123.78178,10.360360999999999,752,1780699804],[123.78175,10.360270999999999,752,1780699812],[123.78173,10.360172,753,1780699820],[123.78169,10.360082,753,1780699828],[123.78164,10.360004999999999,753,1780699836],[123.78155,10.359957,752,1780699844],[123.78145000000001,10.359923,751,1780699852],[123.78135,10.359907,750,1780699860],[123.78124,10.359928,749,1780699870],[123.78116,10.359984000000001,750,1780700075],[123.78109000000001,10.360049999999999,749,1780700083],[123.78103,10.360132,749,1780700143],[123.78095999999999,10.36022,749,1780700168],[123.78091000000001,10.360300000000001,750,1780700177],[123.78085,10.360395,748,1780700187],[123.78079,10.360483,747,1780700197],[123.78073999999999,10.360561000000001,748,1780700208],[123.78068,10.360635,748,1780700216],[123.78062,10.360701000000001,749,1780700230],[123.78053,10.36077,750,1780700240],[123.78046000000001,10.360841000000001,751,1780700248],[123.78037999999999,10.360899,751,1780700256],[123.78032,10.360969000000001,750,1780700264],[123.78028,10.361053,750,1780700272],[123.78026,10.361146,750,1780700281],[123.78018,10.361222,748,1780700293],[123.78006999999999,10.361224999999999,746,1780700309],[123.77996,10.361184,745,1780700321],[123.77988000000001,10.361140000000001,744,1780700332],[123.77977,10.361132,743,1780700342],[123.77968,10.361141999999999,741,1780700393],[123.77958,10.361173000000001,741,1780700401],[123.77951,10.361243999999999,740,1780700408],[123.77943999999999,10.361319999999999,741,1780700416],[123.77934999999999,10.361366,742,1780700424],[123.77924,10.361397,742,1780700432],[123.77915,10.361435999999999,741,1780700441],[123.77903999999999,10.361471999999999,742,1780700451],[123.77894000000001,10.361492,742,1780700459],[123.77882,10.361518,742,1780700468],[123.77875,10.361573,743,1780700477],[123.77865,10.361642,744,1780700537],[123.77858000000001,10.361708,745,1780700547],[123.77851,10.361781000000001,746,1780700555],[123.77846,10.361855,746,1780700563],[123.7784,10.361926,748,1780700571],[123.77834,10.361998,749,1780700580],[123.7783,10.362099000000001,751,1780700592],[123.77824,10.362176,751,1780700601],[123.77818000000001,10.362259999999999,752,1780700666],[123.77813999999999,10.362355000000001,753,1780700674],[123.77804,10.362314,751,1780700753],[123.77797,10.362259999999999,752,1780700761],[123.7779,10.362187,750,1780700771],[123.77782999999999,10.362123,749,1780700779],[123.77775,10.362078,748,1780700787],[123.77764000000001,10.362056000000001,746,1780700800],[123.77755000000001,10.362037000000001,745,1780700810],[123.77744,10.362018000000001,742,1780700823],[123.77734,10.362023000000001,740,1780700834],[123.77723,10.362028,739,1780700845],[123.77714,10.362009,737,1780700856],[123.77703,10.362031999999999,735,1780700901],[123.77692999999999,10.362035000000001,733,1780700913],[123.77683,10.362069999999999,730,1780700926],[123.77673,10.362095,730,1780700936],[123.77661999999999,10.362130000000001,728,1780700947],[123.77654,10.362166,728,1780700955],[123.77645,10.362197,728,1780700963],[123.77631,10.362235999999999,725,1780700982],[123.77618,10.36223,723,1780701049],[123.77611,10.362166,718,1780701180],[123.77602,10.362125000000001,716,1780701197],[123.77593,10.362095999999999,715,1780701348],[123.77583,10.362072,712,1780701368],[123.77573,10.362056000000001,710,1780701380],[123.77563000000001,10.362043,708,1780701391],[123.77554000000001,10.361992000000001,704,1780701442],[123.77546,10.361948,702,1780701454],[123.77535,10.361916000000001,697,1780701471],[123.77521,10.361859000000001,693,1780701491],[123.77513,10.361814000000001,691,1780701503],[123.77504,10.361765,690,1780701514],[123.77493,10.361757000000001,689,1780701575],[123.77484,10.361751999999999,687,1780701642],[123.77472,10.361734999999999,685,1780701655],[123.77463,10.36172,685,1780701664],[123.77453,10.361726000000001,684,1780701672],[123.77444,10.361661,685,1780701682],[123.77434,10.361625999999999,685,1780701693],[123.77424999999999,10.361604,684,1780701702],[123.77415000000001,10.361610000000001,683,1780701711],[123.77405,10.361573999999999,680,1780701726],[123.77396,10.361537,678,1780701803],[123.77384000000001,10.361516999999999,676,1780701815],[123.77377,10.361465000000001,675,1780701825],[123.77385,10.361419,676,1780701993],[123.77375000000001,10.361466999999999,676,1780702062],[123.77365,10.361515000000001,675,1780702072],[123.77355,10.361530999999999,674,1780702085],[123.77343999999999,10.36153,675,1780702094],[123.77333,10.361551,675,1780702105],[123.77323,10.361556,675,1780702113],[123.77312000000001,10.361573999999999,676,1780702123],[123.77303000000001,10.361571,676,1780702131],[123.77292,10.361563,674,1780702144],[123.77285000000001,10.361499,674,1780702227],[123.77276000000001,10.361465000000001,673,1780702375],[123.77267000000001,10.361427000000001,671,1780702436],[123.77257,10.361401000000001,672,1780702478],[123.77248,10.361354,670,1780702489],[123.77242,10.361286,669,1780702581],[123.77240999999999,10.361158,666,1780702632],[123.7724,10.361062,664,1780702645],[123.77237,10.36096,661,1780702658],[123.77236000000001,10.360860000000001,658,1780702669],[123.77234,10.360759,655,1780702681],[123.77231,10.360668,652,1780702691],[123.77226,10.360583,649,1780702703],[123.77216,10.360525000000001,646,1780702725],[123.77207,10.360465,643,1780702736],[123.77198,10.360424999999999,641,1780702745],[123.77182000000001,10.360325,640,1780702762],[123.77171,10.360276000000001,640,1780702842],[123.77161,10.360242,641,1780702851],[123.7715,10.360196,635,1780703140],[123.77139,10.360192,634,1780703151],[123.7713,10.360173,634,1780703171],[123.77119999999999,10.360151999999999,633,1780703186],[123.7711,10.360132,630,1780703300],[123.77099,10.360111,627,1780703311],[123.7709,10.360098000000001,626,1780703320],[123.77079999999999,10.360111,626,1780703329],[123.77069,10.360096,625,1780703346],[123.7706,10.360025,627,1780703356],[123.77054,10.359953000000001,628,1780703364],[123.77049,10.359868000000001,627,1780703374],[123.77041,10.359933,627,1780703391],[123.77034,10.359992,628,1780703399],[123.77028,10.360071,629,1780703408],[123.77019,10.360096,629,1780703416],[123.7701,10.360122,629,1780703424],[123.76999000000001,10.360144,627,1780703434],[123.76987,10.360132,626,1780703445],[123.76978,10.360115,626,1780703453],[123.76967999999999,10.360087999999999,625,1780703467],[123.76956,10.36008,625,1780703478],[123.76948,10.360118999999999,623,1780703489],[123.7694,10.360170999999999,621,1780703499],[123.76931,10.360229,618,1780703510],[123.76940999999999,10.360182999999999,621,1780703551],[123.76944,10.360099,619,1780703566],[123.76954000000001,10.360087999999999,622,1780703599],[123.76964,10.360094999999999,624,1780703616],[123.76955,10.360071,622,1780703688],[123.76945000000001,10.36002,622,1780703698],[123.76938,10.359931,622,1780703711],[123.76929,10.359857,617,1780703728],[123.76922999999999,10.359778,617,1780703831],[123.76912,10.359791,615,1780703853],[123.76900999999999,10.359791,614,1780703867],[123.7689,10.359764999999999,612,1780703896],[123.76881,10.359704000000001,608,1780704012],[123.76873999999999,10.359638,603,1780704080],[123.76864999999999,10.359591999999999,599,1780704136],[123.76857,10.359664,598,1780704151],[123.76861,10.359569,596,1780704197],[123.76852,10.359527,594,1780704208],[123.76842000000001,10.359548,589,1780704226],[123.76832,10.359583000000001,587,1780704239],[123.76823,10.359595000000001,582,1780704261],[123.76812,10.359586999999999,578,1780704285],[123.76803,10.359589,574,1780704299],[123.76793000000001,10.359576000000001,570,1780704327],[123.76784000000001,10.359553999999999,566,1780705097],[123.76774,10.359534,563,1780705111],[123.76765,10.359489,558,1780705131],[123.76756,10.359484999999999,556,1780705143],[123.76747,10.359512,552,1780705156],[123.76737,10.359494,550,1780705171],[123.76727,10.359484999999999,547,1780705186],[123.76716999999999,10.359489999999999,544,1780705199],[123.76708000000001,10.359451,543,1780705211],[123.76699000000001,10.359408,540,1780705223],[123.76691,10.359356,539,1780705232],[123.76682,10.359317000000001,540,1780705241],[123.76673,10.359268999999999,540,1780705250],[123.76662,10.359251,541,1780705259],[123.76652,10.359230999999999,541,1780705267],[123.76642,10.359203000000001,540,1780705278],[123.76636000000001,10.359123,539,1780705288],[123.7663,10.359042000000001,538,1780705296],[123.76626,10.358955999999999,539,1780705304],[123.76621,10.358881999999999,539,1780705313],[123.76617,10.358790000000001,539,1780705323],[123.76612,10.358705,538,1780705340],[123.76607,10.358620999999999,537,1780705356],[123.76599,10.358578,536,1780705366],[123.76591999999999,10.358514,536,1780705379],[123.76584,10.358461,536,1780705387],[123.76578000000001,10.358394000000001,538,1780705395],[123.76568,10.358374,539,1780705405],[123.76559,10.358307999999999,541,1780705415],[123.76551000000001,10.358243999999999,545,1780705427],[123.76542999999999,10.358195,546,1780705438],[123.76532,10.35819,545,1780705448],[123.76519999999999,10.358133,544,1780705468],[123.76513,10.358058,543,1780705491],[123.76509,10.357970999999999,540,1780705505],[123.76501,10.357896,538,1780705517],[123.76494,10.357822000000001,536,1780705527],[123.76485,10.357761999999999,535,1780705536],[123.76475000000001,10.357733,535,1780705549],[123.76464,10.357711,534,1780705559],[123.76455,10.357670000000001,532,1780705643],[123.76446,10.357613000000001,532,1780705652],[123.76438,10.357562,532,1780705661],[123.76429,10.357545,532,1780705669],[123.7642,10.357583999999999,531,1780705678],[123.7641,10.357556000000001,530,1780705688],[123.764,10.357545,527,1780705698],[123.76390000000001,10.357538,526,1780705708],[123.76381000000001,10.357492000000001,526,1780705723],[123.76371,10.357462,525,1780705733],[123.76362,10.357422,522,1780705745],[123.76353,10.357390000000001,519,1780705760],[123.76344,10.357408,514,1780705774],[123.76334,10.357391,508,1780706052],[123.76322999999999,10.357386999999999,506,1780706064],[123.76314000000001,10.357398999999999,505,1780706081],[123.76305000000001,10.357422,502,1780706152],[123.76295,10.357452,500,1780706163],[123.76286,10.357485,499,1780706275],[123.76276,10.357486,499,1780706288],[123.76266,10.357500999999999,499,1780706298],[123.76255,10.357485,501,1780706308],[123.7624,10.3575,504,1780706325],[123.76231,10.35745,505,1780706334],[123.76222,10.357392000000001,506,1780706344],[123.76213,10.357341999999999,507,1780706353],[123.76205,10.357298999999999,508,1780706361],[123.76196,10.357259000000001,509,1780706369],[123.76187,10.357212000000001,510,1780706379],[123.76184000000001,10.357094,511,1780706394],[123.76179999999999,10.356998000000001,511,1780706418],[123.76174,10.356927000000001,511,1780706429],[123.76151,10.356882000000001,515,1780706462],[123.76141,10.356849,516,1780706472],[123.76134,10.356794000000001,519,1780706483],[123.76124,10.356795,520,1780706495],[123.76117000000001,10.356724,522,1780706506],[123.76108000000001,10.356676,526,1780706678],[123.76099000000001,10.356623000000001,529,1780706691],[123.76090000000001,10.356571000000001,531,1780706706],[123.76081000000001,10.356469000000001,536,1780706810],[123.76076999999999,10.356377999999999,536,1780706822],[123.76067,10.356370999999999,540,1780706920],[123.76058999999999,10.356329000000001,545,1780706936],[123.76045999999999,10.356260000000001,549,1780706958],[123.76038,10.356213,551,1780707000],[123.76031,10.356104999999999,557,1780707138],[123.76031,10.356012,559,1780707151],[123.7603,10.356104,557,1780707177],[123.76017,10.356156,555,1780707201],[123.76007,10.356172000000001,554,1780707210],[123.75998,10.356222000000001,553,1780707224],[123.7599,10.356273,552,1780707236],[123.75977,10.35627,548,1780707261],[123.75967,10.35628,546,1780707280],[123.75958,10.356318,543,1780707292],[123.75948,10.356325,542,1780707304],[123.75939,10.356375,539,1780707316],[123.7593,10.356405000000001,537,1780707331],[123.75920000000001,10.356494,535,1780707476],[123.75911000000001,10.356533000000001,533,1780707486],[123.75902000000001,10.356591,535,1780707500],[123.75896,10.356668000000001,535,1780707510],[123.75888999999999,10.356744000000001,534,1780707521],[123.75882,10.356806000000001,531,1780707548],[123.75874,10.356866999999999,527,1780707569],[123.75867,10.356935999999999,525,1780707582],[123.75859,10.356996000000001,525,1780707593],[123.75852999999999,10.357075,522,1780707605],[123.75845,10.357144999999999,520,1780707616],[123.75838,10.357225,520,1780707633],[123.75833,10.357324,516,1780707667],[123.75825,10.357374999999999,516,1780707678],[123.75817000000001,10.357417999999999,514,1780707691],[123.75805,10.357481,511,1780707719],[123.75799000000001,10.357552,507,1780707734],[123.75791,10.357612,506,1780707745],[123.75785,10.357692,502,1780707758],[123.75776999999999,10.357754,501,1780707770],[123.75767999999999,10.357806999999999,500,1780707779],[123.7576,10.357873,498,1780707799],[123.75754000000001,10.357957000000001,495,1780707812],[123.75747,10.358033000000001,493,1780707823],[123.7574,10.358105,495,1780707832],[123.75733,10.358174,495,1780707840],[123.75727999999999,10.358250999999999,497,1780707850],[123.75722,10.358335,496,1780707943],[123.75715,10.358413000000001,497,1780707953],[123.75705000000001,10.358454,495,1780707976],[123.75696000000001,10.358461999999999,493,1780707986],[123.75685,10.358472000000001,492,1780707996],[123.75677,10.358533,489,1780708006],[123.75668,10.358582999999999,488,1780708017],[123.75660000000001,10.358637,485,1780708029],[123.75651000000001,10.358692,483,1780708043],[123.75642999999999,10.358739999999999,480,1780708056],[123.75633000000001,10.358752000000001,477,1780708072],[123.75623,10.358772999999999,475,1780708083],[123.75612,10.358791,474,1780708093],[123.75604,10.358836999999999,473,1780708102],[123.75596,10.358881,469,1780708116],[123.75586,10.358879,466,1780708128],[123.75577,10.358883000000001,465,1780708154],[123.75566999999999,10.35886,461,1780708213],[123.75557000000001,10.358832,459,1780708242],[123.75548000000001,10.358781,458,1780708252],[123.75532,10.358813,457,1780708309],[123.75523,10.3588,455,1780708320],[123.75514,10.358769000000001,453,1780708337],[123.75505,10.358708,449,1780708366],[123.75498,10.358651,447,1780708381],[123.75485999999999,10.35863,444,1780708411],[123.75476,10.358637999999999,441,1780708425],[123.75466,10.358642,438,1780708439],[123.75454999999999,10.358642,434,1780708452],[123.75445999999999,10.358639999999999,432,1780708464],[123.75435,10.358654,428,1780708475],[123.75426,10.358681000000001,425,1780708488],[123.75418000000001,10.358727,422,1780708502],[123.75412,10.358806,417,1780708517],[123.75407,10.358890000000001,413,1780708536],[123.75403,10.358978,409,1780708551],[123.75396000000001,10.359040999999999,405,1780708566],[123.75387000000001,10.359018000000001,403,1780708585],[123.75379,10.358953,400,1780708608],[123.75373999999999,10.358874999999999,400,1780708626],[123.75364999999999,10.358923000000001,397,1780708642],[123.75355999999999,10.358893,392,1780708657],[123.75346999999999,10.358867999999999,391,1780708733],[123.75345,10.358765999999999,388,1780708751],[123.75333999999999,10.358681000000001,385,1780708773],[123.75324999999999,10.358656,382,1780708789],[123.75318,10.358599999999999,376,1780708805],[123.75314,10.358510000000001,372,1780708825],[123.75306999999999,10.358458000000001,368,1780708854],[123.753,10.358395,362,1780708883],[123.75292,10.358354,358,1780708912],[123.75282,10.358331,356,1780708934],[123.75273,10.358302999999999,352,1780708947],[123.75263,10.358275000000001,350,1780708958],[123.75252,10.358261000000001,348,1780708969],[123.75242,10.358256000000001,344,1780708983],[123.75235000000001,10.358184,342,1780708997],[123.75230000000001,10.358109000000001,340,1780709010],[123.75216,10.358104000000001,340,1780709033],[123.75206,10.358093,339,1780709044],[123.75216,10.358114,336,1780709071],[123.75219,10.358205999999999,337,1780709099],[123.7522,10.3583,333,1780709114],[123.75224,10.358387,329,1780709126],[123.75228,10.358477000000001,328,1780709138],[123.75228,10.358568,325,1780709160],[123.75218,10.358558,320,1780709210],[123.75207,10.358530999999999,316,1780709233],[123.75197,10.358537999999999,312,1780709253],[123.75187,10.35854,309,1780709282],[123.75178,10.358559,305,1780709298],[123.75172000000001,10.358627,299,1780709451],[123.75163000000001,10.358681000000001,295,1780709468],[123.75153,10.358717,293,1780709479],[123.75144,10.358807000000001,290,1780709494],[123.75153,10.358859000000001,285,1780709513],[123.75153,10.358959,282,1780709546],[123.75147,10.359036,281,1780709563],[123.75139,10.359119,278,1780709579],[123.75138,10.359245,275,1780709602],[123.75136000000001,10.359342,271,1780709625],[123.75127000000001,10.359363,269,1780709639],[123.75114000000001,10.359401,264,1780709668],[123.75109999999999,10.359489,261,1780709686],[123.75109,10.359589,259,1780709700],[123.75104,10.359667999999999,257,1780709713],[123.75095,10.359718000000001,255,1780709723],[123.75084,10.35974,255,1780709732],[123.75081,10.359617999999999,252,1780709766],[123.75082,10.359505,252,1780709776],[123.7508,10.359403,253,1780709785],[123.75077,10.359315,253,1780709793],[123.75069999999999,10.359234000000001,253,1780709803],[123.75064999999999,10.359145,252,1780709813],[123.75057,10.359075000000001,250,1780709823],[123.7505,10.359009,248,1780709833],[123.75042999999999,10.358938,247,1780709842],[123.75038000000001,10.358848,246,1780709851],[123.75039,10.358753,245,1780709872],[123.75029000000001,10.358753,244,1780709948],[123.75023,10.358682999999999,244,1780709956],[123.75015999999999,10.358594999999999,243,1780709966],[123.75006999999999,10.358523,242,1780709976],[123.74997999999999,10.358466,244,1780709985],[123.74988,10.358408000000001,243,1780710001],[123.74978,10.358371,241,1780710013],[123.74966999999999,10.358378999999999,238,1780710028],[123.74956,10.358378,235,1780710041],[123.74945,10.358370000000001,229,1780710059],[123.74936,10.358371999999999,229,1780710069],[123.74929,10.358286,229,1780710131],[123.74921000000001,10.358224,228,1780710144],[123.74912999999999,10.358153,228,1780710152],[123.74912999999999,10.358062,229,1780710161]]]}}]}
