{"type":"FeatureCollection","features":[{"type":"Feature","id":"3721981f-2ab0-49c0-aab2-7205ce5e7630","properties":{"id":"3721981f-2ab0-49c0-aab2-7205ce5e7630","updated_date":"2026-06-25T13:43:14Z","time_created":"2026-05-14T22:32:59Z","last_updated_on_server":"2026-06-25T13:43:14.835365","db_insert_date":"2026-06-25T13:43:14Z","deleted":false,"title":"Ylaya, Camp 8, Minglanilla (Segment of MTR 2026) - Wikiloc","public":false,"color":"#7AD915","hexcolor":"#7AD915","is_active":true,"revision":1782394994,"notes":"Location: Ylaya, Camp 8, Minglanilla \n \nTrail difficulty: Beginner \nTotal hike time: 2\u20133 hrs (pace dependent) \nEstimated distance: ~6 km (return to jump-off point) \n \nTrail feel: Mostly steady uphill at the start, followed by a more relaxed middle section and a long downhill return. Almost the entire trail is exposed to the sun, with very few shaded areas. \n \nMotorcycle parking: Along the road \nParking fee: None \nRoad access to jump-off: Paved \n \nMobile signal: Strong to weak \nWeather during hike: Sunny morning \n \nEncountered hikers: None \nAnimals on trail: Yes, a lot \n \n\u26a0\ufe0f Notes: \n \n1. This is a small segment of the larger Minglanilla Trail Run 2026 route. \n2. These are farmland trails, so the area is not isolated. \n \nTrail recorded for documentation and reference only. \nPlease respect locals, the trail, and bring your trash out. \n \n#solohiking #silenthike #cebuhiking","track_type":"track","routing_mode":null,"uploaded_gpx_to_osm":null,"flag":null,"source":null,"cover_photo_id":null,"distance":6052.7033137327362,"total_ascent":219.54349999999999,"total_descent":222.93866666666668,"stopped_time":1520,"total_time":12101,"average_speed":0.5001820769963421,"moving_time":10581,"moving_speed":0.57203509249907725,"activities":[],"imported":true,"folder":"ce1d705a-0347-4fc5-b5ba-594cd68929e2","privacy_level":null,"sync_to_mobile":null,"preferred_link":"/public/zIU4eYEuHyPh1ytm09L4TdRE","favorite_count":0,"comment_count":0,"comments":[],"user_photo_count":0,"latitude":10.305308658679017,"longitude":123.75273693996878,"writable":false},"style":{"stroke":"#7AD915"},"geometry":{"type":"MultiLineString","coordinates":[[[123.75218,10.31019,312.06599999999997,1778797979],[123.75230999999999,10.310256000000001,311.72899999999998,1778798014],[123.75239000000001,10.310319,311.32100000000003,1778798022],[123.75248000000001,10.310373999999999,310.80900000000003,1778798030],[123.75256,10.310420000000001,310.76799999999997,1778798039],[123.75265,10.310451,310.78199999999998,1778798048],[123.75275000000001,10.310502,310.51999999999998,1778798056],[123.75282,10.310568,310.18900000000002,1778798064],[123.75292,10.310589,310.01499999999999,1778798073],[123.75302000000001,10.310619000000001,309.88900000000001,1778798082],[123.75311000000001,10.310654,309.46699999999998,1778798090],[123.75319,10.310674000000001,309.27800000000002,1778798099],[123.75329000000001,10.310715999999999,308.74900000000002,1778798107],[123.75338000000001,10.31073,308.91699999999997,1778798115],[123.75348,10.31077,309.18700000000001,1778798124],[123.75358,10.310786999999999,309.61500000000001,1778798133],[123.75367,10.310840000000001,309.40899999999999,1778798141],[123.75377,10.310888,310.29300000000001,1778798150],[123.75385,10.31094,310.77699999999999,1778798158],[123.75393,10.310999000000001,311.15499999999997,1778798167],[123.75402,10.310976999999999,311.63400000000001,1778798176],[123.75409999999999,10.310919999999999,312.23000000000002,1778798211],[123.75418999999999,10.310898,312.86399999999998,1778798232],[123.75426,10.310813,313.88200000000001,1778798245],[123.75433,10.310743,316.09300000000002,1778798253],[123.7544,10.310665,318.51400000000001,1778798262],[123.75444,10.310572000000001,321.54300000000001,1778798270],[123.75449999999999,10.310499999999999,324.06400000000002,1778798283],[123.75458999999999,10.310437,326.41000000000003,1778798291],[123.75467999999999,10.310378,328.80900000000003,1778798301],[123.75478,10.310321999999999,331.31599999999997,1778798312],[123.75485999999999,10.310263000000001,333.86000000000001,1778798321],[123.75493,10.310199000000001,336.58800000000002,1778798329],[123.75502,10.310154000000001,338.75700000000001,1778798354],[123.75509,10.310095,340.94299999999998,1778798362],[123.75512000000001,10.310009000000001,343.83699999999999,1778798371],[123.75521000000001,10.309929,346.71499999999997,1778798383],[123.75530999999999,10.30993,346.79599999999999,1778798392],[123.75541,10.30983,349.74700000000001,1778798439],[123.75533,10.309903,347.54300000000001,1778798447],[123.75539000000001,10.310053,342.86399999999998,1778798492],[123.75535000000001,10.310138,340.00999999999999,1778798502],[123.75525,10.310233,336.60899999999998,1778798516],[123.75521000000001,10.31033,333.38600000000002,1778798534],[123.75526000000001,10.310457,329.35000000000002,1778798557],[123.75539999999999,10.310487999999999,328.91800000000001,1778798574],[123.7555,10.310480999999999,329.68700000000001,1778798585],[123.7556,10.310478,330.28300000000002,1778798596],[123.7557,10.310473999999999,330.78699999999998,1778798606],[123.75579999999999,10.310485,330.96499999999997,1778798618],[123.7559,10.310483,332.06599999999997,1778798630],[123.756,10.310494,333.09699999999998,1778798640],[123.7561,10.310508,333.96499999999997,1778798650],[123.75619,10.310542,334.06799999999998,1778798659],[123.75632,10.310619000000001,333.01400000000001,1778798781],[123.7564,10.310674000000001,332.10899999999998,1778798791],[123.75649,10.310701999999999,332.12799999999999,1778798809],[123.75658,10.310731000000001,332.012,1778798924],[123.75668,10.31077,331.52999999999997,1778798937],[123.75677,10.310798999999999,330.67899999999997,1778798953],[123.75685,10.310852000000001,329.745,1778798964],[123.75693,10.310912,330.65899999999999,1778798975],[123.75704,10.310924999999999,331.18700000000001,1778798995],[123.75713,10.310964,332.048,1778799016],[123.75722,10.310999000000001,332.82900000000001,1778799025],[123.75731,10.311049000000001,333.995,1778799085],[123.7574,10.311081,334.74900000000002,1778799094],[123.75749999999999,10.311114,335.72300000000001,1778799106],[123.75758,10.311176,338.40899999999999,1778799118],[123.75767999999999,10.311209,341.08100000000002,1778799133],[123.75776999999999,10.311216999999999,342.995,1778799144],[123.75787,10.311209,344.85300000000001,1778799157],[123.75798,10.311211,347.04199999999997,1778799169],[123.75807,10.311204,348.87799999999999,1778799264],[123.75821999999999,10.311164,351.43200000000002,1778799283],[123.75834999999999,10.311159,354.27999999999997,1778799358],[123.75846,10.311094000000001,356.33100000000002,1778799555],[123.75856,10.311090999999999,358.822,1778799568],[123.75867,10.311106000000001,361.66500000000002,1778799613],[123.75877,10.311078,363.86799999999999,1778799623],[123.75888,10.311095999999999,366.714,1778799634],[123.75896,10.311057,368.209,1778799646],[123.75906000000001,10.311007,369.99799999999999,1778799663],[123.75915000000001,10.311021,372.33199999999999,1778799673],[123.75924999999999,10.311037000000001,376.64999999999998,1778799686],[123.75937999999999,10.310981999999999,381.529,1778799702],[123.75948,10.310954000000001,385.65499999999997,1778799731],[123.75955999999999,10.3109,388.68900000000002,1778799750],[123.75966,10.310871000000001,392.99700000000001,1778799760],[123.75976,10.310836,397.19799999999998,1778799786],[123.75981,10.310763,403.03899999999999,1778799797],[123.75986,10.31067,410.14800000000002,1778799849],[123.75991,10.310795000000001,405.96100000000001,1778799886],[123.75991,10.310701,410.71699999999998,1778799913],[123.7599,10.310608,415.10899999999998,1778799926],[123.75997,10.310551,421.24599999999998,1778799959],[123.76006,10.310514,427.95999999999998,1778800024],[123.76009000000001,10.31039,435.83800000000002,1778800071],[123.76012,10.310302,441.78699999999998,1778800084],[123.76014000000001,10.310212,447.07299999999998,1778800099],[123.76011,10.310321,440.27699999999999,1778800176],[123.76014000000001,10.310226999999999,446.375,1778800197],[123.76016,10.310135000000001,451.71600000000001,1778800266],[123.76007,10.310085000000001,449.98700000000002,1778800300],[123.76003,10.309984,453.12700000000001,1778800318],[123.76000000000001,10.309846,458.86799999999999,1778800335],[123.76000999999999,10.309749,464.11399999999998,1778800363],[123.7599,10.309696000000001,462.209,1778800770],[123.75982,10.309642999999999,461.69400000000002,1778800781],[123.75977,10.309561,463.96800000000002,1778800809],[123.75971,10.309493,465.226,1778800826],[123.75969000000001,10.309400999999999,469.315,1778800840],[123.75946999999999,10.309229,470.46100000000001,1778801080],[123.7594,10.309161,471.745,1778801127],[123.75933000000001,10.309098000000001,472.06299999999999,1778801144],[123.75926,10.309032,472.88400000000001,1778801155],[123.75918,10.308961,473.51499999999999,1778801176],[123.75912,10.308885,475.589,1778801252],[123.75906000000001,10.308805,477.70600000000002,1778801266],[123.75905,10.308706000000001,482.226,1778801280],[123.75897000000001,10.308647000000001,482.709,1778801297],[123.75888,10.308629,480.94999999999999,1778801350],[123.75879,10.308590000000001,480.03399999999999,1778801363],[123.75870999999999,10.308475,483.15199999999999,1778801403],[123.75881,10.308357000000001,491.78100000000001,1778801489],[123.75884000000001,10.308268999999999,495.387,1778801592],[123.75879999999999,10.308178,496.161,1778801608],[123.7589,10.308184000000001,499.09899999999999,1778801654],[123.759,10.308194,501.97000000000003,1778801764],[123.75909,10.308187,504.81099999999998,1778801781],[123.75923,10.308211,507.69499999999999,1778801952],[123.75932,10.308242,508.54899999999998,1778801962],[123.75941,10.308297,509.423,1778802048],[123.75954,10.308325999999999,511.709,1778802098],[123.75964,10.308318999999999,513.71100000000001,1778802252],[123.75973999999999,10.308313999999999,515.755,1778802265],[123.75984,10.308318999999999,517.76300000000003,1778802278],[123.75982999999999,10.308411,514.77200000000005,1778802300],[123.75989,10.308529,511.83800000000002,1778802332],[123.75998,10.308529999999999,513.99199999999996,1778802411],[123.76007,10.308559000000001,514.58000000000004,1778802492],[123.76017,10.308548,516.351,1778802509],[123.76026,10.308515999999999,518.452,1778802524],[123.76036000000001,10.308491,520.48699999999997,1778802554],[123.76038,10.308577,518.74199999999996,1778802575],[123.76042,10.308669999999999,517.32600000000002,1778802593],[123.76051,10.308693,518.50900000000001,1778802606],[123.76061,10.308591,522.07000000000005,1778802724],[123.76062,10.3085,523.654,1778802753],[123.76057,10.308412000000001,524.46199999999999,1778802865],[123.76067999999999,10.308327,526.68100000000004,1778802889],[123.76076999999999,10.308235,526.21699999999998,1778802954],[123.76073,10.308145,524.721,1778802972],[123.76083,10.308119,525.16899999999998,1778803003],[123.76085,10.308026,524.05999999999995,1778803064],[123.76079,10.307950999999999,522.69100000000003,1778803074],[123.76073,10.307865,521.024,1778803086],[123.76064,10.307795,519.404,1778803096],[123.76057,10.307726000000001,518.01400000000001,1778803106],[123.76047,10.307682,516.70899999999995,1778803116],[123.76038,10.307641,515.55399999999997,1778803125],[123.76029,10.307607000000001,514.47799999999995,1778803134],[123.76018999999999,10.307572,513.39599999999996,1778803143],[123.76013,10.307498000000001,511.82499999999999,1778803152],[123.76009000000001,10.307408000000001,507.51100000000002,1778803161],[123.75999,10.307356,504.45499999999998,1778803171],[123.75988,10.307319,504.423,1778803181],[123.75978000000001,10.307278,504.12400000000002,1778803191],[123.75969000000001,10.307214,502.755,1778803202],[123.75959,10.307168000000001,502.464,1778803211],[123.7595,10.307107,501.50599999999997,1778803222],[123.75942999999999,10.307048,500.31599999999997,1778803231],[123.75933000000001,10.306988,499.80900000000003,1778803242],[123.75924999999999,10.306951,500.08800000000002,1778803263],[123.75918,10.306882999999999,498.88200000000001,1778803271],[123.75911000000001,10.306813999999999,497.51999999999998,1778803280],[123.75904,10.306742,496.839,1778803296],[123.75893000000001,10.306645,497.08499999999998,1778803395],[123.75884000000001,10.306524,495.19900000000001,1778803412],[123.75879,10.306445,493.67700000000002,1778803421],[123.75870999999999,10.306381,493.68799999999999,1778803464],[123.75865,10.306311000000001,492.88900000000001,1778803475],[123.75857999999999,10.306236,492.19200000000001,1778803484],[123.75848999999999,10.306163,492.173,1778803495],[123.75839000000001,10.306112000000001,493.31999999999999,1778803506],[123.75828,10.306120999999999,496.40899999999999,1778803543],[123.75818,10.306111,498.02100000000002,1778803554],[123.75807,10.306113,500.28500000000003,1778803564],[123.75798,10.306036000000001,500.65300000000002,1778803575],[123.75792,10.305961,500.88200000000001,1778803584],[123.75785999999999,10.305892,501.68799999999999,1778803592],[123.7578,10.305814,502.142,1778803601],[123.75776999999999,10.305709,498.97000000000003,1778803611],[123.75771,10.305619999999999,497.43099999999998,1778803623],[123.75766,10.305536999999999,495.88200000000001,1778803694],[123.7576,10.305460999999999,495.07299999999998,1778803703],[123.75752,10.305383000000001,495.08499999999998,1778803714],[123.75745000000001,10.305307000000001,493.91300000000001,1778803725],[123.75738,10.305242,493.209,1778803769],[123.75734,10.305145,491.23899999999998,1778803884],[123.75727999999999,10.305054999999999,490.553,1778803894],[123.7572,10.304981,491.36099999999999,1778803903],[123.75713,10.304930000000001,492.79000000000002,1778803915],[123.75703,10.304907999999999,496.08600000000001,1778803925],[123.75696000000001,10.304842000000001,497.57999999999998,1778803935],[123.7569,10.304774999999999,498.78800000000001,1778803944],[123.75684,10.304701,500.09899999999999,1778803953],[123.75678000000001,10.30462,501.43000000000001,1778803962],[123.75671,10.304539,503.47699999999998,1778803973],[123.75664999999999,10.304449,504.56099999999998,1778803983],[123.75662,10.304328,503.42700000000002,1778804104],[123.75657,10.304256000000001,503.10899999999998,1778804379],[123.75653,10.304157,502.649,1778804390],[123.75651000000001,10.304062,501.09300000000002,1778804401],[123.7565,10.303966000000001,499.32100000000003,1778804412],[123.75649,10.303865,497.58999999999997,1778804536],[123.75649,10.303663999999999,493.62599999999998,1778804556],[123.7565,10.303558000000001,491.49000000000001,1778804565],[123.75645,10.303466,490.78800000000001,1778804590],[123.75637999999999,10.303391,490.99900000000002,1778804601],[123.75631,10.303318000000001,491.02999999999997,1778804653],[123.75622,10.303288999999999,492.22500000000002,1778804765],[123.75612,10.303238,493.12599999999998,1778804776],[123.75603,10.303188,493.90800000000002,1778804786],[123.75594,10.303146999999999,495.10899999999998,1778804796],[123.75585,10.303082,495.92399999999998,1778804807],[123.75577,10.303022,496.16800000000001,1778804817],[123.75569,10.302963,496.67599999999999,1778804827],[123.75561,10.302887999999999,497.13499999999999,1778804837],[123.75555,10.302809999999999,497.44099999999997,1778804846],[123.7555,10.302716999999999,497.42500000000001,1778804855],[123.75546,10.302628,497.57299999999998,1778804863],[123.75545,10.302528000000001,496.54399999999998,1778804871],[123.75543,10.302434999999999,497.17500000000001,1778804879],[123.75539999999999,10.302348,498.42399999999998,1778804888],[123.75537,10.302263,499.60399999999998,1778804897],[123.75533,10.302171,501.01400000000001,1778804908],[123.75527,10.302085,502.90899999999999,1778804918],[123.75518,10.302033,505.68400000000003,1778804927],[123.7551,10.301989000000001,507.95800000000003,1778804936],[123.755,10.301952999999999,510.76600000000002,1778804946],[123.75489,10.301920000000001,510.36500000000001,1778804956],[123.75479,10.301895999999999,509.971,1778804965],[123.7547,10.301841,509.39499999999998,1778804974],[123.75467999999999,10.301705999999999,508.57299999999998,1778804988],[123.75467,10.301608999999999,508.06400000000002,1778805000],[123.75467,10.301505000000001,507.67500000000001,1778805012],[123.75465,10.301408,507.33300000000003,1778805021],[123.75466,10.301303000000001,506.923,1778805032],[123.75463999999999,10.301212,506.71499999999997,1778805044],[123.75462,10.301114,506.50900000000001,1778805063],[123.75458,10.301024,506.54500000000002,1778805090],[123.75454999999999,10.300936,506.51900000000001,1778805106],[123.75445000000001,10.300891999999999,507.327,1778805116],[123.75434,10.300858,508.39600000000002,1778805125],[123.75425,10.300848,509.29199999999997,1778805133],[123.75415,10.300827999999999,509.82600000000002,1778805141],[123.75405000000001,10.300789,508.76400000000001,1778805151],[123.75396000000001,10.300729,507.47500000000002,1778805164],[123.75391999999999,10.300636000000001,506.29599999999999,1778805178],[123.7539,10.30053,505.15100000000001,1778805194],[123.75384,10.300447999999999,503.80099999999999,1778805202],[123.75377,10.300385,502.411,1778805210],[123.75369000000001,10.300336,501.10899999999998,1778805220],[123.75359,10.30031,499.78699999999998,1778805249],[123.75348,10.300274999999999,498.06099999999998,1778805261],[123.75338000000001,10.300284,496.91899999999998,1778805273],[123.75328,10.300297,497.488,1778805282],[123.75318,10.300316,499.13400000000001,1778805292],[123.75306999999999,10.300331999999999,501.06799999999998,1778805303],[123.75301,10.300247000000001,500.93599999999998,1778805313],[123.75296,10.30017,500.637,1778805324],[123.75292,10.300083000000001,500.09800000000001,1778805333],[123.75284000000001,10.300050000000001,500.892,1778805346],[123.75274,10.30003,502.07299999999998,1778805357],[123.75264,10.30001,503.12,1778805368],[123.75254,10.299998,504.40899999999999,1778805377],[123.75245,10.299951999999999,505.14100000000002,1778805388],[123.75241,10.299851,505.13499999999999,1778805398],[123.75237,10.299754999999999,505.07299999999998,1778805407],[123.75229,10.299697999999999,505.19200000000001,1778805417],[123.75219,10.299647,505.21800000000002,1778805427],[123.75211,10.299583,505.22199999999998,1778805437],[123.75203999999999,10.299512999999999,505.19,1778805445],[123.75198,10.299435000000001,504.93099999999998,1778805453],[123.75191,10.299362,504.79199999999997,1778805463],[123.75182,10.299319000000001,504.69600000000003,1778805473],[123.75172000000001,10.299301,504.63099999999997,1778805482],[123.75162,10.299276000000001,504.024,1778805494],[123.75154999999999,10.299206999999999,503.00900000000001,1778805505],[123.75153,10.299109,502.02100000000002,1778805517],[123.75153,10.29871,497.54500000000002,1778805560],[123.75154000000001,10.298610999999999,496.45299999999997,1778805570],[123.75153,10.298503999999999,495.12200000000001,1778805605],[123.75149,10.298412000000001,494.16800000000001,1778805615],[123.75141000000001,10.298349,493.54199999999997,1778805625],[123.75133,10.298289,491.86000000000001,1778805641],[123.75126,10.298211,489.15100000000001,1778805651],[123.75118999999999,10.298136,486.892,1778805660],[123.75109,10.298113000000001,486.57400000000001,1778805668],[123.75098,10.298126999999999,487.45600000000002,1778805677],[123.75088,10.298138,488.221,1778805689],[123.75078999999999,10.298159999999999,488.30900000000003,1778805699],[123.75069999999999,10.298209999999999,488.34899999999999,1778805708],[123.75060000000001,10.298211,486.85300000000001,1778805719],[123.7505,10.298214,485.39100000000002,1778805730],[123.7504,10.298197,483.22000000000003,1778805743],[123.75032,10.298145,480.65600000000001,1778805756],[123.75023,10.298098,478.13,1778805770],[123.75005,10.298090999999999,475.21800000000002,1778805857],[123.74995,10.298076,474.13900000000001,1778805866],[123.74985,10.298081,474.26999999999998,1778805876],[123.74975999999999,10.298050999999999,473.53500000000003,1778805885],[123.74965,10.298035,473.08600000000001,1778805894],[123.74956,10.298019,472.61399999999998,1778805903],[123.74946,10.297980000000001,471.50900000000001,1778805912],[123.74937,10.297948,470.66500000000002,1778805920],[123.74927,10.297922,469.899,1778805928],[123.74918,10.297891999999999,468.81700000000001,1778805938],[123.74908000000001,10.297864000000001,467.89600000000002,1778805949],[123.74898,10.297838,466.78199999999998,1778805960],[123.74888,10.297825,466.18599999999998,1778805971],[123.74879,10.297829999999999,465.92399999999998,1778805980],[123.74869,10.297862,466.45499999999998,1778805998],[123.7486,10.29795,468.35599999999999,1778806030],[123.74854000000001,10.298035,470.18599999999998,1778806039],[123.74849,10.298128999999999,472.16000000000003,1778806050],[123.74842,10.298218,473.82600000000002,1778806060],[123.74836999999999,10.298298000000001,475.40899999999999,1778806070],[123.74831,10.298375,476.12,1778806080],[123.74822,10.298404,475.47399999999999,1778806091],[123.74812,10.298410000000001,474.35199999999998,1778806102],[123.74802,10.298394,473.03100000000001,1778806112],[123.74791999999999,10.298380999999999,471.77699999999999,1778806122],[123.74782,10.29834,469.971,1778806269],[123.74773,10.298303000000001,467.72899999999998,1778806291],[123.74763,10.298337999999999,467.63999999999999,1778806300],[123.74754,10.298373,467.27100000000002,1778806309],[123.74742999999999,10.298401999999999,465.99400000000003,1778806319],[123.74733000000001,10.29843,464.65699999999998,1778806327],[123.74723,10.298443000000001,463.12200000000001,1778806336],[123.74714,10.298476000000001,462.30900000000003,1778806346],[123.74706,10.298534,462.45100000000002,1778806377],[123.74697999999999,10.298603999999999,463.125,1778806387],[123.7469,10.298654000000001,463.45299999999997,1778806395],[123.74679999999999,10.298702,463.66199999999998,1778806405],[123.74672,10.298759,464.41800000000001,1778806415],[123.74663,10.298814,465.62200000000001,1778806426],[123.74655,10.298871999999999,467.17000000000002,1778806434],[123.7465,10.298947999999999,469.24099999999999,1778806448],[123.7465,10.299045,472.28199999999998,1778806458],[123.74647,10.299137,474.74400000000003,1778806468],[123.74644000000001,10.299231000000001,476.40499999999997,1778806489],[123.74637,10.299295000000001,476.61500000000001,1778806514],[123.74627,10.299340000000001,476.209,1778806525],[123.74618,10.299375,475.726,1778806535],[123.746,10.299465,475.02999999999997,1778806555],[123.74592,10.299542000000001,475.32799999999997,1778806565],[123.74585,10.299612,475.75700000000001,1778806574],[123.74576999999999,10.299666999999999,475.673,1778806582],[123.74567999999999,10.299723999999999,475.54700000000003,1778806592],[123.74559000000001,10.299776,475.46499999999997,1778806604],[123.74553,10.299856,476.11599999999999,1778806612],[123.74550000000001,10.299963,477.73700000000002,1778806622],[123.74544,10.300048,478.46899999999999,1778806632],[123.74538,10.300134999999999,479.00400000000002,1778806642],[123.74533,10.300219999999999,480.024,1778806804],[123.74525,10.300298,480.90899999999999,1778806817],[123.74511,10.300336,481.358,1778806859],[123.74502,10.300376999999999,482.18200000000002,1778806869],[123.74493,10.300432000000001,483.79000000000002,1778806884],[123.74487000000001,10.300513,486.03899999999999,1778806894],[123.74485,10.300621,488.61500000000001,1778806904],[123.74486,10.300724000000001,490.959,1778806914],[123.74487999999999,10.30082,493.137,1778806924],[123.74487000000001,10.300924999999999,493.72800000000001,1778806933],[123.74489,10.301026,494.06900000000002,1778806943],[123.74497,10.301083,494.46699999999998,1778806955],[123.74506,10.301130000000001,493.88099999999997,1778806971],[123.74515,10.301188,492.51900000000001,1778806980],[123.74529,10.301166,490.10899999999998,1778806997],[123.74539,10.301155,488.44799999999998,1778807008],[123.74545999999999,10.301209,487.16199999999998,1778807018],[123.74550000000001,10.301302,486.04000000000002,1778807028],[123.74557,10.301373,484.399,1778807039],[123.74565,10.301430999999999,482.38499999999999,1778807049],[123.74574,10.301446,480.23899999999998,1778807060],[123.74584,10.301451999999999,477.91699999999997,1778807074],[123.74593,10.301442,475.91800000000001,1778807107],[123.74587,10.301565,476.09899999999999,1778807351],[123.74584,10.301652000000001,475.96300000000002,1778807376],[123.74592,10.301878,472.44400000000002,1778807470],[123.74598,10.301961,470.31799999999998,1778807483],[123.74603999999999,10.302032000000001,468.30900000000003,1778807493],[123.7461,10.302108,466.22800000000001,1778807503],[123.74615,10.302196,464.43200000000002,1778807513],[123.7462,10.302293000000001,462.76999999999998,1778807524],[123.74624,10.302381,461.25900000000001,1778807543],[123.74627,10.302474999999999,460.09500000000003,1778807561],[123.74630000000001,10.302567,457.22899999999998,1778807573],[123.74633,10.302659999999999,453.87700000000001,1778807647],[123.74633,10.302752999999999,451.32799999999997,1778807696],[123.74634,10.302847999999999,448.529,1778807804],[123.74634,10.302951,445.779,1778807817],[123.74638,10.303048,443.10500000000002,1778807828],[123.74643,10.303132,441.22500000000002,1778807840],[123.74647,10.303229,439.30900000000003,1778807849],[123.74653000000001,10.303314,438.41899999999998,1778807859],[123.74659,10.303400999999999,437.66300000000001,1778807868],[123.74663,10.303483999999999,436.76100000000002,1778807878],[123.74666999999999,10.303573,435.62,1778807886],[123.74670999999999,10.303654999999999,433.13600000000002,1778807895],[123.74674,10.303747,430.76999999999998,1778807908],[123.74675999999999,10.303848,428.33800000000002,1778807920],[123.74677,10.303945000000001,426.41899999999998,1778807931],[123.74679999999999,10.304048,423.81999999999999,1778807960],[123.7467,10.304028000000001,426.68299999999999,1778807982],[123.74661,10.304017,426.32499999999999,1778807996],[123.74654,10.304081999999999,423.31700000000001,1778808014],[123.74644000000001,10.304087000000001,420.709,1778808029],[123.74637,10.304163000000001,417.37,1778808043],[123.74632,10.304257,413.34399999999999,1778808075],[123.74630999999999,10.304359,410.05200000000002,1778808105],[123.74627,10.304456999999999,405.95100000000002,1778808126],[123.74621999999999,10.30456,401.24700000000001,1778808149],[123.7462,10.304658999999999,397.44099999999997,1778808423],[123.74615,10.304738,393.16899999999998,1778808439],[123.74607,10.304822,387.29000000000002,1778808465],[123.74599000000001,10.304881999999999,381.92099999999999,1778808480],[123.74594,10.304975000000001,376.596,1778808498],[123.74590999999999,10.305116,371.13099999999997,1778808615],[123.74599000000001,10.305232,370.92399999999998,1778808833],[123.74596,10.305323,367.10899999999998,1778808857],[123.74590000000001,10.305396999999999,362.94099999999997,1778808883],[123.74590999999999,10.305531999999999,359.46499999999997,1778808920],[123.74588,10.305619999999999,356.14299999999997,1778808944],[123.74584,10.305704,352.61200000000002,1778808969],[123.74575,10.305714,349.51799999999997,1778809018],[123.74566,10.305657999999999,348.23200000000003,1778809031],[123.74557,10.305654000000001,345.58999999999997,1778809042],[123.74545000000001,10.30566,341.61099999999999,1778809061],[123.74524,10.30574,332.29199999999997,1778809119],[123.74515,10.305737000000001,329.41399999999999,1778809141],[123.74511,10.305828,324.95400000000001,1778809162],[123.74523000000001,10.305918,326.209,1778809263],[123.74532000000001,10.305959,327.709,1778809273],[123.74542,10.306013,329.113,1778809281],[123.74552,10.306043000000001,331.15699999999998,1778809297],[123.74562,10.306103,331.82499999999999,1778809306],[123.74571,10.306145000000001,332.86399999999998,1778809314],[123.74581000000001,10.306172,334.52999999999997,1778809323],[123.74589,10.306226000000001,334.36399999999998,1778809331],[123.74598,10.306279999999999,334.392,1778809339],[123.74607,10.306330000000001,334.37299999999999,1778809347],[123.74616,10.306384,334.11399999999998,1778809356],[123.74625,10.306426999999999,334.41699999999997,1778809364],[123.74635000000001,10.306452999999999,335.58699999999999,1778809372],[123.74644000000001,10.306480000000001,336.41500000000002,1778809380],[123.74654,10.306523,336.709,1778809389],[123.74665,10.306571,337.08300000000003,1778809398],[123.74674,10.306592,338.52699999999999,1778809406],[123.74684999999999,10.306638,339.59500000000003,1778809415],[123.74695,10.306677000000001,340.78399999999999,1778809424],[123.74703,10.306734000000001,340.63,1778809432],[123.7471,10.306801999999999,339.68400000000003,1778809440],[123.74719,10.306855000000001,339.87200000000001,1778809448],[123.7473,10.306894,341.173,1778809458],[123.74739,10.306940000000001,341.584,1778809466],[123.74748,10.306993,341.666,1778809476],[123.74755999999999,10.307062999999999,339.529,1778809484],[123.74764999999999,10.307124,337.52100000000002,1778809492],[123.74773999999999,10.307188,335.60899999999998,1778809504],[123.74778000000001,10.30729,331.52800000000002,1778809513],[123.7478,10.307387,327.55200000000002,1778809521],[123.74782999999999,10.307492,323.32999999999998,1778809531],[123.74785,10.307594999999999,321.51900000000001,1778809541],[123.74787000000001,10.307712,319.76499999999999,1778809628],[123.74799,10.307816000000001,319.18900000000002,1778809640],[123.74809,10.307855999999999,319.37700000000001,1778809648],[123.74818999999999,10.307824,320.97800000000001,1778809673],[123.7483,10.307918000000001,320.29899999999998,1778809694],[123.74838,10.307978,319.96699999999998,1778809706],[123.74850000000001,10.308009,320.88099999999997,1778809719],[123.74858999999999,10.308043,321.51900000000001,1778809728],[123.74867999999999,10.308085,322.10899999999998,1778809736],[123.74878,10.308111999999999,323.13799999999998,1778809744],[123.74888,10.308156,324.11200000000002,1778809753],[123.74897,10.308210000000001,324.81999999999999,1778809762],[123.74907,10.308256999999999,326.06900000000002,1778809771],[123.74918,10.308301,327.755,1778809781],[123.74927,10.308343000000001,330.13900000000001,1778809789],[123.74936,10.308393000000001,331.947,1778809797],[123.74947,10.308434,334.15800000000002,1778809805],[123.74956,10.308482,335.46899999999999,1778809813],[123.74964,10.308527,336.23700000000002,1778809823],[123.74973,10.308579999999999,336.84899999999999,1778809831],[123.74983,10.308638999999999,337.21300000000002,1778809839],[123.74991,10.308695999999999,336.80900000000003,1778809849],[123.74997999999999,10.308761000000001,335.66500000000002,1778809857],[123.75006,10.308809,333.76900000000001,1778809865],[123.75014,10.308871999999999,330.85700000000003,1778809873],[123.75022,10.308925,328.63600000000002,1778809882],[123.75032,10.308994,326.012,1778809892],[123.7504,10.309048000000001,324.25599999999997,1778809900],[123.75048,10.309101,322.75400000000002,1778809908],[123.75057,10.309161,321.28500000000003,1778809916],[123.75066,10.309222,320.81599999999997,1778809926],[123.75076,10.309279999999999,320.36399999999998,1778809935],[123.75084,10.309339,319.90600000000001,1778809943],[123.75093,10.309386,321.51600000000002,1778809952],[123.75102,10.309438999999999,322.60899999999998,1778809961],[123.75111,10.309499000000001,323.298,1778809969],[123.7512,10.309557,323.47199999999998,1778809978],[123.75129,10.309613000000001,323.25,1778809987],[123.75138,10.309668,322.79899999999998,1778809995],[123.75147,10.309716999999999,322.02499999999998,1778810003],[123.75154000000001,10.309786000000001,319.91899999999998,1778810012],[123.75162,10.309844999999999,318.03699999999998,1778810021],[123.7517,10.309900000000001,315.77800000000002,1778810030],[123.7518,10.309972,312.67899999999997,1778810039],[123.75187,10.310029999999999,311.61500000000001,1778810048],[123.75197,10.310091999999999,311.96499999999997,1778810058],[123.75205,10.310157999999999,312.01100000000002,1778810067],[123.75215,10.310161000000001,312.00900000000001,1778810075],[123.7522,10.310187000000001,312.02300000000002,1778810080]]]}}]}
