{"type":"FeatureCollection","features":[{"type":"Feature","properties":[],"geometry":{"type":"MultiLineString","coordinates":[[[123.83157300000001,10.367754,215.53,0],[123.831571,10.367759,215.59999999999999,0],[123.83193199999999,10.367991,217.37,0],[123.832021,10.368074999999999,217.69999999999999,0],[123.832167,10.368320000000001,219.50999999999999,0],[123.832301,10.368415000000001,218.47999999999999,0],[123.83246699999999,10.368437999999999,215.74000000000001,0],[123.83280000000001,10.368486000000001,213.34,0],[123.833077,10.368518999999999,212.31999999999999,0],[123.83325000000001,10.368477,211.61000000000001,0],[123.833547,10.368352,212.12,0],[123.83370499999999,10.368308000000001,213.08000000000001,0],[123.83389699999999,10.368293,214.90000000000001,0],[123.834084,10.368313000000001,217.43000000000001,0],[123.834233,10.368401,219.99000000000001,0],[123.83442700000001,10.368563999999999,223.99000000000001,0],[123.83452,10.368703,226.63999999999999,0],[123.83475799999999,10.369063000000001,224.44,0],[123.834929,10.369208,223.15000000000001,0],[123.83520799999999,10.369301999999999,223.59999999999999,0],[123.83536700000001,10.369358999999999,224.08000000000001,0],[123.83541,10.369395000000001,224.21000000000001,0],[123.835438,10.369443,224.30000000000001,0],[123.83555,10.369729,225.38,0],[123.835632,10.369823,225.44999999999999,0],[123.835686,10.369854,225.69,0],[123.835746,10.369849,226.43000000000001,0],[123.835876,10.369795,228.55000000000001,0],[123.835988,10.369691,230.83000000000001,0],[123.836078,10.369626999999999,232.22999999999999,0],[123.83619400000001,10.369607999999999,234.06,0],[123.836518,10.369630000000001,238.34999999999999,0],[123.836642,10.369669999999999,239.75,0],[123.836823,10.369752999999999,242.25,0],[123.837018,10.369821,244.81999999999999,0],[123.837166,10.369852,247.84,0],[123.837597,10.369809,253.47999999999999,0],[123.837745,10.369849,254.03,0],[123.838357,10.370112000000001,263.94999999999999,0],[123.839037,10.370435000000001,268.56999999999999,0],[123.839141,10.370431,269.42000000000002,0],[123.83947000000001,10.370336,273.61000000000001,0],[123.83991399999999,10.370232,280.73000000000002,0],[123.84013,10.370203999999999,284.69,0],[123.840423,10.370229,288.48000000000002,0],[123.840785,10.370316000000001,293.83999999999997,0],[123.840897,10.370359000000001,294.99000000000001,0],[123.84112,10.370564999999999,293.74000000000001,0],[123.84167100000001,10.370863,296.69,0],[123.84174899999999,10.370915999999999,297.38,0],[123.841813,10.371005,297.94999999999999,0],[123.84194100000001,10.371217,299.47000000000003,0],[123.84203599999999,10.37134,300.85000000000002,0],[123.842309,10.371506999999999,304.32999999999998,0],[123.842583,10.371672999999999,305.60000000000002,0],[123.84273,10.371712,306.13999999999999,0],[123.842904,10.371717,306.75,0],[123.843509,10.371619000000001,313.45999999999998,0],[123.844078,10.371556999999999,318.00999999999999,0],[123.84413600000001,10.371568999999999,318.33999999999997,0],[123.844238,10.371619000000001,318.58999999999997,0],[123.844499,10.371772999999999,322.10000000000002,0],[123.84468200000001,10.371871000000001,326.73000000000002,0],[123.84489000000001,10.371967,331.5,0],[123.845097,10.372064,334.24000000000001,0],[123.845319,10.37222,334.91000000000003,0],[123.84571699999999,10.372498999999999,340.87,0],[123.84598200000001,10.372648999999999,346.80000000000001,0],[123.846262,10.372845,351.63999999999999,0],[123.84642700000001,10.372978,353.25,0],[123.84656200000001,10.373135,354.14999999999998,0],[123.846919,10.373495,358.57999999999998,0],[123.847075,10.373613000000001,360.81,0],[123.847229,10.373699999999999,363.95999999999998,0],[123.847357,10.373735999999999,366.93000000000001,0],[123.847672,10.373792,373.58999999999997,0],[123.84795699999999,10.373962000000001,377.72000000000003,0],[123.84805,10.373998,378.69999999999999,0],[123.848353,10.373965999999999,385.36000000000001,0],[123.848754,10.374022,393.26999999999998,0],[123.848992,10.374052000000001,396.44999999999999,0],[123.84916,10.374115,397.29000000000002,0],[123.849279,10.374150999999999,398.64999999999998,0],[123.849408,10.374154000000001,401.52999999999997,0],[123.849577,10.374131,405.08999999999997,0],[123.84989299999999,10.3741,409.56,0],[123.849985,10.3741,410.89999999999998,0],[123.850044,10.374109000000001,411.73000000000002,0],[123.850087,10.374138,411.76999999999998,0],[123.850436,10.374487,416.69999999999999,0],[123.850533,10.374565,418.23000000000002,0],[123.850599,10.374609,419.08999999999997,0],[123.850691,10.374646,420.69999999999999,0],[123.850848,10.374644999999999,423.69,0],[123.851101,10.374568999999999,427.91000000000003,0],[123.851176,10.374559,429.18000000000001,0],[123.85124500000001,10.374574000000001,429.86000000000001,0],[123.851365,10.374618,430.66000000000003,0],[123.85174000000001,10.374791,434.99000000000001,0],[123.851995,10.374953,439.60000000000002,0],[123.852114,10.375045,441.08999999999997,0],[123.85214000000001,10.375090999999999,441.13999999999999,0],[123.852152,10.375216999999999,441.02999999999997,0],[123.85213899999999,10.375337,441.45999999999998,0],[123.852148,10.375424000000001,442.30000000000001,0],[123.85217400000001,10.375453,442.69999999999999,0]]]}}]}
