{"type":"FeatureCollection","features":[{"type":"Feature","properties":[],"geometry":{"type":"MultiLineString","coordinates":[[[123.62782199999999,10.066005000000001,19.739999999999998,0],[123.62697300000001,10.066174,19.890000000000001,0],[123.625547,10.066489000000001,21.920000000000002,0],[123.62526,10.066579000000001,23.239999999999998,0],[123.62508200000001,10.066648000000001,24.739999999999998,0],[123.62425500000001,10.066998,26.09,0],[123.62373100000001,10.067199,29.710000000000001,0],[123.623367,10.067359,32.359999999999999,0],[123.62325199999999,10.067417000000001,32.990000000000002,0],[123.622827,10.067788,33.100000000000001,0],[123.622716,10.067893,33.149999999999999,0],[123.622383,10.068130999999999,34.100000000000001,0],[123.62220499999999,10.06826,32.549999999999997,0],[123.622119,10.068311,31.739999999999998,0],[123.622027,10.068338000000001,31.510000000000002,0],[123.62192,10.068337,31.91,0],[123.621512,10.068251999999999,32.899999999999999,0],[123.620991,10.068111999999999,32.869999999999997,0],[123.62087099999999,10.068097,33.299999999999997,0],[123.620767,10.068110000000001,32.899999999999999,0],[123.620434,10.068111999999999,34.140000000000001,0],[123.620324,10.068125999999999,34.43,0],[123.620204,10.068106999999999,34.299999999999997,0],[123.61957700000001,10.067940999999999,32.649999999999999,0],[123.619462,10.067926,32.159999999999997,0],[123.619342,10.067928,32.049999999999997,0],[123.618798,10.067971,32.640000000000001,0],[123.61861500000001,10.067977000000001,32.090000000000003,0],[123.618448,10.067963000000001,32,0],[123.618385,10.067943,32.219999999999999,0],[123.61799600000001,10.067774,35.509999999999998,0],[123.61775,10.067676000000001,38.189999999999998,0],[123.61748900000001,10.067549,38.009999999999998,0],[123.617014,10.067283,38.68,0],[123.61692499999999,10.067261,39.450000000000003,0],[123.616321,10.067265000000001,39.25,0],[123.615938,10.06729,40.990000000000002,0],[123.61582799999999,10.067308000000001,42.140000000000001,0],[123.615599,10.067371,44.020000000000003,0],[123.61536599999999,10.067422000000001,45.789999999999999,0],[123.615139,10.067444,45.960000000000001,0],[123.61499000000001,10.067467000000001,46.060000000000002,0],[123.61478200000001,10.067522,46.219999999999999,0],[123.614603,10.06758,46.350000000000001,0],[123.614418,10.067653999999999,47.170000000000002,0],[123.61385900000001,10.067852999999999,45.939999999999998,0],[123.61369999999999,10.067947,44.539999999999999,0],[123.613527,10.068035999999999,44,0],[123.613338,10.068152,44.969999999999999,0],[123.61318,10.06818,45.450000000000003,0],[123.61308099999999,10.068187,45.509999999999998,0],[123.61260799999999,10.068163,46.350000000000001,0],[123.61198400000001,10.06809,48,0],[123.611525,10.067997999999999,50.469999999999999,0],[123.611272,10.067988,51.700000000000003,0],[123.611177,10.068009,52.119999999999997,0],[123.611082,10.068095,52.68,0],[123.611045,10.068187999999999,52.939999999999998,0],[123.61108,10.068414000000001,53.259999999999998,0],[123.61111099999999,10.06855,53.810000000000002,0],[123.61112799999999,10.068685,54.43,0],[123.611178,10.069286999999999,57.869999999999997,0],[123.611137,10.069599,62.420000000000002,0],[123.611141,10.070004000000001,67.370000000000005,0],[123.61112799999999,10.070114999999999,68.180000000000007,0],[123.611103,10.070201000000001,68.159999999999997,0],[123.611056,10.070316999999999,67.840000000000003,0],[123.61086400000001,10.070736,71.329999999999998,0],[123.610828,10.070843999999999,72.510000000000005,0],[123.61086400000001,10.070736,71.329999999999998,0],[123.610659,10.070904000000001,72.400000000000006,0],[123.610168,10.07127,68.400000000000006,0],[123.610056,10.071268,67.290000000000006,0],[123.609914,10.07123,66.709999999999994,0],[123.60965400000001,10.071237999999999,67.980000000000004,0],[123.60922600000001,10.071011,69.150000000000006,0],[123.609058,10.070892000000001,68.670000000000002,0],[123.608988,10.070781,67.780000000000001,0],[123.60891700000001,10.070613,66.900000000000006,0],[123.60887,10.070473,65.519999999999996,0],[123.608858,10.070392999999999,65.120000000000005,0],[123.608632,10.070498000000001,67.069999999999993,0],[123.608487,10.070698999999999,68.079999999999998,0],[123.608161,10.070846,66.650000000000006,0],[123.608,10.070857999999999,66.359999999999999,0],[123.60777299999999,10.070843,66.019999999999996,0],[123.607612,10.070817,66.829999999999998,0],[123.60737399999999,10.070975000000001,66.090000000000003,0],[123.60718799999999,10.070868000000001,67.459999999999994,0],[123.606999,10.070822,68.760000000000005,0],[123.606891,10.070823000000001,69.930000000000007,0],[123.606798,10.070850999999999,70.140000000000001,0],[123.60673800000001,10.070883,70.120000000000005,0],[123.60656,10.071027000000001,71.200000000000003,0],[123.606381,10.071171,76.25,0],[123.606291,10.071196,79.019999999999996,0],[123.606224,10.071168999999999,80.700000000000003,0],[123.605862,10.070902,85.659999999999997,0],[123.60582100000001,10.070880000000001,86.060000000000002,0],[123.605779,10.070883,86.950000000000003,0],[123.60554,10.070954,93,0],[123.605355,10.071019,97.549999999999997,0],[123.60511200000001,10.071016,98.969999999999999,0],[123.604838,10.070997999999999,101.22,0],[123.60478000000001,10.071007,101.78,0],[123.6045,10.071108000000001,105.91,0],[123.604045,10.071229000000001,109.8,0],[123.603781,10.071345000000001,112.79000000000001,0],[123.60337199999999,10.07156,117.81999999999999,0],[123.60330500000001,10.071631,119.26000000000001,0],[123.60325400000001,10.071721999999999,121.53,0],[123.603149,10.071965000000001,127.2,0],[123.602991,10.072228000000001,132.06,0],[123.602716,10.072577000000001,135.47999999999999,0],[123.602558,10.072668999999999,139.02000000000001,0],[123.602373,10.072721,143.30000000000001,0],[123.602205,10.072759,147.94999999999999,0],[123.60209399999999,10.072834,150.74000000000001,0],[123.60195,10.072984999999999,153.19999999999999,0],[123.601874,10.073014000000001,154.87,0],[123.60167800000001,10.073013,159.09,0],[123.601508,10.072979999999999,163,0],[123.601382,10.072908,167.22,0],[123.601269,10.072763,171.90000000000001,0],[123.60115399999999,10.072589000000001,176.03,0],[123.601057,10.072483999999999,178.05000000000001,0],[123.60089499999999,10.072419999999999,180.33000000000001,0],[123.600703,10.072431999999999,183.06999999999999,0],[123.600567,10.072482000000001,185.55000000000001,0],[123.600331,10.072627000000001,189.31,0],[123.600183,10.072678,192.16999999999999,0],[123.59996,10.07268,196.97,0],[123.59979800000001,10.072616,201.09,0],[123.59965200000001,10.072535,205.46000000000001,0],[123.599532,10.072502,207.84999999999999,0],[123.59946100000001,10.072498,208.81999999999999,0],[123.59932999999999,10.072511,209.94,0],[123.59892499999999,10.072722000000001,213.36000000000001,0],[123.59880800000001,10.072801,214.19999999999999,0],[123.59875599999999,10.072882999999999,213.71000000000001,0],[123.598663,10.072957000000001,214.55000000000001,0],[123.5984,10.073126,217.66999999999999,0],[123.59832,10.073162,218.91,0],[123.598176,10.073191,220.30000000000001,0],[123.59801,10.073187000000001,221.63999999999999,0],[123.59774400000001,10.073168000000001,223.68000000000001,0],[123.597311,10.073136,224.43000000000001,0],[123.597174,10.073105999999999,225.31,0],[123.59689400000001,10.072957000000001,229.21000000000001,0],[123.596773,10.072915,229.50999999999999,0],[123.596406,10.072749999999999,234.71000000000001,0],[123.596234,10.072737999999999,237.91999999999999,0],[123.595894,10.072781000000001,241.12,0],[123.595772,10.072782999999999,241.81,0],[123.595271,10.072709,244.12,0],[123.595027,10.072685,242.81,0],[123.594818,10.072609999999999,242.02000000000001,0],[123.59458100000001,10.072480000000001,241.56,0],[123.594487,10.072438,242.16,0],[123.59432099999999,10.072348,244.00999999999999,0],[123.594094,10.072195000000001,247.80000000000001,0],[123.593948,10.072075,250.96000000000001,0],[123.59375300000001,10.071882,253.56,0],[123.593681,10.0718,254.05000000000001,0],[123.59349400000001,10.071472999999999,258.98000000000002,0],[123.59342700000001,10.071322,260.63999999999999,0],[123.593388,10.071262000000001,261.61000000000001,0],[123.593295,10.071229000000001,262.77999999999997,0],[123.59299799999999,10.071205000000001,266.63,0],[123.592883,10.071215,267.49000000000001,0],[123.592812,10.071239,267.89999999999998,0],[123.59275700000001,10.071306999999999,268.63999999999999,0],[123.59272300000001,10.071377999999999,269.56999999999999,0],[123.59270100000001,10.071452000000001,270.41000000000003,0],[123.592705,10.071584,271.39999999999998,0],[123.592721,10.071762,271.97000000000003,0],[123.592562,10.07207,277.74000000000001,0],[123.59248100000001,10.072222,277.61000000000001,0],[123.592432,10.072296,276.75,0],[123.592376,10.072312999999999,277.67000000000002,0],[123.59232,10.072305999999999,279.41000000000003,0],[123.59219899999999,10.072229999999999,285.44999999999999,0],[123.591928,10.072131000000001,295.67000000000002,0],[123.59146699999999,10.071955000000001,305.43000000000001,0],[123.59120900000001,10.07174,318.16000000000003,0],[123.590941,10.071574999999999,323.47000000000003,0],[123.59071299999999,10.071448,328.30000000000001,0],[123.590574,10.071413,330.13,0],[123.590352,10.071421000000001,332.48000000000002,0],[123.59013899999999,10.071474,333.52999999999997,0],[123.590024,10.071464000000001,335.06999999999999,0],[123.589816,10.071402000000001,337.31,0],[123.589741,10.071363,337.63999999999999,0],[123.58959299999999,10.071173999999999,342.23000000000002,0],[123.589511,10.071056,344.83999999999997,0],[123.58940699999999,10.070952999999999,347.37,0],[123.58931800000001,10.070906000000001,348.39999999999998,0],[123.58896799999999,10.070764,352.81,0],[123.588807,10.070563999999999,352.81,0],[123.588397,10.070494,357.73000000000002,0],[123.58829,10.070447,359.19999999999999,0],[123.58811900000001,10.070417000000001,361.63999999999999,0],[123.58797,10.070428,363.69999999999999,0],[123.587599,10.070489,369.94999999999999,0],[123.587532,10.070519000000001,372.07999999999998,0],[123.58751599999999,10.070558,373.99000000000001,0],[123.587537,10.070586,374.81999999999999,0],[123.587667,10.070622999999999,373.69,0],[123.587715,10.070669000000001,374.56,0],[123.587733,10.070708,375.69,0],[123.58772500000001,10.070779,378.56999999999999,0],[123.58761800000001,10.071012,386.66000000000003,0],[123.58761,10.071073999999999,387.24000000000001,0],[123.587616,10.071208,386.50999999999999,0],[123.58759499999999,10.071251,386.26999999999998,0],[123.58752800000001,10.071282999999999,387.31,0],[123.587451,10.071287,389.05000000000001,0],[123.587351,10.071263999999999,391.55000000000001,0],[123.58721,10.071208,395.31,0],[123.587115,10.071159,397.81999999999999,0],[123.58694300000001,10.071109999999999,397.49000000000001,0],[123.5868,10.071167000000001,398.05000000000001,0],[123.58670600000001,10.071244,399.77999999999997,0],[123.586606,10.071440000000001,402.88,0],[123.58651399999999,10.071569,403.95999999999998,0],[123.58645799999999,10.071626,404.14999999999998,0],[123.586353,10.071649000000001,403.89999999999998,0],[123.586254,10.071634,403.83999999999997,0],[123.586191,10.07159,404.23000000000002,0],[123.58604200000001,10.071439,406.89999999999998,0],[123.585943,10.07138,405.5,0],[123.585708,10.071263,400.88999999999999,0],[123.585481,10.071081,398.73000000000002,0],[123.58533199999999,10.071001000000001,395.99000000000001,0],[123.585247,10.070921999999999,395.75999999999999,0],[123.58519,10.070893,395.08999999999997,0],[123.585004,10.070843,392.01999999999998,0],[123.58484799999999,10.070776,390.94999999999999,0],[123.584718,10.070748,389.29000000000002,0],[123.584603,10.070741,388.17000000000002,0],[123.584513,10.070748999999999,386.88999999999999,0],[123.584458,10.070771000000001,385.54000000000002,0],[123.584397,10.070815,383.13,0],[123.584163,10.070893999999999,381.11000000000001,0],[123.58413,10.070937000000001,380.07999999999998,0],[123.584132,10.070993,379.01999999999998,0],[123.584169,10.071058000000001,379.06999999999999,0],[123.584305,10.071167000000001,378.66000000000003,0],[123.58438599999999,10.071266,379.74000000000001,0],[123.5844,10.071495000000001,384.08999999999997,0],[123.584388,10.071583,385.92000000000002,0],[123.584349,10.071695999999999,388.31999999999999,0],[123.58432000000001,10.071756000000001,388.97000000000003,0],[123.584138,10.071952,392.50999999999999,0],[123.584097,10.072005000000001,393.23000000000002,0],[123.583972,10.072407,393.89999999999998,0],[123.583967,10.072482000000001,393.72000000000003,0],[123.583978,10.07264,393.5,0],[123.583901,10.073028000000001,398.35000000000002,0],[123.583883,10.073079999999999,399.31999999999999,0],[123.58382,10.073168000000001,401.80000000000001,0],[123.58372900000001,10.073240999999999,404.88,0],[123.583623,10.073366,408.30000000000001,0],[123.58358200000001,10.073430999999999,409.24000000000001,0],[123.583557,10.073517000000001,409.82999999999998,0],[123.58351399999999,10.073802000000001,408.56,0],[123.583517,10.073900999999999,407.82999999999998,0],[123.583546,10.074007,407.31,0],[123.58371,10.074318,409.02999999999997,0],[123.583703,10.074464000000001,410.26999999999998,0],[123.58366700000001,10.074624,411.22000000000003,0]]]}}]}
