{"type":"FeatureCollection","features":[{"type":"Feature","properties":[],"geometry":{"type":"MultiLineString","coordinates":[[[123.779207,10.35333,528.48000000000002,0],[123.779263,10.352918000000001,519.90999999999997,0],[123.77926600000001,10.352891,519.36000000000001,0],[123.779247,10.352764000000001,515.50999999999999,0],[123.779263,10.352618,512.03999999999996,0],[123.779386,10.352423,513.62,0],[123.77938,10.352345,512.89999999999998,0],[123.77932699999999,10.352252,511.31,0],[123.779166,10.352062,508.69,0],[123.778931,10.351667000000001,512.54999999999995,0],[123.778828,10.35155,512.37,0],[123.778507,10.351345,506,0],[123.77841100000001,10.351258,504.06,0],[123.778171,10.350872000000001,502.77999999999997,0],[123.778088,10.350761,500.73000000000002,0],[123.778038,10.350652999999999,498.94999999999999,0],[123.778009,10.350460999999999,497.31999999999999,0],[123.778032,10.350199,495.23000000000002,0],[123.778083,10.349975000000001,493.98000000000002,0],[123.778126,10.349874,495.00999999999999,0],[123.778305,10.349637,500.38999999999999,0],[123.778389,10.349487999999999,502.41000000000003,0],[123.77840999999999,10.349349,502.16000000000003,0],[123.778419,10.349173,502.91000000000003,0],[123.778375,10.349043,503.55000000000001,0],[123.778316,10.349036,502.31,0],[123.77800999999999,10.349107,494.69,0],[123.777849,10.349121999999999,493.76999999999998,0],[123.777654,10.349106000000001,495.07999999999998,0],[123.777584,10.349109,495.68000000000001,0],[123.777297,10.349273,488.81,0],[123.77720600000001,10.349285,488.20999999999998,0],[123.777145,10.349271999999999,488.31999999999999,0],[123.776763,10.348890000000001,494.45999999999998,0],[123.776619,10.348756,497.75999999999999,0],[123.776437,10.348738000000001,497.70999999999998,0],[123.77623199999999,10.348846999999999,496.67000000000002,0],[123.775926,10.349059,499.5,0],[123.775856,10.349126,501.67000000000002,0],[123.775908,10.349505000000001,497.99000000000001,0],[123.775794,10.349698999999999,497.80000000000001,0],[123.775673,10.349796,497.02999999999997,0],[123.77522999999999,10.349959,495.44999999999999,0],[123.775008,10.350040999999999,497.89999999999998,0],[123.774692,10.350367,493.94,0],[123.77458799999999,10.350386,494.38999999999999,0],[123.77426199999999,10.350351,496.23000000000002,0],[123.773915,10.350509000000001,492.29000000000002,0],[123.773634,10.350654,491.63999999999999,0],[123.773447,10.350835,488.67000000000002,0],[123.773094,10.351153999999999,479.80000000000001,0],[123.77287800000001,10.351255,476.56,0],[123.772612,10.351253,475.36000000000001,0],[123.772396,10.351252000000001,471.44,0],[123.772272,10.351202000000001,470.32999999999998,0],[123.772222,10.351115,471.02999999999997,0],[123.772203,10.351032,470.56,0],[123.772216,10.350936000000001,470.89999999999998,0],[123.772336,10.350612999999999,474.19,0],[123.772356,10.350545,476.23000000000002,0],[123.772346,10.350472999999999,476.99000000000001,0],[123.772295,10.350410999999999,476.25999999999999,0],[123.772104,10.350346999999999,469.44,0],[123.772043,10.350308999999999,467.63,0],[123.771873,10.349885,469.69999999999999,0],[123.77181,10.349841,468.05000000000001,0],[123.77161099999999,10.349779,461.72000000000003,0],[123.77137999999999,10.349644,461.38999999999999,0],[123.771148,10.349508,458.64999999999998,0],[123.770994,10.349442,454.33999999999997,0],[123.77051299999999,10.349503,435.85000000000002,0],[123.77027200000001,10.349534,431.22000000000003,0],[123.769679,10.349474000000001,426.44,0],[123.769226,10.349428,426.94999999999999,0],[123.76827,10.349427,422.47000000000003,0],[123.767967,10.349346000000001,422.92000000000002,0],[123.767663,10.349266,421.13999999999999,0],[123.767359,10.349185,416.88,0],[123.767293,10.349176999999999,416.41000000000003,0],[123.766964,10.349109,415.44999999999999,0],[123.766293,10.349239000000001,411.35000000000002,0],[123.765944,10.349322000000001,410.13999999999999,0],[123.76542000000001,10.349344,411.11000000000001,0],[123.76508200000001,10.349320000000001,410.69999999999999,0],[123.764729,10.349252,411.75,0],[123.764617,10.349316,413.64999999999998,0],[123.76458100000001,10.349398000000001,415.67000000000002,0],[123.764532,10.34958,418.38999999999999,0],[123.764556,10.34975,417,0],[123.764554,10.349831,416.06,0],[123.764484,10.349936,416.86000000000001,0],[123.764414,10.34999,417.83999999999997,0],[123.76435499999999,10.350001000000001,418.81,0],[123.76402400000001,10.349975000000001,422.73000000000002,0],[123.76369200000001,10.349947999999999,421.60000000000002,0],[123.763355,10.349935,420.73000000000002,0],[123.76291999999999,10.349898,419.58999999999997,0],[123.762877,10.349923,419.13999999999999,0],[123.762682,10.350101,417.07999999999998,0],[123.76249199999999,10.350251,417,0],[123.762147,10.350565,416.62,0],[123.76206000000001,10.350674,415.81,0],[123.762019,10.350749,415.10000000000002,0],[123.762012,10.350811,414.74000000000001,0],[123.76196,10.350953000000001,414.01999999999998,0],[123.761951,10.350944,414.01999999999998,0],[123.76169400000001,10.350663000000001,414,0],[123.76139000000001,10.350407000000001,414,0],[123.761273,10.350208,413.58999999999997,0],[123.76120899999999,10.350076,412.14999999999998,0],[123.761174,10.349945999999999,410.82999999999998,0],[123.761144,10.349765,408.79000000000002,0],[123.761139,10.349351,411.08999999999997,0],[123.761161,10.349027,412.16000000000003,0],[123.761163,10.348741,412.44999999999999,0],[123.76114099999999,10.348599,412.36000000000001,0],[123.761079,10.348354,409.31999999999999,0],[123.760997,10.347956,406.80000000000001,0],[123.760864,10.347524999999999,405.97000000000003,0],[123.76082100000001,10.347374,405.79000000000002,0],[123.760795,10.347246,405.98000000000002,0],[123.760729,10.347068,406.13999999999999,0],[123.760623,10.346869,405.24000000000001,0],[123.76055599999999,10.346755999999999,403.57999999999998,0],[123.76048299999999,10.346643,401.85000000000002,0],[123.760368,10.346496999999999,398.85000000000002,0],[123.760328,10.346398000000001,397.25999999999999,0],[123.760304,10.34619,396.63,0],[123.760273,10.346128,395.89999999999998,0],[123.760182,10.346,393.47000000000003,0],[123.760119,10.345935000000001,391.79000000000002,0],[123.760069,10.34592,390.83999999999997,0],[123.759809,10.345905,387.19,0],[123.759623,10.345912999999999,385.88999999999999,0],[123.759463,10.345929999999999,384.04000000000002,0],[123.759354,10.346005999999999,383.38999999999999,0],[123.759271,10.346113000000001,382.64999999999998,0],[123.759326,10.346389,382.13,0],[123.75933499999999,10.34643,382.05000000000001,0],[123.759541,10.34699,381.22000000000003,0],[123.759731,10.347376000000001,378.41000000000003,0],[123.759967,10.347894999999999,376.19,0],[123.760026,10.348352,373.37,0],[123.760043,10.348575,371.19999999999999,0],[123.76004399999999,10.348787,368.47000000000003,0],[123.759979,10.348940000000001,366.63,0],[123.759771,10.349307,361.38999999999999,0],[123.759463,10.350009,354.81999999999999,0],[123.759331,10.350377999999999,351.70999999999998,0],[123.759103,10.350645,349.54000000000002,0],[123.758782,10.350925,344,0],[123.75853499999999,10.351012000000001,342.49000000000001,0],[123.758256,10.35108,340.18000000000001,0],[123.757886,10.351054,336.42000000000002,0],[123.757017,10.350864,324.25,0],[123.756593,10.350823,319.39999999999998,0],[123.755791,10.350802,314.23000000000002,0],[123.755257,10.350789000000001,308.62,0],[123.75506799999999,10.350828,307.64999999999998,0],[123.754892,10.350958,305.76999999999998,0],[123.754473,10.351566,300.10000000000002,0],[123.754345,10.351730999999999,300.39999999999998,0],[123.754245,10.351934999999999,298.49000000000001,0],[123.754144,10.35214,294.50999999999999,0],[123.753997,10.352334000000001,290.37,0],[123.75371699999999,10.35256,287.82999999999998,0],[123.753417,10.352724,287.38999999999999,0],[123.753145,10.352819999999999,285.06,0],[123.752872,10.352916,285.69999999999999,0],[123.75258599999999,10.353054,284.54000000000002,0],[123.752426,10.353089000000001,285.44999999999999,0],[123.752281,10.353230999999999,282.76999999999998,0],[123.752111,10.353517999999999,277.81,0],[123.7521,10.353908000000001,266.06,0],[123.75210199999999,10.354043000000001,263.69,0],[123.75210800000001,10.354357,260.57999999999998,0],[123.752089,10.354468000000001,259.92000000000002,0],[123.751957,10.354622000000001,258.88999999999999,0],[123.751695,10.354927,251.63,0],[123.75147,10.355043,249.81,0],[123.75100500000001,10.355200999999999,245.96000000000001,0],[123.75058,10.355162999999999,246.55000000000001,0],[123.75033999999999,10.355164,246.31,0],[123.75011000000001,10.355264999999999,244.84999999999999,0],[123.749979,10.355327000000001,245.91,0],[123.749883,10.355418,247.25999999999999,0],[123.74975000000001,10.355618,251.62,0],[123.74965,10.356146000000001,256.75,0],[123.749549,10.356674,254.52000000000001,0],[123.74947,10.356954,252.88,0],[123.749391,10.357233000000001,248.99000000000001,0],[123.74923200000001,10.357792999999999,238.13999999999999,0],[123.749077,10.358093,232.56,0],[123.74911400000001,10.358117999999999,231.81,0]]]}}]}
