{"type":"FeatureCollection","features":[{"type":"Feature","properties":[],"geometry":{"type":"MultiLineString","coordinates":[[[123.805195,10.407184000000001,849.12,0],[123.804883,10.407120000000001,846.83000000000004,0],[123.80400400000001,10.407006000000001,855.95000000000005,0],[123.80363199999999,10.406974,857.83000000000004,0],[123.80352600000001,10.406948,856.97000000000003,0],[123.80331700000001,10.406848,854.45000000000005,0],[123.803107,10.406748,855.91999999999996,0],[123.802756,10.406427000000001,850.25999999999999,0],[123.80244,10.406207,847.79999999999995,0],[123.80206200000001,10.40593,846.37,0],[123.80176299999999,10.405685,845.30999999999995,0],[123.80158400000001,10.405468000000001,842.58000000000004,0],[123.801406,10.405252000000001,842.73000000000002,0],[123.801227,10.405036000000001,840.23000000000002,0],[123.801069,10.404821,834.64999999999998,0],[123.80106000000001,10.40462,829.97000000000003,0],[123.801087,10.404298000000001,820.51999999999998,0],[123.80102599999999,10.404011000000001,811.65999999999997,0],[123.800966,10.403724,807.05999999999995,0],[123.80080100000001,10.403452,800.99000000000001,0],[123.800635,10.403294000000001,796.11000000000001,0],[123.80046900000001,10.403135000000001,794.27999999999997,0],[123.800223,10.402801999999999,797.87,0],[123.79998000000001,10.402415,799.30999999999995,0],[123.799768,10.402028,805.70000000000005,0],[123.79959100000001,10.401861999999999,807.23000000000002,0],[123.799496,10.401700999999999,809.05999999999995,0],[123.799358,10.401494,808.74000000000001,0],[123.799223,10.401313999999999,807.89999999999998,0],[123.799178,10.401096000000001,806.89999999999998,0],[123.79910099999999,10.400881999999999,805.35000000000002,0],[123.799024,10.400668,806.37,0],[123.798884,10.400435999999999,808.88,0],[123.798727,10.400236,815.33000000000004,0],[123.79849299999999,10.4001,822.73000000000002,0],[123.798258,10.399965,826.25999999999999,0],[123.79778899999999,10.399694,826.75999999999999,0],[123.79752499999999,10.399549,827.37,0],[123.797209,10.399433999999999,828.02999999999997,0],[123.79697,10.399346,830.33000000000004,0],[123.796815,10.399346,829.25,0],[123.79652299999999,10.3994,824.89999999999998,0],[123.795755,10.399486,811.60000000000002,0],[123.795389,10.399587,806.12,0],[123.794946,10.399957000000001,797.74000000000001,0],[123.794729,10.400016000000001,797.00999999999999,0],[123.79452999999999,10.399983000000001,797.62,0],[123.79416500000001,10.399862000000001,798.38,0],[123.79388899999999,10.399751,797.37,0],[123.79363600000001,10.399704,796.38999999999999,0],[123.793477,10.399803,797.85000000000002,0],[123.79333800000001,10.399853,797.92999999999995,0],[123.79325799999999,10.399827999999999,797.11000000000001,0],[123.79293699999999,10.399521999999999,790.70000000000005,0],[123.79282000000001,10.399448,789.13999999999999,0],[123.792576,10.399445999999999,786.46000000000004,0],[123.79248200000001,10.399426,785.09000000000003,0],[123.792329,10.399271000000001,785.57000000000005,0],[123.791909,10.398688999999999,787.13999999999999,0],[123.791765,10.398522,786.5,0],[123.791624,10.398282,782.39999999999998,0],[123.791588,10.398121,779.55999999999995,0],[123.791594,10.397949000000001,778.75,0],[123.791658,10.397532999999999,780.58000000000004,0],[123.79128799999999,10.396661,779.82000000000005,0],[123.79092799999999,10.396336,773.89999999999998,0],[123.790727,10.396171000000001,771.52999999999997,0],[123.790449,10.39601,769.77999999999997,0],[123.79024099999999,10.395848000000001,769.64999999999998,0],[123.790171,10.395714999999999,770.29999999999995,0],[123.790136,10.395235,774.65999999999997,0],[123.790072,10.394759000000001,775.05999999999995,0],[123.789784,10.394266,769.58000000000004,0],[123.78964000000001,10.394019999999999,768.5,0],[123.789376,10.393523,768.52999999999997,0],[123.78918,10.393064000000001,765.33000000000004,0],[123.789069,10.39264,761.5,0],[123.78904,10.392030999999999,762.38,0],[123.789068,10.391648,765.65999999999997,0],[123.78907700000001,10.391412000000001,766.71000000000004,0],[123.7891,10.391132000000001,767.69000000000005,0],[123.78912800000001,10.390969999999999,768.47000000000003,0],[123.78913300000001,10.390833000000001,768.89999999999998,0],[123.789112,10.390751,769.00999999999999,0],[123.788872,10.390533,766.32000000000005,0],[123.788798,10.390456,766.22000000000003,0],[123.788729,10.390309999999999,767.76999999999998,0],[123.788651,10.390196,768.05999999999995,0],[123.788516,10.390101,766.04999999999995,0],[123.78838500000001,10.390034999999999,763.63999999999999,0],[123.788338,10.389970999999999,761.97000000000003,0],[123.788324,10.389885,760.96000000000004,0],[123.788329,10.389811999999999,760.64999999999998,0],[123.788433,10.389518000000001,761.65999999999997,0],[123.788437,10.389389,760.62,0],[123.78840099999999,10.389334,759.70000000000005,0],[123.788309,10.389258,757.99000000000001,0],[123.788054,10.389127,753.37,0],[123.787994,10.389073,752.67999999999995,0],[123.787908,10.388923,752.60000000000002,0],[123.787863,10.388817,753.23000000000002,0],[123.787707,10.388498999999999,756.01999999999998,0],[123.787493,10.388246000000001,757.46000000000004,0],[123.787425,10.38815,758.45000000000005,0],[123.787387,10.388023,759.26999999999998,0],[123.78727499999999,10.387733000000001,753.72000000000003,0],[123.78722999999999,10.387686,752.15999999999997,0],[123.787023,10.38754,746.16999999999996,0],[123.786935,10.387423,743.50999999999999,0],[123.786636,10.387055,736.67999999999995,0],[123.78652,10.386963,735.38,0],[123.786388,10.386937,734.92999999999995,0],[123.786242,10.38692,734.75999999999999,0],[123.78617199999999,10.386944,735.26999999999998,0],[123.78607599999999,10.387005,736.10000000000002,0],[123.785774,10.387282000000001,740.71000000000004,0],[123.785426,10.387601999999999,750.29999999999995,0],[123.78528,10.387817999999999,753.79999999999995,0],[123.785223,10.387888999999999,753.47000000000003,0],[123.78516500000001,10.38794,753.04999999999995,0],[123.784941,10.387978,756.82000000000005,0],[123.784802,10.388059999999999,756.02999999999997,0],[123.784684,10.388147,753.87,0],[123.78455599999999,10.388172000000001,753.47000000000003,0],[123.78440399999999,10.388123999999999,755.39999999999998,0],[123.78394299999999,10.387914,754.11000000000001,0],[123.783794,10.387845,752.37,0],[123.783722,10.387790000000001,751.90999999999997,0],[123.78362300000001,10.387732,751.42999999999995,0],[123.78347100000001,10.387695000000001,749.42999999999995,0],[123.783354,10.387696,747.67999999999995,0],[123.783176,10.387741999999999,746.71000000000004,0],[123.782871,10.387886999999999,749.17999999999995,0],[123.782794,10.387912,750.05999999999995,0],[123.78272800000001,10.387919,750.95000000000005,0],[123.782642,10.387893999999999,752.25999999999999,0],[123.782456,10.387789,755.36000000000001,0],[123.782393,10.387783000000001,755.99000000000001,0],[123.782169,10.387803,757.14999999999998,0],[123.781946,10.387824,755.75999999999999,0],[123.78186100000001,10.387808,754.78999999999996,0],[123.781767,10.387765999999999,753.70000000000005,0],[123.781716,10.387753999999999,753.00999999999999,0],[123.781614,10.38776,752,0],[123.78131500000001,10.387746,754.25999999999999,0],[123.781273,10.387726000000001,755.07000000000005,0],[123.780985,10.387456,756.38999999999999,0],[123.780913,10.387420000000001,756.53999999999996,0],[123.780849,10.387401000000001,756.83000000000004,0],[123.78072400000001,10.387407,757.66999999999996,0],[123.780574,10.387468,758.87,0],[123.780483,10.387542,759.75999999999999,0],[123.78045899999999,10.387622,760.59000000000003,0],[123.780444,10.3878,763.23000000000002,0],[123.780416,10.387865,763.78999999999996,0],[123.780362,10.387929,763.83000000000004,0],[123.78028399999999,10.387976,763.49000000000001,0],[123.780216,10.387981,763.44000000000005,0],[123.78011100000001,10.387911000000001,762.19000000000005,0],[123.78003699999999,10.387807,761,0],[123.779765,10.387193,750.5,0],[123.779669,10.387003,747.11000000000001,0],[123.77963800000001,10.386915999999999,746.66999999999996,0],[123.77961999999999,10.386507,747,0],[123.779566,10.386191,746.66999999999996,0],[123.779529,10.386055000000001,746.63,0],[123.7794,10.385683999999999,745.77999999999997,0],[123.779315,10.385534,744.02999999999997,0],[123.779188,10.385372,741.85000000000002,0],[123.77907399999999,10.385244,741.01999999999998,0],[123.77878,10.384874,743.92999999999995,0],[123.778615,10.384577999999999,746.94000000000005,0],[123.778527,10.384285999999999,749,0],[123.77831,10.383651,748.72000000000003,0],[123.77828100000001,10.383487000000001,749.89999999999998,0],[123.778251,10.383421999999999,750.59000000000003,0],[123.77816199999999,10.383317999999999,752.01999999999998,0],[123.777947,10.383144,753.77999999999997,0],[123.77763299999999,10.382923,753.88,0],[123.777534,10.382835999999999,753.89999999999998,0],[123.777395,10.382661000000001,754.28999999999996,0],[123.777255,10.382403999999999,757.70000000000005,0],[123.777113,10.38205,763.62,0],[123.777118,10.381995999999999,764.74000000000001,0],[123.77714899999999,10.381921999999999,766.15999999999997,0],[123.77730200000001,10.381764,767.49000000000001,0],[123.77745400000001,10.38158,769.15999999999997,0],[123.777502,10.381470999999999,768.90999999999997,0],[123.777525,10.381371,768.59000000000003,0],[123.77747100000001,10.381049000000001,764.77999999999997,0],[123.77741399999999,10.380660000000001,754.80999999999995,0],[123.777342,10.380464,752.34000000000003,0],[123.77722199999999,10.38012,753.19000000000005,0],[123.777207,10.379913999999999,753.51999999999998,0],[123.777242,10.379811,753.09000000000003,0],[123.777562,10.379543999999999,757.52999999999997,0],[123.77762300000001,10.379396,759.32000000000005,0],[123.777654,10.379265,760.66999999999996,0],[123.777675,10.379122000000001,761.46000000000004,0],[123.777698,10.379053000000001,762.22000000000003,0],[123.777843,10.378863000000001,765.19000000000005,0],[123.777891,10.378742000000001,766.02999999999997,0],[123.777919,10.378607000000001,765.83000000000004,0],[123.77792700000001,10.378387999999999,764.25999999999999,0],[123.77795399999999,10.378304,763.38999999999999,0],[123.778012,10.378238,762.69000000000005,0],[123.77822,10.378078,758.29999999999995,0],[123.77834199999999,10.37804,756.44000000000005,0],[123.778458,10.378043999999999,755.35000000000002,0],[123.778667,10.378117,752.5,0],[123.778745,10.378119,750.59000000000003,0],[123.779017,10.378098,745.98000000000002,0],[123.779152,10.378102,745.41999999999996,0],[123.779348,10.378119,745.19000000000005,0],[123.77946,10.378157,744.64999999999998,0],[123.77963200000001,10.378242,742.5,0],[123.779736,10.378252,740.69000000000005,0],[123.779837,10.378231,738.26999999999998,0],[123.779916,10.378193,736.34000000000003,0],[123.780106,10.377924999999999,731.28999999999996,0],[123.78019399999999,10.377843,729.79999999999995,0],[123.780316,10.377777,727.99000000000001,0],[123.780485,10.377739999999999,725.97000000000003,0],[123.78079700000001,10.377723,722.94000000000005,0],[123.781165,10.377739,721,0],[123.781448,10.377698000000001,721.02999999999997,0],[123.781744,10.377687,720.87,0],[123.78233400000001,10.377697,717.09000000000003,0],[123.782859,10.377786,714.08000000000004,0],[123.783495,10.377829999999999,716.25999999999999,0],[123.78367900000001,10.377763,718.57000000000005,0],[123.783835,10.377668999999999,721,0],[123.78407900000001,10.377901,718.87,0],[123.784629,10.377222,728.83000000000004,0],[123.78476999999999,10.377101,731.23000000000002,0],[123.784852,10.377064000000001,732.58000000000004,0],[123.784897,10.377044,733.30999999999995,0],[123.78512000000001,10.377087,735.08000000000004,0],[123.785301,10.377107000000001,735.30999999999995,0],[123.785506,10.377025,736.86000000000001,0],[123.785545,10.376903,738.47000000000003,0],[123.785352,10.376469,741.66999999999996,0],[123.785518,10.376338000000001,746.04999999999995,0],[123.785597,10.376298999999999,748.36000000000001,0],[123.785696,10.376277999999999,750.03999999999996,0],[123.785832,10.376281000000001,750.92999999999995,0],[123.785988,10.376315,750.97000000000003,0],[123.786393,10.376526,750.12,0],[123.786492,10.376586,749.33000000000004,0],[123.78660499999999,10.376599000000001,749.67999999999995,0],[123.786698,10.376538,750.70000000000005,0],[123.786753,10.376439,750.89999999999998,0],[123.78665599999999,10.376173,753.51999999999998,0],[123.786552,10.375972000000001,754.13999999999999,0],[123.786449,10.375771,757.20000000000005,0],[123.786435,10.375684,758.92999999999995,0],[123.786464,10.375628000000001,759.19000000000005,0],[123.786653,10.375425,756.5,0],[123.786885,10.375185999999999,754.89999999999998,0],[123.787081,10.375031999999999,752.12,0],[123.78717,10.374829999999999,748.83000000000004,0],[123.787184,10.374745000000001,747.42999999999995,0],[123.78716300000001,10.374677999999999,747.04999999999995,0],[123.787036,10.374411,744.22000000000003,0],[123.787052,10.374188,739.58000000000004,0],[123.787057,10.373995000000001,736.46000000000004,0],[123.787041,10.373834,734.66999999999996,0],[123.786958,10.37318,733.45000000000005,0],[123.78693,10.372949999999999,731.49000000000001,0],[123.78693699999999,10.372434999999999,725.30999999999995,0],[123.786902,10.372323,724.35000000000002,0],[123.786843,10.372184000000001,723.91999999999996,0],[123.786722,10.372075000000001,724.29999999999995,0],[123.78658,10.371881999999999,725.46000000000004,0],[123.78618400000001,10.37154,726.12,0],[123.786091,10.371320000000001,725.66999999999996,0],[123.78606499999999,10.371012,725.36000000000001,0],[123.786064,10.370755000000001,725.35000000000002,0],[123.786123,10.370611999999999,726.03999999999996,0],[123.786227,10.370471999999999,727.08000000000004,0],[123.786591,10.370175,727.67999999999995,0],[123.786618,10.370058999999999,727.23000000000002,0],[123.786592,10.369978,727.85000000000002,0],[123.786484,10.369861999999999,729.23000000000002,0],[123.78636400000001,10.369754,728.80999999999995,0],[123.786314,10.36966,728.38999999999999,0],[123.786286,10.369532,727.62,0],[123.786312,10.369373,727.24000000000001,0],[123.786406,10.369241000000001,728.40999999999997,0],[123.786423,10.369144,727.08000000000004,0],[123.786387,10.369035,724.73000000000002,0],[123.786095,10.368641,725.58000000000004,0],[123.78603,10.368565,726.90999999999997,0],[123.785955,10.368523,728.09000000000003,0],[123.785645,10.368525999999999,727.30999999999995,0],[123.785476,10.368461,727.35000000000002,0],[123.785298,10.368331,726.23000000000002,0],[123.78525999999999,10.368214999999999,725.97000000000003,0],[123.785285,10.368100999999999,725.11000000000001,0],[123.785335,10.367989,724.25999999999999,0],[123.785374,10.36782,722.05999999999995,0],[123.785366,10.367705000000001,720.21000000000004,0],[123.785338,10.367618999999999,719.71000000000004,0],[123.7851,10.367297000000001,721.48000000000002,0],[123.785037,10.367172999999999,722.07000000000005,0],[123.784981,10.366873,726.36000000000001,0],[123.784941,10.366785999999999,727.33000000000004,0],[123.7847,10.366448,728.55999999999995,0],[123.78442,10.366057,734.25999999999999,0],[123.78433800000001,10.365983999999999,735.02999999999997,0],[123.78424,10.365932000000001,735.25,0],[123.784104,10.365879,734.21000000000004,0],[123.783946,10.365788999999999,733.99000000000001,0],[123.78363899999999,10.365561,734.54999999999995,0],[123.783536,10.365454,734.28999999999996,0],[123.783522,10.365356,734.71000000000004,0],[123.783546,10.365254,735.10000000000002,0],[123.783593,10.365187000000001,735.64999999999998,0],[123.78365599999999,10.365131999999999,735.95000000000005,0],[123.784148,10.365011000000001,738.69000000000005,0],[123.784311,10.364948,738.83000000000004,0],[123.784446,10.364838000000001,738.57000000000005,0],[123.784593,10.364708,740.05999999999995,0],[123.784693,10.364575,741.24000000000001,0],[123.784842,10.364063,744.13,0],[123.785053,10.363339,751.88999999999999,0],[123.78507399999999,10.363137999999999,754.95000000000005,0],[123.785066,10.36298,755.84000000000003,0],[123.785026,10.362809,756.26999999999998,0],[123.784942,10.362589,755.19000000000005,0],[123.78491,10.362424000000001,753.70000000000005,0],[123.784918,10.362363999999999,753.42999999999995,0],[123.784989,10.362283,753.09000000000003,0],[123.78513100000001,10.362228,751.44000000000005,0],[123.78539000000001,10.3622,748.37,0],[123.785571,10.362225,746.07000000000005,0],[123.785999,10.362342,738.92999999999995,0],[123.786203,10.362375999999999,735.28999999999996,0],[123.786378,10.362352,730.46000000000004,0],[123.786632,10.362337,725.76999999999998,0],[123.786886,10.362352,723.26999999999998,0],[123.787019,10.362315000000001,721.25,0],[123.787105,10.362238,719.26999999999998,0],[123.787194,10.362128,717.25,0],[123.787323,10.362026,713.80999999999995,0],[123.78746099999999,10.361952,711.27999999999997,0],[123.787581,10.361912,709.82000000000005,0],[123.787755,10.361890000000001,708.88999999999999,0],[123.787933,10.361881,708.83000000000004,0],[123.788512,10.361883000000001,709.44000000000005,0],[123.788589,10.361840000000001,709.95000000000005,0],[123.78860899999999,10.361788000000001,710.45000000000005,0],[123.78854800000001,10.361729,708.38999999999999,0],[123.788387,10.361724000000001,707.44000000000005,0],[123.78820899999999,10.36177,708.35000000000002,0],[123.78807500000001,10.361775,707.78999999999996,0],[123.787465,10.361603000000001,699.82000000000005,0],[123.787318,10.361605000000001,699.19000000000005,0],[123.78686,10.361672,700.47000000000003,0],[123.786672,10.361656,699.73000000000002,0],[123.786541,10.361611999999999,698.73000000000002,0],[123.786399,10.361482000000001,695.29999999999995,0],[123.786248,10.361281999999999,691.75999999999999,0],[123.786152,10.361122999999999,690.46000000000004,0],[123.785982,10.360802,683.61000000000001,0],[123.78577199999999,10.360618000000001,680.32000000000005,0],[123.78573900000001,10.360575000000001,679.14999999999998,0],[123.785422,10.360341999999999,674.22000000000003,0],[123.78500099999999,10.360163,667.20000000000005,0],[123.784639,10.36002,664.44000000000005,0],[123.784462,10.359885999999999,660.61000000000001,0],[123.78425799999999,10.359575,649.41999999999996,0],[123.784105,10.359358,644.79999999999995,0],[123.783952,10.359142,642.83000000000004,0],[123.783835,10.358962,641.55999999999995,0],[123.783762,10.358848999999999,640.75999999999999,0],[123.78371300000001,10.358684,636.12,0],[123.783598,10.35839,630.23000000000002,0],[123.783472,10.358041999999999,621.38999999999999,0],[123.783147,10.357529,608.53999999999996,0],[123.783073,10.35744,605.71000000000004,0],[123.78283,10.357328000000001,603.52999999999997,0],[123.78265399999999,10.357196999999999,600.48000000000002,0],[123.78195700000001,10.356638,588.87,0],[123.781603,10.356427,587.85000000000002,0],[123.781419,10.356285,587.92999999999995,0],[123.781323,10.356216999999999,589.57000000000005,0],[123.78127499999999,10.356158000000001,590,0],[123.781271,10.356093,587.52999999999997,0],[123.781312,10.355985,580.71000000000004,0],[123.78133099999999,10.355898,576.75999999999999,0],[123.781318,10.355826,574.63999999999999,0],[123.78126899999999,10.35575,573.88,0],[123.781057,10.355606999999999,575.50999999999999,0],[123.780917,10.355547,578.16999999999996,0],[123.780827,10.355471,577.39999999999998,0],[123.78077399999999,10.355392999999999,574.59000000000003,0],[123.78067900000001,10.355173000000001,565.5,0],[123.780585,10.354977,558.71000000000004,0],[123.780447,10.354679000000001,550.77999999999997,0],[123.780395,10.354613000000001,548.30999999999995,0],[123.780069,10.354314,540.09000000000003,0],[123.779837,10.354117,538.96000000000004,0],[123.779657,10.353913,540.78999999999996,0],[123.779532,10.353840999999999,541.28999999999996,0],[123.779295,10.353795,537.46000000000004,0],[123.77922,10.353771999999999,535.86000000000001,0],[123.77915400000001,10.353712,534.62,0],[123.779094,10.353624,532.83000000000004,0],[123.779107,10.353505,531.03999999999996,0],[123.779203,10.353365999999999,529.22000000000003,0],[123.779527,10.353187999999999,529.61000000000001,0],[123.77959,10.35309,528.09000000000003,0],[123.779561,10.35285,524.96000000000004,0],[123.77955,10.352689,521.91999999999996,0],[123.779601,10.352525999999999,520.38,0],[123.779606,10.352352,519.19000000000005,0],[123.779584,10.352031999999999,523.66999999999996,0],[123.7796,10.351960999999999,525.52999999999997,0],[123.779697,10.351831000000001,530.13999999999999,0],[123.779782,10.35167,533.59000000000003,0],[123.77983399999999,10.351448,537.53999999999996,0],[123.77985099999999,10.351321,539.38,0],[123.779956,10.35116,539.60000000000002,0],[123.780186,10.350921,539.79999999999995,0],[123.780238,10.350809999999999,541.61000000000001,0],[123.780283,10.350574999999999,548.13,0],[123.780332,10.350421000000001,551.63999999999999,0],[123.780497,10.350165000000001,554.67999999999995,0],[123.780824,10.349696,560.30999999999995,0],[123.780917,10.349567,560.10000000000002,0],[123.78102699999999,10.349332,562.83000000000004,0],[123.781131,10.349228999999999,561.17999999999995,0],[123.78125300000001,10.349151000000001,559.71000000000004,0],[123.781507,10.348972,559.03999999999996,0],[123.781609,10.348851,560.25999999999999,0],[123.78168599999999,10.348679000000001,563.42999999999995,0],[123.78173700000001,10.348443,566.57000000000005,0],[123.781795,10.347941,565.73000000000002,0],[123.78179900000001,10.347861,566.07000000000005,0],[123.781857,10.347355,570.67999999999995,0],[123.781845,10.347267,571.32000000000005,0],[123.781797,10.347168999999999,572.63,0],[123.781576,10.346919,579.60000000000002,0],[123.78139299999999,10.346709000000001,582.94000000000005,0],[123.781334,10.346605,582.05999999999995,0],[123.781299,10.346475,578.65999999999997,0],[123.78121899999999,10.346323999999999,576.66999999999996,0],[123.781137,10.346266999999999,578.74000000000001,0],[123.78091499999999,10.346166,587.22000000000003,0],[123.780761,10.346035000000001,590.88999999999999,0],[123.780637,10.345883000000001,592.72000000000003,0],[123.780565,10.345608,592.76999999999998,0],[123.78058,10.345397,589.12,0],[123.78060499999999,10.345283,586.97000000000003,0],[123.78073500000001,10.34516,581.72000000000003,0],[123.78107199999999,10.344984999999999,573.33000000000004,0],[123.78118600000001,10.344918,571.79999999999995,0],[123.781218,10.344865,571.98000000000002,0],[123.781204,10.344775,572.23000000000002,0],[123.781166,10.344723999999999,572.67999999999995,0],[123.780841,10.344613000000001,575.47000000000003,0],[123.780683,10.344455999999999,571.77999999999997,0],[123.780558,10.344253999999999,564.75,0],[123.780474,10.343992999999999,558.75,0],[123.78034,10.343870000000001,557.63999999999999,0],[123.780148,10.34385,560.83000000000004,0],[123.780029,10.343794000000001,563.61000000000001,0],[123.780007,10.343714,563.13,0],[123.78000299999999,10.343639,563.22000000000003,0],[123.78006999999999,10.343508999999999,562.20000000000005,0],[123.780191,10.343349,561.23000000000002,0],[123.780383,10.343162,558.58000000000004,0],[123.780579,10.343045999999999,556.75,0],[123.780863,10.343042000000001,551.32000000000005,0],[123.780907,10.343033,550.85000000000002,0],[123.781088,10.342949000000001,551.55999999999995,0],[123.781334,10.342930000000001,550.45000000000005,0],[123.781558,10.342959,547.01999999999998,0],[123.781824,10.342933,544.57000000000005,0],[123.781902,10.342905999999999,543.89999999999998,0],[123.782083,10.342741,543.40999999999997,0],[123.78233299999999,10.342492,540.20000000000005,0],[123.782409,10.342323,539.88,0],[123.782512,10.341899,538.44000000000005,0],[123.782601,10.341767000000001,537.64999999999998,0],[123.782714,10.341709,535.36000000000001,0],[123.782873,10.341691000000001,530.94000000000005,0],[123.783041,10.341606000000001,527.35000000000002,0],[123.78319999999999,10.341478,525.07000000000005,0],[123.78331,10.341398999999999,524.37,0],[123.78344300000001,10.341379,522.01999999999998,0],[123.78369000000001,10.341391,517.16999999999996,0],[123.783903,10.341362,512.71000000000004,0],[123.784013,10.34126,511.81,0],[123.78406,10.341006999999999,514.48000000000002,0],[123.784201,10.340647000000001,514.99000000000001,0],[123.78431500000001,10.340398,513.79999999999995,0],[123.784426,10.340187999999999,512.39999999999998,0],[123.784446,10.340097,512.28999999999996,0],[123.784395,10.339805999999999,512.17999999999995,0],[123.784256,10.339378999999999,510.44999999999999,0],[123.784077,10.339072,509.73000000000002,0],[123.783991,10.338829,508.45999999999998,0],[123.784029,10.338609,506.61000000000001,0],[123.78412,10.338378000000001,504.12,0],[123.784272,10.337932,499.19,0],[123.784285,10.337796000000001,496.24000000000001,0],[123.784257,10.337692000000001,495.13,0],[123.784128,10.337403,492.44999999999999,0],[123.784032,10.337035999999999,487.66000000000003,0],[123.783924,10.336895999999999,487.69,0],[123.783778,10.336759000000001,488.00999999999999,0],[123.783427,10.336467000000001,491.06999999999999,0],[123.783376,10.336437999999999,491.99000000000001,0],[123.783248,10.336107999999999,492.06999999999999,0],[123.78301500000001,10.335824000000001,492.49000000000001,0],[123.782972,10.335616999999999,491.69999999999999,0],[123.782985,10.335394000000001,493.77999999999997,0],[123.78296899999999,10.335190000000001,497.61000000000001,0],[123.782858,10.335037,500.31999999999999,0],[123.78270000000001,10.334975999999999,500.51999999999998,0],[123.782442,10.334825,502.85000000000002,0],[123.78228,10.334673,505.45999999999998,0],[123.782082,10.334334,510.52999999999997,0],[123.781525,10.334168999999999,511.36000000000001,0],[123.781406,10.334052,509.79000000000002,0],[123.78139299999999,10.333862999999999,509.52999999999997,0],[123.781457,10.333701,510.55000000000001,0],[123.781582,10.333574,511.97000000000003,0],[123.781854,10.333314,512.58000000000004,0],[123.781881,10.333079,510.38999999999999,0],[123.78186100000001,10.332652,512.58000000000004,0],[123.78183300000001,10.332458000000001,511.98000000000002,0],[123.781744,10.332300999999999,508.50999999999999,0],[123.781614,10.332162,503.93000000000001,0],[123.781533,10.331911,499.31,0],[123.781656,10.331664999999999,498.23000000000002,0],[123.781761,10.331405,498.72000000000003,0],[123.7817,10.33117,495.56,0],[123.781661,10.330951000000001,493.89999999999998,0],[123.78167999999999,10.330811000000001,493.04000000000002,0],[123.781721,10.330565999999999,493.80000000000001,0],[123.78150599999999,10.330315000000001,490.32999999999998,0],[123.781302,10.330145999999999,485.97000000000003,0],[123.781244,10.330024,484.69,0],[123.78124099999999,10.329793,485.25,0],[123.781268,10.329617000000001,484.30000000000001,0],[123.78131999999999,10.329454,484.69,0],[123.78133099999999,10.329323,485.82999999999998,0],[123.781257,10.329257,484.91000000000003,0],[123.78113500000001,10.329211000000001,482.27999999999997,0],[123.781041,10.329103,482.69999999999999,0],[123.781012,10.32896,485.63,0],[123.780948,10.328887999999999,486.08999999999997,0],[123.780823,10.328908999999999,483.5,0],[123.780632,10.328963,480.13,0],[123.78046500000001,10.328918,480.48000000000002,0],[123.780365,10.328815000000001,482.82999999999998,0],[123.78018299999999,10.328723999999999,483.44,0],[123.77994700000001,10.328620000000001,482.60000000000002,0],[123.77983,10.328438999999999,489.77999999999997,0],[123.779811,10.328192,499.88999999999999,0],[123.779906,10.327932000000001,504.75,0],[123.77993600000001,10.327597000000001,503.88999999999999,0],[123.780146,10.327354,503.50999999999999,0],[123.780237,10.327194,503.64999999999998,0],[123.7803,10.327044000000001,502.51999999999998,0],[123.78031799999999,10.326930000000001,500.92000000000002,0],[123.78055500000001,10.326743,497.13999999999999,0],[123.78067,10.326594999999999,494.94999999999999,0],[123.780737,10.326356000000001,493.81999999999999,0],[123.780761,10.326135000000001,495.81,0],[123.780636,10.325768,498.13999999999999,0],[123.780388,10.325319,498.75,0],[123.780159,10.324944,497.89999999999998,0],[123.780083,10.324767,499.61000000000001,0],[123.780141,10.3246,505.36000000000001,0],[123.780108,10.32446,508.30000000000001,0],[123.779854,10.324349,502.79000000000002,0],[123.779748,10.324225,502.69,0],[123.779629,10.323736999999999,507.31,0],[123.779481,10.323556,503.69,0],[123.77933299999999,10.323375,502.44,0],[123.77916999999999,10.323115,498.61000000000001,0],[123.779151,10.323019,497.56,0],[123.779205,10.322875,497.06,0],[123.779225,10.322806999999999,495.68000000000001,0],[123.77923699999999,10.322722000000001,493.5,0],[123.77920899999999,10.322592999999999,489.91000000000003,0],[123.779118,10.322464,487.05000000000001,0],[123.77903000000001,10.32235,486.44,0],[123.77901300000001,10.322151,490.99000000000001,0],[123.778554,10.322267,494.42000000000002,0],[123.778364,10.322298,494.45999999999998,0],[123.778053,10.322461000000001,490.36000000000001,0],[123.777879,10.322561,488.99000000000001,0],[123.777686,10.322637,488.60000000000002,0],[123.777411,10.322687999999999,488.16000000000003,0],[123.777259,10.32267,486.66000000000003,0],[123.777117,10.322592999999999,484.06,0],[123.777038,10.322511,482.24000000000001,0],[123.776894,10.322331,480.42000000000002,0],[123.776563,10.321816999999999,478.92000000000002,0],[123.776414,10.321538,480.81999999999999,0],[123.776388,10.321519,480.82999999999998,0],[123.776313,10.321514000000001,480.18000000000001,0],[123.776276,10.321536999999999,480.06999999999999,0],[123.77625399999999,10.321578000000001,479.41000000000003,0],[123.77619900000001,10.321738,475.81999999999999,0],[123.77616500000001,10.321865000000001,472.79000000000002,0],[123.776053,10.322051999999999,467.38,0],[123.77595700000001,10.322184999999999,463.22000000000003,0],[123.77585500000001,10.322308,460.77999999999997,0],[123.775792,10.322402,460.48000000000002,0],[123.77576000000001,10.322481,461.60000000000002,0],[123.775755,10.322537000000001,462.30000000000001,0],[123.775762,10.322638,463.44999999999999,0],[123.775839,10.322838000000001,463.76999999999998,0],[123.775869,10.322998,462.86000000000001,0],[123.77587,10.323145,461.98000000000002,0],[123.77582,10.323257999999999,461.36000000000001,0],[123.775747,10.323359,460.50999999999999,0],[123.775638,10.323484000000001,459.75,0],[123.775485,10.32361,458.47000000000003,0],[123.775391,10.323672999999999,457.06999999999999,0],[123.775256,10.32372,455.95999999999998,0],[123.77513,10.323722,455.91000000000003,0],[123.775025,10.323689999999999,455.49000000000001,0],[123.77493699999999,10.323623,455.64999999999998,0],[123.774674,10.323266,454.20999999999998,0],[123.77457,10.323105999999999,452.69999999999999,0],[123.774518,10.323005,452,0],[123.774528,10.322861,451.75,0],[123.77465100000001,10.322647999999999,452.31,0],[123.774687,10.32255,451.79000000000002,0],[123.774692,10.322414,450.97000000000003,0],[123.774654,10.322365,450.00999999999999,0],[123.774576,10.3223,449.04000000000002,0],[123.77433600000001,10.322175,446.45999999999998,0],[123.77415499999999,10.322113999999999,445.04000000000002,0],[123.774006,10.322051999999999,443.83999999999997,0],[123.773729,10.321999,441.41000000000003,0],[123.77351899999999,10.321993000000001,438.80000000000001,0],[123.773308,10.321987,434.16000000000003,0],[123.772938,10.321998000000001,421.50999999999999,0],[123.772531,10.321916,417.69,0],[123.77184099999999,10.321728,415.22000000000003,0],[123.771608,10.321656000000001,416.11000000000001,0],[123.77138100000001,10.321548999999999,417.17000000000002,0],[123.77122300000001,10.32145,419.87,0],[123.77122199999999,10.321457000000001,420.12,0]]]}}]}
