{"type":"FeatureCollection","features":[{"type":"Feature","properties":[],"geometry":{"type":"MultiLineString","coordinates":[[[123.71068099999999,10.256562000000001,90.049999999999997,0],[123.71113099999999,10.258062000000001,94.989999999999995,0],[123.711147,10.258149,95.189999999999998,0],[123.71119400000001,10.258392000000001,95.75,0],[123.711197,10.258692999999999,98.310000000000002,0],[123.71090700000001,10.25938,98.239999999999995,0],[123.71084500000001,10.25966,98.700000000000003,0],[123.71086200000001,10.259926999999999,97.900000000000006,0],[123.71117599999999,10.260828,98.719999999999999,0],[123.71127,10.261804,99.5,0],[123.711343,10.262083000000001,99.260000000000005,0],[123.71149,10.262283999999999,100.66,0],[123.71157100000001,10.262413,102.58,0],[123.71160500000001,10.262501,102.94,0],[123.711634,10.262627999999999,102.88,0],[123.711651,10.262771000000001,103.18000000000001,0],[123.71169500000001,10.263526000000001,103.89,0],[123.71174600000001,10.26413,104.3,0],[123.71190900000001,10.264901999999999,105.38,0],[123.71203,10.265414,105.23999999999999,0],[123.71211599999999,10.265559,105.81999999999999,0],[123.712277,10.265758,106.18000000000001,0],[123.712422,10.265905999999999,106.09999999999999,0],[123.71256200000001,10.266026999999999,105.76000000000001,0],[123.71274099999999,10.266132000000001,106.13,0],[123.71302799999999,10.266271,108.02,0],[123.713334,10.266473,108.17,0],[123.713488,10.266602000000001,109.15000000000001,0],[123.71358600000001,10.266716000000001,109.37,0],[123.71365299999999,10.266816,110.06,0],[123.713691,10.266925000000001,110.13,0],[123.713739,10.267238000000001,112.52,0],[123.713746,10.267727000000001,115.52,0],[123.713762,10.267855000000001,115.04000000000001,0],[123.713791,10.267944999999999,114.59,0],[123.71391199999999,10.268093,114.65000000000001,0],[123.714124,10.268297,115.34999999999999,0],[123.714248,10.268447,117.15000000000001,0],[123.71431699999999,10.268630999999999,118.01000000000001,0],[123.71432799999999,10.269031999999999,116.34,0],[123.714292,10.269512000000001,115.58,0],[123.714217,10.269920000000001,115,0],[123.714107,10.270232,114.23999999999999,0],[123.714023,10.270417999999999,112.73,0],[123.713741,10.270979000000001,116.41,0],[123.713627,10.271139,116.65000000000001,0],[123.71348999999999,10.271262999999999,115.78,0],[123.71328800000001,10.271423,115.54000000000001,0],[123.71352,10.271508000000001,118.76000000000001,0],[123.713764,10.271596000000001,124.61,0],[123.713842,10.271609,126.95,0],[123.713893,10.271552,128.19,0],[123.713943,10.271451000000001,129.62,0],[123.714,10.271409,131.65000000000001,0],[123.714062,10.271416,134.25999999999999,0],[123.714095,10.271433,135.72999999999999,0],[123.714088,10.271703,136.62,0],[123.71407600000001,10.272243,145.65000000000001,0],[123.71406899999999,10.272513,148.24000000000001,0],[123.714173,10.272751,152.21000000000001,0],[123.71426599999999,10.272836,154.24000000000001,0],[123.71473,10.272947,167.72999999999999,0],[123.71505500000001,10.273099999999999,174.77000000000001,0],[123.71540299999999,10.273168999999999,182.56,0],[123.71610099999999,10.273148000000001,196.74000000000001,0],[123.71645599999999,10.273075,204.88,0],[123.716689,10.27298,211.52000000000001,0],[123.71715399999999,10.272788,220.68000000000001,0],[123.717353,10.272684999999999,223.59999999999999,0],[123.717404,10.272634999999999,225.68000000000001,0],[123.717388,10.272582,227.27000000000001,0],[123.717327,10.272561,227.53999999999999,0],[123.71712599999999,10.272562000000001,229.52000000000001,0],[123.716959,10.272537,232.93000000000001,0],[123.716874,10.272516,234.87,0],[123.716863,10.272486000000001,235.96000000000001,0],[123.716876,10.272423,237.28999999999999,0],[123.716927,10.272371,237.00999999999999,0],[123.717219,10.272304999999999,233.22,0],[123.717411,10.272338,232.75999999999999,0],[123.71765499999999,10.272461,233.46000000000001,0],[123.717934,10.272593000000001,236.59,0],[123.718166,10.272679999999999,241.38999999999999,0],[123.71816699999999,10.272747000000001,240.19999999999999,0],[123.71813400000001,10.272942,237.44999999999999,0],[123.718165,10.273085999999999,238.40000000000001,0],[123.71824100000001,10.273220999999999,241.44,0],[123.718356,10.273318,246.66999999999999,0],[123.718636,10.273408999999999,256.75,0],[123.71890500000001,10.273552,261.32999999999998,0],[123.718986,10.273569,262.19999999999999,0],[123.719072,10.273554000000001,263.67000000000002,0],[123.71916400000001,10.273484,265.98000000000002,0],[123.719312,10.273281000000001,269.79000000000002,0],[123.71951799999999,10.272830000000001,274.55000000000001,0],[123.71960900000001,10.272724999999999,273.72000000000003,0],[123.71974400000001,10.272733000000001,275.01999999999998,0],[123.72036300000001,10.273137999999999,286.44999999999999,0],[123.720652,10.273239,291.89999999999998,0],[123.720945,10.273334,300.69999999999999,0],[123.72104899999999,10.273387,304.64999999999998,0],[123.721084,10.273545,306.26999999999998,0],[123.72111,10.273605,307.19999999999999,0],[123.72145500000001,10.273635000000001,319.24000000000001,0],[123.72146600000001,10.273816,318.56999999999999,0],[123.721503,10.273966,318.58999999999997,0],[123.721644,10.274046,320.80000000000001,0],[123.72184300000001,10.274050000000001,326.64999999999998,0],[123.722143,10.274255,325.51999999999998,0],[123.72225299999999,10.274383,324.38,0],[123.72228800000001,10.274623999999999,321.42000000000002,0],[123.722421,10.275480999999999,326.94,0],[123.72234899999999,10.275665,325.25,0],[123.721963,10.276204999999999,322.19,0],[123.721986,10.276581999999999,322.45999999999998,0],[123.721998,10.276934000000001,320.91000000000003,0],[123.72206300000001,10.27713,322.61000000000001,0],[123.722075,10.277271000000001,323.02999999999997,0],[123.722031,10.277378000000001,322.30000000000001,0],[123.72199000000001,10.277606,325.88999999999999,0],[123.721913,10.277711999999999,328.07999999999998,0],[123.721808,10.277894,332.01999999999998,0],[123.721953,10.278642,347.74000000000001,0],[123.721929,10.278817999999999,350.60000000000002,0],[123.721847,10.279045,353.63999999999999,0],[123.72187,10.27924,355.66000000000003,0],[123.721949,10.279346,358.95999999999998,0],[123.72224199999999,10.279413999999999,366.14999999999998,0],[123.72233900000001,10.279358,367.75999999999999,0],[123.722396,10.279194,368.02999999999997,0],[123.72241699999999,10.279118,367.48000000000002,0],[123.72252899999999,10.279090999999999,369.95999999999998,0],[123.72264199999999,10.279135999999999,373.39999999999998,0],[123.722774,10.279202,377.66000000000003,0],[123.72324999999999,10.279214,389.43000000000001,0],[123.72347000000001,10.279199,392.32999999999998,0],[123.72376199999999,10.279286000000001,395.26999999999998,0],[123.723917,10.27927,396.55000000000001,0],[123.724189,10.279180999999999,397.81999999999999,0],[123.724384,10.279202,398.13999999999999,0],[123.72462400000001,10.27918,402.45999999999998,0],[123.724864,10.279158000000001,409.20999999999998,0],[123.725268,10.278876,419.26999999999998,0],[123.72547,10.278734999999999,420.26999999999998,0],[123.72557,10.278715999999999,421.36000000000001,0],[123.72568,10.27877,423.94,0],[123.725874,10.278994000000001,430.88,0],[123.72591199999999,10.279206,436.94,0],[123.72590599999999,10.279588,446.94999999999999,0],[123.72593000000001,10.279666000000001,448.64999999999998,0],[123.72598600000001,10.27971,449.36000000000001,0],[123.72609199999999,10.279726,449.10000000000002,0],[123.72632400000001,10.279658,447.02999999999997,0],[123.726421,10.279683,448.41000000000003,0],[123.72661100000001,10.279904,456.44,0],[123.727018,10.280004,462.82999999999998,0],[123.727082,10.279972000000001,463.62,0],[123.727144,10.279877000000001,464.57999999999998,0],[123.727268,10.279546,465.56,0],[123.727335,10.279404,464.04000000000002,0],[123.72738200000001,10.279385,465.11000000000001,0],[123.72766900000001,10.279422,473.43000000000001,0],[123.727897,10.279512,481.13999999999999,0],[123.728047,10.279558,484.27999999999997,0],[123.72846699999999,10.279792,492.76999999999998,0],[123.728596,10.279874,494.72000000000003,0],[123.728707,10.280077,493.06999999999999,0],[123.728763,10.280101999999999,493.13999999999999,0],[123.729007,10.280037999999999,496.88,0],[123.729328,10.280142,494.67000000000002,0],[123.729641,10.280362,487.24000000000001,0],[123.729832,10.280374,488.73000000000002,0],[123.729958,10.280493999999999,482.72000000000003,0],[123.730059,10.280656,476.69,0],[123.730079,10.280924000000001,473.86000000000001,0],[123.730091,10.281112,474.30000000000001,0],[123.730242,10.281351000000001,476.33999999999997,0],[123.730429,10.281563999999999,475.69,0],[123.730678,10.281689999999999,469.98000000000002,0],[123.730812,10.281750000000001,469.11000000000001,0],[123.730885,10.281904000000001,467.89999999999998,0],[123.730907,10.282030000000001,465.38,0],[123.73090500000001,10.282121,462.82999999999998,0],[123.730936,10.282175000000001,461.19,0],[123.731044,10.282182000000001,461.83999999999997,0],[123.731328,10.28215,458.50999999999999,0],[123.73174299999999,10.282126,447.33999999999997,0],[123.731966,10.282162,446.70999999999998,0],[123.732051,10.282228,448.50999999999999,0],[123.732091,10.282323,449.11000000000001,0],[123.732275,10.282638,455.04000000000002,0],[123.732393,10.282959,458.06999999999999,0],[123.732462,10.283051,458.86000000000001,0],[123.732877,10.283075,473.13999999999999,0],[123.732946,10.283130999999999,473.74000000000001,0],[123.733023,10.283322999999999,474.64999999999998,0],[123.733011,10.283439,474.76999999999998,0],[123.732889,10.283555,471.44999999999999,0],[123.732759,10.283635,466.32999999999998,0],[123.732725,10.283770000000001,467.38999999999999,0],[123.732731,10.283856,468.57999999999998,0],[123.732804,10.283951,473.16000000000003,0],[123.73293,10.283991,478.14999999999998,0],[123.73304400000001,10.284151,479.00999999999999,0],[123.73318999999999,10.284235000000001,481.94999999999999,0],[123.733349,10.284227,486.17000000000002,0],[123.733475,10.284271,486.30000000000001,0],[123.73373100000001,10.284623,478.19999999999999,0],[123.733918,10.284851,477.48000000000002,0],[123.734064,10.284991,478.99000000000001,0],[123.73417000000001,10.285187000000001,481.60000000000002,0],[123.734219,10.285655,487.01999999999998,0],[123.734219,10.285966999999999,484.73000000000002,0],[123.734308,10.286231000000001,478.73000000000002,0],[123.734308,10.286451,477.52999999999997,0],[123.734267,10.286790999999999,479.00999999999999,0],[123.73434899999999,10.287119000000001,484.01999999999998,0],[123.734528,10.287383,488.36000000000001,0],[123.73464800000001,10.287532000000001,489.75999999999999,0],[123.734719,10.287687,488.57999999999998,0],[123.734737,10.28778,487.91000000000003,0],[123.734785,10.287813999999999,489.56,0],[123.734889,10.287779,493.76999999999998,0],[123.73509300000001,10.287691000000001,498.56999999999999,0],[123.735361,10.287459,499.25,0],[123.73554799999999,10.287160999999999,495.83999999999997,0],[123.73562,10.287145000000001,496.35000000000002,0],[123.735696,10.287179999999999,498.13999999999999,0],[123.735832,10.287205,499.64999999999998,0],[123.735967,10.287139,497.04000000000002,0],[123.73626,10.286975,488.20999999999998,0],[123.736508,10.286667,477.63,0],[123.736671,10.286568000000001,474.66000000000003,0],[123.736892,10.286561000000001,471.14999999999998,0],[123.73711299999999,10.286553,465.25999999999999,0],[123.737779,10.286486,446.23000000000002,0],[123.738068,10.28646,440.76999999999998,0],[123.738523,10.286486999999999,435.88,0]]]}}]}
