{"type":"FeatureCollection","features":[{"type":"Feature","properties":[],"geometry":{"type":"MultiLineString","coordinates":[[[123.754712,10.275039,62.98614501953125,1786849170],[123.754785,10.275024,62.90130615234375,1786849178],[123.754791,10.274998999999999,63.30316162109375,1786849182],[123.754713,10.274997000000001,66.6409912109375,1786849224],[123.754698,10.275001,66.7230224609375,1786849225],[123.754554,10.275013,67,1786849232],[123.75452900000001,10.274993,67.623291015625,1786849234],[123.754507,10.274976000000001,67.63861083984375,1786849235],[123.754491,10.274960999999999,67.9608154296875,1786849236],[123.754468,10.274872999999999,67.69970703125,1786849240],[123.754452,10.274848,68.1055908203125,1786849241],[123.75436999999999,10.274787999999999,67.09912109375,1786849244],[123.754352,10.274774000000001,67.18743896484375,1786849245],[123.75434,10.274759,67.0355224609375,1786849246],[123.75434199999999,10.274736000000001,67.0015869140625,1786849247],[123.75438,10.274672000000001,67.55499267578125,1786849250],[123.754396,10.274619,67.52783203125,1786849252],[123.75438699999999,10.274561,67.8580322265625,1786849254],[123.754373,10.27453,67.80548095703125,1786849255],[123.75430799999999,10.274444000000001,67.2391357421875,1786849258],[123.754144,10.274295,68.13800048828125,1786849264],[123.754119,10.274272,68.1241455078125,1786849265],[123.75407300000001,10.274239,68.4815673828125,1786849267],[123.754023,10.274217999999999,68.4500732421875,1786849269],[123.753944,10.274217999999999,68.9154052734375,1786849272],[123.753894,10.274245000000001,69.2183837890625,1786849274],[123.75387000000001,10.274257,68.89923095703125,1786849275],[123.753794,10.27426,68.7266845703125,1786849278],[123.753626,10.274202000000001,69.67779541015625,1786849284],[123.75360000000001,10.274194,70.023681640625,1786849285],[123.753399,10.274139,71.17437744140625,1786849306],[123.75338600000001,10.274136,71.44500732421875,1786849307],[123.753209,10.274094,71.917724609375,1786849318],[123.75319,10.274084999999999,71.8028564453125,1786849319],[123.753157,10.274069000000001,70.80413818359375,1786849320],[123.753135,10.274043000000001,71.0865478515625,1786849321],[123.753108,10.273979000000001,71.61749267578125,1786849323],[123.753089,10.27388,72.22528076171875,1786849326],[123.75310500000001,10.273793,72.626708984375,1786849328],[123.753107,10.273787,73.044677734375,1786849329],[123.75322799999999,10.273457000000001,73.82281494140625,1786849338],[123.753249,10.273425,73.7374267578125,1786849339],[123.75341400000001,10.273232999999999,71.33984375,1786849346],[123.75347600000001,10.27319,71.5384521484375,1786849348],[123.753505,10.273178,72.9932861328125,1786849349],[123.753675,10.273065000000001,71.67816162109375,1786849354],[123.753737,10.272962,65.17803955078125,1786849356],[123.753767,10.272933,66.4769287109375,1786849357],[123.75378000000001,10.272887000000001,67.89544677734375,1786849358],[123.753799,10.272850999999999,68.2916259765625,1786849359],[123.75387499999999,10.272691999999999,69.67822265625,1786849363],[123.753878,10.272572,70.85357666015625,1786849366],[123.75386,10.272487999999999,71.1783447265625,1786849368],[123.753851,10.272446,70.959716796875,1786849369],[123.753833,10.272360000000001,71.0439453125,1786849371],[123.753743,10.272095999999999,72.88909912109375,1786849378],[123.753738,10.27206,73.1280517578125,1786849379],[123.753687,10.271856,72.83709716796875,1786849386],[123.753688,10.271794,72.61871337890625,1786849388],[123.75369600000001,10.271763,72.6444091796875,1786849389],[123.753704,10.271693000000001,72.25103759765625,1786849391],[123.75372400000001,10.271632,72.3873291015625,1786849393],[123.75375,10.271438,73.1036376953125,1786849398],[123.75375699999999,10.271398,72.9049072265625,1786849399],[123.753775,10.271295,72.81610107421875,1786849402],[123.753857,10.271148,73.1427001953125,1786849408],[123.753873,10.271124,73.07342529296875,1786849409],[123.754034,10.270943000000001,73.072509765625,1786849418],[123.75405499999999,10.27092,72.821044921875,1786849419],[123.75424,10.270718,72.4619140625,1786849425],[123.75430900000001,10.270619999999999,71.2572021484375,1786849427],[123.754338,10.270562999999999,70.86248779296875,1786849428],[123.754358,10.270503,70.2247314453125,1786849429],[123.754414,10.270398999999999,69.45892333984375,1786849431],[123.754454,10.270357000000001,69.11553955078125,1786849432],[123.754645,10.270216,68.7840576171875,1786849436],[123.75475299999999,10.270147,68.3643798828125,1786849438],[123.754811,10.270113,68.21075439453125,1786849439],[123.755044,10.269994000000001,67.5877685546875,1786849443],[123.755089,10.269958000000001,67.5269775390625,1786849444],[123.755126,10.269917,67.55755615234375,1786849445],[123.755151,10.269868000000001,67.9437255859375,1786849446],[123.755173,10.269746,67.31109619140625,1786849448],[123.755162,10.269683000000001,66.9368896484375,1786849449],[123.755134,10.269624,66.8751220703125,1786849450],[123.754958,10.269378,65.67523193359375,1786849454],[123.754924,10.269310000000001,65.682373046875,1786849455],[123.754901,10.269235999999999,65.27679443359375,1786849456],[123.75489399999999,10.269087000000001,64.69873046875,1786849458],[123.75488799999999,10.269014,65.0159912109375,1786849459],[123.754868,10.268946,64.07757568359375,1786849460],[123.754761,10.268762000000001,63.25140380859375,1786849463],[123.754741,10.268703,62.96337890625,1786849464],[123.754746,10.268583,62.5989990234375,1786849466],[123.754779,10.268462,62.52197265625,1786849468],[123.754797,10.268401000000001,62.591064453125,1786849469],[123.754873,10.268212999999999,62.3240966796875,1786849472],[123.75493400000001,10.268098999999999,61.9498291015625,1786849474],[123.7551,10.267889,60.68994140625,1786849478],[123.755146,10.267836000000001,60.36370849609375,1786849479],[123.755377,10.267628999999999,60.05047607421875,1786849484]]]}}]}
