{"type":"FeatureCollection","features":[{"type":"Feature","properties":[],"geometry":{"type":"MultiLineString","coordinates":[[[123.753299,10.326746,642.89999999999998,0],[123.753254,10.326758,643.02999999999997,0],[123.752996,10.326776000000001,641.09000000000003,0],[123.752618,10.326834,638.54999999999995,0],[123.752082,10.327097,632.03999999999996,0],[123.75169699999999,10.327424000000001,625.88999999999999,0],[123.75167500000001,10.327483000000001,623.87,0],[123.75169699999999,10.327521000000001,622.02999999999997,0],[123.751757,10.327508999999999,621.54999999999995,0],[123.751992,10.327367000000001,622.90999999999997,0],[123.752364,10.327239000000001,622.88999999999999,0],[123.75277199999999,10.327247,621.41999999999996,0],[123.752932,10.327335,619.46000000000004,0],[123.752987,10.327455,615.37,0],[123.752979,10.327556,612.70000000000005,0],[123.752878,10.327641,609.88,0],[123.752285,10.327705999999999,607.00999999999999,0],[123.75198899999999,10.327738999999999,608.42999999999995,0],[123.751768,10.327809999999999,609.09000000000003,0],[123.7516,10.327956,606.89999999999998,0],[123.75138699999999,10.328284999999999,603.78999999999996,0],[123.751057,10.328623,603.58000000000004,0],[123.75100500000001,10.328677000000001,603.54999999999995,0],[123.750865,10.328735999999999,603.66999999999996,0],[123.750675,10.328749999999999,602.74000000000001,0],[123.75017800000001,10.328557999999999,602.50999999999999,0],[123.75008200000001,10.328567,599.78999999999996,0],[123.750044,10.328633,596.80999999999995,0],[123.75014400000001,10.328780999999999,594.75,0],[123.750461,10.329166000000001,589.11000000000001,0],[123.750777,10.329566,578.48000000000002,0],[123.75102200000001,10.329649,575.80999999999995,0],[123.751254,10.329599,573.83000000000004,0],[123.751555,10.32939,572.05999999999995,0],[123.75211400000001,10.329001,568.75999999999999,0],[123.752222,10.329001999999999,567.49000000000001,0],[123.752281,10.329041,566.38,0],[123.752312,10.329116000000001,564.86000000000001,0],[123.752257,10.32924,563.53999999999996,0],[123.751949,10.329485999999999,561.99000000000001,0],[123.751831,10.329738000000001,558.92999999999995,0],[123.751707,10.329966000000001,558.32000000000005,0],[123.751521,10.330189000000001,557.60000000000002,0],[123.751378,10.330336000000001,556.64999999999998,0],[123.75120800000001,10.330427999999999,556.99000000000001,0],[123.75103300000001,10.330456999999999,555.72000000000003,0],[123.750857,10.330399,555.02999999999997,0],[123.75072,10.330261999999999,555.87,0],[123.750657,10.330260000000001,554.52999999999997,0],[123.75063400000001,10.330309,552.66999999999996,0],[123.750677,10.330439,550.09000000000003,0],[123.75118000000001,10.331189,540.13,0],[123.751306,10.331201,539.78999999999996,0],[123.751515,10.331092,539.29999999999995,0],[123.752486,10.330562,527.95000000000005,0],[123.752701,10.330603,525.61000000000001,0],[123.75274899999999,10.33071,524.70000000000005,0],[123.752698,10.331007,523.54999999999995,0],[123.752724,10.331094999999999,522.73000000000002,0],[123.752832,10.331116,521.35000000000002,0],[123.75349199999999,10.330973999999999,513.5,0],[123.75397700000001,10.330959999999999,507.47000000000003,0],[123.754462,10.330946000000001,504.63,0],[123.754525,10.331001000000001,503.95999999999998,0],[123.75453400000001,10.331073999999999,503.52999999999997,0],[123.75446100000001,10.33114,503.14999999999998,0],[123.75405000000001,10.331308,503.20999999999998,0],[123.753911,10.331356,503.08999999999997,0],[123.753674,10.331467,502.55000000000001,0],[123.753004,10.331847,501.44999999999999,0],[123.752341,10.332224,502.81999999999999,0],[123.752143,10.332398,501.81999999999999,0],[123.75191599999999,10.332678,500,0],[123.75168600000001,10.332833000000001,498.24000000000001,0],[123.75151,10.332863,496.64999999999998,0],[123.751249,10.332801999999999,495.55000000000001,0],[123.751014,10.332826000000001,491.20999999999998,0],[123.75107300000001,10.332884,491.20999999999998,0],[123.751266,10.333045,491.37,0],[123.75147,10.333166,491.05000000000001,0],[123.75169699999999,10.333208000000001,490.82999999999998,0],[123.75192,10.333227000000001,490.42000000000002,0],[123.75221000000001,10.333197999999999,488.25999999999999,0],[123.75249700000001,10.333137000000001,486.16000000000003,0],[123.75285100000001,10.33301,484.94,0],[123.753237,10.332863,482.13999999999999,0],[123.754034,10.332710000000001,478.48000000000002,0],[123.75416,10.33272,477.64999999999998,0],[123.754205,10.332739,477.38,0],[123.754249,10.332796,477.10000000000002,0],[123.754255,10.332889,476.66000000000003,0],[123.754239,10.332996,475.63999999999999,0],[123.75416800000001,10.333132000000001,475.27999999999997,0],[123.754082,10.333273999999999,474.67000000000002,0],[123.753953,10.333435,473.58999999999997,0],[123.753607,10.333743999999999,472.51999999999998,0],[123.753264,10.334023999999999,469.31999999999999,0],[123.753106,10.334203,466.19999999999999,0],[123.753023,10.334322,464.81,0],[123.752939,10.334547000000001,462.10000000000002,0],[123.752786,10.334958,460.19999999999999,0],[123.752679,10.335174,459.57999999999998,0],[123.752618,10.335395999999999,459.43000000000001,0],[123.752562,10.335637,457.64999999999998,0],[123.752526,10.335872999999999,455.92000000000002,0],[123.752647,10.336156000000001,454.66000000000003,0],[123.752808,10.336320000000001,453.61000000000001,0],[123.752967,10.336460000000001,453.10000000000002,0],[123.75320000000001,10.33661,454.33999999999997,0],[123.75349300000001,10.336819,456.38,0],[123.75379,10.337042,460.19,0],[123.753961,10.337194999999999,461.50999999999999,0],[123.754277,10.337515,459.99000000000001,0],[123.754373,10.337683999999999,458.81,0],[123.75441600000001,10.337821999999999,459.14999999999998,0],[123.754417,10.338029000000001,460.38,0],[123.75440999999999,10.338046,460.31,0],[123.754203,10.338552,458.50999999999999,0],[123.754122,10.33881,456.92000000000002,0],[123.75411099999999,10.339058,457.29000000000002,0],[123.75409399999999,10.339242,456.49000000000001,0],[123.754138,10.339433,457.43000000000001,0],[123.75420800000001,10.339644,457.33999999999997,0],[123.75434199999999,10.339829,458.35000000000002,0],[123.754492,10.339966,457.88,0],[123.754637,10.340151000000001,455.86000000000001,0],[123.754841,10.340452000000001,449.44,0],[123.754943,10.340631,446.14999999999998,0],[123.755217,10.341127,442.79000000000002,0],[123.755377,10.341364,441.81,0],[123.75556,10.341607,441.68000000000001,0],[123.755793,10.341866,440.58999999999997,0],[123.756067,10.341875,441.26999999999998,0],[123.75648700000001,10.341780999999999,441.92000000000002,0],[123.756539,10.34177,442,0],[123.756872,10.341737999999999,442.47000000000003,0],[123.758262,10.341392000000001,443.33999999999997,0],[123.758728,10.341369,443.62,0],[123.758977,10.341384,444.20999999999998,0],[123.759972,10.341448,437.49000000000001,0],[123.760155,10.341533999999999,433.31999999999999,0],[123.760423,10.341682,429.33999999999997,0],[123.760654,10.341899,429,0],[123.76075299999999,10.341961,429,0],[123.76122599999999,10.34206,428.88999999999999,0],[123.761601,10.342142000000001,427.12,0],[123.76165399999999,10.342200999999999,426.58999999999997,0],[123.761743,10.342354,424.73000000000002,0],[123.76191,10.342767,421.25,0],[123.762035,10.342999000000001,421.97000000000003,0],[123.762038,10.343121999999999,422.66000000000003,0],[123.762004,10.343342,423.75999999999999,0],[123.762046,10.343449,424.66000000000003,0],[123.76217699999999,10.34362,427.82999999999998,0],[123.762467,10.343947999999999,429.73000000000002,0],[123.762518,10.344035999999999,429.30000000000001,0],[123.76251000000001,10.344146,429.99000000000001,0],[123.76244800000001,10.344431,433.56,0],[123.76244,10.344556000000001,434.47000000000003,0],[123.76249900000001,10.344837,435.67000000000002,0],[123.762614,10.345043,435.99000000000001,0],[123.762708,10.345154000000001,436.37,0],[123.762826,10.345399,434.31,0],[123.762928,10.345511,433.70999999999998,0],[123.76295,10.345587,433.33999999999997,0],[123.762963,10.345720999999999,432.70999999999998,0],[123.762942,10.345855999999999,431.86000000000001,0],[123.76289300000001,10.345978000000001,431.47000000000003,0],[123.76278600000001,10.346088,429.94999999999999,0],[123.76257099999999,10.346245,427.18000000000001,0],[123.762507,10.346380999999999,427,0],[123.76251499999999,10.346486000000001,427,0],[123.76256100000001,10.346622,427.01999999999998,0],[123.76295500000001,10.347405999999999,425.68000000000001,0],[123.763082,10.347738,425,0],[123.763064,10.347742,425,0],[123.763082,10.347738,425,0],[123.763143,10.347754,424.98000000000002,0],[123.76338800000001,10.347867000000001,423.44,0],[123.763592,10.347989,420.12,0],[123.763738,10.348063,418.49000000000001,0],[123.763822,10.34808,418.44999999999999,0],[123.763891,10.348124,418.24000000000001,0],[123.76400099999999,10.348285000000001,417.57999999999998,0],[123.764071,10.348398,416.17000000000002,0],[123.764218,10.348575,414.10000000000002,0],[123.76432699999999,10.34868,413.10000000000002,0],[123.76444600000001,10.348890000000001,412.00999999999999,0],[123.76460899999999,10.349076,412.11000000000001,0],[123.764653,10.349163000000001,412.23000000000002,0],[123.764695,10.349212,411.97000000000003,0]]]}},{"type":"Feature","properties":[],"geometry":{"type":"MultiLineString","coordinates":[[[123.759235,10.345867,383.33999999999997,0],[123.759141,10.345507,384.66000000000003,0],[123.758959,10.345217,385.01999999999998,0],[123.758656,10.344898000000001,388.57999999999998,0],[123.75850800000001,10.34473,389.33999999999997,0],[123.757997,10.344345000000001,391.35000000000002,0],[123.757451,10.343959,392.70999999999998,0],[123.75690899999999,10.343626,393.67000000000002,0],[123.756561,10.343481000000001,393.44,0],[123.756147,10.343337999999999,392.85000000000002,0],[123.756,10.343302,392.19999999999999,0],[123.755759,10.343283,392.72000000000003,0],[123.755522,10.343242999999999,393.99000000000001,0],[123.75505099999999,10.343104,393.97000000000003,0],[123.75450499999999,10.342851,391.06999999999999,0],[123.754222,10.342748,391.72000000000003,0],[123.753642,10.342582999999999,394.44,0],[123.75328,10.342399,396.56,0],[123.753079,10.342241,395.22000000000003,0],[123.75292399999999,10.341886000000001,394.63,0],[123.752824,10.341158,395.19,0],[123.752816,10.340963,396.25,0],[123.752768,10.340536,398.24000000000001,0],[123.75277800000001,10.340267000000001,399.66000000000003,0],[123.75281099999999,10.339959,402.04000000000002,0],[123.752875,10.339816000000001,403.76999999999998,0],[123.75296899999999,10.33976,405.32999999999998,0],[123.75308200000001,10.339810999999999,406.82999999999998,0],[123.75314,10.339968000000001,408.31,0],[123.753274,10.340384,413.92000000000002,0],[123.753376,10.340697,416.13999999999999,0],[123.753477,10.341010000000001,414.27999999999997,0],[123.75354299999999,10.341309000000001,414.62,0],[123.753621,10.341626,418.22000000000003,0],[123.75366099999999,10.341748000000001,418.99000000000001,0],[123.753725,10.341818,419.99000000000001,0],[123.753835,10.341874000000001,420.24000000000001,0],[123.75411699999999,10.341915999999999,420.13,0],[123.75457299999999,10.341913,424.94,0],[123.75490499999999,10.341903,430.07999999999998,0],[123.755163,10.341937,432.36000000000001,0],[123.75554700000001,10.342032,434.92000000000002,0],[123.755635,10.342029,436.18000000000001,0],[123.755726,10.342015999999999,437.80000000000001,0],[123.75577699999999,10.341948,439.67000000000002,0],[123.755788,10.341891,440.31,0]]]}}]}
