{"type":"FeatureCollection","features":[{"type":"Feature","properties":[],"geometry":{"type":"MultiLineString","coordinates":[[[123.837593,10.309234999999999,262.73000000000002,0],[123.837611,10.309313,262.18000000000001,0],[123.837637,10.309346,262.67000000000002,0],[123.837673,10.309362999999999,263.81,0],[123.837861,10.309407999999999,270.04000000000002,0],[123.838014,10.309464,276.88999999999999,0],[123.838256,10.309595,275.75,0],[123.838476,10.309725,272.50999999999999,0],[123.83864199999999,10.309904,269.52999999999997,0],[123.838645,10.310014000000001,270.07999999999998,0],[123.838672,10.310091999999999,269.99000000000001,0],[123.83910299999999,10.310574000000001,263.73000000000002,0],[123.839189,10.310852000000001,265.19,0],[123.83932,10.311223,263.16000000000003,0],[123.839428,10.311494,259.41000000000003,0],[123.83953099999999,10.311593,255.78,0],[123.83962099999999,10.311652,252.59,0],[123.83967,10.311714,250.50999999999999,0],[123.83968299999999,10.311793,249.52000000000001,0],[123.839652,10.311902999999999,249.81,0],[123.839623,10.31195,250.13999999999999,0],[123.839568,10.312013,250.81999999999999,0],[123.839309,10.312087999999999,255.69,0],[123.83900800000001,10.312137,256.44999999999999,0],[123.83890100000001,10.31221,253.78999999999999,0],[123.838768,10.31235,248.84,0],[123.83877099999999,10.312595,243.81999999999999,0],[123.838869,10.312791000000001,243,0],[123.839191,10.313086999999999,238.75999999999999,0],[123.839298,10.313298,236,0],[123.83940699999999,10.31354,234.21000000000001,0],[123.83948599999999,10.313682999999999,232.94,0],[123.839536,10.313720999999999,232.47,0],[123.839591,10.313741,232.06999999999999,0],[123.839645,10.313858,231.16999999999999,0],[123.839709,10.314036,231.44999999999999,0],[123.839804,10.314178,232.99000000000001,0],[123.83983000000001,10.314273,233.40000000000001,0],[123.839833,10.314344,233.25,0],[123.8398,10.314603,232.44999999999999,0],[123.839758,10.314721,232.31999999999999,0],[123.83967,10.314902,231.44999999999999,0],[123.839619,10.315096,229.94,0],[123.839602,10.315277,231.13,0],[123.83959900000001,10.315440000000001,233.00999999999999,0],[123.83966700000001,10.315702999999999,235.08000000000001,0],[123.83976800000001,10.315894,236.55000000000001,0],[123.839969,10.316109000000001,237.78999999999999,0],[123.839992,10.316243999999999,238.00999999999999,0],[123.83998099999999,10.31643,239.97,0],[123.839772,10.316734,253,0],[123.839743,10.316850000000001,255.78,0],[123.83977299999999,10.317000999999999,258.06999999999999,0],[123.83975100000001,10.317157,261,0],[123.83972199999999,10.317266,262.79000000000002,0],[123.839732,10.317368,264.30000000000001,0],[123.839778,10.317493000000001,266.13,0],[123.839809,10.317672,271.16000000000003,0],[123.839805,10.317838999999999,278.06999999999999,0],[123.839827,10.317936,281.33999999999997,0],[123.839878,10.318015000000001,283.51999999999998,0],[123.83998,10.318115000000001,285.55000000000001,0],[123.8402,10.318289,284.39999999999998,0],[123.840249,10.318379999999999,284.68000000000001,0],[123.840276,10.318680000000001,289.26999999999998,0],[123.840371,10.319219,301.36000000000001,0],[123.840418,10.31936,304.81,0],[123.840513,10.319545,307.06,0],[123.840638,10.319817,311.81,0],[123.840779,10.320052,315.20999999999998,0],[123.840959,10.320377000000001,320.89999999999998,0],[123.841268,10.320892000000001,327.98000000000002,0],[123.841356,10.321090999999999,331.85000000000002,0],[123.84138900000001,10.321202,334.87,0],[123.841437,10.321312000000001,337.73000000000002,0],[123.841545,10.321393,336.74000000000001,0],[123.841628,10.321494,336.29000000000002,0],[123.841678,10.321645,336.38,0],[123.841447,10.322020999999999,346.62,0],[123.841292,10.322293,353.04000000000002,0],[123.84112,10.322699,364.42000000000002,0],[123.841116,10.322903,366.25999999999999,0],[123.841112,10.323105999999999,370.88999999999999,0],[123.8413,10.323606,374.69,0],[123.84138400000001,10.323782,372.94,0],[123.84142900000001,10.323897000000001,372,0],[123.84144499999999,10.324021999999999,372.88999999999999,0],[123.841392,10.324211,376.42000000000002,0],[123.841341,10.324271,379.63,0],[123.84123099999999,10.324329000000001,387.54000000000002,0],[123.841121,10.324374000000001,395.48000000000002,0],[123.84111300000001,10.324469000000001,397.02999999999997,0],[123.841176,10.324583000000001,393.88,0],[123.84123599999999,10.324668000000001,390.49000000000001,0],[123.841216,10.324776999999999,392.13,0],[123.841088,10.324919,399.44,0],[123.84098299999999,10.325089,404.43000000000001,0],[123.840879,10.32526,412.95999999999998,0],[123.840867,10.325345,416.79000000000002,0],[123.840925,10.325404000000001,415.97000000000003,0],[123.841151,10.325469,408.45999999999998,0],[123.841244,10.325519,407.45999999999998,0],[123.841286,10.325638,410.95999999999998,0],[123.841294,10.325881000000001,419.19999999999999,0],[123.841375,10.326084,422.61000000000001,0],[123.841505,10.326167,421.30000000000001,0],[123.841728,10.326345,420.54000000000002,0],[123.841803,10.326461999999999,420.75,0],[123.84184399999999,10.326643000000001,421.38,0],[123.84182199999999,10.326821000000001,422.64999999999998,0],[123.84172100000001,10.327033,425.52999999999997,0],[123.841534,10.327241000000001,430.27999999999997,0],[123.841336,10.327534999999999,432.12,0],[123.841291,10.327767,429.63,0],[123.841217,10.327901000000001,428.63,0],[123.841111,10.327916999999999,431.10000000000002,0],[123.841022,10.327875000000001,434.70999999999998,0],[123.840952,10.327828,437.74000000000001,0],[123.840833,10.327671,443.33999999999997,0],[123.84059000000001,10.327109,454.51999999999998,0],[123.84049899999999,10.327016,457.20999999999998,0],[123.84029200000001,10.326877,462.07999999999998,0],[123.840108,10.326900999999999,463.69,0],[123.839994,10.327047,462.27999999999997,0],[123.839906,10.327145,462.31,0],[123.83968400000001,10.327463,461.89999999999998,0],[123.83953,10.327711000000001,462.89999999999998,0],[123.839488,10.328099999999999,461.55000000000001,0],[123.83947000000001,10.328647,456.07999999999998,0],[123.839456,10.329038000000001,456.56999999999999,0],[123.83946299999999,10.329453000000001,458.63,0],[123.839489,10.329879,464.00999999999999,0],[123.839513,10.330014,466.14999999999998,0],[123.839556,10.330086,466.02999999999997,0],[123.83982899999999,10.33046,464.37,0],[123.840065,10.330809,464.76999999999998,0],[123.84017,10.331058000000001,464.14999999999998,0],[123.840253,10.331331,463.83999999999997,0],[123.840341,10.331571,465.13999999999999,0],[123.840464,10.331892,470.06999999999999,0],[123.840547,10.332075,473.27999999999997,0],[123.840705,10.332281999999999,474.94999999999999,0],[123.840863,10.332488,479.38999999999999,0],[123.841005,10.332625,483.27999999999997,0],[123.841165,10.332708999999999,485,0],[123.84142300000001,10.332794,487.19999999999999,0],[123.84161400000001,10.332825,485.25,0],[123.841751,10.332874,482.43000000000001,0],[123.84186200000001,10.332962,479.72000000000003,0],[123.841905,10.333078,479.97000000000003,0],[123.841852,10.333515999999999,491.32999999999998,0],[123.84187,10.333679999999999,492.97000000000003,0],[123.84189600000001,10.333829,493.61000000000001,0],[123.841911,10.334009999999999,494.24000000000001,0],[123.84187799999999,10.334163999999999,496.91000000000003,0],[123.841854,10.334481,498.52999999999997,0],[123.841865,10.334655,499.25999999999999,0],[123.84191199999999,10.334773,499.04000000000002,0],[123.84211500000001,10.335151,497.07999999999998,0],[123.84215500000001,10.335331999999999,497.18000000000001,0],[123.84217200000001,10.335608000000001,498.20999999999998,0],[123.842237,10.335881000000001,497.31,0],[123.84230100000001,10.336155,499.97000000000003,0],[123.842382,10.336358000000001,501.43000000000001,0],[123.84247999999999,10.336544,502.26999999999998,0],[123.842562,10.336639999999999,502.58999999999997,0]]]}}]}
