{"type":"FeatureCollection","features":[{"type":"Feature","properties":[],"geometry":{"type":"MultiLineString","coordinates":[[[123.837587,10.309210999999999,262.88999999999999,0],[123.837611,10.309313,262.18000000000001,0],[123.837637,10.309346,262.67000000000002,0],[123.837636,10.309424,262.86000000000001,0],[123.837605,10.309526999999999,262.25,0],[123.83698699999999,10.309661,250.13999999999999,0],[123.83687500000001,10.309656,248.09999999999999,0],[123.836709,10.309561,243.77000000000001,0],[123.836409,10.309355,236.31999999999999,0],[123.83631,10.309265999999999,233.59999999999999,0],[123.83631200000001,10.309163,232.44999999999999,0],[123.83635200000001,10.309048000000001,232.49000000000001,0],[123.83638999999999,10.308889000000001,231.28,0],[123.836332,10.308785,228.80000000000001,0],[123.836178,10.308643,225.34999999999999,0],[123.835992,10.30857,220.80000000000001,0],[123.835634,10.308389,212.15000000000001,0],[123.834986,10.308194,198.90000000000001,0],[123.834872,10.308123999999999,195.86000000000001,0],[123.83480299999999,10.307838,195.06,0],[123.834684,10.307727,192.56999999999999,0],[123.834588,10.307717999999999,191.15000000000001,0],[123.83435799999999,10.307755,188.93000000000001,0],[123.83417,10.307748999999999,186.50999999999999,0],[123.833529,10.307607000000001,173.36000000000001,0],[123.833361,10.307618,172.38999999999999,0]]]}}]}
