{"type":"FeatureCollection","features":[{"type":"Feature","properties":[],"geometry":{"type":"MultiLineString","coordinates":[[[123.779021,10.322149,491.04000000000002,0],[123.779309,10.322079,493.25,0],[123.779507,10.322054,493.49000000000001,0],[123.779736,10.322053,492.19,0],[123.779943,10.322053,488.48000000000002,0],[123.780348,10.321980999999999,480.42000000000002,0],[123.780531,10.321942,474.42000000000002,0],[123.78062,10.321878,474.06,0],[123.780652,10.321819,475.56,0],[123.780691,10.321712,478.61000000000001,0],[123.780755,10.321318,482.23000000000002,0],[123.780905,10.320983999999999,468.85000000000002,0],[123.780928,10.320892000000001,468.44999999999999,0],[123.780945,10.320769,468.44,0],[123.78093800000001,10.320665,469.26999999999998,0],[123.78078600000001,10.320342,475.26999999999998,0],[123.780766,10.320266999999999,475.37,0],[123.78076900000001,10.320181,473.18000000000001,0],[123.78079700000001,10.320053,468.05000000000001,0],[123.78081400000001,10.319914000000001,464.39999999999998,0],[123.780784,10.319770999999999,465.72000000000003,0],[123.78070200000001,10.319495999999999,469.10000000000002,0],[123.78057699999999,10.319193,471.93000000000001,0],[123.780529,10.318680000000001,461.31,0],[123.780449,10.318387,461.12,0],[123.78037399999999,10.318137999999999,462.54000000000002,0],[123.780368,10.318047,462.14999999999998,0],[123.780377,10.317990999999999,461.25999999999999,0],[123.780413,10.317954,459.50999999999999,0],[123.78053199999999,10.317888,458.81,0],[123.780625,10.317907999999999,458.27999999999997,0],[123.780744,10.318019,456.25999999999999,0],[123.78100999999999,10.318308,450.83999999999997,0],[123.78134799999999,10.318707,441.75999999999999,0],[123.781665,10.319046999999999,440.24000000000001,0],[123.78187699999999,10.319323000000001,436.36000000000001,0],[123.781989,10.319433,435.07999999999998,0],[123.78210799999999,10.319511,435.23000000000002,0],[123.78232199999999,10.319637,434.25999999999999,0],[123.782749,10.319888000000001,435.38999999999999,0],[123.78307100000001,10.320128,434.75,0],[123.78321200000001,10.320245,434.19999999999999,0],[123.783395,10.320468,424.60000000000002,0],[123.783745,10.320755999999999,420.24000000000001,0],[123.78405100000001,10.320981,419.58999999999997,0],[123.784195,10.321039000000001,419.23000000000002,0],[123.78435899999999,10.321076,419.10000000000002,0],[123.784509,10.321064,419.16000000000003,0],[123.78498999999999,10.320992,414.43000000000001,0],[123.78537,10.320881,414.25,0],[123.78556500000001,10.320848,414.81999999999999,0],[123.785701,10.320850999999999,413.85000000000002,0],[123.785853,10.320881,411.56,0],[123.785989,10.320948,408.27999999999997,0],[123.78612099999999,10.321062,405.25999999999999,0],[123.786222,10.321205000000001,403.87,0],[123.786328,10.321434,400.66000000000003,0],[123.786395,10.321505999999999,400.43000000000001,0],[123.786514,10.321569999999999,399.85000000000002,0],[123.786692,10.321617,399.07999999999998,0],[123.786833,10.321619999999999,399.60000000000002,0],[123.787181,10.321573000000001,401.93000000000001,0],[123.787291,10.321579,402.33999999999997,0],[123.787373,10.321612,402.02999999999997,0],[123.78745499999999,10.32169,401,0],[123.787531,10.321901,398.31,0],[123.78760699999999,10.322236999999999,394.67000000000002,0],[123.787678,10.322584000000001,389.73000000000002,0],[123.787717,10.322698000000001,387.5,0],[123.78776000000001,10.322762000000001,386.47000000000003,0],[123.787808,10.322801,386.51999999999998,0],[123.787847,10.322818,386.99000000000001,0],[123.787986,10.322812000000001,388.89999999999998,0],[123.78855900000001,10.322737,390.26999999999998,0],[123.78866600000001,10.322742999999999,389.52999999999997,0],[123.788751,10.322768,388.51999999999998,0],[123.788839,10.322812000000001,387.05000000000001,0],[123.789067,10.322979,381.75,0],[123.789158,10.323032,380.51999999999998,0],[123.789243,10.323065,380.02999999999997,0],[123.78935300000001,10.323076,379.99000000000001,0],[123.789474,10.32306,380.49000000000001,0],[123.789652,10.323024,380.94,0],[123.78981,10.32301,380.98000000000002,0],[123.790002,10.323012,381.94999999999999,0],[123.790121,10.323048999999999,381.64999999999998,0],[123.790288,10.32316,379.51999999999998,0],[123.790406,10.323307,375.79000000000002,0],[123.790502,10.323496,368.88,0],[123.790553,10.323554,367.37,0],[123.790612,10.323596,366.61000000000001,0],[123.7907,10.323604,367.64999999999998,0],[123.790935,10.323570999999999,371.30000000000001,0],[123.791071,10.323554,371.08999999999997,0],[123.791291,10.323567000000001,368.82999999999998,0],[123.791404,10.323549999999999,369.98000000000002,0],[123.791529,10.32349,373.20999999999998,0],[123.791611,10.323472000000001,373.73000000000002,0],[123.791685,10.323472000000001,374.57999999999998,0],[123.791731,10.323501,373.95999999999998,0],[123.791765,10.323554,372.31,0],[123.79179600000001,10.323639999999999,370.31999999999999,0],[123.79183500000001,10.323827,366.69,0],[123.791883,10.323924,365.49000000000001,0],[123.791951,10.324021,364.58999999999997,0],[123.792169,10.324131,363.56999999999999,0],[123.793139,10.324356,359.32999999999998,0],[123.793401,10.324412000000001,356.63999999999999,0],[123.793663,10.324468,351.88,0],[123.79397400000001,10.324528000000001,349.17000000000002,0],[123.794284,10.324588,349.68000000000001,0],[123.794436,10.324629,349.51999999999998,0],[123.79457499999999,10.324657,349.55000000000001,0],[123.794713,10.324659,349.85000000000002,0],[123.794804,10.324630000000001,350.79000000000002,0],[123.795281,10.324438000000001,350.68000000000001,0],[123.795374,10.324418,350.20999999999998,0],[123.79548699999999,10.32441,349.69999999999999,0],[123.795581,10.324418,348.77999999999997,0],[123.795827,10.324513,345.18000000000001,0],[123.79591499999999,10.324534999999999,344.5,0],[123.796035,10.324533000000001,343.88,0],[123.79616300000001,10.324484999999999,344.00999999999999,0],[123.796329,10.324356999999999,344.27999999999997,0],[123.796655,10.324119,341.44999999999999,0],[123.796798,10.324047,340.26999999999998,0],[123.79692,10.324012,339.08999999999997,0],[123.79706299999999,10.323995999999999,338.38999999999999,0],[123.797225,10.324002,338.55000000000001,0],[123.79736,10.324062,335.31,0],[123.797535,10.324175,330.80000000000001,0],[123.797843,10.324362000000001,326.04000000000002,0],[123.798261,10.324584,322.72000000000003,0],[123.79845899999999,10.324685000000001,322.64999999999998,0],[123.79861200000001,10.324730000000001,323.19999999999999,0],[123.798783,10.324752999999999,323.82999999999998,0],[123.799001,10.324797,322.25999999999999,0],[123.799246,10.324960000000001,311.64999999999998,0],[123.799481,10.325125999999999,305.81,0],[123.799541,10.325151,305.81,0],[123.79966,10.325153999999999,305.98000000000002,0],[123.799734,10.325125,306.67000000000002,0],[123.799791,10.325053,308.06,0],[123.799801,10.324987999999999,309.56,0],[123.799768,10.324649000000001,322.47000000000003,0],[123.79980500000001,10.324517999999999,326.61000000000001,0],[123.79987800000001,10.324398,327.99000000000001,0],[123.79998000000001,10.324343000000001,324.06,0],[123.800118,10.324328,315.44,0],[123.800168,10.324317000000001,313.06,0],[123.800214,10.324296,311.79000000000002,0],[123.80029399999999,10.324236000000001,312.05000000000001,0],[123.80045200000001,10.324146000000001,312.69999999999999,0],[123.80058699999999,10.324121999999999,309.13,0],[123.800821,10.324127000000001,303.13999999999999,0],[123.80105500000001,10.324132000000001,301.22000000000003,0],[123.80138100000001,10.324156,298.85000000000002,0],[123.80170200000001,10.32419,295.01999999999998,0],[123.801937,10.324222000000001,294.35000000000002,0],[123.802216,10.324299999999999,295.43000000000001,0],[123.802459,10.324426000000001,294.97000000000003,0],[123.802594,10.324532,292.12,0],[123.802685,10.324630000000001,288.19,0],[123.80289500000001,10.32493,277.17000000000002,0],[123.802943,10.32498,276.17000000000002,0],[123.803011,10.325022000000001,275.66000000000003,0],[123.803099,10.325032999999999,276.63,0],[123.803613,10.325010000000001,280.92000000000002,0],[123.80368,10.325027,280.32999999999998,0],[123.80374999999999,10.325066,277.97000000000003,0],[123.803904,10.325182,271.91000000000003,0],[123.80395,10.325195000000001,271.39999999999998,0],[123.804011,10.325189999999999,271.99000000000001,0],[123.804067,10.32516,273.11000000000001,0],[123.804104,10.325101999999999,275.74000000000001,0],[123.80423,10.324832000000001,289.5,0],[123.804328,10.324748,291.88,0],[123.80439800000001,10.324712999999999,291.75999999999999,0],[123.8045,10.324707,287.57999999999998,0],[123.804565,10.324712999999999,284.07999999999998,0],[123.8047,10.324761000000001,273.42000000000002,0],[123.80477999999999,10.324780000000001,269.44,0],[123.80488699999999,10.324776,266.81,0],[123.80498799999999,10.324745999999999,267.07999999999998,0],[123.80532100000001,10.324608,274.16000000000003,0],[123.805436,10.324581,275.55000000000001,0],[123.805516,10.324586,275.19999999999999,0],[123.80560199999999,10.324626,273.87,0],[123.80576600000001,10.324832000000001,264.44999999999999,0],[123.80592900000001,10.325155000000001,252.37,0],[123.805947,10.325248999999999,248.69999999999999,0],[123.80595099999999,10.325315,246.81,0],[123.805939,10.325374999999999,244.47999999999999,0],[123.805854,10.325635999999999,239.31,0],[123.805837,10.325756999999999,239.78,0],[123.805852,10.325839,240.81,0],[123.80588899999999,10.325886000000001,242.56999999999999,0],[123.80595599999999,10.325907000000001,243.69,0],[123.806049,10.325886000000001,244.91,0],[123.80610799999999,10.325832,244.88,0],[123.806341,10.325473000000001,247.53,0],[123.806398,10.325409000000001,249.18000000000001,0],[123.806479,10.325374,250.84999999999999,0],[123.80658,10.325372,250.52000000000001,0],[123.806707,10.325395,249.06,0],[123.806847,10.325431999999999,247.80000000000001,0],[123.80707,10.325535,244.68000000000001,0],[123.80742100000001,10.325771,239.22999999999999,0],[123.807519,10.325822000000001,238.19,0],[123.80770800000001,10.325877,236.44,0],[123.808077,10.32596,231.27000000000001,0],[123.808178,10.325975,230.71000000000001,0],[123.80837099999999,10.325984999999999,229.44999999999999,0],[123.80850599999999,10.325968,228.88,0],[123.80880500000001,10.325870999999999,230.78,0],[123.80888899999999,10.325858999999999,230.87,0],[123.80896199999999,10.325862000000001,229.72,0],[123.809073,10.325889,227.66,0],[123.80931200000001,10.325982,221.84999999999999,0],[123.809772,10.326114,217.50999999999999,0],[123.810267,10.326271999999999,216.68000000000001,0],[123.810346,10.326274,217.44999999999999,0],[123.810417,10.326256000000001,218.53999999999999,0],[123.810478,10.326228,219.63999999999999,0],[123.81057,10.326174,220.58000000000001,0],[123.810918,10.325942,213.46000000000001,0],[123.811308,10.32574,208.75999999999999,0],[123.811455,10.325723,204.75999999999999,0],[123.81162,10.325754,199.44999999999999,0],[123.812006,10.325901,192.05000000000001,0],[123.812178,10.325904,193.34,0],[123.812262,10.325884,195.00999999999999,0],[123.812333,10.325844999999999,196.49000000000001,0],[123.81243600000001,10.325754,200.66,0],[123.812544,10.325673999999999,203.53,0],[123.812591,10.325657,203.38999999999999,0],[123.81271,10.325647,200.66,0],[123.81282,10.325656,197.56999999999999,0],[123.813036,10.325746000000001,190.18000000000001,0],[123.813346,10.325885,183.34999999999999,0],[123.813609,10.325944,181.31,0],[123.814037,10.325946999999999,183.53999999999999,0],[123.81416900000001,10.325996,181.37,0],[123.81424800000001,10.326078000000001,176.94999999999999,0],[123.81436100000001,10.326249000000001,168.66999999999999,0],[123.81446099999999,10.326377000000001,164.00999999999999,0],[123.814517,10.326435999999999,161.94,0],[123.814622,10.326504,161.09999999999999,0],[123.814717,10.32654,161.24000000000001,0],[123.81489999999999,10.326549999999999,163.83000000000001,0],[123.815135,10.32653,165.13999999999999,0],[123.81524,10.326527,164.06999999999999,0],[123.81560899999999,10.326563,155.62,0],[123.81571700000001,10.326555000000001,153.97999999999999,0],[123.81576,10.326537,153.91999999999999,0],[123.815805,10.326502,154.88,0],[123.816036,10.326268000000001,163.56999999999999,0],[123.81620100000001,10.326117,168.47,0],[123.816303,10.326052000000001,168.77000000000001,0],[123.816384,10.326021000000001,167.22,0],[123.816484,10.326017999999999,163.05000000000001,0],[123.816729,10.326059000000001,149.08000000000001,0],[123.816806,10.326052000000001,145.96000000000001,0],[123.81698,10.32601,140.81,0],[123.81706699999999,10.325950000000001,141.59,0],[123.817329,10.325725,143.53,0],[123.817559,10.325512,141.19,0],[123.818186,10.325006,136.61000000000001,0],[123.81856500000001,10.324687000000001,130.69,0],[123.81882400000001,10.32446,124.92,0],[123.818984,10.324291000000001,121.33,0],[123.819062,10.324128,119.58,0],[123.819198,10.323705,112.03,0],[123.819298,10.323515,108.91,0],[123.81939,10.323344000000001,108.36,0],[123.819413,10.323264999999999,108.79000000000001,0],[123.81947700000001,10.322723999999999,103.91,0],[123.819464,10.322412999999999,101.20999999999999,0],[123.81948300000001,10.322050000000001,98.079999999999998,0],[123.81952200000001,10.321856,96.379999999999995,0],[123.81955499999999,10.321759,95.510000000000005,0],[123.819581,10.321707999999999,95.019999999999996,0],[123.819642,10.32165,94.379999999999995,0],[123.81985,10.321483000000001,92.400000000000006,0],[123.819909,10.321389,91.420000000000002,0],[123.81995499999999,10.321235,90,0],[123.81999999999999,10.321156,89.200000000000003,0],[123.82005100000001,10.321085999999999,88.450000000000003,0],[123.82010699999999,10.321033999999999,87.819999999999993,0],[123.82025299999999,10.320921,86.379999999999995,0],[123.82037800000001,10.320786,84.840000000000003,0],[123.82046699999999,10.320627,83.219999999999999,0],[123.820565,10.320361999999999,80.680000000000007,0],[123.820684,10.319914000000001,76.519999999999996,0],[123.82084399999999,10.319243999999999,74.019999999999996,0],[123.820842,10.319203,73.959999999999994,0],[123.82082800000001,10.319169,73.909999999999997,0],[123.820778,10.319115,73.810000000000002,0],[123.820453,10.318892999999999,73.269999999999996,0],[123.81904,10.317989000000001,70.890000000000001,0],[123.818865,10.317826,70.549999999999997,0],[123.81874500000001,10.317691999999999,70.299999999999997,0],[123.818575,10.317182000000001,73.420000000000002,0],[123.81842899999999,10.316660000000001,68.129999999999995,0],[123.81831200000001,10.315827000000001,66.950000000000003,0],[123.818296,10.315702,67.430000000000007,0],[123.81823199999999,10.315467,68,0],[123.818146,10.31521,66.189999999999998,0],[123.81806,10.315003000000001,63.579999999999998,0],[123.81797400000001,10.314795999999999,63.289999999999999,0],[123.81791699999999,10.314550000000001,63.399999999999999,0],[123.817887,10.314249,64.799999999999997,0],[123.817857,10.313948999999999,68.799999999999997,0],[123.81781599999999,10.31371,72.090000000000003,0],[123.817707,10.313397,71.180000000000007,0],[123.81757500000001,10.312995000000001,67.150000000000006,0],[123.81737699999999,10.312588,63.789999999999999,0],[123.81727100000001,10.312393,61.960000000000001,0],[123.817123,10.312075,64.170000000000002,0],[123.817058,10.311997,63.740000000000002,0],[123.81682000000001,10.311769,60.450000000000003,0],[123.816681,10.311558,60.200000000000003,0],[123.816264,10.31085,61.649999999999999,0],[123.81616699999999,10.310479000000001,61.810000000000002,0],[123.81598099999999,10.309638,63.719999999999999,0],[123.815854,10.309072,62.810000000000002,0],[123.815742,10.308547000000001,58.649999999999999,0],[123.815647,10.308082000000001,57.539999999999999,0],[123.81556399999999,10.307812999999999,57.369999999999997,0],[123.815398,10.307275000000001,62.729999999999997,0],[123.815218,10.306711,60.659999999999997,0],[123.815153,10.30645,60.109999999999999,0],[123.815128,10.306302000000001,60.82,0],[123.81509200000001,10.305844,58.960000000000001,0],[123.815084,10.305599000000001,58.200000000000003,0],[123.815111,10.305336,58.399999999999999,0],[123.81517599999999,10.305165000000001,59.140000000000001,0],[123.81528299999999,10.30498,60.310000000000002,0],[123.81550900000001,10.304691999999999,63.159999999999997,0],[123.815882,10.304304,68.650000000000006,0],[123.816069,10.30411,69.269999999999996,0],[123.816198,10.303922,70.989999999999995,0],[123.816273,10.303718999999999,71.569999999999993,0],[123.816344,10.303369999999999,66.659999999999997,0],[123.81646600000001,10.302908,60.039999999999999,0],[123.81657,10.30264,57.939999999999998,0],[123.816614,10.302448,57.600000000000001,0],[123.816676,10.302216,59.270000000000003,0],[123.816748,10.302023999999999,58.869999999999997,0],[123.816878,10.301779,58.18,0],[123.81766,10.300700000000001,51.729999999999997,0],[123.817781,10.300549,52.079999999999998,0],[123.81801299999999,10.300185000000001,51,0],[123.818139,10.299953,51,0],[123.818167,10.299874000000001,51,0],[123.81818199999999,10.299728,50.549999999999997,0],[123.81822099999999,10.29874,52.530000000000001,0],[123.818257,10.298451999999999,52.280000000000001,0],[123.81832,10.298073,51.670000000000002,0],[123.818428,10.29776,50.119999999999997,0],[123.81858800000001,10.297311000000001,52.049999999999997,0],[123.81862,10.297191,52.079999999999998,0],[123.818646,10.296925,51.149999999999999,0],[123.818636,10.2967,50.270000000000003,0],[123.818541,10.295909999999999,53,0],[123.81854,10.295662999999999,54.780000000000001,0],[123.818575,10.295377,55.990000000000002,0],[123.81864299999999,10.294803999999999,52.75,0],[123.818702,10.29454,51.75,0],[123.81876099999999,10.294275000000001,53.670000000000002,0],[123.81882,10.29401,59.770000000000003,0],[123.81881199999999,10.293794,64.230000000000004,0],[123.81876099999999,10.293625,65.150000000000006,0],[123.818563,10.293236,60.049999999999997,0],[123.818499,10.292906,59.130000000000003,0],[123.818532,10.292688,57.310000000000002,0],[123.81863300000001,10.292403,53.960000000000001,0],[123.818736,10.292023,52.090000000000003,0],[123.81876,10.29177,53.710000000000001,0],[123.81879600000001,10.291592,54.909999999999997,0],[123.81905,10.290996,64.409999999999997,0],[123.819165,10.290592,66.010000000000005,0],[123.819264,10.290032,61.539999999999999,0],[123.819363,10.289472999999999,62.600000000000001,0],[123.81946499999999,10.289167000000001,64.75,0],[123.81956700000001,10.28886,64.599999999999994,0],[123.819585,10.288705,62.219999999999999,0],[123.819559,10.288399,57.600000000000001,0],[123.81953300000001,10.288093999999999,56.450000000000003,0],[123.81954399999999,10.287789999999999,56.25,0],[123.81957300000001,10.287502999999999,53.950000000000003,0],[123.819731,10.286777000000001,47.210000000000001,0],[123.819784,10.286536,46.100000000000001,0],[123.819901,10.286,46.969999999999999,0],[123.819924,10.285702000000001,45.590000000000003,0],[123.819906,10.285166,45.18,0],[123.81993300000001,10.284865999999999,45.359999999999999,0],[123.81999399999999,10.284637999999999,44.840000000000003,0],[123.82009499999999,10.284456,45.619999999999997,0],[123.820328,10.284041,43.640000000000001,0],[123.820483,10.283861999999999,43.07,0],[123.821057,10.283531999999999,46.590000000000003,0],[123.82162099999999,10.283116,44.170000000000002,0],[123.821838,10.282992,43.219999999999999,0],[123.82221199999999,10.282902999999999,41.030000000000001,0],[123.82219000000001,10.282762999999999,39.810000000000002,0],[123.822236,10.28271,39.340000000000003,0],[123.822475,10.282635000000001,37.490000000000002,0],[123.822857,10.282572999999999,33.920000000000002,0],[123.822919,10.282534,33.200000000000003,0],[123.82307400000001,10.282311999999999,33.039999999999999,0],[123.823114,10.282230999999999,32.770000000000003,0],[123.82317399999999,10.282157,32.479999999999997,0],[123.82324300000001,10.282095999999999,33.109999999999999,0],[123.823376,10.281844,37.460000000000001,0],[123.823446,10.281644999999999,37.969999999999999,0],[123.823538,10.281440999999999,36.43,0],[123.823662,10.281231,32.609999999999999,0],[123.823744,10.280958999999999,29.07,0],[123.82376600000001,10.280707,30.649999999999999,0],[123.823914,10.280379999999999,42.280000000000001,0],[123.82405900000001,10.280301,45.219999999999999,0],[123.824665,10.280158,46.770000000000003,0],[123.824927,10.280144999999999,44.450000000000003,0],[123.825453,10.280118,32.829999999999998,0],[123.825633,10.280108,30.27,0],[123.82573600000001,10.280033,30.120000000000001,0],[123.825782,10.279916999999999,31.25,0],[123.82580900000001,10.279685000000001,33.700000000000003,0],[123.825861,10.279477,34.700000000000003,0],[123.82598299999999,10.279051000000001,35.659999999999997,0],[123.826004,10.278862999999999,35.280000000000001,0],[123.825943,10.278783000000001,36.219999999999999,0],[123.82587700000001,10.278599,36.759999999999998,0],[123.825836,10.278320000000001,36.079999999999998,0],[123.825782,10.278161000000001,36.399999999999999,0],[123.82560700000001,10.277927999999999,39.68,0],[123.825491,10.277794,41.560000000000002,0],[123.825451,10.277625,40.009999999999998,0],[123.825446,10.27716,29.350000000000001,0],[123.825227,10.276835999999999,29.609999999999999,0],[123.824917,10.276358,32.5,0],[123.824877,10.27631,33.119999999999997,0],[123.825011,10.276177000000001,25.16,0],[123.825244,10.276037000000001,27.899999999999999,0],[123.825322,10.275987000000001,30.789999999999999,0],[123.82546499999999,10.275853,40.159999999999997,0],[123.82536899999999,10.275612000000001,38.68,0],[123.82532399999999,10.275411999999999,37.509999999999998,0],[123.825307,10.275073000000001,34.109999999999999,0],[123.825362,10.274801999999999,32.75,0],[123.825464,10.274526,31.030000000000001,0],[123.826061,10.273300000000001,30.5,0],[123.826367,10.272686,32.43,0],[123.826538,10.272325,31.899999999999999,0],[123.82674299999999,10.272009000000001,31.989999999999998,0],[123.826933,10.271756999999999,33.229999999999997,0],[123.827152,10.271485999999999,32.399999999999999,0],[123.827354,10.27126,31.02,0],[123.827822,10.270792999999999,28.420000000000002,0],[123.82828499999999,10.270332,31.719999999999999,0],[123.828712,10.269859,29.199999999999999,0],[123.829013,10.269587,28.140000000000001,0],[123.829055,10.269558,28.16,0],[123.82972599999999,10.269119999999999,29.600000000000001,0],[123.83149,10.267963,28.100000000000001,0],[123.831762,10.267806999999999,27.609999999999999,0],[123.832061,10.267659,27.760000000000002,0],[123.832672,10.267412999999999,28,0],[123.83319400000001,10.267201999999999,25.329999999999998,0],[123.833855,10.266935,24.440000000000001,0],[123.834215,10.266769,24.109999999999999,0],[123.834504,10.266613,25,0],[123.835143,10.266242,24,0],[123.835286,10.266139000000001,23.969999999999999,0],[123.835787,10.265831,25,0],[123.836315,10.265497,24.239999999999998,0],[123.836792,10.265181,25.300000000000001,0],[123.83699900000001,10.265055,24.190000000000001,0],[123.837456,10.264753000000001,22.559999999999999,0],[123.838444,10.26416,22.780000000000001,0],[123.838543,10.264086000000001,22.210000000000001,0],[123.838651,10.264029000000001,22.420000000000002,0],[123.839512,10.263531,22.379999999999999,0],[123.839567,10.263590000000001,22.079999999999998,0],[123.839465,10.263667,22.120000000000001,0],[123.839445,10.263645,22.149999999999999,0]]]}}]}
