{"type":"FeatureCollection","features":[{"type":"Feature","properties":[],"geometry":{"type":"MultiLineString","coordinates":[[[123.71098000000001,10.257558,93.329999999999998,0],[123.710677,10.256548,90,0],[123.71061,10.255827999999999,91.150000000000006,0],[123.710652,10.255420000000001,92.560000000000002,0],[123.71082199999999,10.255094,93.540000000000006,0],[123.710981,10.254846000000001,96.390000000000001,0],[123.71105799999999,10.25459,98.980000000000004,0],[123.71104200000001,10.254030999999999,98.489999999999995,0],[123.711112,10.253804000000001,97.640000000000001,0],[123.711225,10.253571000000001,96.379999999999995,0],[123.711384,10.253292999999999,93.719999999999999,0],[123.711583,10.253131,92.819999999999993,0],[123.711795,10.253057999999999,94.760000000000005,0],[123.71230799999999,10.252882,94.340000000000003,0],[123.71290399999999,10.252672,90.640000000000001,0],[123.71312399999999,10.252666,89.209999999999994,0],[123.713341,10.252753999999999,89.019999999999996,0],[123.71356,10.252891,88.780000000000001,0],[123.713998,10.253166999999999,84.900000000000006,0],[123.714218,10.25325,84.079999999999998,0],[123.714433,10.253214,81.409999999999997,0],[123.71474000000001,10.253033,76.579999999999998,0],[123.71492600000001,10.253002,74.560000000000002,0],[123.71554399999999,10.253091,71.200000000000003,0],[123.715822,10.2531,68.920000000000002,0],[123.716382,10.25295,62.560000000000002,0],[123.716607,10.252901,60.159999999999997,0],[123.717128,10.252786,63.149999999999999,0],[123.717645,10.252681000000001,66.5,0],[123.718163,10.252577,67.629999999999995,0],[123.718327,10.252554,67.219999999999999,0],[123.71947900000001,10.252513,65.849999999999994,0],[123.719748,10.252439000000001,64.25,0],[123.720209,10.252179,61.359999999999999,0],[123.720629,10.251935,60.280000000000001,0],[123.721059,10.251702,60.5,0],[123.72149,10.251469999999999,58.359999999999999,0],[123.721757,10.251385000000001,57.009999999999998,0],[123.722103,10.251317999999999,57.299999999999997,0],[123.722381,10.251237,57.350000000000001,0],[123.72256299999999,10.251134,56.810000000000002,0],[123.72260199999999,10.251262000000001,54.289999999999999,0],[123.72252899999999,10.251808,50.079999999999998,0],[123.72247400000001,10.252751999999999,54.990000000000002,0],[123.722483,10.253159999999999,56.170000000000002,0],[123.72246800000001,10.253310000000001,57.840000000000003,0],[123.722433,10.253450000000001,59.289999999999999,0],[123.722368,10.253558999999999,59.909999999999997,0],[123.72212500000001,10.253779,60.799999999999997,0],[123.722086,10.254025,62.420000000000002,0],[123.72209599999999,10.254135,62.859999999999999,0],[123.72219699999999,10.254355,63.399999999999999,0],[123.722234,10.254545,64.280000000000001,0],[123.7222,10.254697,64.260000000000005,0],[123.722201,10.254801,64.890000000000001,0],[123.72222499999999,10.254928,66.310000000000002,0],[123.72229,10.255049,68.590000000000003,0],[123.72242799999999,10.255181,71.780000000000001,0],[123.722932,10.25564,74.340000000000003,0],[123.7231,10.255839,73.840000000000003,0],[123.72327300000001,10.255967,74.829999999999998,0],[123.72340199999999,10.256048,75.980000000000004,0],[123.723664,10.256154,78.859999999999999,0],[123.723794,10.256174,79.980000000000004,0],[123.72390799999999,10.256181,81.079999999999998,0],[123.72398800000001,10.256209,81.209999999999994,0],[123.724177,10.256406999999999,78.730000000000004,0],[123.72425800000001,10.256518,77.420000000000002,0],[123.724388,10.256596,77.780000000000001,0],[123.724576,10.256659000000001,78.859999999999999,0],[123.72489299999999,10.256783,81.640000000000001,0],[123.72527599999999,10.256967,83.129999999999995,0],[123.72533199999999,10.257056,82.489999999999995,0],[123.725448,10.257277999999999,82.650000000000006,0],[123.725849,10.257878,91.180000000000007,0],[123.725966,10.258084,94.629999999999995,0],[123.726018,10.258312999999999,96.519999999999996,0],[123.72615500000001,10.258842,94.5,0],[123.726181,10.259055999999999,93.969999999999999,0],[123.726212,10.259162999999999,94.510000000000005,0],[123.72636199999999,10.259297,95.659999999999997,0],[123.726465,10.259372000000001,96.709999999999994,0],[123.726586,10.259423,98.079999999999998,0],[123.726699,10.259489,99.129999999999995,0],[123.726806,10.259653,100.48999999999999,0],[123.726906,10.259930000000001,100.65000000000001,0],[123.726935,10.26003,101.45,0],[123.727065,10.260095,101.45,0],[123.727124,10.260152,102.14,0],[123.727189,10.26019,102.8,0],[123.72729099999999,10.260320999999999,105.51000000000001,0],[123.727311,10.260455,108.67,0],[123.72736399999999,10.260548,110.58,0],[123.727492,10.260662,112.06,0],[123.727721,10.261060000000001,116.41,0],[123.72775300000001,10.26116,117.23999999999999,0],[123.727752,10.261298,118.65000000000001,0],[123.727771,10.261483,120.78,0],[123.727835,10.261608000000001,121.7,0],[123.727885,10.261756999999999,123.52,0],[123.727895,10.261983000000001,127.31,0],[123.727895,10.26216,131.22999999999999,0],[123.727925,10.262268000000001,132.88999999999999,0],[123.728002,10.262370000000001,133.81999999999999,0],[123.728101,10.262432,132.97,0],[123.728199,10.262460000000001,131.36000000000001,0],[123.728317,10.262466,129.61000000000001,0],[123.728459,10.262449,127.98,0],[123.72870500000001,10.262385999999999,125.84999999999999,0],[123.728866,10.262354999999999,125.44,0],[123.729033,10.262302999999999,126.56,0],[123.729142,10.262237000000001,127.58,0],[123.729257,10.262109000000001,128.41999999999999,0],[123.729439,10.261886000000001,128.59,0],[123.729557,10.261841,130.28,0],[123.729686,10.261873,133.90000000000001,0],[123.729795,10.261974,138.63,0],[123.72987000000001,10.262060999999999,142.15000000000001,0],[123.729945,10.262286,147.75999999999999,0],[123.729952,10.262492999999999,150.28999999999999,0],[123.729991,10.262715999999999,153.56,0],[123.730116,10.26304,158.19,0],[123.730193,10.263131,159.25999999999999,0],[123.73062,10.263481000000001,165.58000000000001,0],[123.730699,10.263571000000001,167.33000000000001,0],[123.730834,10.263939000000001,177.84999999999999,0],[123.73091599999999,10.264049,180.69999999999999,0],[123.73108999999999,10.26426,183.94999999999999,0],[123.73121500000001,10.264607,186.58000000000001,0],[123.73129299999999,10.264765000000001,186.22,0],[123.731348,10.264806,184.52000000000001,0],[123.73151300000001,10.264884,179.59999999999999,0],[123.731622,10.264904,176.91999999999999,0],[123.73176599999999,10.264958,175.36000000000001,0],[123.731825,10.265055,176.03999999999999,0],[123.73185599999999,10.265139,176.66,0],[123.731891,10.265293,178.62,0],[123.731943,10.265335,179.00999999999999,0],[123.732103,10.265352,179.41,0],[123.732221,10.265351000000001,180.65000000000001,0],[123.732299,10.265311000000001,180.91,0],[123.73245199999999,10.265105999999999,179.86000000000001,0],[123.732598,10.265041999999999,182.33000000000001,0],[123.732803,10.26498,186.77000000000001,0],[123.733244,10.264754,192.13,0],[123.733429,10.264605,195.63,0],[123.73349,10.264512,197.03,0],[123.733541,10.264358,199,0],[123.73355100000001,10.264135,198.75,0],[123.733572,10.264055000000001,198.86000000000001,0],[123.73361,10.264018,199.77000000000001,0],[123.73370300000001,10.263996000000001,202.08000000000001,0],[123.733789,10.264018,204.21000000000001,0],[123.733886,10.264080999999999,206.66,0],[123.734167,10.264364,212.77000000000001,0],[123.734483,10.264716,219.28,0],[123.73458100000001,10.264926000000001,221.28999999999999,0],[123.73459099999999,10.265117,221.81999999999999,0],[123.734573,10.26526,222.00999999999999,0],[123.73445100000001,10.265587,221.08000000000001,0],[123.73437199999999,10.265817999999999,222.99000000000001,0],[123.734436,10.265934,226.97,0],[123.734538,10.266048,230.96000000000001,0],[123.734624,10.266124,232.72,0],[123.734691,10.266251,235.25,0],[123.734796,10.266477999999999,237.61000000000001,0],[123.735134,10.266997999999999,241.86000000000001,0],[123.735252,10.267208999999999,243.38999999999999,0],[123.735319,10.267491,245.56,0],[123.735437,10.267784000000001,246.59,0],[123.735528,10.267873,247.28,0],[123.73563300000001,10.267894999999999,246.24000000000001,0],[123.735817,10.267918,244.09999999999999,0],[123.735936,10.267905000000001,242.43000000000001,0],[123.736051,10.267852,240.83000000000001,0],[123.736271,10.267688,241.69999999999999,0],[123.73638099999999,10.267687,243.58000000000001,0],[123.73647800000001,10.26774,245.15000000000001,0],[123.736553,10.267816,246.46000000000001,0],[123.73659499999999,10.267984999999999,247.96000000000001,0],[123.736617,10.268121000000001,249.41,0],[123.736638,10.268185000000001,250.40000000000001,0],[123.73668499999999,10.268247000000001,251.80000000000001,0],[123.736805,10.268366,254.49000000000001,0],[123.737233,10.268699,263.99000000000001,0],[123.737302,10.268782,266.42000000000002,0],[123.737443,10.268985000000001,272.67000000000002,0],[123.73748999999999,10.269017,274.52999999999997,0],[123.737801,10.26906,282.20999999999998,0],[123.737931,10.269104,285.23000000000002,0],[123.738197,10.269126,288.80000000000001,0],[123.738816,10.269123,294.69,0],[123.738895,10.269126,295.32999999999998,0],[123.73897100000001,10.269095999999999,295.81,0],[123.739048,10.268914000000001,295.69999999999999,0],[123.739135,10.268782,296.02999999999997,0],[123.739243,10.268677,296.92000000000002,0],[123.739361,10.268651999999999,298.19999999999999,0],[123.739535,10.268693000000001,299.18000000000001,0],[123.739589,10.268699,299.18000000000001,0],[123.739873,10.268656,300.08999999999997,0],[123.74001199999999,10.268681000000001,299.18000000000001,0],[123.74012,10.268731000000001,297.13999999999999,0],[123.740306,10.268841999999999,292.75,0],[123.74039399999999,10.268871000000001,291.51999999999998,0],[123.740529,10.268898999999999,290.75999999999999,0],[123.740725,10.268924999999999,290.38,0],[123.74082,10.268927,290.47000000000003,0],[123.740894,10.268908,290.66000000000003,0],[123.741045,10.268829999999999,289.83999999999997,0],[123.74113699999999,10.268812,288.54000000000002,0],[123.741304,10.268848999999999,285.67000000000002,0],[123.74171800000001,10.269034,278.19999999999999,0],[123.741938,10.269088,273.97000000000003,0],[123.742085,10.26909,271.44,0],[123.74211200000001,10.269076,270.79000000000002,0],[123.74214499999999,10.269043,269.83999999999997,0],[123.742158,10.268983,268.89999999999998,0],[123.742183,10.268928000000001,267.80000000000001,0],[123.742181,10.268883000000001,267.31999999999999,0],[123.74210600000001,10.268629000000001,266.50999999999999,0],[123.742088,10.26845,265.42000000000002,0],[123.742107,10.268264,263.13,0],[123.742181,10.268101,260.18000000000001,0],[123.742231,10.268045000000001,258.69999999999999,0],[123.742287,10.268017,257.23000000000002,0],[123.742509,10.267963,251.46000000000001,0],[123.742564,10.267943000000001,250.08000000000001,0],[123.74261199999999,10.267899999999999,248.78,0],[123.742771,10.267612,243.61000000000001,0],[123.74279199999999,10.267545999999999,242.50999999999999,0],[123.742812,10.267388,240.19999999999999,0],[123.742808,10.26712,237.61000000000001,0],[123.742817,10.267077,237.09,0],[123.74285500000001,10.267018,235.75,0],[123.74294999999999,10.266957,233.80000000000001,0],[123.743027,10.266985999999999,232.11000000000001,0],[123.743222,10.266991000000001,228.06999999999999,0],[123.743343,10.266919,226.49000000000001,0],[123.743392,10.266875000000001,226.12,0],[123.743449,10.266804,226.53,0],[123.743627,10.266641,227.55000000000001,0],[123.743742,10.266619,227.19,0],[123.74385599999999,10.266616000000001,226.44,0],[123.74397,10.266648999999999,224.99000000000001,0],[123.744165,10.266759,221.97,0],[123.74449,10.266873,219.53999999999999,0],[123.744806,10.266969,218.22,0],[123.74512300000001,10.267065000000001,213.72999999999999,0],[123.745434,10.267189,208.31,0],[123.745655,10.267232999999999,207.43000000000001,0],[123.74594500000001,10.267313,205.53999999999999,0],[123.746106,10.267391999999999,203.21000000000001,0],[123.74636,10.26759,197.69,0],[123.746465,10.267661,196.02000000000001,0],[123.746728,10.267989999999999,187.56999999999999,0],[123.746888,10.268148,182.55000000000001,0],[123.74700199999999,10.268179999999999,181.75,0],[123.747169,10.268178000000001,180.81999999999999,0],[123.747502,10.268131,177.94999999999999,0],[123.747586,10.268141,176.74000000000001,0],[123.747716,10.268192000000001,173.41,0],[123.747968,10.268438,164.94,0],[123.74821799999999,10.268654,160.38999999999999,0],[123.748492,10.268806,156.38999999999999,0],[123.748679,10.268886,153.38,0],[123.748915,10.268895000000001,150.62,0],[123.749539,10.268877,145.38999999999999,0],[123.750072,10.268821000000001,139.78,0],[123.7503,10.268856,137.84,0],[123.750505,10.268928000000001,135.36000000000001,0],[123.75067,10.268943999999999,133.53,0],[123.750816,10.268993999999999,130.97999999999999,0],[123.750938,10.269114999999999,128.75999999999999,0],[123.751007,10.269159999999999,127.69,0],[123.751085,10.269185,126.23999999999999,0],[123.75117400000001,10.26919,124.56999999999999,0],[123.751282,10.269161,122.65000000000001,0],[123.751351,10.269107,121.44,0],[123.75149500000001,10.268931,120.59999999999999,0],[123.751552,10.268898999999999,119.89,0],[123.751662,10.268890000000001,118.65000000000001,0],[123.751874,10.268905999999999,115.02,0],[123.751997,10.268890000000001,112.54000000000001,0],[123.752251,10.268833000000001,108.40000000000001,0],[123.75248000000001,10.268796999999999,105.88,0],[123.75262499999999,10.268789999999999,104.26000000000001,0],[123.75276100000001,10.268796999999999,102,0],[123.752905,10.268819000000001,99.140000000000001,0],[123.75302499999999,10.268827,97.709999999999994,0],[123.753124,10.26882,96.439999999999998,0],[123.75318300000001,10.268806,95.230000000000004,0],[123.75328500000001,10.268765,92.810000000000002,0],[123.75332400000001,10.268732999999999,91.489999999999995,0],[123.75334599999999,10.268668999999999,90.129999999999995,0],[123.753359,10.268598000000001,88.900000000000006,0],[123.75335200000001,10.268461,86.980000000000004,0],[123.75336,10.268383999999999,85.400000000000006,0],[123.75338000000001,10.268331999999999,84.25,0],[123.753702,10.267832,77.359999999999999,0],[123.75392100000001,10.267555,75.049999999999997,0],[123.75394300000001,10.267481999999999,74.640000000000001,0],[123.753967,10.267307000000001,72.569999999999993,0],[123.754052,10.267154,68.870000000000005,0],[123.754108,10.267080999999999,66.680000000000007,0],[123.754289,10.266933,62.439999999999998,0],[123.754356,10.266914,61.450000000000003,0],[123.75444299999999,10.266909,60.579999999999998,0],[123.754496,10.266916999999999,60.079999999999998,0],[123.75456,10.266945,59.490000000000002,0],[123.75466299999999,10.267034000000001,58.82,0],[123.75482,10.267196999999999,57.950000000000003,0],[123.75497900000001,10.267381,56.109999999999999,0],[123.755087,10.267466000000001,54.270000000000003,0],[123.75525500000001,10.267543999999999,51.869999999999997,0],[123.755371,10.267588999999999,50.93,0],[123.755488,10.267561000000001,50.859999999999999,0],[123.75561999999999,10.267390000000001,50.899999999999999,0],[123.755695,10.26723,50.799999999999997,0],[123.75576599999999,10.267054999999999,50.789999999999999,0],[123.755835,10.266768000000001,50.109999999999999,0],[123.755944,10.266387,50.439999999999998,0],[123.75601399999999,10.266152999999999,50.649999999999999,0],[123.75618900000001,10.265573,47.600000000000001,0],[123.75625599999999,10.265473999999999,48.049999999999997,0],[123.756331,10.265418,48.609999999999999,0],[123.756546,10.265396000000001,48.490000000000002,0],[123.756719,10.265345999999999,48.68,0],[123.756905,10.265319,48.469999999999999,0],[123.757069,10.265313000000001,48.729999999999997,0],[123.757215,10.265326999999999,49.140000000000001,0],[123.757609,10.265444,48.409999999999997,0],[123.757694,10.265447,48.350000000000001,0],[123.757766,10.265425,48.710000000000001,0],[123.757847,10.26539,49.07,0],[123.757958,10.265332000000001,49.520000000000003,0],[123.75823099999999,10.265205,48.700000000000003,0],[123.758511,10.264932999999999,47.439999999999998,0],[123.758521,10.264744,47.560000000000002,0],[123.75843399999999,10.264464,48.530000000000001,0],[123.758285,10.264275,49.539999999999999,0],[123.757929,10.263975,48.68,0],[123.757756,10.263845,47.780000000000001,0],[123.75757900000001,10.263782000000001,48.93,0],[123.75737100000001,10.263616000000001,52.270000000000003,0],[123.757284,10.263442,52.020000000000003,0],[123.757221,10.263256,50.039999999999999,0],[123.757244,10.263087000000001,45.93,0],[123.75736000000001,10.262922,41.920000000000002,0],[123.757435,10.262813,41.829999999999998,0],[123.757563,10.262668,41.380000000000003,0],[123.757738,10.262559,40.219999999999999,0],[123.758146,10.262381,39.899999999999999,0],[123.758608,10.262207999999999,40.43,0],[123.758774,10.262155999999999,39.770000000000003,0],[123.75901399999999,10.262064000000001,39.329999999999998,0],[123.75917099999999,10.261977,40.060000000000002,0],[123.75925700000001,10.261941999999999,41,0],[123.75956499999999,10.261926000000001,41.079999999999998,0],[123.75978600000001,10.26186,41.759999999999998,0],[123.76005600000001,10.261758,42.210000000000001,0],[123.76029699999999,10.261627000000001,42.109999999999999,0],[123.760373,10.261558000000001,41.280000000000001,0],[123.760497,10.261412999999999,39.109999999999999,0],[123.76069099999999,10.261058,38.109999999999999,0],[123.760847,10.260659,39.460000000000001,0],[123.76087699999999,10.260498999999999,39.420000000000002,0],[123.76088,10.260336000000001,39.890000000000001,0],[123.76084299999999,10.260071999999999,42.969999999999999,0],[123.760852,10.259982000000001,43.460000000000001,0],[123.760902,10.259909,43.799999999999997,0],[123.761337,10.259709000000001,43.909999999999997,0],[123.76209900000001,10.259327000000001,39.829999999999998,0],[123.762254,10.259263000000001,39.090000000000003,0],[123.762412,10.259233,38.990000000000002,0],[123.762593,10.259226999999999,38.710000000000001,0],[123.76298199999999,10.259297,38.32,0],[123.763063,10.259307,38.579999999999998,0],[123.76319100000001,10.259308000000001,38.329999999999998,0],[123.763312,10.259281,38.140000000000001,0],[123.763532,10.259207,37.530000000000001,0],[123.76385500000001,10.259138,36.07,0],[123.76406299999999,10.259148,35.549999999999997,0],[123.764263,10.259128,35.049999999999997,0],[123.764414,10.25906,34.259999999999998,0],[123.76453100000001,10.258998,33.960000000000001,0],[123.764601,10.258924,33.990000000000002,0],[123.76468800000001,10.258805000000001,34.579999999999998,0],[123.76478899999999,10.258702,35,0],[123.765063,10.258483999999999,36,0],[123.765462,10.258251,35.149999999999999,0],[123.76580300000001,10.25802,37.409999999999997,0],[123.765967,10.257889,40.649999999999999,0],[123.766065,10.257854,42.880000000000003,0],[123.76631399999999,10.257851,45.450000000000003,0],[123.766682,10.257925,41.710000000000001,0],[123.766899,10.257933,39.979999999999997,0],[123.76699499999999,10.257911999999999,39.640000000000001,0],[123.76709,10.25788,39.460000000000001,0],[123.767292,10.257878,37.719999999999999,0],[123.76746,10.257825,38.329999999999998,0],[123.76792,10.257657,39.049999999999997,0],[123.768163,10.257614999999999,37.310000000000002,0],[123.76832899999999,10.257577,36.259999999999998,0],[123.76857800000001,10.257491,37.420000000000002,0],[123.768799,10.257427,39.979999999999997,0],[123.76898799999999,10.257403,41.140000000000001,0],[123.76936000000001,10.257395000000001,36.719999999999999,0],[123.769423,10.25737,36.630000000000003,0],[123.769504,10.257322,37.329999999999998,0],[123.76958500000001,10.257232999999999,38.840000000000003,0],[123.76968599999999,10.257096000000001,40.329999999999998,0],[123.769777,10.256918000000001,40.57,0],[123.76984299999999,10.256760999999999,42.130000000000003,0],[123.769893,10.256610999999999,43.310000000000002,0],[123.76993,10.256460000000001,43.549999999999997,0],[123.769959,10.256287,43.020000000000003,0],[123.76996,10.256017,41.939999999999998,0],[123.769932,10.255799,41.009999999999998,0],[123.769874,10.255571,39.979999999999997,0],[123.76970300000001,10.255380000000001,39.890000000000001,0],[123.769475,10.255205,39.909999999999997,0],[123.76938199999999,10.255144,40.030000000000001,0],[123.769291,10.255115,40.68,0],[123.769187,10.255100000000001,41.32,0],[123.76878499999999,10.255083000000001,44.68,0],[123.76868399999999,10.255087,46.420000000000002,0],[123.76852100000001,10.255122,51.229999999999997,0],[123.768413,10.255126000000001,53.259999999999998,0],[123.768269,10.255068,54.359999999999999,0],[123.768192,10.255008,53.780000000000001,0],[123.768089,10.254873,54.57,0],[123.767951,10.254567,56.350000000000001,0],[123.76781800000001,10.25431,57.149999999999999,0],[123.76771100000001,10.254144,56.579999999999998,0],[123.767652,10.25408,57.909999999999997,0],[123.767526,10.253971,61.549999999999997,0],[123.76746,10.253875000000001,62.719999999999999,0],[123.76745200000001,10.253811000000001,62.049999999999997,0],[123.767461,10.253750999999999,62.93,0],[123.767492,10.253705,63.030000000000001,0],[123.76755900000001,10.253666000000001,62.350000000000001,0],[123.76765899999999,10.253629999999999,62.740000000000002,0],[123.767982,10.253539999999999,63.270000000000003,0],[123.768269,10.253425999999999,64.659999999999997,0],[123.768663,10.253306,60.630000000000003,0],[123.768981,10.253244,56.390000000000001,0],[123.769328,10.253158000000001,53.07,0],[123.769504,10.253097,52.170000000000002,0],[123.76984,10.25292,52.520000000000003,0],[123.77016,10.252719000000001,50.729999999999997,0],[123.77027099999999,10.252642,50.82,0],[123.770335,10.252568999999999,50.969999999999999,0],[123.77040599999999,10.252457,51.899999999999999,0],[123.770428,10.252311000000001,52.329999999999998,0],[123.770371,10.252069000000001,52.200000000000003,0],[123.770318,10.251949,52.539999999999999,0],[123.77018,10.251685,55.810000000000002,0],[123.77014800000001,10.251606000000001,57.020000000000003,0],[123.77011400000001,10.251441,58.649999999999999,0],[123.770105,10.251288000000001,58.560000000000002,0],[123.770117,10.251144999999999,56.799999999999997,0],[123.77016,10.250819,52.079999999999998,0],[123.770186,10.250721,51.149999999999999,0],[123.770217,10.250645,50.149999999999999,0],[123.77029899999999,10.250534999999999,46.450000000000003,0],[123.77040100000001,10.250432,43,0],[123.770493,10.250351,40.539999999999999,0],[123.770697,10.250204999999999,36.350000000000001,0],[123.770781,10.250108000000001,35.469999999999999,0],[123.770949,10.249883000000001,35.479999999999997,0],[123.771362,10.249364,38.219999999999999,0],[123.771579,10.249207999999999,36.719999999999999,0],[123.771871,10.248983000000001,33.299999999999997,0],[123.772122,10.248825,28.899999999999999,0],[123.77233200000001,10.248716999999999,27.190000000000001,0],[123.77247800000001,10.248618,26.690000000000001,0],[123.772784,10.248383,28.07,0],[123.773242,10.248123,28.829999999999998,0],[123.773459,10.247976,27.440000000000001,0],[123.77381699999999,10.247697000000001,30.170000000000002,0],[123.774021,10.247571000000001,28.989999999999998,0],[123.77413900000001,10.247513,27.170000000000002,0],[123.77461700000001,10.247351,20.879999999999999,0],[123.774681,10.24732,20.510000000000002,0],[123.774844,10.247211,20.050000000000001,0],[123.77507900000001,10.247009,20,0],[123.775283,10.246763,20,0],[123.77533200000001,10.246668,19.789999999999999,0],[123.775437,10.246143,19,0],[123.77547800000001,10.245998,19.219999999999999,0],[123.775779,10.245466,18.66,0],[123.775942,10.245213,17.109999999999999,0],[123.776589,10.244294999999999,18.82,0],[123.776892,10.243867,15.1,0],[123.77709900000001,10.243588000000001,15.77,0],[123.777447,10.243076,14.42,0],[123.777745,10.24268,14,0],[123.778406,10.241827000000001,16,0],[123.778584,10.241595,14.81,0],[123.779363,10.240754000000001,11.52,0],[123.77986300000001,10.240190999999999,12.56,0],[123.780417,10.239516,12.02,0]]]}}]}
