{"type":"FeatureCollection","features":[{"type":"Feature","properties":{"id":1597,"title":"House/s","category":"house","note":"A house/s located along the hiking route."},"geometry":{"type":"Point","coordinates":[123.810508,10.342381]}},{"type":"Feature","properties":{"id":1596,"title":"Canopy","category":"canopy","note":"Tree cover and shade along the route."},"geometry":{"type":"Point","coordinates":[123.81594200000001,10.343999999999999]}},{"type":"Feature","properties":{"id":1595,"title":"Spring","category":"spring","note":"Small natural spring with pipes supplying water to communities downhill."},"geometry":{"type":"Point","coordinates":[123.826286,10.356214]}},{"type":"Feature","properties":{"id":1273,"title":"House/s","category":"house","note":"A house/s located along the hiking route."},"geometry":{"type":"Point","coordinates":[123.8258361,10.3559556]}},{"type":"Feature","properties":{"id":1272,"title":"House/s","category":"house","note":"A house/s located along the hiking route."},"geometry":{"type":"Point","coordinates":[123.82638,10.35783]}},{"type":"Feature","properties":{"id":1271,"title":"House/s","category":"house","note":"A house/s located along the hiking route."},"geometry":{"type":"Point","coordinates":[123.8240194,10.349388899999999]}},{"type":"Feature","properties":{"id":1270,"title":"Spring","category":"spring","note":"A small \"waterfall\" catchment used by locals for everyday chores."},"geometry":{"type":"Point","coordinates":[123.82919440000001,10.348050000000001]}},{"type":"Feature","properties":{"id":1269,"title":"House/s","category":"house","note":"A house/s located along the hiking route."},"geometry":{"type":"Point","coordinates":[123.8304278,10.347088899999999]}},{"type":"Feature","properties":{"id":1246,"title":"House/s","category":"house","note":"A house/s located along the hiking route."},"geometry":{"type":"Point","coordinates":[123.7667,10.241213999999999]}},{"type":"Feature","properties":{"id":1245,"title":"House/s","category":"house","note":"A house/s located along the hiking route."},"geometry":{"type":"Point","coordinates":[123.765869,10.241811]}},{"type":"Feature","properties":{"id":1244,"title":"House/s","category":"house","note":"A house/s located along the hiking route."},"geometry":{"type":"Point","coordinates":[123.75685799999999,10.245792]}},{"type":"Feature","properties":{"id":1243,"title":"Spring","category":"spring","note":"Small natural spring with pipes supplying water to communities downhill."},"geometry":{"type":"Point","coordinates":[123.755622,10.245319]}},{"type":"Feature","properties":{"id":1242,"title":"House/s","category":"house","note":"A house/s located along the hiking route."},"geometry":{"type":"Point","coordinates":[123.760025,10.249706]}},{"type":"Feature","properties":{"id":1219,"title":"Matun-og Falls","category":"swim-spot","note":"Matun-og Falls swimming area"},"geometry":{"type":"Point","coordinates":[123.75334554498998,10.286614798848575]}},{"type":"Feature","properties":{"id":865,"title":"Sari-Sari Store","category":"sari-sari-store","note":"A small sari-sari store along the route."},"geometry":{"type":"Point","coordinates":[123.72418647038918,10.274026915009536]}},{"type":"Feature","properties":{"id":864,"title":"House/s","category":"house","note":"A house/s located along the hiking route."},"geometry":{"type":"Point","coordinates":[123.71739001245386,10.26235030136054]}},{"type":"Feature","properties":{"id":798,"title":"House/s","category":"house","note":"A house/s located along the hiking route."},"geometry":{"type":"Point","coordinates":[123.78975057688803,10.289320280653094]}},{"type":"Feature","properties":{"id":796,"title":"Cutod Falls","category":"swim-spot","note":"Cutod Falls swimming area"},"geometry":{"type":"Point","coordinates":[123.7708056,10.25975]}},{"type":"Feature","properties":{"id":774,"title":"House/s","category":"house","note":"A house/s located along the hiking route."},"geometry":{"type":"Point","coordinates":[123.79066408007336,10.287934058090402]}},{"type":"Feature","properties":{"id":772,"title":"Sari-Sari Store","category":"sari-sari-store","note":"A small sari-sari store along the route."},"geometry":{"type":"Point","coordinates":[123.79095416199605,10.280027545739676]}},{"type":"Feature","properties":{"id":757,"title":"Danasan Falls","category":"swim-spot","note":"Danasan Falls swimming area"},"geometry":{"type":"Point","coordinates":[123.844903,10.569127999999999]}},{"type":"Feature","properties":{"id":756,"title":"Veloso Lake Campsite","category":"campsite","note":"Tree-shaded campsite by the lake."},"geometry":{"type":"Point","coordinates":[123.66295,10.24123]}},{"type":"Feature","properties":{"id":453,"title":"Toong Lumadnon","category":"campsite","note":"A campsite with panoramic city views and swimming pools."},"geometry":{"type":"Point","coordinates":[123.84996078614572,10.300132803013053]}},{"type":"Feature","properties":{"id":418,"title":"Mini Switzerland Campsite","category":"campsite","note":"A campsite with 360\u00b0 views and improved road access."},"geometry":{"type":"Point","coordinates":[123.79259,10.31902]}},{"type":"Feature","properties":{"id":383,"title":"Mt. Kalatkat Campsite","category":"campsite","note":"A campsite with panoramic views."},"geometry":{"type":"Point","coordinates":[123.58150999999999,10.084569999999999]}},{"type":"Feature","properties":{"id":362,"title":"Spring","category":"spring","note":"A concrete spring catchment used by locals for everyday chores."},"geometry":{"type":"Point","coordinates":[123.67661939909829,10.233794700684854]}}]}
