{"type":"FeatureCollection","features":[{"type":"Feature","geometry":{"type":"Point","coordinates":[123.83357669999999,10.2510633]},"properties":{"category":"service"}},{"type":"Feature","geometry":{"type":"Point","coordinates":[123.83255149999999,10.251516199999999]},"properties":{"category":"service"}},{"type":"Feature","geometry":{"type":"Point","coordinates":[123.83416149999999,10.251913500000001]},"properties":{"category":"service"}},{"type":"Feature","geometry":{"type":"Point","coordinates":[123.834108,10.2521936]},"properties":{"category":"service"}},{"type":"Feature","geometry":{"type":"Point","coordinates":[123.8282432,10.253219899999999]},"properties":{"category":"service"}},{"type":"Feature","geometry":{"type":"Point","coordinates":[123.8281837,10.253639700000001]},"properties":{"category":"service"}},{"type":"Feature","geometry":{"type":"Point","coordinates":[123.8255312,10.2542755]},"properties":{"category":"service"}},{"type":"Feature","geometry":{"type":"Point","coordinates":[123.8195983,10.256276700000001]},"properties":{"category":"service"}},{"type":"Feature","geometry":{"type":"Point","coordinates":[123.8189383,10.257858300000001]},"properties":{"category":"service"}},{"type":"Feature","geometry":{"type":"Point","coordinates":[123.8252367,10.258621700000001]},"properties":{"category":"service"}},{"type":"Feature","geometry":{"type":"Point","coordinates":[123.8314067,10.25975]},"properties":{"category":"service"}}]}
