{"type":"FeatureCollection","features":[{"type":"Feature","id":"a59d1c2a-7c63-4609-9f13-3028067b4767","properties":{"id":"a59d1c2a-7c63-4609-9f13-3028067b4767","updated_date":"2026-10-04T06:26:51Z","time_created":"2026-10-03T22:57:20Z","last_updated_on_server":"2026-10-04T06:26:51.101047","db_insert_date":"2026-10-04T06:26:08Z","deleted":false,"title":"buot brgy hall - sitio tabla 1004","public":false,"color":"#000000","hexcolor":"#000000","is_active":true,"revision":1791095211,"notes":"","track_type":"track","routing_mode":null,"uploaded_gpx_to_osm":null,"flag":null,"source":null,"cover_photo_id":null,"distance":3337.7058188839014,"total_ascent":526.1666666666667,"total_descent":0.0,"stopped_time":3063.0,"total_time":11326.0,"average_speed":0.294694139050318,"moving_time":8263.0,"moving_speed":0.4039339003853203,"activities":[],"imported":true,"folder":"5846eda4-747f-4498-a291-2d262ecd3479","privacy_level":null,"sync_to_mobile":null,"preferred_link":"/public/BaX2C2aWPEVzSH0VRNEKN1s8","favorite_count":0,"comment_count":0,"comments":[],"user_photo_count":0,"latitude":10.351362801128092,"longitude":123.79897325657707,"writable":false},"style":{"stroke":"#000000"},"geometry":{"type":"MultiLineString","coordinates":[[[123.80791,10.347863,160.0,1791068240.0],[123.80781,10.347857,157.0,1791068296.0],[123.80771,10.347834,156.0,1791068304.0],[123.80761,10.347789,154.0,1791068316.0],[123.80752,10.347744,154.0,1791068327.0],[123.80739,10.347702,155.0,1791068459.0],[123.80729,10.347678,155.0,1791068471.0],[123.8072,10.347656,155.0,1791068486.0],[123.80711,10.347639,157.0,1791068536.0],[123.80702,10.347614,156.0,1791068545.0],[123.80691,10.347614,157.0,1791068554.0],[123.8068,10.347623,157.0,1791068563.0],[123.8067,10.347605,157.0,1791068572.0],[123.8066,10.347585,158.0,1791068581.0],[123.80651,10.347587,159.0,1791068589.0],[123.8064,10.347601,159.0,1791068610.0],[123.8063,10.347588,160.0,1791068625.0],[123.80621,10.347572,159.0,1791068635.0],[123.80611,10.347557,159.0,1791068644.0],[123.806,10.347544,160.0,1791068653.0],[123.8059,10.347516,161.0,1791068664.0],[123.80581,10.347492,161.0,1791068672.0],[123.80571,10.347474,163.0,1791068681.0],[123.8056,10.347469,163.0,1791068691.0],[123.8055,10.347481,164.0,1791068700.0],[123.8054,10.347487,166.0,1791068711.0],[123.8053,10.34749,168.0,1791068772.0],[123.80521,10.347543,168.0,1791068782.0],[123.80511,10.347525,169.0,1791068792.0],[123.80502,10.347537,171.0,1791068803.0],[123.80492,10.347552,172.0,1791068816.0],[123.80484,10.347607,174.0,1791068827.0],[123.80477,10.347689,175.0,1791068838.0],[123.8047,10.347775,177.0,1791068849.0],[123.80464,10.347848,179.0,1791068861.0],[123.80457,10.34792,181.0,1791068888.0],[123.80459,10.348054,185.0,1791068961.0],[123.8046,10.348146,187.0,1791068973.0],[123.80451,10.348194,191.0,1791068987.0],[123.80444,10.348264,192.0,1791068999.0],[123.80437,10.348332,195.0,1791069058.0],[123.80425,10.348365,198.0,1791069167.0],[123.80415,10.348361,198.0,1791069178.0],[123.80406,10.348378,200.0,1791069188.0],[123.80397,10.348425,200.0,1791069197.0],[123.80394,10.348518,200.0,1791069206.0],[123.8039,10.348602,201.0,1791069217.0],[123.80374,10.348726,202.0,1791069236.0],[123.80362,10.348734,205.0,1791069254.0],[123.80356,10.348805,204.0,1791069263.0],[123.8035,10.348889,204.0,1791069273.0],[123.80347,10.34899,206.0,1791069284.0],[123.80342,10.349067,207.0,1791069295.0],[123.80333,10.3491,206.0,1791069305.0],[123.8032,10.349118,206.0,1791069339.0],[123.80309,10.34911,206.0,1791069349.0],[123.80299,10.349108,205.0,1791069359.0],[123.80289,10.349092,205.0,1791069369.0],[123.8028,10.349139,206.0,1791069379.0],[123.80273,10.349212,208.0,1791069390.0],[123.80269,10.349298,215.0,1791069408.0],[123.80272,10.349394,213.0,1791069422.0],[123.80263,10.349517,218.0,1791069606.0],[123.80255,10.349576,218.0,1791069629.0],[123.80245,10.349589,219.0,1791069699.0],[123.80235,10.349584,222.0,1791069905.0],[123.80229,10.34949,226.0,1791069921.0],[123.80225,10.349389,226.0,1791069932.0],[123.80222,10.349286,226.0,1791069967.0],[123.80214,10.349203,226.0,1791069978.0],[123.80205,10.349129,225.0,1791070025.0],[123.80195,10.349078,225.0,1791070036.0],[123.80186,10.349067,224.0,1791070048.0],[123.80175,10.349056,222.0,1791070063.0],[123.80167,10.349085,220.0,1791070075.0],[123.80156,10.349131,217.0,1791070101.0],[123.80145,10.34913,220.0,1791070182.0],[123.80137,10.349215,225.0,1791070212.0],[123.80127,10.349257,228.0,1791070299.0],[123.80116,10.349282,228.0,1791070311.0],[123.80107,10.349286,227.0,1791070674.0],[123.80096,10.349265,229.0,1791070700.0],[123.80088,10.349223,231.0,1791070712.0],[123.80077,10.349183,232.0,1791070724.0],[123.80067,10.349193,233.0,1791070736.0],[123.80056,10.349224,236.0,1791070750.0],[123.80045,10.349237,239.0,1791070764.0],[123.80039,10.349173,241.0,1791070797.0],[123.80043,10.349085,239.0,1791070820.0],[123.80039,10.348983,235.0,1791070854.0],[123.80031,10.348914,237.0,1791070864.0],[123.80022,10.348871,234.0,1791070876.0],[123.80011,10.348851,232.0,1791070889.0],[123.80001,10.34885,231.0,1791070899.0],[123.79991,10.348829,230.0,1791070914.0],[123.7998,10.348838,228.0,1791070948.0],[123.79973,10.348777,229.0,1791070980.0],[123.79977,10.348676,231.0,1791070994.0],[123.79978,10.348572,233.0,1791071011.0],[123.79977,10.348472,235.0,1791071026.0],[123.79974,10.348371,237.0,1791071052.0],[123.79969,10.348215,245.0,1791071099.0],[123.79976,10.348147,246.0,1791071126.0],[123.79982,10.348074,249.0,1791071140.0],[123.79978,10.347976,249.0,1791071152.0],[123.79974,10.347895,250.0,1791071165.0],[123.79967,10.347827,250.0,1791071202.0],[123.79961,10.347746,252.0,1791071215.0],[123.79951,10.347813,253.0,1791071241.0],[123.7995,10.347922,255.0,1791071255.0],[123.7995,10.348029,256.0,1791071269.0],[123.79942,10.348076,259.0,1791071290.0],[123.79931,10.348098,261.0,1791071308.0],[123.79922,10.348094,265.0,1791071324.0],[123.79912,10.34811,267.0,1791071343.0],[123.79903,10.348156,271.0,1791071362.0],[123.79893,10.348207,274.0,1791071384.0],[123.79883,10.348252,278.0,1791071408.0],[123.79873,10.348253,278.0,1791071432.0],[123.79863,10.348207,283.0,1791071464.0],[123.79855,10.34816,287.0,1791071481.0],[123.79845,10.34811,291.0,1791071502.0],[123.79834,10.348128,291.0,1791071516.0],[123.79825,10.348105,298.0,1791071551.0],[123.79815,10.348092,301.0,1791071570.0],[123.79804,10.348085,303.0,1791071586.0],[123.79796,10.348122,305.0,1791071603.0],[123.79785,10.348111,308.0,1791071848.0],[123.79776,10.348153,312.0,1791071866.0],[123.79768,10.348202,315.0,1791071882.0],[123.79757,10.34822,319.0,1791071979.0],[123.79746,10.348187,323.0,1791072059.0],[123.79735,10.348197,325.0,1791072074.0],[123.79728,10.348249,327.0,1791072087.0],[123.79718,10.34827,332.0,1791072111.0],[123.7971,10.34831,335.0,1791072165.0],[123.797,10.348343,339.0,1791072191.0],[123.79691,10.348392,342.0,1791072269.0],[123.79681,10.34843,345.0,1791072818.0],[123.79673,10.348477,350.0,1791072833.0],[123.79662,10.348478,351.0,1791072928.0],[123.79654,10.348535,356.0,1791072947.0],[123.79644,10.34855,360.0,1791073023.0],[123.79633,10.348593,364.0,1791073049.0],[123.79624,10.348609,366.0,1791073078.0],[123.79615,10.348677,370.0,1791073108.0],[123.79606,10.348704,373.0,1791073134.0],[123.79596,10.348731,376.0,1791073156.0],[123.79586,10.348735,379.0,1791073172.0],[123.79577,10.348726,382.0,1791073189.0],[123.79566,10.348704,380.0,1791073225.0],[123.79556,10.348739,380.0,1791073267.0],[123.79547,10.348796,381.0,1791073279.0],[123.79538,10.348855,384.0,1791073293.0],[123.79529,10.348917,384.0,1791073348.0],[123.79522,10.348969,388.0,1791073362.0],[123.79516,10.349041,394.0,1791073376.0],[123.79508,10.349118,399.0,1791073391.0],[123.79503,10.349211,398.0,1791073403.0],[123.79499,10.349295,398.0,1791073413.0],[123.79495,10.349388,399.0,1791073424.0],[123.79492,10.34948,401.0,1791073448.0],[123.79493,10.349591,405.0,1791073480.0],[123.79491,10.349696,409.0,1791073501.0],[123.79484,10.34979,412.0,1791073521.0],[123.79481,10.349886,412.0,1791073533.0],[123.79478,10.349975,415.0,1791073548.0],[123.79479,10.350079,415.0,1791073563.0],[123.79479,10.350183,416.0,1791073578.0],[123.79477,10.350282,412.0,1791073604.0],[123.79475,10.350386,409.0,1791073630.0],[123.79472,10.350488,408.0,1791073645.0],[123.79468,10.350573,409.0,1791073657.0],[123.79462,10.350663,411.0,1791073673.0],[123.79457,10.350758,410.0,1791073689.0],[123.79453,10.350875,414.0,1791073706.0],[123.79452,10.350977,415.0,1791073721.0],[123.79448,10.351074,418.0,1791073742.0],[123.79444,10.351166,421.0,1791073760.0],[123.79446,10.351259,421.0,1791073835.0],[123.79448,10.351358,421.0,1791073848.0],[123.79453,10.35146,422.0,1791073888.0],[123.79458,10.351557,424.0,1791073904.0],[123.79461,10.351645,426.0,1791073918.0],[123.79465,10.351745,423.0,1791073933.0],[123.79458,10.351829,422.0,1791073947.0],[123.79451,10.351884,422.0,1791073960.0],[123.79444,10.351953,424.0,1791073972.0],[123.79436,10.352017,425.0,1791073993.0],[123.79432,10.352115,427.0,1791074009.0],[123.79426,10.352203,427.0,1791074053.0],[123.79417,10.352256,428.0,1791074078.0],[123.7941,10.352314,430.0,1791074097.0],[123.79407,10.352415,430.0,1791074137.0],[123.79417,10.35246,431.0,1791074155.0],[123.79425,10.352513,434.0,1791074788.0],[123.79433,10.352582,433.0,1791074799.0],[123.7944,10.352674,435.0,1791074814.0],[123.7945,10.352732,436.0,1791074913.0],[123.79459,10.352797,439.0,1791074934.0],[123.79468,10.352859,441.0,1791074948.0],[123.79477,10.352911,444.0,1791074965.0],[123.7949,10.35295,446.0,1791075438.0],[123.79499,10.353012,451.0,1791075471.0],[123.79509,10.35308,454.0,1791075708.0],[123.79519,10.353127,457.0,1791075723.0],[123.7953,10.353152,460.0,1791075743.0],[123.7954,10.353173,460.0,1791075844.0],[123.79549,10.353251,460.0,1791075857.0],[123.79558,10.353304,464.0,1791075877.0],[123.79565,10.353389,466.0,1791075897.0],[123.79572,10.353454,468.0,1791075912.0],[123.79579,10.353511,471.0,1791075931.0],[123.79588,10.35356,473.0,1791075945.0],[123.79596,10.353602,475.0,1791075971.0],[123.79596,10.353692,476.0,1791075983.0],[123.79601,10.35378,478.0,1791075997.0],[123.79606,10.353861,482.0,1791076056.0],[123.79608,10.353958,487.0,1791076076.0],[123.79612,10.35405,489.0,1791076097.0],[123.79618,10.354128,494.0,1791076232.0],[123.79627,10.3542,499.0,1791076299.0],[123.79636,10.35431,505.0,1791076342.0],[123.79637,10.354407,507.0,1791076449.0],[123.79645,10.354476,509.0,1791076463.0],[123.79651,10.354562,517.0,1791076530.0],[123.79654,10.354658,519.0,1791076568.0],[123.79654,10.354764,522.0,1791076586.0],[123.79655,10.354868,525.0,1791076630.0],[123.79658,10.354972,527.0,1791076650.0],[123.79656,10.355078,530.0,1791076744.0],[123.79663,10.355164,537.0,1791076769.0],[123.79669,10.355234,541.0,1791076784.0],[123.79673,10.355313,544.0,1791076803.0],[123.79676,10.355416,547.0,1791076855.0],[123.79679,10.355537,554.0,1791076899.0],[123.79687,10.355603,557.0,1791076919.0],[123.79694,10.355683,559.0,1791076973.0],[123.79698,10.355776,562.0,1791076992.0],[123.79704,10.355843,563.0,1791077004.0],[123.79711,10.355901,565.0,1791077016.0],[123.79718,10.355961,568.0,1791077029.0],[123.79722,10.356056,568.0,1791077046.0],[123.7973,10.356125,571.0,1791077063.0],[123.79737,10.356197,573.0,1791077082.0],[123.7974,10.356303,576.0,1791077097.0],[123.79742,10.356405,580.0,1791077117.0],[123.79744,10.356511,582.0,1791077134.0],[123.79749,10.356595,583.0,1791077150.0],[123.79757,10.356665,587.0,1791077166.0],[123.79758,10.35676,591.0,1791077191.0],[123.79758,10.35685,593.0,1791077280.0],[123.79755,10.35696,596.0,1791077297.0],[123.79749,10.357056,593.0,1791077315.0],[123.79742,10.357136,595.0,1791077475.0],[123.79744,10.357241,600.0,1791077492.0],[123.79747,10.357339,604.0,1791077508.0],[123.79753,10.357418,608.0,1791077585.0],[123.7976,10.357493,613.0,1791077608.0],[123.79765,10.357574,618.0,1791077638.0],[123.79771,10.357648,621.0,1791077665.0],[123.79777,10.357723,623.0,1791077687.0],[123.79787,10.357777,624.0,1791077703.0],[123.79789,10.357868,625.0,1791077744.0],[123.79791,10.357975,629.0,1791077765.0],[123.79792,10.358083,632.0,1791077792.0],[123.79789,10.358182,637.0,1791077815.0],[123.79788,10.358278,639.0,1791077852.0],[123.79781,10.358378,645.0,1791078362.0],[123.79779,10.358472,648.0,1791078383.0],[123.79771,10.358534,650.0,1791078404.0],[123.79764,10.358617,653.0,1791078433.0],[123.79756,10.358718,660.0,1791078581.0],[123.79747,10.358789,665.0,1791078604.0],[123.79741,10.358873,667.0,1791078626.0],[123.79733,10.358941,669.0,1791078651.0],[123.79726,10.359008,673.0,1791078676.0],[123.79719,10.359079,675.0,1791078708.0],[123.79717,10.359183,679.0,1791078740.0],[123.79723,10.359263,683.0,1791078768.0],[123.79718,10.359347,688.0,1791078981.0],[123.79717,10.35944,692.0,1791079013.0],[123.79716,10.359552,697.0,1791079067.0],[123.79712,10.359639,699.0,1791079107.0],[123.79708,10.359719,701.0,1791079167.0],[123.79703,10.359807,706.0,1791079192.0],[123.79702,10.359899,711.0,1791079256.0],[123.79699,10.359992,716.0,1791079295.0],[123.79699,10.360102,724.0,1791079357.0],[123.79701,10.360193,730.0,1791079401.0],[123.79709,10.360237,732.0,1791079422.0],[123.79715,10.360308,732.0,1791079472.0],[123.79706,10.360356,736.0,1791079550.0],[123.7971,10.360458,738.0,1791079566.0]]]}}]}