{"type":"FeatureCollection","features":[{"type":"Feature","id":"e9e79e98-4fde-4944-896f-188e6e6913f9","properties":{"id":"e9e79e98-4fde-4944-896f-188e6e6913f9","updated_date":"2026-09-12T08:03:16Z","time_created":"2026-09-11T22:45:08Z","last_updated_on_server":"2026-09-12T08:03:16.730267","db_insert_date":"2026-09-12T08:02:55Z","deleted":false,"title":"Beesaya hike 2026-09-12T06:45:04.012796","public":false,"color":"#000000","hexcolor":"#000000","is_active":true,"revision":1789200196,"notes":"","track_type":"track","routing_mode":null,"uploaded_gpx_to_osm":null,"flag":null,"source":null,"cover_photo_id":null,"distance":6324.504071782967,"total_ascent":431.87212962962957,"total_descent":386.1137962962963,"stopped_time":2552.954433441162,"total_time":12987.0,"average_speed":0.486987300514589,"moving_time":10434.045566558838,"moving_speed":0.6061411205690945,"activities":[],"imported":true,"folder":"5846eda4-747f-4498-a291-2d262ecd3479","privacy_level":null,"sync_to_mobile":null,"preferred_link":"/public/csqjBqDaVxD4pP2spp7cXVj5","favorite_count":0,"comment_count":0,"comments":[],"user_photo_count":0,"latitude":10.348292032914056,"longitude":123.8172848748572,"writable":false},"style":{"stroke":"#000000"},"geometry":{"type":"MultiLineString","coordinates":[[[123.8078361,10.3478445,233.59,1789166708.0],[123.8078414,10.3478499,230.54,1789166715.0],[123.8078421,10.3478595,229.77,1789166723.0],[123.8078477,10.3478565,230.65,1789166731.0],[123.8078532,10.3478546,228.03,1789166739.0],[123.8078535,10.3478589,229.19,1789166747.0],[123.8078614,10.3478642,228.96,1789166755.0],[123.8078694,10.3478731,227.22,1789166763.0],[123.8078678,10.3478752,225.96,1789166771.0],[123.8078702,10.3478795,225.67,1789166779.0],[123.8078691,10.3478817,225.59,1789166787.0],[123.8078699,10.3478844,225.21,1789166795.0],[123.807874,10.3478826,225.8,1789166803.0],[123.8078754,10.3478851,225.43,1789166811.0],[123.8078737,10.3478879,225.19,1789166819.0],[123.8078773,10.3478873,224.82,1789166827.0],[123.8078753,10.3478884,224.92,1789166835.0],[123.8078754,10.3478887,224.38,1789166843.0],[123.8078752,10.3478839,223.6,1789166852.0],[123.8078737,10.3478855,223.15,1789166859.0],[123.8078758,10.3478875,223.15,1789166868.0],[123.8078749,10.3478853,223.36,1789166876.0],[123.8078717,10.3478761,221.63,1789166890.0],[123.8078676,10.3478618,220.92,1789166898.0],[123.8078701,10.3478473,219.85,1789166906.0],[123.8078768,10.3478309,219.2,1789166914.0],[123.8078868,10.3478069,218.29,1789166922.0],[123.8079573,10.347674,216.11,1789166930.0],[123.8079742,10.3476438,217.63,1789166938.0],[123.8080095,10.3476197,218.49,1789166946.0],[123.8080119,10.3475759,215.19,1789166954.0],[123.8080158,10.347573,215.35,1789166962.0],[123.8080683,10.3475087,217.55,1789166970.0],[123.8081253,10.3474532,216.16,1789166978.0],[123.8081738,10.3474212,214.33,1789166986.0],[123.8082144,10.3473843,216.23,1789166994.0],[123.808244,10.3473526,222.32,1789167002.0],[123.8082418,10.3473328,212.92,1789167010.0],[123.8082526,10.3472413,218.49,1789167018.0],[123.8082743,10.3471795,220.02,1789167026.0],[123.8082908,10.3471527,227.83,1789167034.0],[123.8082531,10.3471223,224.74,1789167040.0],[123.8082135,10.3470616,224.68,1789167050.0],[123.8081961,10.3470415,221.96,1789167058.0],[123.8081778,10.347027,224.94,1789167066.0],[123.8081502,10.3470286,222.37,1789167071.422],[123.8080664,10.3470338,227.94,1789167076.0],[123.8079978,10.3470259,231.21,1789167081.0],[123.8079568,10.3470135,231.39,1789167086.0],[123.8079318,10.3469976,231.41,1789167091.0],[123.8079114,10.3469648,230.18,1789167096.0],[123.8078872,10.3469363,232.11,1789167101.0],[123.8078614,10.3469173,233.21,1789167106.0],[123.8078328,10.3468962,233.49,1789167111.0],[123.8077999,10.3468909,234.54,1789167116.0],[123.8077737,10.3468703,235.39,1789167121.0],[123.8077412,10.3468593,237.47,1789167126.0],[123.8077225,10.3468531,237.66,1789167131.0],[123.8077263,10.3468508,237.02,1789167136.0],[123.8076966,10.346844,237.67,1789167141.0],[123.8076657,10.3468475,238.25,1789167146.0],[123.8076389,10.3468237,239.28,1789167151.0],[123.8076126,10.3468094,240.37,1789167156.0],[123.8075891,10.3467857,240.49,1789167161.0],[123.80756,10.3467696,241.41,1789167166.0],[123.8075342,10.3467553,241.19,1789167171.0],[123.8075156,10.3467339,242.9,1789167176.0],[123.8074856,10.3467228,242.99,1789167181.0],[123.8074735,10.3467108,242.71,1789167186.0],[123.8074797,10.3467091,242.2,1789167191.0],[123.8074799,10.3467091,242.2,1789167196.0],[123.8074824,10.3467107,242.43,1789167201.0],[123.8074833,10.3467098,242.2,1789167206.0],[123.8074838,10.3467075,242.18,1789167211.0],[123.8074892,10.3467052,242.14,1789167216.0],[123.8074895,10.3467056,242.12,1789167221.0],[123.8074854,10.3466977,241.85,1789167226.0],[123.8074617,10.3466947,240.46,1789167231.0],[123.8074356,10.3466867,240.04,1789167236.0],[123.8074051,10.3466744,240.58,1789167241.0],[123.8073867,10.3466635,241.41,1789167246.0],[123.8073587,10.3466521,242.61,1789167251.0],[123.8073427,10.3466402,242.11,1789167256.0],[123.8073223,10.3466314,243.16,1789167261.0],[123.8072959,10.3466183,244.02,1789167266.0],[123.8072685,10.3466041,245.78,1789167271.0],[123.8072363,10.346597,246.96,1789167276.0],[123.8072161,10.3465924,247.09,1789167281.0],[123.8071876,10.3465845,248.71,1789167286.0],[123.8071612,10.3465809,249.86,1789167291.0],[123.8071351,10.3465828,249.98,1789167296.0],[123.8071128,10.3465772,250.5,1789167301.0],[123.8070862,10.3465802,251.69,1789167306.0],[123.8070534,10.3465856,253.55,1789167311.0],[123.8070277,10.3465912,255.1,1789167316.0],[123.8069986,10.3465965,256.24,1789167321.0],[123.8069652,10.3466072,256.68,1789167326.0],[123.8069531,10.3466223,257.25,1789167331.0],[123.8069535,10.3466223,257.24,1789167341.0],[123.8069537,10.3466222,257.25,1789167351.0],[123.8069555,10.3466184,257.46,1789167356.0],[123.8069465,10.3465803,255.81,1789167361.0],[123.8069258,10.3465521,254.92,1789167366.0],[123.8068797,10.3465085,254.88,1789167380.0],[123.8068863,10.3464969,254.74,1789167388.0],[123.8068769,10.3464936,254.66,1789167396.0],[123.8068691,10.3464826,255.45,1789167405.0],[123.80686,10.3464686,255.87,1789167413.0],[123.806861,10.346451,256.22,1789167420.0],[123.8068955,10.346313,261.68,1789167428.0],[123.806914,10.3463006,263.76,1789167436.0],[123.8069145,10.346306,263.96,1789167444.0],[123.8069292,10.3462899,264.55,1789167452.0],[123.80695,10.3462733,264.33,1789167460.0],[123.8069653,10.3462599,266.49,1789167469.0],[123.8069825,10.3462485,270.17,1789167476.0],[123.8069902,10.3462476,272.69,1789167484.0],[123.806993,10.3462464,273.32,1789167492.0],[123.8069936,10.3462406,274.05,1789167500.0],[123.8069951,10.3462395,273.59,1789167508.0],[123.8069981,10.3462343,273.73,1789167516.0],[123.8070059,10.3462296,274.43,1789167524.0],[123.8070118,10.3462299,274.88,1789167532.0],[123.8070146,10.3462245,274.1,1789167541.0],[123.8070096,10.3462202,274.16,1789167548.0],[123.8070123,10.3462231,273.34,1789167556.0],[123.8070205,10.346222,272.29,1789167565.0],[123.8070308,10.3462191,271.18,1789167572.0],[123.8070441,10.3462149,269.82,1789167580.0],[123.8070697,10.3461973,267.88,1789167589.0],[123.8070784,10.3461966,267.66,1789167596.0],[123.8070899,10.3461925,267.07,1789167604.0],[123.8072549,10.3461942,273.27,1789167613.0],[123.8073138,10.3461858,275.96,1789167620.0],[123.8073864,10.3461626,280.1,1789167628.0],[123.8073912,10.3461466,279.55,1789167636.0],[123.807375,10.3461515,284.16,1789167644.0],[123.807418,10.3461144,283.29,1789167652.0],[123.8076014,10.3459227,291.99,1789167661.0],[123.8075968,10.345927,289.3,1789167668.0],[123.80761,10.3459043,289.23,1789167676.0],[123.807568,10.3458812,285.41,1789167684.0],[123.8074882,10.3458968,288.5,1789167689.0],[123.8074681,10.3458888,287.2,1789167694.0],[123.8074136,10.3458791,284.71,1789167705.0],[123.8073323,10.3458768,288.4,1789167713.0],[123.8073129,10.3458573,288.91,1789167721.0],[123.8072821,10.3458365,289.97,1789167729.0],[123.8072384,10.3457715,299.14,1789167738.0],[123.8072489,10.3457556,295.93,1789167743.0],[123.8072622,10.3458303,293.48,1789167754.0],[123.8072648,10.3457913,293.56,1789167761.0],[123.8072735,10.3457209,289.73,1789167769.0],[123.8072893,10.3456827,285.94,1789167777.0],[123.8073283,10.3456669,285.3,1789167786.0],[123.807326,10.3456384,289.93,1789167793.0],[123.8073441,10.3456188,292.85,1789167801.0],[123.8074022,10.3456016,297.18,1789167809.0],[123.8074563,10.345606,300.77,1789167817.0],[123.8075002,10.3456093,301.64,1789167825.0],[123.8075418,10.3456138,302.15,1789167833.0],[123.8075945,10.3456116,304.48,1789167841.0],[123.8076354,10.3455895,302.56,1789167849.0],[123.8076761,10.3455509,305.44,1789167857.0],[123.8077335,10.3455466,304.12,1789167865.0],[123.8077725,10.3455395,304.04,1789167873.0],[123.8078152,10.3455249,301.31,1789167881.0],[123.8078121,10.3454724,295.88,1789167889.0],[123.8077404,10.3454009,310.2,1789167897.0],[123.8077139,10.3453745,312.26,1789167905.0],[123.8076811,10.3453731,313.11,1789167913.0],[123.8076845,10.345368,307.93,1789167921.0],[123.8076593,10.3453114,314.01,1789167929.0],[123.807616,10.3452679,310.38,1789167937.0],[123.8075981,10.345281,309.35,1789167945.0],[123.8075559,10.3452568,312.27,1789167953.0],[123.8075416,10.3452085,311.94,1789167961.0],[123.8075254,10.3451582,308.68,1789167969.0],[123.807521,10.3451047,308.96,1789167977.0],[123.8074533,10.345054,310.29,1789167985.0],[123.8073819,10.3450353,307.22,1789167993.0],[123.8073415,10.3450378,306.94,1789168001.0],[123.8072775,10.3450252,313.39,1789168009.0],[123.8072189,10.3450725,320.24,1789168017.0],[123.8072123,10.3451488,321.44,1789168025.0],[123.807213,10.3451568,322.1,1789168033.0],[123.8071627,10.345143,317.12,1789168041.0],[123.8071009,10.3451043,317.0,1789168049.0],[123.8070492,10.3450809,319.57,1789168057.0],[123.8070175,10.3450271,320.88,1789168066.0],[123.8070183,10.3450086,318.67,1789168073.0],[123.807038,10.3450055,313.17,1789168082.0],[123.8070047,10.3449912,319.8,1789168089.0],[123.8069299,10.344946,322.54,1789168097.0],[123.8068777,10.3449251,319.46,1789168105.0],[123.806796,10.3449074,320.94,1789168113.0],[123.8067299,10.3449302,320.8,1789168121.0],[123.8067221,10.344919,320.73,1789168129.0],[123.8066781,10.3448756,321.63,1789168137.0],[123.806678,10.3448796,317.69,1789168145.0],[123.8066703,10.3448715,318.19,1789168153.0],[123.8066566,10.3448573,319.82,1789168161.0],[123.8066381,10.344825,318.49,1789168169.0],[123.8066645,10.3448064,321.98,1789168177.0],[123.8066871,10.3447604,318.51,1789168185.0],[123.8067352,10.3447292,322.82,1789168193.0],[123.8067869,10.3447408,328.75,1789168201.0],[123.806829,10.3446697,328.71,1789168209.0],[123.8068388,10.3446219,328.82,1789168217.0],[123.8068286,10.3446506,336.89,1789168225.0],[123.806894,10.344681,338.26,1789168233.0],[123.8069178,10.3447018,330.64,1789168241.0],[123.8069736,10.3446823,333.06,1789168249.0],[123.806998,10.3446389,334.1,1789168257.0],[123.8070457,10.3446319,336.14,1789168265.0],[123.8070445,10.3446487,334.5,1789168273.0],[123.8070248,10.344637,333.65,1789168281.0],[123.8070133,10.3446705,338.67,1789168289.0],[123.8070149,10.3446672,336.41,1789168297.0],[123.8070076,10.3446495,332.96,1789168305.0],[123.807034,10.344644,335.91,1789168313.0],[123.8071232,10.3446451,340.91,1789168321.0],[123.8071948,10.3446239,341.44,1789168329.0],[123.8072497,10.3445995,337.8,1789168337.0],[123.8072713,10.3446717,336.58,1789168345.0],[123.807265,10.3446783,338.03,1789168353.0],[123.8072716,10.3446696,339.49,1789168361.0],[123.807265,10.3446646,338.48,1789168369.0],[123.8072633,10.344652,333.05,1789168377.0],[123.8072647,10.344656,334.73,1789168385.0],[123.8072665,10.3446597,335.67,1789168393.0],[123.8072712,10.3446618,335.47,1789168401.0],[123.8072716,10.3446549,334.21,1789168409.0],[123.8072644,10.344653,334.33,1789168417.0],[123.807268,10.3446738,334.6,1789168425.0],[123.8072702,10.3446376,337.17,1789168433.0],[123.8072712,10.3445574,333.44,1789168441.0],[123.8072636,10.3445499,331.52,1789168449.0],[123.8072927,10.3445139,332.11,1789168457.0],[123.8073691,10.3444854,339.53,1789168465.0],[123.8074347,10.3444815,342.1,1789168473.0],[123.8074288,10.3444968,340.68,1789168481.0],[123.8074167,10.3445048,339.64,1789168489.0],[123.8073811,10.3445188,343.72,1789168497.0],[123.8073713,10.3445145,342.03,1789168505.0],[123.8073836,10.3445176,342.37,1789168513.0],[123.807434,10.3445507,341.98,1789168521.0],[123.8074648,10.3445168,344.05,1789168529.0],[123.8074864,10.3445228,344.4,1789168537.0],[123.8074861,10.3444409,346.1,1789168545.0],[123.8074419,10.3443738,343.99,1789168553.0],[123.8073879,10.3443514,348.16,1789168561.0],[123.8073954,10.3442928,343.47,1789168569.0],[123.8074136,10.3443277,346.14,1789168577.0],[123.8074737,10.3444273,343.04,1789168585.0],[123.8075354,10.3444224,337.81,1789168593.0],[123.8075477,10.3443768,346.16,1789168601.0],[123.8075981,10.3443283,353.76,1789168609.0],[123.80768,10.3443195,355.65,1789168617.0],[123.8077153,10.3442201,355.08,1789168625.0],[123.8077244,10.3441227,349.76,1789168633.0],[123.8077565,10.3440643,347.27,1789168641.0],[123.8078308,10.3440318,350.4,1789168649.0],[123.8078721,10.3439992,356.4,1789168657.0],[123.8079547,10.3439701,355.15,1789168665.0],[123.8080221,10.3439169,364.45,1789168673.0],[123.8080994,10.3439562,364.36,1789168682.0],[123.8080812,10.3439771,363.75,1789168689.0],[123.8081101,10.343958,362.39,1789168697.0],[123.8082023,10.343912,362.44,1789168705.0],[123.8082601,10.3439215,356.54,1789168713.0],[123.8083021,10.343958,357.57,1789168721.0],[123.808296,10.3440172,359.21,1789168729.0],[123.808327,10.3440614,359.76,1789168737.0],[123.8083582,10.3440597,358.75,1789168745.0],[123.8083721,10.3440616,357.68,1789168753.0],[123.8083764,10.3440964,364.75,1789168761.0],[123.808374,10.3441868,367.76,1789168769.0],[123.8083708,10.3441727,361.16,1789168777.0],[123.8083721,10.3441507,360.74,1789168785.0],[123.8083788,10.3441423,362.67,1789168793.0],[123.8083768,10.344174,363.39,1789168801.0],[123.8083868,10.3441949,357.93,1789168809.0],[123.8084175,10.3442449,364.02,1789168817.0],[123.8084341,10.3443167,364.2,1789168825.0],[123.8084516,10.3443693,369.2,1789168833.0],[123.8084392,10.3443797,368.89,1789168841.0],[123.8084284,10.3443569,366.52,1789168849.0],[123.8084259,10.3443513,367.01,1789168857.0],[123.8084284,10.344346,366.31,1789168865.0],[123.8084261,10.3443497,366.76,1789168873.0],[123.8084295,10.3443513,366.78,1789168881.0],[123.8084264,10.3443503,366.77,1789168889.0],[123.8084307,10.3443479,366.8,1789168897.0],[123.8084353,10.3443468,366.83,1789168905.0],[123.808444,10.3443518,366.6,1789168913.0],[123.8085209,10.3443975,369.26,1789168921.0],[123.8085362,10.3444205,370.22,1789168929.0],[123.8085532,10.3444214,370.58,1789168937.0],[123.8085718,10.3444307,371.44,1789168945.0],[123.8085946,10.344437,372.38,1789168953.0],[123.8086121,10.3444434,373.19,1789168961.0],[123.8086252,10.3444453,372.12,1789168969.0],[123.8086403,10.3444515,372.1,1789168977.0],[123.8086624,10.3444574,371.03,1789168985.0],[123.8086748,10.3444638,371.59,1789168993.0],[123.8086949,10.3444828,372.57,1789169001.0],[123.8086997,10.3444918,373.33,1789169009.0],[123.8087126,10.3445026,373.97,1789169017.0],[123.8087276,10.3445052,373.62,1789169025.0],[123.8087449,10.3445062,373.2,1789169033.0],[123.8087607,10.344507,372.39,1789169041.0],[123.8087697,10.3445119,371.98,1789169049.0],[123.8087834,10.3445185,371.62,1789169057.0],[123.8087968,10.3445227,371.31,1789169065.0],[123.8088124,10.3445254,371.55,1789169073.0],[123.8088297,10.3445353,372.32,1789169081.0],[123.8088402,10.3445438,372.39,1789169089.0],[123.8088516,10.3445509,372.1,1789169097.0],[123.8088682,10.3445555,371.91,1789169105.0],[123.8090162,10.3446165,382.79,1789169113.0],[123.8090889,10.3446453,386.09,1789169121.0],[123.8091252,10.3446509,387.5,1789169129.0],[123.8091435,10.3446558,385.95,1789169137.0],[123.8091609,10.3446595,386.9,1789169145.0],[123.8091785,10.3446613,388.16,1789169153.0],[123.8091905,10.3446621,389.09,1789169161.0],[123.809202,10.3446617,389.81,1789169169.0],[123.8092096,10.3446644,390.1,1789169177.0],[123.8092171,10.3446663,390.51,1789169185.0],[123.8092258,10.3446663,390.23,1789169193.0],[123.8092324,10.3446612,390.97,1789169201.0],[123.8092413,10.3446658,392.06,1789169209.0],[123.8092499,10.3446693,393.17,1789169217.0],[123.809264,10.3446719,395.03,1789169226.0],[123.809268,10.3446733,395.41,1789169233.0],[123.8092723,10.3446752,395.62,1789169241.0],[123.8092753,10.3446774,395.81,1789169249.0],[123.8092794,10.3446767,395.82,1789169257.0],[123.8092943,10.3446715,395.76,1789169266.0],[123.8093013,10.3446684,395.76,1789169273.0],[123.809313,10.3446604,395.8,1789169281.0],[123.8093247,10.344653,395.5,1789169289.0],[123.8093365,10.3446446,395.04,1789169297.0],[123.8093474,10.3446382,394.43,1789169305.0],[123.8093625,10.3446263,393.46,1789169313.0],[123.8093795,10.3446147,393.08,1789169321.0],[123.8093915,10.3446057,392.76,1789169329.0],[123.809407,10.3445987,392.16,1789169337.0],[123.8094149,10.344584,392.79,1789169345.0],[123.8094232,10.3445661,393.28,1789169354.0],[123.8094296,10.3445483,394.07,1789169362.0],[123.809431,10.3445352,394.1,1789169370.0],[123.8094332,10.3445195,394.81,1789169378.0],[123.8094351,10.3445071,395.66,1789169385.0],[123.8094368,10.3444836,397.46,1789169394.0],[123.8094346,10.3444638,397.72,1789169402.0],[123.8094355,10.3444565,398.19,1789169409.0],[123.8094331,10.3444454,398.35,1789169418.0],[123.809429,10.3444226,399.04,1789169426.0],[123.8094257,10.3444108,399.04,1789169433.0],[123.8094202,10.3444001,398.95,1789169441.0],[123.8094149,10.3443877,399.46,1789169449.0],[123.8094122,10.3443746,399.71,1789169457.0],[123.809407,10.3443594,400.06,1789169465.0],[123.8093992,10.3443445,399.96,1789169473.0],[123.8093939,10.3443274,400.31,1789169481.0],[123.8093874,10.3443099,400.2,1789169489.0],[123.8093795,10.3442911,400.92,1789169497.0],[123.8093671,10.3442739,400.7,1789169505.0],[123.8093552,10.3442552,401.13,1789169513.0],[123.8093465,10.3442353,400.51,1789169521.0],[123.8093347,10.3442226,400.92,1789169529.0],[123.8093233,10.3442123,401.21,1789169537.0],[123.8093151,10.3442023,401.47,1789169545.0],[123.8093045,10.3441878,400.93,1789169553.0],[123.8092972,10.3441722,401.04,1789169561.0],[123.80928,10.3441444,400.19,1789169570.0],[123.8092714,10.3441302,400.05,1789169577.0],[123.8091366,10.3439013,411.24,1789169586.0],[123.8091127,10.343852,414.04,1789169593.0],[123.8091117,10.3437874,418.41,1789169601.0],[123.8091272,10.3437213,421.69,1789169609.0],[123.8091424,10.3437238,425.55,1789169617.0],[123.8091404,10.3437159,427.03,1789169625.0],[123.8091324,10.3437061,427.37,1789169633.0],[123.8091296,10.3437056,425.79,1789169641.0],[123.8091251,10.3437068,426.36,1789169649.0],[123.8091183,10.3437069,427.5,1789169657.0],[123.8091168,10.3437071,428.65,1789169665.0],[123.8091192,10.343708,428.82,1789169673.0],[123.8091207,10.3437107,429.76,1789169681.0],[123.8091217,10.3437111,430.06,1789169689.0],[123.8091268,10.3437126,429.77,1789169697.0],[123.8091334,10.3437176,429.39,1789169705.0],[123.8091429,10.3437228,429.17,1789169713.0],[123.8091526,10.3437304,428.52,1789169721.0],[123.8091654,10.3437365,427.71,1789169729.0],[123.8091758,10.3437397,426.79,1789169737.0],[123.8091854,10.3437429,426.26,1789169745.0],[123.809195,10.3437493,425.42,1789169753.0],[123.809204,10.3437656,427.09,1789169761.0],[123.8092134,10.3437761,427.23,1789169769.0],[123.8092247,10.3437851,426.27,1789169777.0],[123.8092374,10.3437931,425.74,1789169785.0],[123.8092503,10.3437985,425.91,1789169793.0],[123.8093523,10.3438993,432.47,1789169801.0],[123.8093901,10.3439565,435.1,1789169809.0],[123.8094217,10.3439869,437.92,1789169817.0],[123.8094451,10.3439998,437.0,1789169825.0],[123.8094648,10.3440033,437.05,1789169833.0],[123.8094813,10.3440113,437.3,1789169841.0],[123.8095027,10.3440086,437.45,1789169849.0],[123.8095246,10.3440067,437.31,1789169857.0],[123.8095379,10.3440087,438.06,1789169865.0],[123.8095531,10.3440099,439.0,1789169873.0],[123.8095681,10.34401,438.45,1789169881.0],[123.8095913,10.3440067,440.2,1789169889.0],[123.8096101,10.344003,441.51,1789169897.0],[123.8096253,10.3439972,441.74,1789169905.0],[123.809708,10.3439593,443.89,1789169914.0],[123.8098024,10.3439146,447.78,1789169921.0],[123.8098879,10.3438993,447.97,1789169929.0],[123.8099266,10.3439132,449.76,1789169937.0],[123.8099924,10.3438815,452.66,1789169945.0],[123.8099616,10.3438679,452.11,1789169953.0],[123.8099571,10.3438673,453.18,1789169961.0],[123.8099926,10.3438445,455.19,1789169969.0],[123.810004,10.3438228,453.35,1789169977.0],[123.8100298,10.3437831,454.36,1789169985.0],[123.8100442,10.343767,456.59,1789169993.0],[123.8100906,10.3437363,458.87,1789170001.0],[123.8101106,10.3436996,463.28,1789170009.0],[123.8101151,10.3436572,452.55,1789170017.0],[123.8101561,10.3436262,457.92,1789170025.0],[123.8101909,10.3436094,459.27,1789170033.0],[123.8102062,10.3435669,454.5,1789170041.0],[123.8102631,10.3435356,458.24,1789170050.0],[123.8102692,10.3435264,458.9,1789170055.0],[123.810275,10.3434948,461.34,1789170066.0],[123.8102835,10.3434373,471.18,1789170073.0],[123.8103187,10.3434177,469.78,1789170081.0],[123.8103456,10.3434054,470.89,1789170090.0],[123.8103741,10.3433857,470.54,1789170097.0],[123.8103854,10.3433675,473.08,1789170105.0],[123.8104125,10.3433426,478.9,1789170113.0],[123.810439,10.3433493,479.8,1789170121.0],[123.810456,10.3433084,478.08,1789170129.0],[123.8104768,10.3432668,479.84,1789170137.0],[123.8105386,10.3432332,486.93,1789170145.0],[123.8105499,10.3432098,478.74,1789170153.0],[123.8105609,10.3431844,479.88,1789170161.0],[123.8106098,10.3431391,486.39,1789170169.0],[123.810604,10.3431084,486.5,1789170177.0],[123.8106011,10.3431011,484.62,1789170185.0],[123.8106057,10.3430949,484.75,1789170193.0],[123.8105923,10.3430784,476.68,1789170201.0],[123.8105544,10.3430784,475.41,1789170209.0],[123.8105311,10.343102,479.6,1789170217.0],[123.8105068,10.3430886,480.46,1789170225.0],[123.8104844,10.3430647,482.44,1789170233.0],[123.8104855,10.3430878,480.98,1789170241.0],[123.810439,10.3431244,482.81,1789170249.0],[123.8103834,10.3430741,484.75,1789170257.0],[123.8103931,10.3430772,483.64,1789170265.0],[123.8104081,10.343088,480.22,1789170273.0],[123.8103962,10.343123,481.36,1789170281.0],[123.8103572,10.3431402,483.82,1789170289.0],[123.810354,10.3431468,486.06,1789170297.0],[123.810363,10.3431481,490.78,1789170305.0],[123.8103216,10.3431236,488.04,1789170313.0],[123.8102589,10.3431561,490.57,1789170321.0],[123.8102261,10.3431916,487.53,1789170329.0],[123.810196,10.343208,488.06,1789170337.0],[123.8101994,10.3431901,491.48,1789170345.0],[123.8101772,10.3432508,492.58,1789170353.0],[123.8101774,10.3432665,492.56,1789170361.0],[123.8101626,10.3432705,490.88,1789170369.0],[123.8101414,10.3432828,490.56,1789170377.0],[123.8100813,10.3432999,487.53,1789170385.0],[123.8100253,10.3433225,493.8,1789170393.0],[123.810004,10.3433632,494.03,1789170401.0],[123.8099572,10.3433649,493.72,1789170409.0],[123.8099109,10.3433675,495.86,1789170417.0],[123.8099041,10.343339,485.07,1789170425.0],[123.8098562,10.3433079,492.56,1789170433.0],[123.8098426,10.3432534,497.2,1789170441.0],[123.8098489,10.3432224,493.24,1789170449.0],[123.8098564,10.3431881,493.32,1789170457.0],[123.8098742,10.3432174,492.54,1789170465.0],[123.8098757,10.3432276,493.04,1789170473.0],[123.8098682,10.3432294,491.97,1789170481.0],[123.8098645,10.3432304,491.48,1789170489.0],[123.8098593,10.3432291,491.71,1789170497.0],[123.8098552,10.3432304,492.76,1789170505.0],[123.8098668,10.3432449,493.0,1789170513.0],[123.8098621,10.3432579,493.89,1789170521.0],[123.8098617,10.3432636,494.94,1789170529.0],[123.8098608,10.3432633,495.7,1789170537.0],[123.8098583,10.3432605,495.62,1789170545.0],[123.8098587,10.3432566,494.96,1789170553.0],[123.8098334,10.3432553,493.41,1789170561.0],[123.80983,10.3432608,493.73,1789170569.0],[123.8098311,10.343264,494.43,1789170577.0],[123.8098323,10.3432592,494.17,1789170585.0],[123.8098359,10.3432549,495.12,1789170593.0],[123.8098397,10.3432577,495.5,1789170601.0],[123.8098478,10.3432639,495.44,1789170609.0],[123.8098531,10.343262,495.65,1789170617.0],[123.8098541,10.3432594,496.36,1789170625.0],[123.8098545,10.3432603,496.81,1789170633.0],[123.8098646,10.3432249,492.51,1789170641.0],[123.8098635,10.3432271,495.31,1789170649.0],[123.8098548,10.3432383,495.89,1789170657.0],[123.8098571,10.3432413,495.84,1789170665.0],[123.8098533,10.3432522,496.87,1789170673.0],[123.8098505,10.3432563,497.15,1789170681.0],[123.8098521,10.343256,497.63,1789170689.0],[123.8098503,10.3432543,497.52,1789170697.0],[123.8098504,10.3432541,497.65,1789170705.0],[123.8098509,10.3432532,497.99,1789170713.0],[123.8098494,10.3432512,498.12,1789170721.0],[123.8098521,10.3432491,497.61,1789170729.0],[123.8098515,10.3432498,497.56,1789170737.0],[123.8098502,10.3432479,497.33,1789170745.0],[123.8098519,10.3432473,497.5,1789170753.0],[123.8098538,10.3432406,497.13,1789170761.0],[123.8098568,10.3432314,496.91,1789170769.0],[123.8098599,10.3432257,496.58,1789170777.0],[123.8098694,10.3432148,496.07,1789170785.0],[123.8098729,10.343203,495.42,1789170793.0],[123.809884,10.3431959,494.69,1789170801.0],[123.8098947,10.3431814,494.29,1789170809.0],[123.80998,10.3431014,499.62,1789170817.0],[123.8100773,10.3430155,505.63,1789170825.0],[123.8101318,10.3429603,504.77,1789170833.0],[123.8101633,10.3429129,504.67,1789170841.0],[123.8101828,10.3428529,511.29,1789170849.0],[123.8101935,10.3428368,512.3,1789170857.0],[123.8102172,10.3428081,514.37,1789170865.0],[123.8102179,10.3427967,512.2,1789170873.0],[123.8102447,10.3428202,510.73,1789170879.422],[123.8102674,10.3427642,511.19,1789170884.0],[123.8102872,10.3427013,512.89,1789170898.0],[123.8102739,10.3427011,513.04,1789170906.0],[123.8102781,10.3426904,512.77,1789170914.0],[123.8102746,10.3426519,512.5,1789170922.0],[123.8102914,10.342591,514.08,1789170930.0],[123.8103378,10.3425335,515.38,1789170938.0],[123.8103691,10.3424811,522.51,1789170946.0],[123.8103817,10.3424329,525.92,1789170954.0],[123.8103971,10.3423879,526.76,1789170962.0],[123.8104481,10.3424023,522.82,1789170970.0],[123.8104999,10.3424203,523.97,1789170978.0],[123.810505,10.3423785,529.95,1789170986.0],[123.8104557,10.3423619,527.68,1789170994.0],[123.8104544,10.3423669,528.83,1789171002.0],[123.810464,10.3423732,526.8,1789171010.0],[123.8104716,10.3423787,526.52,1789171018.0],[123.810465,10.3424003,528.17,1789171026.0],[123.8104597,10.3423998,526.1,1789171034.0],[123.810466,10.3424007,522.64,1789171042.0],[123.8104688,10.3424055,521.35,1789171050.0],[123.8104647,10.3424092,522.22,1789171058.0],[123.8104678,10.3424075,523.16,1789171066.0],[123.8104712,10.3424053,521.49,1789171074.0],[123.8104751,10.3424013,521.42,1789171082.0],[123.8104781,10.3423976,522.44,1789171090.0],[123.8104778,10.3423946,523.17,1789171098.0],[123.8104797,10.3423919,523.23,1789171106.0],[123.8104852,10.3423915,523.78,1789171114.0],[123.8104902,10.3423982,524.05,1789171122.0],[123.8104924,10.3424013,523.76,1789171130.0],[123.8104938,10.3424179,523.57,1789171138.0],[123.810456,10.3424153,522.61,1789171146.0],[123.8104567,10.3423893,520.33,1789171154.0],[123.8104718,10.3423874,520.91,1789171162.0],[123.8104791,10.3423842,519.98,1789171170.0],[123.8105035,10.342362,515.93,1789171178.0],[123.8105155,10.342305,521.99,1789171186.0],[123.810548,10.3422888,523.05,1789171194.0],[123.8105797,10.3422899,521.7,1789171202.0],[123.8105846,10.3422419,516.06,1789171210.0],[123.8105618,10.3422044,520.74,1789171218.0],[123.8105575,10.3421793,521.72,1789171226.0],[123.8105715,10.3421255,513.11,1789171234.0],[123.8105853,10.342101,529.19,1789171242.0],[123.8105963,10.3420568,536.57,1789171250.0],[123.8105577,10.3420296,532.86,1789171258.0],[123.8104999,10.3420118,531.66,1789171266.0],[123.8104933,10.3420204,532.59,1789171274.0],[123.8105017,10.3420113,532.24,1789171282.0],[123.8104494,10.3419933,534.95,1789171290.0],[123.8104209,10.3419399,538.65,1789171298.0],[123.810387,10.3419109,539.35,1789171306.0],[123.810387,10.3418884,541.25,1789171314.0],[123.8103298,10.3418781,536.39,1789171322.0],[123.810278,10.3418652,541.76,1789171330.0],[123.8102639,10.341836,534.59,1789171338.0],[123.8102349,10.3418141,540.55,1789171346.0],[123.8101989,10.3417836,538.81,1789171354.0],[123.8101679,10.3417823,540.81,1789171362.0],[123.8101262,10.3417822,547.91,1789171370.0],[123.8100843,10.3417694,548.02,1789171378.0],[123.8100626,10.3417433,548.76,1789171386.0],[123.8100169,10.3417504,556.36,1789171394.0],[123.809964,10.3417484,555.43,1789171402.0],[123.8099341,10.3417348,557.3,1789171410.0],[123.8099131,10.341729,549.94,1789171418.0],[123.8099039,10.3416963,547.37,1789171426.0],[123.8098634,10.3416932,548.66,1789171434.0],[123.80981,10.3416933,550.72,1789171442.0],[123.8097775,10.3416598,549.6,1789171450.0],[123.8097996,10.3416118,556.97,1789171459.0],[123.8098487,10.3416069,559.8,1789171466.0],[123.8099058,10.3415948,553.31,1789171474.0],[123.8099624,10.3415684,547.7,1789171482.0],[123.810018,10.34153,555.11,1789171490.0],[123.8100767,10.3415437,567.4,1789171498.0],[123.8101387,10.3415512,567.95,1789171506.0],[123.8101863,10.3415166,560.88,1789171514.0],[123.8102049,10.3414575,557.38,1789171522.0],[123.8102564,10.3414492,561.19,1789171530.0],[123.8103481,10.3415066,562.12,1789171538.0],[123.8104184,10.3414681,563.09,1789171546.0],[123.8104807,10.3414546,563.6,1789171554.0],[123.8105599,10.3414747,564.37,1789171562.0],[123.810602,10.3414447,564.57,1789171570.0],[123.8106168,10.3414499,557.71,1789171578.0],[123.8107138,10.3414475,560.11,1789171586.0],[123.8107883,10.3414401,562.7,1789171592.0],[123.8108434,10.341431,561.91,1789171603.0],[123.8108588,10.3414282,562.2,1789171609.0],[123.8109197,10.3413958,563.55,1789171619.0],[123.8109453,10.3413764,565.6,1789171625.0],[123.8110066,10.3413842,581.62,1789171635.0],[123.8110195,10.341369,583.1,1789171641.0],[123.8110642,10.3413347,572.17,1789171651.0],[123.8110679,10.3413365,570.3,1789171658.0],[123.8110771,10.3413438,571.05,1789171666.0],[123.8110733,10.3413428,571.16,1789171674.0],[123.8110771,10.3413536,572.35,1789171682.0],[123.8110844,10.3413534,572.46,1789171690.0],[123.811086,10.3413512,574.68,1789171698.0],[123.811071,10.3413401,575.69,1789171706.0],[123.8110642,10.3413358,575.56,1789171714.0],[123.8110651,10.3413329,575.43,1789171722.0],[123.8110661,10.3413277,576.81,1789171730.0],[123.8111156,10.3413128,577.65,1789171738.0],[123.8112411,10.3413059,573.28,1789171747.0],[123.811173,10.3413029,581.07,1789171755.0],[123.8111639,10.3412724,578.93,1789171762.0],[123.8111972,10.3412681,572.04,1789171770.0],[123.8112417,10.3412883,569.11,1789171778.0],[123.8112854,10.3412693,584.08,1789171786.0],[123.8113319,10.341273,589.99,1789171794.0],[123.8113691,10.3412599,584.28,1789171802.0],[123.8114238,10.3412527,590.39,1789171810.0],[123.8114127,10.3412555,582.8,1789171818.0],[123.8113862,10.3412544,585.33,1789171826.0],[123.8113805,10.3412637,586.91,1789171834.0],[123.8113751,10.3412642,583.25,1789171842.0],[123.8114196,10.3412729,581.09,1789171850.0],[123.8114614,10.3412829,580.62,1789171859.0],[123.8114748,10.3413018,587.64,1789171866.0],[123.8115493,10.34135,584.0,1789171875.0],[123.811574,10.3413341,583.9,1789171882.0],[123.8116092,10.3413002,589.91,1789171890.0],[123.8116431,10.3412943,595.94,1789171898.0],[123.8116319,10.3412901,595.31,1789171906.0],[123.8116417,10.3412958,591.54,1789171914.0],[123.8116717,10.3413069,590.0,1789171922.0],[123.8117135,10.3412798,590.37,1789171930.0],[123.8117359,10.3412513,591.77,1789171938.0],[123.8117673,10.3413342,603.67,1789171946.0],[123.8118187,10.3413332,600.5,1789171954.0],[123.8118313,10.3413188,607.18,1789171962.0],[123.8118033,10.3413138,601.19,1789171970.0],[123.811821,10.3413235,597.27,1789171978.0],[123.8118198,10.341349,592.33,1789171987.0],[123.8118123,10.341349,592.28,1789171992.0],[123.8118164,10.3413485,594.45,1789172002.0],[123.8118712,10.3413335,592.65,1789172011.0],[123.8118969,10.3413294,597.79,1789172018.0],[123.81192,10.3413138,601.39,1789172026.0],[123.8119389,10.3413267,603.44,1789172034.0],[123.8119765,10.3413713,591.68,1789172042.0],[123.8120535,10.3413773,602.01,1789172050.0],[123.8120406,10.3413601,604.08,1789172058.0],[123.8120237,10.3413462,611.94,1789172066.0],[123.8120672,10.341325,615.44,1789172074.0],[123.8120552,10.3413213,613.86,1789172083.0],[123.8120644,10.341339,609.84,1789172090.0],[123.8120998,10.3413587,619.82,1789172098.0],[123.8121179,10.3413585,617.27,1789172106.0],[123.8121132,10.3413574,616.15,1789172114.0],[123.8121074,10.3413637,613.42,1789172122.0],[123.8121129,10.3413669,613.39,1789172130.0],[123.8121174,10.3413543,612.32,1789172138.0],[123.8121187,10.3413494,612.7,1789172146.0],[123.8121154,10.3413566,614.52,1789172154.0],[123.8121188,10.3413579,614.36,1789172162.0],[123.8121202,10.3413502,614.09,1789172170.0],[123.8121246,10.3413262,616.2,1789172178.0],[123.8121781,10.3413417,618.64,1789172186.0],[123.8122105,10.3413684,616.16,1789172194.0],[123.812227,10.3414189,613.23,1789172202.0],[123.8122074,10.3414178,618.83,1789172211.0],[123.812225,10.3414486,622.44,1789172218.0],[123.8122696,10.3414622,613.6,1789172226.0],[123.8123156,10.3414375,608.83,1789172235.0],[123.8123411,10.3414503,615.11,1789172242.0],[123.8124319,10.3414788,617.0,1789172251.0],[123.8124553,10.3414901,617.09,1789172258.0],[123.8124965,10.3415069,616.55,1789172267.0],[123.8125335,10.3415191,621.86,1789172275.0],[123.8125056,10.3415993,627.65,1789172283.0],[123.812538,10.3415875,620.55,1789172291.0],[123.8125728,10.3415966,631.59,1789172299.0],[123.8126046,10.3416374,631.44,1789172306.0],[123.812652,10.3416309,622.26,1789172314.0],[123.8126832,10.3416608,629.33,1789172323.0],[123.8126553,10.341776,632.12,1789172330.0],[123.81266,10.3417896,636.34,1789172338.0],[123.8126972,10.3417655,639.41,1789172346.0],[123.8126905,10.3417727,643.12,1789172354.0],[123.8126842,10.3417782,640.84,1789172362.0],[123.8127217,10.3418017,647.15,1789172370.0],[123.8127678,10.34177,640.48,1789172378.0],[123.8127353,10.3418255,641.52,1789172387.0],[123.812728,10.3418336,642.05,1789172394.0],[123.8127318,10.3418377,643.41,1789172402.0],[123.8127396,10.3418446,643.67,1789172410.0],[123.8127408,10.341845,645.59,1789172418.0],[123.8127458,10.3418482,645.77,1789172426.0],[123.8128013,10.3419167,642.41,1789172434.0],[123.8127843,10.3419683,641.24,1789172443.0],[123.8128018,10.341979,641.41,1789172450.0],[123.8128168,10.3419933,638.89,1789172459.0],[123.81283,10.3420058,635.98,1789172466.0],[123.8128286,10.3420198,635.1,1789172474.0],[123.8128128,10.3421786,639.4,1789172482.0],[123.8127886,10.3422457,641.39,1789172490.0],[123.8127497,10.3423183,641.49,1789172498.0],[123.8127449,10.3423973,645.43,1789172506.0],[123.8127657,10.3424783,644.03,1789172514.0],[123.8128115,10.342543,644.06,1789172522.0],[123.8128601,10.3425662,642.54,1789172530.0],[123.812896,10.3425397,644.91,1789172538.0],[123.8129208,10.342508,640.66,1789172546.0],[123.8129727,10.3424815,645.28,1789172554.0],[123.8129679,10.3424812,644.54,1789172562.0],[123.8129521,10.3424879,642.85,1789172570.0],[123.8129382,10.3425008,642.43,1789172578.0],[123.8129628,10.3424987,641.24,1789172586.0],[123.8129465,10.3424735,636.98,1789172594.0],[123.8130074,10.3425715,647.64,1789172602.0],[123.8130545,10.3426447,648.28,1789172610.0],[123.8130579,10.3426356,649.85,1789172618.0],[123.8130848,10.3425704,646.96,1789172626.0],[123.8131387,10.3425253,648.81,1789172634.0],[123.8131648,10.3424814,652.79,1789172642.0],[123.8132091,10.3424653,655.37,1789172650.0],[123.8132582,10.3424504,654.13,1789172658.0],[123.8133261,10.342434,655.35,1789172666.0],[123.8133867,10.3424179,657.61,1789172674.0],[123.8134039,10.342387,657.85,1789172682.0],[123.8134006,10.3423823,657.5,1789172690.0],[123.813424,10.342393,657.73,1789172698.0],[123.8134388,10.342404,659.57,1789172706.0],[123.8135004,10.3424288,659.58,1789172714.0],[123.8135765,10.3424705,660.1,1789172722.0],[123.813604,10.3424721,659.9,1789172730.0],[123.8136016,10.3424591,659.96,1789172738.0],[123.8135925,10.3424348,660.07,1789172745.0],[123.8134741,10.3423845,653.59,1789172755.0],[123.8134196,10.3423493,654.26,1789172761.0],[123.8132991,10.3423183,655.22,1789172770.0],[123.8132716,10.3423942,656.55,1789172778.0],[123.813212,10.3424444,664.07,1789172785.0],[123.8131941,10.3424378,653.48,1789172795.0],[123.8132784,10.3424356,654.22,1789172802.0],[123.8132915,10.3424389,653.26,1789172810.0],[123.8132966,10.342455,655.66,1789172818.0],[123.8132971,10.3424629,655.72,1789172826.0],[123.8132977,10.3424625,656.42,1789172834.0],[123.8132987,10.342463,656.47,1789172842.0],[123.8132937,10.3424592,655.88,1789172850.0],[123.8132873,10.3424531,655.21,1789172858.0],[123.813273,10.3424639,655.08,1789172866.0],[123.813176,10.3424674,654.29,1789172873.0],[123.813073,10.3424814,651.39,1789172883.0],[123.8130834,10.3425386,647.48,1789172890.0],[123.8130667,10.342577,653.17,1789172898.0],[123.8130151,10.3426278,655.93,1789172905.0],[123.8129386,10.3426943,659.44,1789172914.0],[123.8129832,10.342768,646.5,1789172922.0],[123.8130424,10.3428325,647.02,1789172929.0],[123.813153,10.3429327,650.43,1789172939.0],[123.8131964,10.3429851,652.19,1789172945.0],[123.8132446,10.3430181,652.58,1789172955.0],[123.8132725,10.3430471,652.21,1789172961.0],[123.8133196,10.3431181,651.65,1789172970.0],[123.8133677,10.3431705,659.62,1789172978.0],[123.8134025,10.3432318,660.26,1789172985.0],[123.8134455,10.3433245,660.98,1789172993.0],[123.813514,10.343408,661.71,1789173001.0],[123.8135901,10.3434913,662.52,1789173010.0],[123.8134728,10.3432787,639.35,1789173018.0],[123.8135502,10.3433426,638.09,1789173025.0],[123.8136268,10.3433915,636.53,1789173034.0],[123.8137009,10.3433941,646.49,1789173042.0],[123.8137694,10.3433936,647.42,1789173049.0],[123.8138934,10.34341,620.17,1789173059.0],[123.8138607,10.3434269,628.69,1789173066.0],[123.8139691,10.3434767,642.21,1789173074.0],[123.8140311,10.3435062,645.02,1789173082.0],[123.814125,10.343468,647.64,1789173089.0],[123.814042,10.3434471,650.62,1789173099.0],[123.8140562,10.3434676,643.3,1789173106.0],[123.8140921,10.3435258,639.05,1789173114.0],[123.8141061,10.3435073,639.1,1789173122.0],[123.8141142,10.3435073,632.76,1789173130.0],[123.8141051,10.3435205,631.75,1789173138.0],[123.8141413,10.3435843,628.89,1789173145.0],[123.8141694,10.3436404,640.25,1789173155.0],[123.8141836,10.3436694,643.19,1789173161.0],[123.8142284,10.3436678,630.77,1789173171.0],[123.8142538,10.3436779,631.52,1789173177.0],[123.8142931,10.3437363,632.52,1789173185.0],[123.8143473,10.3438134,633.64,1789173194.0],[123.8144459,10.3438061,632.15,1789173202.0],[123.8145235,10.3437938,636.94,1789173210.0],[123.8145792,10.343822,636.26,1789173217.0],[123.8146353,10.3438809,635.49,1789173225.0],[123.8146948,10.3439692,634.63,1789173234.0],[123.8147559,10.3439399,628.75,1789173242.0],[123.8148222,10.3439177,630.44,1789173249.0],[123.8148752,10.3438642,630.21,1789173259.0],[123.8149159,10.3438246,631.21,1789173265.0],[123.8149856,10.3438131,629.31,1789173275.0],[123.8150004,10.3438615,628.13,1789173281.0],[123.8150709,10.3439326,623.35,1789173291.0],[123.8151461,10.3439182,627.11,1789173298.0],[123.8152115,10.3439062,626.72,1789173306.0],[123.815256,10.3439016,632.36,1789173314.0],[123.8153415,10.3438909,634.33,1789173322.0],[123.8153861,10.3438972,630.47,1789173330.0],[123.8154342,10.3438766,620.96,1789173338.0],[123.8154946,10.3438561,632.29,1789173346.0],[123.815571,10.3439234,626.04,1789173355.0],[123.8156013,10.3439462,616.9,1789173362.0],[123.8156483,10.3439584,617.9,1789173370.0],[123.8156852,10.343989,618.22,1789173378.0],[123.815735,10.3440117,632.2,1789173386.0],[123.8157753,10.3440369,632.42,1789173394.0],[123.8158531,10.3440132,630.01,1789173402.0],[123.8159187,10.3439907,628.7,1789173410.0],[123.8160515,10.3439483,625.03,1789173419.0],[123.8160541,10.3439557,625.72,1789173426.0],[123.8160634,10.3439787,634.49,1789173435.0],[123.816113,10.344057,639.33,1789173443.0],[123.8161698,10.3440546,638.52,1789173451.0],[123.8162375,10.3440664,634.69,1789173459.0],[123.8163035,10.3440971,631.84,1789173467.0],[123.8163467,10.3441012,629.39,1789173474.0],[123.8164379,10.344114,626.62,1789173483.0],[123.8164755,10.344163,629.85,1789173491.0],[123.8165138,10.3441979,627.87,1789173498.0],[123.8165547,10.3442439,624.58,1789173506.0],[123.8165315,10.3442481,634.37,1789173514.0],[123.8165494,10.3443064,626.85,1789173523.0],[123.8165618,10.3442834,623.6,1789173530.0],[123.8166319,10.3443457,632.45,1789173539.0],[123.8166641,10.3443786,631.62,1789173546.0],[123.8166917,10.3444212,627.41,1789173554.0],[123.8166985,10.3444325,630.09,1789173562.0],[123.8167143,10.3444282,628.38,1789173570.0],[123.8167422,10.3444913,624.06,1789173578.0],[123.8167944,10.3445313,631.38,1789173586.0],[123.8168243,10.3445658,626.37,1789173594.0],[123.8168319,10.3446494,631.32,1789173602.0],[123.8168909,10.3447045,627.19,1789173610.0],[123.8169331,10.344758,624.2,1789173618.0],[123.8169678,10.344828,628.37,1789173626.0],[123.8169916,10.3448249,624.14,1789173635.0],[123.8170381,10.3448198,627.67,1789173643.0],[123.8170619,10.3447949,627.85,1789173650.0],[123.8170778,10.3449486,628.04,1789173658.0],[123.81712,10.3449141,615.33,1789173667.0],[123.8170998,10.3449097,619.41,1789173674.0],[123.8170641,10.3449654,625.12,1789173682.0],[123.817064,10.3450843,627.37,1789173690.0],[123.8170771,10.3451417,626.84,1789173698.0],[123.8171067,10.3451753,625.46,1789173706.0],[123.8171917,10.3452176,623.57,1789173715.0],[123.8172235,10.3452298,626.12,1789173722.0],[123.8172371,10.3452254,618.07,1789173730.0],[123.8172678,10.3452754,618.35,1789173737.0],[123.8173138,10.3453574,618.71,1789173746.0],[123.8173551,10.3453804,626.3,1789173754.0],[123.8173268,10.3453085,624.78,1789173762.0],[123.8173494,10.3453639,620.26,1789173770.0],[123.817416,10.3454294,617.08,1789173778.0],[123.8174571,10.3454972,621.88,1789173786.0],[123.8175132,10.3455556,619.48,1789173794.0],[123.8175662,10.3456062,617.6,1789173802.0],[123.8176123,10.3456517,622.08,1789173810.0],[123.8176457,10.3456975,621.77,1789173817.0],[123.8177394,10.3457533,630.24,1789173827.0],[123.8177779,10.3457866,630.72,1789173833.0],[123.8178619,10.3458208,622.03,1789173843.0],[123.8179095,10.3458501,624.19,1789173849.0],[123.8179558,10.3458661,618.23,1789173859.0],[123.8179918,10.3458669,620.57,1789173865.0],[123.8180173,10.3458529,616.92,1789173875.0],[123.8180328,10.345827,617.93,1789173882.0],[123.8180272,10.3458175,618.81,1789173890.0],[123.8180276,10.345815,617.81,1789173899.0],[123.8180236,10.3458117,617.65,1789173906.0],[123.8180246,10.3458103,617.77,1789173914.0],[123.818034,10.3458103,617.98,1789173923.0],[123.818036,10.3458088,618.37,1789173931.0],[123.8180327,10.345807,618.38,1789173939.0],[123.8180363,10.3458041,617.58,1789173947.0],[123.818035,10.3458038,618.01,1789173955.0],[123.8180326,10.3458058,618.59,1789173963.0],[123.8180299,10.3458048,618.7,1789173970.0],[123.8180235,10.345808,619.16,1789173979.0],[123.8180243,10.3458082,618.83,1789173986.0],[123.8180249,10.3458069,619.3,1789173994.0],[123.8180184,10.3457967,618.68,1789174002.0],[123.8180152,10.3458029,619.79,1789174011.0],[123.8180398,10.3458181,620.06,1789174019.0],[123.8180562,10.3458215,620.45,1789174027.0],[123.8180313,10.3458157,624.33,1789174035.0],[123.8180328,10.3458122,622.22,1789174043.0],[123.818029,10.3458077,620.82,1789174051.0],[123.8180342,10.3458068,618.99,1789174056.422],[123.8180302,10.3458043,616.58,1789174061.0],[123.8180319,10.3458002,618.77,1789174066.0],[123.8180272,10.3457962,619.44,1789174071.0],[123.818033,10.3457919,619.0,1789174076.0],[123.8180235,10.3457913,618.27,1789174081.0],[123.8180595,10.3457875,616.64,1789174092.0],[123.8180489,10.3457916,617.02,1789174100.0],[123.8180464,10.345796,616.7,1789174108.0],[123.8180508,10.3457952,616.44,1789174116.0],[123.8180488,10.3457939,616.23,1789174124.0],[123.8180425,10.345795,616.87,1789174132.0],[123.8180419,10.3458001,617.34,1789174140.0],[123.8180482,10.3457984,616.74,1789174148.0],[123.818061,10.3458052,616.66,1789174156.0],[123.8181939,10.3458904,621.25,1789174164.0],[123.8182534,10.3459379,622.28,1789174172.0],[123.8183141,10.3459427,622.63,1789174180.0],[123.8183621,10.345946,628.15,1789174188.0],[123.8183962,10.3459227,625.57,1789174196.0],[123.8183954,10.3459212,624.87,1789174204.0],[123.8184046,10.3459247,624.21,1789174212.0],[123.8184746,10.3459121,622.99,1789174220.0],[123.8185387,10.3458877,625.27,1789174228.0],[123.8186049,10.3458908,629.34,1789174235.422],[123.8186853,10.3459349,618.82,1789174247.0],[123.8186971,10.3459505,621.83,1789174255.0],[123.8187425,10.3459871,622.96,1789174263.0],[123.8188202,10.346023,620.67,1789174271.0],[123.818886,10.3460596,618.8,1789174279.0],[123.8189291,10.3460703,621.19,1789174287.0],[123.8189901,10.3460823,618.51,1789174295.0],[123.8190637,10.3461173,614.75,1789174303.0],[123.8191184,10.3461731,617.1,1789174311.0],[123.819167,10.3462183,618.23,1789174319.0],[123.8192191,10.3462577,622.9,1789174327.0],[123.8192428,10.3462882,616.32,1789174335.0],[123.8192262,10.3462716,618.29,1789174343.0],[123.8192226,10.346268,621.69,1789174351.0],[123.8192197,10.3462784,619.55,1789174359.0],[123.8192364,10.3462979,619.27,1789174367.0],[123.8192552,10.3463118,618.59,1789174375.0],[123.8193447,10.3463788,622.39,1789174383.0],[123.8193674,10.3463969,615.45,1789174391.0],[123.8194394,10.346454,615.44,1789174399.0],[123.8194983,10.3465207,613.97,1789174407.0],[123.8195493,10.3465719,611.68,1789174415.0],[123.8195855,10.3465998,610.27,1789174421.0],[123.8196683,10.3466534,617.3,1789174432.0],[123.8196962,10.3466856,617.59,1789174437.0],[123.8197164,10.3467256,631.17,1789174448.0],[123.8197329,10.3467347,616.94,1789174455.0],[123.8197743,10.3467433,617.2,1789174462.0],[123.8198286,10.3468313,619.55,1789174472.0],[123.8198723,10.3468666,619.78,1789174477.0],[123.8199766,10.3468895,620.22,1789174487.0],[123.8200072,10.3469775,618.96,1789174495.0],[123.8200368,10.3470602,619.54,1789174502.0],[123.8199662,10.3471107,620.65,1789174512.0],[123.8199466,10.3471174,618.72,1789174519.0],[123.8199599,10.3471361,616.03,1789174527.0],[123.8199742,10.347169,613.5,1789174535.0],[123.8200263,10.3472651,609.04,1789174543.0],[123.8200956,10.347351,606.99,1789174551.0],[123.8201563,10.3474204,609.5,1789174559.0],[123.8202209,10.3474716,609.8,1789174567.0],[123.8202863,10.3474984,609.8,1789174574.0],[123.8203713,10.3475267,608.65,1789174584.0],[123.8204153,10.3475405,608.41,1789174589.0],[123.8205072,10.3475662,607.95,1789174599.0],[123.8205782,10.3475978,607.88,1789174607.0],[123.8206399,10.3476239,607.22,1789174614.0],[123.8207371,10.3476444,599.92,1789174624.0],[123.8207793,10.3476625,599.87,1789174629.0],[123.8208739,10.3477045,601.32,1789174640.0],[123.8209127,10.3477253,600.94,1789174645.0],[123.8209876,10.3477743,600.21,1789174655.0],[123.821035,10.3478068,589.9,1789174663.0],[123.8210864,10.3478623,602.17,1789174671.0],[123.8211261,10.3479429,602.62,1789174679.0],[123.8211683,10.3479818,601.68,1789174685.0],[123.8212432,10.3480505,600.22,1789174695.0],[123.8214427,10.3479127,596.46,1789174704.0],[123.8214917,10.347933,595.84,1789174710.0],[123.8215742,10.3480733,603.3,1789174720.0],[123.8216399,10.3481029,603.8,1789174726.0],[123.8217883,10.3481158,603.72,1789174735.0],[123.8217497,10.3483305,612.95,1789174743.0],[123.8218256,10.348277,591.06,1789174751.0],[123.8218345,10.3482823,597.97,1789174759.0],[123.8218735,10.3483228,602.19,1789174766.0],[123.8219259,10.3484007,607.01,1789174776.0],[123.8219527,10.348422,608.93,1789174781.0],[123.8219883,10.3484387,592.58,1789174792.0],[123.8220235,10.3484328,594.06,1789174797.0],[123.8221106,10.348415,596.9,1789174807.0],[123.8221915,10.3484492,591.91,1789174815.0],[123.8222436,10.3484573,599.27,1789174823.0],[123.8222997,10.3484436,600.63,1789174830.0],[123.8223727,10.3484405,593.0,1789174840.0],[123.8224179,10.3484374,594.79,1789174845.0],[123.8225007,10.3486515,591.84,1789174856.0],[123.8225391,10.3486744,587.92,1789174861.0],[123.8226297,10.3487149,581.36,1789174871.0],[123.8226768,10.3487521,578.99,1789174879.0],[123.8227066,10.3488047,581.88,1789174887.0],[123.822752,10.3488029,581.51,1789174893.0],[123.8228011,10.3488902,593.11,1789174904.0],[123.8228358,10.3489241,592.3,1789174909.0],[123.8229096,10.3489916,592.45,1789174919.0],[123.8229667,10.3489936,592.55,1789174926.0],[123.823012,10.3490771,588.15,1789174935.0],[123.8230494,10.3491129,587.93,1789174942.0],[123.8231006,10.3491858,594.37,1789174952.0],[123.8231315,10.3491962,600.24,1789174957.0],[123.823205,10.3492622,591.88,1789174968.0],[123.8232007,10.3492568,588.89,1789174974.0],[123.8232482,10.3492788,591.74,1789174984.0],[123.8232891,10.3492645,590.2,1789174989.0],[123.8233683,10.349236,587.29,1789174999.0],[123.8234081,10.3491958,585.26,1789175006.0],[123.8235764,10.3494739,597.95,1789175015.0],[123.823629,10.3494312,595.85,1789175022.0],[123.8237156,10.3493836,603.44,1789175032.0],[123.8237605,10.3493927,597.44,1789175039.0],[123.8238153,10.3493455,597.64,1789175045.0],[123.8239106,10.3492313,597.64,1789175054.0],[123.8240332,10.3493668,583.63,1789175064.0],[123.8240854,10.3493439,586.84,1789175070.0],[123.8241338,10.3493099,591.03,1789175078.0],[123.8240841,10.3495214,599.7,1789175088.0],[123.824107,10.3495738,601.65,1789175094.0],[123.8240939,10.3496334,594.93,1789175104.0],[123.8240916,10.3496716,596.35,1789175109.0],[123.8241107,10.3497282,599.06,1789175119.0],[123.8241434,10.3497383,592.67,1789175127.0],[123.8241721,10.3497764,595.75,1789175133.0],[123.8242397,10.3498252,600.22,1789175142.0],[123.8240804,10.3499246,588.09,1789175152.0],[123.8240948,10.3499873,596.28,1789175159.0],[123.8240987,10.3500007,595.86,1789175165.0],[123.8242019,10.3499759,595.86,1789175175.0],[123.8241076,10.3500169,587.85,1789175183.0],[123.8241702,10.3500935,586.8,1789175189.0],[123.8240664,10.3501375,571.58,1789175200.0],[123.8240923,10.3501858,569.82,1789175205.0],[123.8241064,10.3502729,578.09,1789175216.0],[123.8241092,10.3503124,578.93,1789175221.0],[123.824142,10.350456,578.93,1789175231.0],[123.8240892,10.3503833,583.39,1789175239.0],[123.8241219,10.3504402,582.74,1789175246.0],[123.8242296,10.3505202,582.18,1789175254.0],[123.824038,10.3505027,572.75,1789175264.0],[123.8241272,10.3505412,562.94,1789175271.0],[123.8240349,10.3504715,579.98,1789175279.0],[123.8240775,10.3505052,578.78,1789175287.0],[123.8240885,10.3505228,572.75,1789175295.0],[123.8240694,10.3506181,576.65,1789175303.0],[123.823962,10.3507555,583.9,1789175311.0],[123.8239992,10.350739,582.04,1789175319.0],[123.8239785,10.3508027,571.32,1789175327.0],[123.8240138,10.3506605,561.47,1789175335.0],[123.8240156,10.3506986,563.33,1789175343.0],[123.8240073,10.3507093,550.11,1789175351.0],[123.8240126,10.3507816,546.37,1789175359.0],[123.8239924,10.3508835,565.55,1789175367.0],[123.8239636,10.3509547,572.02,1789175375.0],[123.8239851,10.3508933,557.73,1789175383.0],[123.8238866,10.3510806,557.43,1789175390.0],[123.8238614,10.3508985,551.66,1789175400.0],[123.823836,10.3509021,543.69,1789175407.0],[123.8239023,10.3508881,540.36,1789175415.0],[123.8239093,10.3509033,551.24,1789175424.0],[123.8239166,10.3509283,547.09,1789175431.0],[123.8239017,10.3509263,546.07,1789175440.0],[123.8238906,10.3509325,544.11,1789175447.0],[123.8238827,10.3509337,540.74,1789175455.0],[123.8238576,10.3509506,544.74,1789175463.0],[123.8238628,10.3509699,545.83,1789175472.0],[123.8238397,10.3509705,545.41,1789175479.0],[123.8238318,10.3509636,541.91,1789175488.0],[123.8238293,10.3509694,540.23,1789175495.0],[123.823813,10.3509685,541.21,1789175504.0],[123.8237943,10.3510084,538.24,1789175511.0],[123.8238146,10.3510103,539.21,1789175519.0],[123.8238244,10.3510374,535.01,1789175527.0],[123.8238152,10.3510946,543.98,1789175535.0],[123.8237734,10.3511202,544.68,1789175543.0],[123.8237623,10.3510946,537.99,1789175551.0],[123.8237837,10.3510592,532.47,1789175559.0],[123.8238468,10.3510104,529.5,1789175568.0],[123.823849,10.3510287,531.58,1789175575.0],[123.8238439,10.3510439,530.07,1789175583.0],[123.8237904,10.3510986,530.55,1789175591.0],[123.8237742,10.351099,531.7,1789175599.0],[123.8237744,10.3511176,528.45,1789175607.0],[123.8237512,10.3511398,534.21,1789175615.0],[123.8237196,10.3511658,528.88,1789175623.0],[123.8237305,10.3511382,526.92,1789175631.0],[123.8237284,10.3511332,527.31,1789175639.0],[123.8237429,10.3511655,529.94,1789175647.0],[123.8237409,10.3511713,530.1,1789175655.0],[123.8237039,10.3511173,529.12,1789175663.0],[123.823696,10.3510967,531.21,1789175671.0],[123.8236968,10.3511142,528.44,1789175679.0],[123.8237131,10.351188,526.3,1789175687.0],[123.8237271,10.3512074,527.6,1789175695.0],[123.8237571,10.3512269,526.79,1789175703.0],[123.8237651,10.3512487,520.21,1789175711.0],[123.8237319,10.3513166,519.54,1789175720.0],[123.8237451,10.3513281,518.3,1789175727.0],[123.8237542,10.3513388,530.03,1789175735.0],[123.8237906,10.3513342,526.92,1789175743.0],[123.8238046,10.3513233,524.91,1789175751.0],[123.8238517,10.3513404,524.82,1789175759.0],[123.8238638,10.3513268,524.73,1789175767.0],[123.8238883,10.3512757,518.32,1789175776.0],[123.82388,10.3512774,518.05,1789175781.0],[123.8238819,10.351349,521.98,1789175793.0],[123.8238964,10.3513732,523.67,1789175799.0],[123.8239454,10.3513353,518.07,1789175807.0],[123.8239869,10.3512958,512.01,1789175815.0],[123.823978,10.3513335,514.32,1789175823.0],[123.8239883,10.3513704,519.32,1789175831.0],[123.823996,10.3513658,517.55,1789175839.0],[123.8239963,10.3513658,519.3,1789175847.0],[123.824001,10.351373,517.87,1789175855.0],[123.8240539,10.3513918,519.4,1789175864.0],[123.8239641,10.3512632,526.17,1789175871.0],[123.8239649,10.3513478,525.33,1789175880.0],[123.8239849,10.35139,517.6,1789175887.0],[123.8239929,10.351329,523.11,1789175895.0],[123.8240297,10.351349,520.94,1789175903.0],[123.8240915,10.351372,511.01,1789175911.0],[123.8241066,10.3514048,515.46,1789175919.0],[123.824098,10.3514021,514.58,1789175927.0],[123.8241439,10.3514328,518.57,1789175935.0],[123.824179,10.3514445,515.78,1789175944.0],[123.8241619,10.3513642,518.77,1789175951.0],[123.8241755,10.3512931,519.61,1789175959.0],[123.8242164,10.3513651,513.41,1789175968.0],[123.8242199,10.3513715,513.14,1789175973.0],[123.8242713,10.3513961,507.78,1789175985.0],[123.8243292,10.3513717,507.79,1789175991.0],[123.8243191,10.3513326,508.49,1789175999.0],[123.824314,10.3512705,501.46,1789176007.0],[123.824409,10.3513167,506.03,1789176016.0],[123.8244026,10.3513536,506.1,1789176023.0],[123.8243933,10.3513539,507.96,1789176031.0],[123.8244604,10.3513571,501.43,1789176040.0],[123.8244954,10.3513629,506.41,1789176048.0],[123.824512,10.3513697,506.08,1789176055.0],[123.8245025,10.3514055,510.58,1789176063.0],[123.8245032,10.351409,508.46,1789176071.0],[123.8245038,10.3514254,507.18,1789176079.0],[123.8245049,10.3514365,506.48,1789176087.0],[123.8244974,10.3514987,509.76,1789176095.0],[123.8244969,10.3515262,507.16,1789176103.0],[123.8244978,10.3515368,506.74,1789176111.0],[123.8244926,10.3515463,506.07,1789176119.0],[123.8244934,10.3515526,504.46,1789176127.0],[123.8244935,10.3515669,503.73,1789176135.0],[123.824493,10.3515764,503.7,1789176143.0],[123.8244911,10.3515848,502.88,1789176151.0],[123.8244899,10.3515907,502.26,1789176159.0],[123.8244914,10.3515959,501.88,1789176167.0],[123.824496,10.3515968,501.13,1789176175.0],[123.8245001,10.351599,500.52,1789176183.0],[123.8245085,10.3516029,499.74,1789176191.0],[123.824567,10.351681,493.54,1789176200.0],[123.8246253,10.3517056,493.02,1789176207.0],[123.8246846,10.351777,494.78,1789176215.0],[123.8246994,10.3518639,495.78,1789176223.0],[123.8246997,10.3519086,495.52,1789176231.0],[123.8247024,10.3518898,493.19,1789176239.0],[123.8246989,10.3519007,495.21,1789176247.0],[123.8246865,10.3519163,498.97,1789176255.0],[123.8246843,10.351914,497.57,1789176263.0],[123.8246828,10.351907,496.84,1789176271.0],[123.8246946,10.3519215,498.75,1789176279.0],[123.8247393,10.3519735,498.17,1789176287.0],[123.8247737,10.3520372,499.39,1789176295.0],[123.8247944,10.3520812,502.26,1789176303.0],[123.8248198,10.3521195,507.58,1789176311.0],[123.8248533,10.3521389,490.42,1789176319.0],[123.8248554,10.3521889,490.71,1789176327.0],[123.8249149,10.3522281,492.67,1789176335.0],[123.82494,10.3522848,492.38,1789176343.0],[123.8249412,10.3523007,490.93,1789176351.0],[123.8249568,10.3523445,495.85,1789176359.0],[123.8249043,10.3523799,495.8,1789176367.0],[123.8249135,10.3523634,491.32,1789176375.0],[123.824869,10.3524161,492.62,1789176383.0],[123.8248769,10.3524198,497.36,1789176391.0],[123.8249021,10.3523927,491.35,1789176399.0],[123.8248829,10.3524249,488.51,1789176407.0],[123.8248629,10.3524881,486.53,1789176415.0],[123.8248678,10.3525466,486.97,1789176423.0],[123.8248924,10.352582,484.35,1789176431.0],[123.8249057,10.3526264,484.78,1789176439.0],[123.8249345,10.3526704,479.9,1789176447.0],[123.824942,10.352705,482.08,1789176455.0],[123.8249463,10.3526889,481.83,1789176463.0],[123.8249464,10.3527038,480.74,1789176471.0],[123.8249366,10.3527673,480.27,1789176479.0],[123.8249111,10.3528221,478.42,1789176487.0],[123.8249109,10.3528555,477.38,1789176495.0],[123.8248674,10.3528231,472.43,1789176503.0],[123.824876,10.3528435,470.7,1789176511.0],[123.8248509,10.3529029,474.82,1789176519.0],[123.8248384,10.352953,477.32,1789176527.0],[123.8248541,10.3530305,472.79,1789176535.0],[123.8248372,10.353083,472.29,1789176543.0],[123.8248308,10.3531136,469.71,1789176551.0],[123.8248279,10.3531432,468.04,1789176559.0],[123.8248267,10.3531841,469.7,1789176567.0],[123.8248292,10.3531998,471.01,1789176575.0],[123.8248344,10.3532176,462.32,1789176583.0],[123.8248477,10.3532069,464.24,1789176591.0],[123.8248338,10.3531884,462.47,1789176599.0],[123.8248299,10.3531659,465.02,1789176607.0],[123.8248359,10.3531622,467.21,1789176615.0],[123.8248311,10.3531724,466.79,1789176623.0],[123.8248439,10.3531825,465.2,1789176631.0],[123.8248381,10.3531761,465.58,1789176639.0],[123.824827,10.3531661,463.78,1789176647.0],[123.8248212,10.353167,463.07,1789176655.0],[123.8248162,10.3531687,460.72,1789176663.0],[123.8248077,10.353175,457.54,1789176671.0],[123.8248816,10.3532349,470.71,1789176679.0],[123.824882,10.3532393,468.49,1789176687.0],[123.8248327,10.3532059,460.99,1789176695.0],[123.8248248,10.3531992,466.07,1789176703.0],[123.824819,10.3532191,463.28,1789176711.0],[123.8248148,10.3531972,458.68,1789176719.0],[123.8248231,10.3531957,461.86,1789176727.0],[123.8248388,10.3532087,464.63,1789176735.0],[123.8248305,10.3532025,464.33,1789176743.0],[123.8248232,10.3531923,463.87,1789176751.0],[123.8248254,10.3531945,465.05,1789176759.0],[123.8248506,10.353217,465.76,1789176767.0],[123.8248599,10.3532254,467.93,1789176775.0],[123.8248685,10.3532292,468.48,1789176783.0],[123.8248589,10.3532151,464.59,1789176791.0],[123.8248429,10.3532111,463.9,1789176799.0],[123.8248649,10.353199,460.98,1789176807.0],[123.8248618,10.3532008,462.08,1789176815.0],[123.8248638,10.353232,466.18,1789176823.0],[123.8248543,10.353226,468.52,1789176831.0],[123.8248497,10.3532139,470.49,1789176839.0],[123.8248345,10.3532345,470.75,1789176847.0],[123.8248337,10.3532483,471.04,1789176855.0],[123.8248336,10.3532472,469.63,1789176863.0],[123.8248334,10.353244,469.49,1789176871.0],[123.8248388,10.3532403,468.98,1789176879.0],[123.8248407,10.3532393,468.77,1789176887.0],[123.8248395,10.3532367,468.9,1789176895.0],[123.8248402,10.353235,468.46,1789176903.0],[123.8248421,10.3532688,472.21,1789176911.0],[123.824857,10.3532756,472.26,1789176919.0],[123.8248606,10.3532689,471.0,1789176927.0],[123.8248577,10.3532497,467.62,1789176935.0],[123.8248599,10.3532342,466.8,1789176943.0],[123.8248561,10.3532325,467.39,1789176951.0],[123.824855,10.3532298,468.29,1789176959.0],[123.8248346,10.353218,464.97,1789176967.0],[123.8248336,10.3532229,466.08,1789176975.0],[123.8248276,10.3532261,463.39,1789176983.0],[123.8248309,10.3532228,462.42,1789176991.0],[123.8248361,10.3532197,461.08,1789176999.0],[123.8248445,10.3532161,461.6,1789177007.0],[123.8248506,10.3532214,460.93,1789177015.0],[123.8248487,10.3532354,461.6,1789177023.0],[123.824852,10.3532521,461.41,1789177031.0],[123.8248507,10.3532635,459.62,1789177039.0],[123.8248371,10.3532981,464.47,1789177047.0],[123.8248363,10.3533062,462.15,1789177055.0],[123.8248427,10.3533424,457.77,1789177063.0],[123.8248571,10.3533666,462.35,1789177071.0],[123.8248453,10.3533943,456.37,1789177079.0],[123.8248339,10.3534173,455.76,1789177087.0],[123.824835,10.3534047,455.72,1789177095.0],[123.8248187,10.3534221,449.59,1789177103.0],[123.8248158,10.3534436,448.96,1789177111.0],[123.8248263,10.3534924,454.25,1789177119.0],[123.8248208,10.3535324,455.8,1789177127.0],[123.8248432,10.3535601,454.16,1789177135.0],[123.824859,10.3536062,450.6,1789177143.0],[123.8248621,10.3536218,447.62,1789177151.0],[123.8248764,10.3536832,446.98,1789177159.0],[123.8249004,10.3537408,451.9,1789177167.0],[123.8249546,10.3536823,447.24,1789177175.0],[123.8250171,10.3537323,443.68,1789177183.0],[123.8250007,10.3537458,438.81,1789177191.0],[123.8250285,10.3537934,445.02,1789177199.0],[123.8250023,10.3538211,441.72,1789177207.0],[123.8249933,10.3538697,442.39,1789177215.0],[123.8250372,10.3539293,440.16,1789177223.0],[123.8250715,10.3539726,441.77,1789177231.0],[123.8250746,10.3540267,440.05,1789177239.0],[123.8250737,10.3540642,439.52,1789177247.0],[123.8250537,10.354097,438.37,1789177255.0],[123.8250713,10.3541405,439.97,1789177263.0],[123.8250795,10.3541786,432.63,1789177271.0],[123.825091,10.3542078,432.06,1789177279.0],[123.8250688,10.354253,432.51,1789177287.0],[123.825084,10.3542551,431.29,1789177295.0],[123.8250879,10.3542971,429.21,1789177303.0],[123.8250682,10.3542963,426.63,1789177311.0],[123.825063,10.3543361,429.16,1789177319.0],[123.8250625,10.3543731,430.55,1789177327.0],[123.825031,10.354343,424.3,1789177335.0],[123.8250281,10.3543435,420.89,1789177343.0],[123.8250434,10.3544831,422.92,1789177351.0],[123.8250651,10.354574,424.82,1789177359.0],[123.825077,10.35464,427.67,1789177367.0],[123.8250913,10.3547003,424.39,1789177375.0],[123.825075,10.3547451,422.0,1789177383.0],[123.8251067,10.3547987,420.41,1789177391.0],[123.8251368,10.3548347,420.44,1789177399.0],[123.8251574,10.3549078,426.7,1789177407.0],[123.8252198,10.3549319,429.97,1789177415.0],[123.8252203,10.354888,425.07,1789177423.0],[123.8252294,10.3549019,417.93,1789177431.0],[123.8252524,10.3549504,415.48,1789177439.0],[123.8252337,10.354975,415.45,1789177447.0],[123.8252321,10.3549777,410.25,1789177455.0],[123.8252759,10.355014,419.91,1789177463.0],[123.8252685,10.3550111,417.78,1789177471.0],[123.8252574,10.3550116,412.02,1789177479.0],[123.8252589,10.3550085,404.52,1789177487.0],[123.8252976,10.3550105,409.63,1789177495.0],[123.8253198,10.35505,409.73,1789177503.0],[123.8253211,10.3550638,410.59,1789177511.0],[123.8253138,10.3550798,407.35,1789177519.0],[123.8253512,10.3550798,412.06,1789177527.0],[123.8253371,10.3550854,409.45,1789177535.0],[123.8253144,10.3550786,408.87,1789177543.0],[123.8253081,10.3550716,407.92,1789177551.0],[123.8253187,10.3550745,406.66,1789177559.0],[123.8253134,10.3550841,407.09,1789177567.0],[123.8253042,10.3550792,408.32,1789177575.0],[123.8253259,10.3550689,411.4,1789177583.0],[123.8252846,10.3551176,403.15,1789177591.0],[123.8253008,10.3551183,404.68,1789177599.0],[123.8253011,10.3551246,405.84,1789177607.0],[123.8252343,10.355167,408.32,1789177615.0],[123.8251869,10.3552118,412.4,1789177623.0],[123.825152,10.3552238,408.31,1789177631.0],[123.8251641,10.3552687,410.41,1789177639.0],[123.825186,10.355338,416.13,1789177647.0],[123.825176,10.3554205,416.53,1789177655.0],[123.8251467,10.3554567,412.74,1789177663.0],[123.8251509,10.3554848,408.24,1789177671.0],[123.8251531,10.3555243,406.76,1789177679.0],[123.8251671,10.3555406,404.22,1789177687.0],[123.8251956,10.35555,399.93,1789177695.0],[123.8252124,10.3555903,405.52,1789177703.0],[123.8252602,10.3556107,400.33,1789177711.0],[123.8252317,10.3556455,404.19,1789177719.0],[123.8252188,10.3556468,399.16,1789177727.0],[123.8252232,10.3556577,402.96,1789177735.0],[123.8253303,10.3557038,403.15,1789177743.0],[123.8254145,10.355705,402.94,1789177751.0],[123.8254542,10.3557227,401.52,1789177759.0],[123.8255147,10.3557624,407.87,1789177767.0],[123.8255305,10.3557654,406.05,1789177775.0],[123.82563,10.355804,403.32,1789177783.0],[123.8256146,10.3557669,399.65,1789177791.0],[123.8256348,10.3557384,392.59,1789177799.0],[123.8257055,10.3556906,390.6,1789177807.0],[123.8257333,10.3557208,386.66,1789177815.0],[123.8257588,10.3557419,386.12,1789177823.0],[123.8257942,10.3558094,391.31,1789177831.0],[123.8258245,10.3558205,391.21,1789177836.0],[123.825862,10.3559007,391.77,1789177847.0],[123.8258662,10.3559278,391.96,1789177855.0],[123.8258733,10.3559615,391.5,1789177863.0],[123.8258782,10.3559897,393.43,1789177871.0],[123.8258914,10.3560037,391.75,1789177879.0],[123.8259606,10.3561284,392.71,1789177887.0],[123.8259855,10.3561443,389.1,1789177895.0],[123.8260142,10.3561675,385.24,1789177903.0],[123.8260276,10.3561844,387.72,1789177911.0],[123.8260253,10.3561952,387.25,1789177919.0],[123.8260281,10.356208,386.61,1789177927.0],[123.8260322,10.3562192,384.56,1789177935.0],[123.8260368,10.3562285,383.71,1789177943.0],[123.8260359,10.3562375,381.03,1789177951.0],[123.8260365,10.3562405,379.64,1789177959.0],[123.8260431,10.3562467,379.93,1789177967.0],[123.8260497,10.356251,379.67,1789177975.0],[123.8260594,10.356254,380.19,1789177983.0],[123.8260658,10.356257,380.46,1789177991.0],[123.8260718,10.3562639,379.41,1789177999.0],[123.8260755,10.3562722,377.88,1789178007.0],[123.8260797,10.3562751,378.02,1789178015.0],[123.826085,10.3562781,378.36,1789178023.0],[123.8260919,10.3562823,377.84,1789178032.0],[123.826099,10.3562845,377.49,1789178039.0],[123.8261124,10.3562884,375.81,1789178048.0],[123.8261161,10.3562894,375.42,1789178055.0],[123.8261189,10.3562965,375.81,1789178064.0],[123.8261255,10.3562974,375.57,1789178071.0],[123.8261368,10.3562997,374.77,1789178079.0],[123.8261417,10.3563037,374.36,1789178087.0],[123.8261489,10.3563057,373.9,1789178095.0],[123.8261539,10.3563031,373.87,1789178103.0],[123.8261625,10.356289,374.57,1789178112.0],[123.8261712,10.3562787,374.22,1789178119.0],[123.8261773,10.3562633,373.6,1789178128.0],[123.8261804,10.3562556,373.31,1789178135.0],[123.8261852,10.3562476,373.83,1789178143.0],[123.8261938,10.3562362,374.28,1789178151.0],[123.8262039,10.3562298,374.2,1789178159.0],[123.8262192,10.3562182,374.34,1789178168.0],[123.826226,10.3562129,374.59,1789178176.0],[123.8262338,10.3562097,374.73,1789178183.0],[123.8262403,10.3562132,374.79,1789178191.0],[123.8262409,10.3562183,374.71,1789178199.0],[123.8262398,10.3562259,374.5,1789178207.0],[123.82624,10.3562363,374.21,1789178215.0],[123.8262414,10.3562474,373.87,1789178223.0],[123.8262417,10.3562575,373.24,1789178231.0],[123.8262419,10.3562672,372.74,1789178239.0],[123.8262459,10.3562783,372.16,1789178247.0],[123.8262564,10.3563705,367.7,1789178255.0],[123.8262655,10.3564555,367.23,1789178263.0],[123.8262613,10.356464,365.81,1789178271.0],[123.8262564,10.3564829,363.43,1789178279.0],[123.8262346,10.3565927,362.47,1789178287.0],[123.8262541,10.3566694,363.83,1789178295.0],[123.8262387,10.3567328,360.68,1789178303.0],[123.826273,10.3567809,362.2,1789178311.0],[123.8263176,10.3567482,364.03,1789178319.0],[123.8263275,10.3567196,352.17,1789178327.0],[123.8263499,10.356703,353.27,1789178335.0],[123.8264107,10.3567555,354.81,1789178343.0],[123.8264558,10.3568042,350.13,1789178351.0],[123.8264591,10.3567734,348.79,1789178359.0],[123.8264465,10.356803,348.07,1789178367.0],[123.8264386,10.3568465,350.4,1789178375.0],[123.8264092,10.3568938,353.57,1789178383.0],[123.8264757,10.3569405,347.16,1789178391.0],[123.8264712,10.3569724,350.02,1789178399.0],[123.8264678,10.3569585,349.75,1789178407.0],[123.8264858,10.3569622,346.17,1789178415.0],[123.8265543,10.3570215,348.13,1789178423.0],[123.8265856,10.3570101,344.86,1789178431.0],[123.8265664,10.357036,339.51,1789178439.0],[123.8265103,10.3570896,340.72,1789178447.0],[123.8265009,10.3571416,347.6,1789178455.0],[123.8265058,10.3571692,338.14,1789178463.0],[123.8265537,10.3571221,337.21,1789178471.0],[123.8265693,10.3571491,339.26,1789178479.0],[123.8265803,10.357159,332.53,1789178487.0],[123.8266022,10.357174,331.01,1789178495.0],[123.8265886,10.3572178,330.71,1789178503.0],[123.8265747,10.35724,332.4,1789178511.0],[123.8265487,10.3573039,335.81,1789178519.0],[123.8265185,10.3573369,330.19,1789178527.0],[123.82651,10.3573534,332.91,1789178535.0],[123.8265065,10.3573629,332.1,1789178543.0],[123.8265136,10.3573825,331.76,1789178551.0],[123.8265084,10.3574171,323.21,1789178559.0],[123.8264755,10.3574499,327.04,1789178567.0],[123.8263941,10.3574507,325.82,1789178575.0],[123.826379,10.3574164,320.87,1789178583.0],[123.8263909,10.357433,325.08,1789178591.0],[123.8263383,10.3574695,317.36,1789178599.0],[123.826292,10.3575015,317.3,1789178607.0],[123.8263119,10.3575276,315.82,1789178615.0],[123.8263363,10.3574925,315.06,1789178623.0],[123.8263407,10.3575746,319.53,1789178631.0],[123.8262998,10.3576811,320.42,1789178639.0],[123.8263466,10.3577632,326.03,1789178647.0],[123.8263597,10.3577733,324.78,1789178655.0],[123.826356,10.3578028,321.38,1789178663.0],[123.8263648,10.3578142,316.62,1789178671.0],[123.8263789,10.3578904,318.36,1789178679.0],[123.8263667,10.3579582,313.73,1789178687.0],[123.826328,10.3579882,318.17,1789178695.0],[123.8262913,10.3579749,317.13,1789178703.0],[123.8263215,10.358031,314.74,1789178711.0],[123.8263087,10.3580333,315.35,1789178719.0],[123.8263089,10.3580461,317.42,1789178727.0],[123.8263097,10.3580599,316.57,1789178735.0],[123.8263287,10.3580632,316.46,1789178743.0],[123.826331,10.3580617,316.02,1789178751.0],[123.8263107,10.3580705,316.0,1789178760.0],[123.8262998,10.3580385,318.99,1789178767.0],[123.8262878,10.3580618,320.61,1789178775.0],[123.8262846,10.3580781,320.38,1789178783.0],[123.8262847,10.3580762,317.42,1789178791.0],[123.8262769,10.358064,316.51,1789178799.0],[123.8263512,10.358009,312.19,1789178807.0],[123.8263575,10.3580958,320.33,1789178815.0],[123.8263615,10.35814,315.5,1789178823.0],[123.8263486,10.358123,323.76,1789178831.0],[123.8263433,10.3581125,323.2,1789178839.0],[123.8263403,10.3581077,322.96,1789178847.0],[123.8263337,10.358062,319.31,1789178855.0],[123.8263249,10.3580481,322.31,1789178863.0],[123.8263209,10.3580442,321.77,1789178871.0],[123.8263303,10.3580376,319.11,1789178879.0],[123.8263243,10.3580219,318.32,1789178887.0],[123.8262651,10.3580465,314.93,1789178895.0],[123.8261802,10.3581272,319.12,1789178903.0],[123.8261918,10.3581874,307.5,1789178911.0],[123.8261382,10.3582031,304.37,1789178919.0],[123.8260626,10.3582043,309.06,1789178927.0],[123.8260206,10.3582218,308.99,1789178935.0],[123.826003,10.3582758,305.11,1789178943.0],[123.8260297,10.3583333,305.44,1789178951.0],[123.8259894,10.3583432,309.73,1789178959.0],[123.8259575,10.3583919,307.11,1789178967.0],[123.8259688,10.3584438,304.8,1789178975.0],[123.8259695,10.3584841,305.24,1789178983.0],[123.825985,10.3585589,304.84,1789178991.0],[123.8260214,10.3586312,306.15,1789178999.0],[123.8260362,10.3586798,305.24,1789179005.0],[123.8260658,10.3587744,303.74,1789179015.0],[123.8260662,10.3588357,307.82,1789179023.0],[123.8260472,10.358908,310.53,1789179030.0],[123.8260325,10.3589683,303.53,1789179040.0],[123.8260378,10.3590006,303.74,1789179047.0],[123.8260477,10.3590521,303.08,1789179053.0],[123.8260754,10.3590862,294.29,1789179063.0],[123.8261064,10.3591564,298.4,1789179070.0],[123.8261691,10.3592458,298.77,1789179080.0],[123.8261467,10.3592815,297.96,1789179085.0],[123.8260763,10.3593932,296.37,1789179095.0],[123.8260858,10.3594574,290.77,1789179103.0],[123.8260855,10.359522,290.45,1789179110.0],[123.8260556,10.3595444,301.9,1789179120.0],[123.8260522,10.3595395,301.9,1789179125.0],[123.8260397,10.3594964,296.52,1789179135.0],[123.8260339,10.3594857,294.5,1789179143.0],[123.8261177,10.3594475,288.61,1789179151.0],[123.8261145,10.359484,282.84,1789179159.0],[123.8260954,10.3594761,288.99,1789179167.0],[123.8260773,10.3594665,289.03,1789179175.0],[123.8260745,10.3594659,289.72,1789179183.0],[123.8260717,10.3595345,287.1,1789179192.0],[123.8260638,10.3595251,288.65,1789179199.0],[123.825978,10.3595049,301.88,1789179208.0],[123.8259812,10.3595811,301.82,1789179215.0],[123.8259844,10.3595681,300.12,1789179223.0],[123.8260091,10.359524,295.83,1789179231.0],[123.8260262,10.3594807,303.81,1789179239.0],[123.8259785,10.3594779,289.09,1789179248.0],[123.8259427,10.3594521,290.37,1789179255.0],[123.8259502,10.3594469,303.62,1789179264.0],[123.8259592,10.3594633,306.05,1789179271.0],[123.8259972,10.3594751,305.53,1789179280.0],[123.8260093,10.3594768,293.76,1789179287.0],[123.8260401,10.3594499,286.24,1789179295.0],[123.8260536,10.3594074,292.8,1789179303.0],[123.8260562,10.35941,303.15,1789179311.0],[123.8260403,10.3594215,301.64,1789179319.0],[123.8260245,10.3594361,302.48,1789179327.0],[123.8260261,10.3594494,302.7,1789179335.0],[123.8260277,10.3594568,301.11,1789179343.0],[123.8260245,10.3595055,300.96,1789179350.0],[123.8260122,10.3596229,291.8,1789179360.0],[123.8259997,10.3596734,291.5,1789179365.0],[123.8259791,10.3597747,290.92,1789179375.0],[123.8259726,10.3598362,293.72,1789179383.0],[123.8259599,10.3598917,293.73,1789179390.0],[123.8259381,10.3599669,288.57,1789179400.0],[123.8259366,10.3600103,288.78,1789179405.0],[123.8259383,10.3600989,289.21,1789179415.0],[123.8259533,10.3601845,295.79,1789179423.0],[123.825979,10.3602517,297.28,1789179430.0],[123.8260444,10.3603273,296.94,1789179440.0],[123.8260702,10.3603634,296.52,1789179445.0],[123.8261126,10.3604388,295.7,1789179455.0],[123.8260789,10.3605042,289.48,1789179463.0],[123.8260375,10.360563,289.97,1789179470.0],[123.8260269,10.3606406,290.51,1789179478.0],[123.8259793,10.3606893,277.97,1789179488.0],[123.8259581,10.3607224,278.12,1789179494.0],[123.8259576,10.3608021,278.35,1789179503.0],[123.8259431,10.3609087,289.06,1789179511.0],[123.8259358,10.360976,287.56,1789179517.0],[123.8259289,10.3610875,285.29,1789179527.0],[123.8259211,10.3610995,271.71,1789179535.0],[123.8258797,10.3611224,270.87,1789179542.0],[123.8258058,10.3611058,271.71,1789179552.0],[123.8257494,10.3610984,271.23,1789179559.0],[123.8256866,10.3610916,263.22,1789179567.0],[123.8256101,10.3611303,253.29,1789179576.0],[123.8255686,10.3611451,266.04,1789179583.0],[123.825472,10.3611683,273.83,1789179592.0],[123.8253736,10.3612249,268.88,1789179601.0],[123.8253601,10.3612876,268.44,1789179607.0],[123.8253475,10.3613285,266.29,1789179615.0],[123.825319,10.3614228,264.85,1789179623.0],[123.8253169,10.3614672,259.84,1789179631.0],[123.8252971,10.3615141,261.15,1789179636.0],[123.8252819,10.3614944,255.35,1789179647.0],[123.8252364,10.3615551,254.92,1789179656.0],[123.8252263,10.3616158,254.49,1789179663.0],[123.8252128,10.3616473,256.14,1789179671.0],[123.8251882,10.3615857,253.8,1789179679.0],[123.8251519,10.3615223,253.12,1789179687.0],[123.8251422,10.3614607,261.36,1789179695.0]]]}}]}