{"type":"FeatureCollection","features":[{"type":"Feature","id":"bb12c739-f11e-49bd-a690-83cee6170c1b","properties":{"id":"bb12c739-f11e-49bd-a690-83cee6170c1b","updated_date":"2026-08-16T07:47:39Z","time_created":"2026-08-15T22:39:45Z","last_updated_on_server":"2026-08-16T07:47:39.668337","db_insert_date":"2026-08-16T07:47:39Z","deleted":false,"title":"Sunday Morning Hiking","public":false,"color":"#000000","hexcolor":"#000000","is_active":true,"revision":1786866459,"notes":"","track_type":"track","routing_mode":null,"uploaded_gpx_to_osm":null,"flag":null,"source":null,"cover_photo_id":null,"distance":5722.753216488281,"total_ascent":180.87144470214844,"total_descent":458.3295593261719,"stopped_time":1824.333333015442,"total_time":13151.0,"average_speed":0.4351572668609445,"moving_time":11326.666666984558,"moving_speed":0.505246016744644,"activities":[],"imported":true,"folder":"ef43df56-efab-4b5a-93bd-8e91caec1886","privacy_level":null,"sync_to_mobile":null,"preferred_link":"/public/v1IEdObZDcUrDG9AFdqRzbCB","favorite_count":0,"comment_count":0,"comments":[],"user_photo_count":0,"latitude":10.29098339721937,"longitude":123.75073023234127,"writable":false},"style":{"stroke":"#000000"},"geometry":{"type":"MultiLineString","coordinates":[[[123.744977,10.305852,360.60223388671875,1786833585.0],[123.744956,10.305876,307.51751708984375,1786833595.0],[123.744996,10.305853,306.22625732421875,1786833608.0],[123.745002,10.305829,306.44158935546875,1786833621.0],[123.745004,10.30585,306.87408447265625,1786833633.0],[123.744991,10.305871,308.231201171875,1786833640.0],[123.744984,10.305846,309.3828125,1786833657.0],[123.744991,10.305817,308.73321533203125,1786833663.0],[123.744994,10.305816,308.5333251953125,1786833664.0],[123.745016,10.3058,306.22216796875,1786833673.0],[123.744982,10.305839,306.12469482421875,1786833726.0],[123.74508,10.305798,307.5302734375,1786833775.0],[123.745084,10.305794,307.6123046875,1786833776.0],[123.745103,10.305745,311.382080078125,1786833791.0],[123.745124,10.30573,313.54931640625,1786833798.0],[123.745172,10.305721,315.78125,1786833806.0],[123.745221,10.305733,318.8753662109375,1786833822.0],[123.745225,10.305731,319.344482421875,1786833823.0],[123.74533,10.305725,323.6710205078125,1786833845.0],[123.745379,10.305711,323.06378173828125,1786833857.0],[123.745395,10.305685,327.478271484375,1786833868.0],[123.745398,10.305681,327.7216796875,1786833869.0],[123.745421,10.305662,329.101318359375,1786833882.0],[123.74547,10.305648,331.09765625,1786833895.0],[123.74552,10.305651,331.65374755859375,1786833913.0],[123.745565,10.305672,331.144287109375,1786833922.0],[123.745569,10.305674,331.2462158203125,1786833923.0],[123.745622,10.30568,334.3062744140625,1786833937.0],[123.74574,10.30574,339.1181640625,1786833975.0],[123.745745,10.305742,339.2196044921875,1786833976.0],[123.745793,10.305772,339.37762451171875,1786834011.0],[123.74583,10.30571,343.4451904296875,1786834053.0],[123.745867,10.305671,345.3858642578125,1786834068.0],[123.74587,10.305669,345.4339599609375,1786834069.0],[123.745885,10.305617,349.01458740234375,1786834090.0],[123.745879,10.305567,351.828125,1786834117.0],[123.745899,10.305551,352.3726806640625,1786834124.0],[123.745892,10.305527,352.7320556640625,1786834134.0],[123.745912,10.305508,354.072998046875,1786834143.0],[123.745912,10.305506,354.0794677734375,1786834144.0],[123.745958,10.305443,357.283447265625,1786834178.0],[123.745911,10.305423,358.31591796875,1786834198.0],[123.745919,10.305398,360.44891357421875,1786834207.0],[123.745941,10.305379,362.2608642578125,1786834217.0],[123.745941,10.305376,362.60675048828125,1786834218.0],[123.745956,10.305353,364.8521728515625,1786834229.0],[123.745997,10.305202,370.6610107421875,1786834271.0],[123.745997,10.305198,370.705810546875,1786834272.0],[123.745954,10.305166,373.319580078125,1786834299.0],[123.745942,10.305143,374.293701171875,1786834310.0],[123.745917,10.305135,374.391845703125,1786834320.0],[123.745915,10.305055,379.0682373046875,1786834406.0],[123.745915,10.305023,381.27093505859375,1786834413.0],[123.745932,10.305002,382.5528564453125,1786834418.0],[123.745925,10.304977,383.2420654296875,1786834425.0],[123.745933,10.304953,384.43817138671875,1786834431.0],[123.745954,10.304936,385.5040283203125,1786834437.0],[123.745971,10.304887,387.9080810546875,1786834453.0],[123.745974,10.304884,387.8292236328125,1786834454.0],[123.74606,10.304826,391.141845703125,1786834488.0],[123.746073,10.30478,392.937255859375,1786834501.0],[123.746093,10.304757,394.5208740234375,1786834507.0],[123.746098,10.304755,394.69000244140625,1786834508.0],[123.746127,10.304747,396.3675537109375,1786834516.0],[123.746177,10.304692,397.5836181640625,1786834679.0],[123.746181,10.304667,398.886474609375,1786834686.0],[123.746202,10.304652,399.8807373046875,1786834693.0],[123.7462,10.304623,402.0635986328125,1786834705.0],[123.746199,10.304618,402.43017578125,1786834706.0],[123.746203,10.304561,402.9447021484375,1786834717.0],[123.746264,10.304513,406.87823486328125,1786834738.0],[123.746274,10.304459,408.915283203125,1786834753.0],[123.746274,10.304454,409.0562744140625,1786834754.0],[123.74627,10.304359,411.730224609375,1786834772.0],[123.746245,10.304283,413.507568359375,1786834785.0],[123.746243,10.304277,413.665771484375,1786834786.0],[123.746227,10.304225,415.4132080078125,1786834801.0],[123.746238,10.304177,417.054443359375,1786834816.0],[123.746262,10.304177,418.41552734375,1786834824.0],[123.746307,10.304207,420.13238525390625,1786834835.0],[123.746312,10.304208,420.21624755859375,1786834836.0],[123.746343,10.304207,420.8179931640625,1786834845.0],[123.746348,10.304183,422.2064208984375,1786834852.0],[123.746369,10.30417,423.4808349609375,1786834857.0],[123.746393,10.304128,424.45849609375,1786834900.0],[123.74644,10.304096,427.50909423828125,1786834918.0],[123.746444,10.304093,427.537353515625,1786834919.0],[123.746513,10.304052,430.6243896484375,1786834938.0],[123.746561,10.304053,432.24920654296875,1786834980.0],[123.746605,10.304024,433.7696533203125,1786834991.0],[123.746609,10.304026,434.144287109375,1786834992.0],[123.746738,10.304031,439.1461181640625,1786835022.0],[123.746795,10.304046,442.3525390625,1786835035.0],[123.7468,10.304046,442.4432373046875,1786835036.0],[123.746804,10.303995,444.39288330078125,1786835052.0],[123.746778,10.303931,445.8594970703125,1786835091.0],[123.74677,10.30388,446.96990966796875,1786835098.0],[123.746769,10.303872,446.87274169921875,1786835099.0],[123.746755,10.303721,451.4234619140625,1786835124.0],[123.746736,10.303697,452.10546875,1786835129.0],[123.746731,10.303691,452.095703125,1786835130.0],[123.746688,10.303604,452.537109375,1786835144.0],[123.746663,10.303526,453.09765625,1786835156.0],[123.746662,10.303521,452.88714599609375,1786835157.0],[123.746636,10.303438,453.9853515625,1786835200.0],[123.746581,10.303358,452.461669921875,1786835214.0],[123.746579,10.303354,452.50848388671875,1786835215.0],[123.746489,10.303214,453.1019287109375,1786835247.0],[123.746484,10.303206,453.30511474609375,1786835248.0],[123.746403,10.303057,457.28570556640625,1786835270.0],[123.746399,10.303051,457.38189697265625,1786835271.0],[123.746359,10.302977,459.98223876953125,1786835295.0],[123.746354,10.302876,461.36572265625,1786835312.0],[123.746354,10.30287,461.45294189453125,1786835313.0],[123.746358,10.302813,463.7724609375,1786835326.0],[123.74634,10.302771,464.75714111328125,1786835335.0],[123.746344,10.302726,466.93316650390625,1786835345.0],[123.746337,10.302696,467.82470703125,1786835351.0],[123.746337,10.302691,468.0179443359375,1786835352.0],[123.746334,10.302612,470.238525390625,1786835367.0],[123.746304,10.302511,472.85888671875,1786835448.0],[123.7463,10.302505,472.842529296875,1786835449.0],[123.746267,10.302432,475.439697265625,1786835464.0],[123.746258,10.302382,478.118408203125,1786835475.0],[123.746228,10.302339,481.26416015625,1786835486.0],[123.746226,10.302335,481.4288330078125,1786835487.0],[123.746147,10.302165,482.545654296875,1786835516.0],[123.746143,10.302157,482.3177490234375,1786835517.0],[123.746089,10.302065,482.5458984375,1786835530.0],[123.746035,10.302007,482.9512939453125,1786835540.0],[123.74603,10.302002,482.982421875,1786835541.0],[123.745946,10.301914,484.825439453125,1786835558.0],[123.745923,10.301865,486.5584716796875,1786835567.0],[123.745922,10.301862,486.666259765625,1786835568.0],[123.74586,10.301811,489.0814208984375,1786835584.0],[123.745846,10.301767,491.504150390625,1786835595.0],[123.745826,10.30175,493.15673828125,1786835601.0],[123.74584,10.301723,494.10546875,1786835607.0],[123.745844,10.301719,494.08935546875,1786835608.0],[123.745856,10.301694,494.738037109375,1786835614.0],[123.745862,10.301616,497.738037109375,1786835632.0],[123.745897,10.301544,499.421142578125,1786835646.0],[123.7459,10.30154,499.5958251953125,1786835647.0],[123.746006,10.301464,500.798583984375,1786835668.0],[123.746013,10.301438,501.556640625,1786835696.0],[123.745994,10.301415,502.244873046875,1786835701.0],[123.74599,10.301413,502.29736328125,1786835702.0],[123.745868,10.301409,504.99267578125,1786835863.0],[123.745814,10.301419,506.861083984375,1786835873.0],[123.745809,10.301421,507.121337890625,1786835874.0],[123.745731,10.301428,508.9693603515625,1786835887.0],[123.745663,10.301417,509.891357421875,1786835897.0],[123.745637,10.301402,510.06201171875,1786835901.0],[123.745632,10.301399,510.07373046875,1786835902.0],[123.745553,10.301339,512.0087890625,1786835916.0],[123.745505,10.301275,513.40478515625,1786835929.0],[123.745502,10.301269,513.3914794921875,1786835930.0],[123.745458,10.301171,513.9365234375,1786835945.0],[123.745441,10.301155,514.1864013671875,1786835948.0],[123.745392,10.301147,514.7603759765625,1786835955.0],[123.745385,10.301147,514.8292236328125,1786835956.0],[123.745262,10.301163,514.671875,1786835973.0],[123.745208,10.301159,513.480224609375,1786835981.0],[123.7452,10.301158,513.2923583984375,1786835982.0],[123.74507,10.301118,512.6864013671875,1786835999.0],[123.745027,10.301092,513.423828125,1786836006.0],[123.745019,10.30109,513.494140625,1786836007.0],[123.744924,10.30104,516.5771484375,1786836024.0],[123.744895,10.301003,517.135009765625,1786836032.0],[123.744887,10.30097,517.126220703125,1786836037.0],[123.744886,10.300962,517.03369140625,1786836038.0],[123.744879,10.300912,516.1123046875,1786836045.0],[123.744889,10.300793,515.1680908203125,1786836061.0],[123.744888,10.300786,515.28564453125,1786836062.0],[123.744856,10.300714,515.615234375,1786836073.0],[123.744857,10.300612,513.661376953125,1786836086.0],[123.744858,10.300604,513.7021484375,1786836087.0],[123.744877,10.300502,511.97021484375,1786836103.0],[123.744889,10.300478,512.0947265625,1786836106.0],[123.744925,10.300445,511.932373046875,1786836113.0],[123.744933,10.30044,511.8614501953125,1786836114.0],[123.745086,10.30035,512.01416015625,1786836138.0],[123.745094,10.300347,511.7255859375,1786836139.0],[123.745278,10.300283,512.760009765625,1786836162.0],[123.745285,10.300279,512.846923828125,1786836163.0],[123.745325,10.300248,512.9908447265625,1786836170.0],[123.745388,10.300146,512.149658203125,1786836187.0],[123.745391,10.300141,511.93798828125,1786836188.0],[123.745429,10.300075,510.72802734375,1786836199.0],[123.745491,10.300001,508.696533203125,1786836213.0],[123.745494,10.299993,508.5595703125,1786836214.0],[123.745556,10.299819,506.7666015625,1786836244.0],[123.745558,10.299813,506.7353515625,1786836245.0],[123.745616,10.299765,506.724609375,1786836255.0],[123.745709,10.299712,507.1668701171875,1786836268.0],[123.745715,10.299707,507.28173828125,1786836269.0],[123.745741,10.29969,507.2418212890625,1786836273.0],[123.74571,10.299648,505.9072265625,1786836291.0],[123.745692,10.2996,504.4510498046875,1786836318.0],[123.745718,10.299591,504.1075439453125,1786836353.0],[123.74574,10.299606,504.928466796875,1786836358.0],[123.745746,10.29961,505.033935546875,1786836359.0],[123.745817,10.299632,506.73583984375,1786836372.0],[123.745905,10.299581,506.033203125,1786836385.0],[123.745911,10.299577,505.990966796875,1786836386.0],[123.745977,10.299498,506.5810546875,1786836399.0],[123.746043,10.299454,508.181396484375,1786836410.0],[123.74605,10.299452,508.26416015625,1786836411.0],[123.746212,10.299371,509.5848388671875,1786836436.0],[123.746219,10.299368,509.606201171875,1786836437.0],[123.746387,10.2993,512.3643798828125,1786836465.0],[123.746392,10.299299,512.5048828125,1786836466.0],[123.74644,10.299271,512.153076171875,1786836500.0],[123.746483,10.299155,508.947265625,1786836521.0],[123.746485,10.299151,508.70703125,1786836522.0],[123.746514,10.298977,502.272705078125,1786836554.0],[123.746514,10.298971,502.1055908203125,1786836555.0],[123.74654,10.298904,500.315673828125,1786836564.0],[123.746618,10.298841,498.341064453125,1786836577.0],[123.746626,10.298836,498.23681640625,1786836578.0],[123.746776,10.298739,496.9716796875,1786836606.0],[123.746783,10.298734,496.760498046875,1786836607.0],[123.74694,10.298641,496.70263671875,1786836627.0],[123.746947,10.298637,496.7158203125,1786836628.0],[123.747093,10.298523,495.47607421875,1786836651.0],[123.747099,10.298519,495.2196044921875,1786836652.0],[123.747163,10.298477,493.859619140625,1786836664.0],[123.747209,10.29846,493.764404296875,1786836671.0],[123.747264,10.298455,493.705810546875,1786836679.0],[123.747272,10.298454,493.617919921875,1786836680.0],[123.747355,10.298435,494.0584716796875,1786836690.0],[123.747454,10.298395,494.863525390625,1786836704.0],[123.747463,10.298397,494.9478759765625,1786836705.0],[123.747498,10.298399,495.57568359375,1786836709.0],[123.747623,10.298344,495.88818359375,1786836728.0],[123.74763,10.298339,496.0687255859375,1786836729.0],[123.747657,10.298326,496.46044921875,1786836733.0],[123.747728,10.298321,497.72509765625,1786836744.0],[123.747805,10.298342,500.479248046875,1786836756.0],[123.747811,10.298345,500.76806640625,1786836757.0],[123.747876,10.29839,502.926513671875,1786836770.0],[123.747973,10.298406,503.0379638671875,1786836783.0],[123.747979,10.298407,502.79345703125,1786836784.0],[123.74806,10.298404,502.8680419921875,1786836796.0],[123.748156,10.298419,504.92431640625,1786836809.0],[123.748163,10.29842,505.1375732421875,1786836810.0],[123.748261,10.298411,507.140625,1786836824.0],[123.748303,10.298392,507.023681640625,1786836830.0],[123.748324,10.298371,506.7952880859375,1786836834.0],[123.748329,10.298366,506.728759765625,1786836835.0],[123.748439,10.298215,505.928955078125,1786836859.0],[123.748443,10.298207,505.91162109375,1786836860.0],[123.748537,10.298051,501.68798828125,1786836896.0],[123.748539,10.298046,501.544189453125,1786836897.0],[123.748553,10.298018,500.798583984375,1786836902.0],[123.748656,10.297899,498.630126953125,1786836924.0],[123.748663,10.297894,498.634521484375,1786836925.0],[123.748768,10.297835,498.05615234375,1786836939.0],[123.748826,10.297821,498.575439453125,1786836946.0],[123.748835,10.297821,498.79736328125,1786836947.0],[123.748946,10.297822,499.794189453125,1786836960.0],[123.749021,10.297843,501.660400390625,1786836973.0],[123.749027,10.297844,501.816650390625,1786836974.0],[123.749193,10.297913,504.510986328125,1786836995.0],[123.749202,10.297916,504.451416015625,1786836996.0],[123.749235,10.297931,504.70458984375,1786837000.0],[123.749375,10.297961,503.546142578125,1786837016.0],[123.749383,10.297964,503.18603515625,1786837017.0],[123.749556,10.298028,502.7518310546875,1786837042.0],[123.749564,10.298028,502.606689453125,1786837043.0],[123.749755,10.298055,504.669921875,1786837066.0],[123.749763,10.298056,504.75634765625,1786837067.0],[123.749857,10.298075,504.2318115234375,1786837077.0],[123.749924,10.298041,503.999755859375,1786837086.0],[123.749927,10.29804,503.9796142578125,1786837087.0],[123.749927,10.298015,503.96142578125,1786837111.0],[123.749943,10.298059,504.5126953125,1786837553.0],[123.750044,10.298082,505.466796875,1786837569.0],[123.750051,10.298081,505.61181640625,1786837570.0],[123.75023,10.298091,509.899169921875,1786837600.0],[123.750235,10.298092,509.9967041015625,1786837601.0],[123.750284,10.298112,512.260986328125,1786837612.0],[123.750391,10.298181,515.789794921875,1786837635.0],[123.750395,10.298183,515.930419921875,1786837636.0],[123.750494,10.298206,518.1759033203125,1786837655.0],[123.750574,10.298206,519.672607421875,1786837668.0],[123.750581,10.298205,519.7266845703125,1786837669.0],[123.750682,10.298212,521.309814453125,1786837687.0],[123.750755,10.298189,521.516357421875,1786837697.0],[123.75076,10.298185,521.593505859375,1786837698.0],[123.750849,10.298143,521.799072265625,1786837711.0],[123.750925,10.298128,523.31884765625,1786837723.0],[123.750932,10.298124,523.4857177734375,1786837724.0],[123.751119,10.298127,524.591064453125,1786837747.0],[123.751125,10.298128,524.4979248046875,1786837748.0],[123.751206,10.29814,524.369384765625,1786837759.0],[123.751255,10.298054,522.1549072265625,1786837779.0],[123.751258,10.298051,522.087890625,1786837780.0],[123.751308,10.29799,518.903076171875,1786837793.0],[123.751326,10.297946,517.903076171875,1786837799.0],[123.751328,10.2979,517.7138671875,1786837804.0],[123.75133,10.297892,517.8048095703125,1786837805.0],[123.751332,10.297835,517.8857421875,1786837812.0],[123.751294,10.2978,517.79541015625,1786837820.0],[123.751276,10.297757,516.8056640625,1786837829.0],[123.751274,10.297723,515.7913818359375,1786837834.0],[123.751275,10.297716,515.721923828125,1786837835.0],[123.751302,10.297638,515.1865234375,1786837845.0],[123.751367,10.297557,515.19482421875,1786837858.0],[123.751372,10.297549,515.423828125,1786837859.0],[123.751421,10.297491,514.595458984375,1786837868.0],[123.75144,10.297422,513.0474853515625,1786837881.0],[123.751462,10.297402,512.057373046875,1786837894.0],[123.751466,10.297396,511.825927734375,1786837895.0],[123.751612,10.297272,511.1265869140625,1786837919.0],[123.751619,10.297266,511.0711669921875,1786837920.0],[123.751712,10.297187,511.64111328125,1786837937.0],[123.751757,10.29716,511.51611328125,1786837945.0],[123.751765,10.297158,511.49169921875,1786837946.0],[123.751858,10.297142,508.918701171875,1786838023.0],[123.751932,10.297167,508.62451171875,1786838032.0],[123.75194,10.297169,508.5849609375,1786838033.0],[123.752108,10.297214,504.2568359375,1786838055.0],[123.752114,10.297214,503.9334716796875,1786838056.0],[123.752126,10.297219,502.503662109375,1786838095.0],[123.752012,10.29715,501.8780517578125,1786838111.0],[123.752005,10.297143,501.633056640625,1786838112.0],[123.751863,10.297008,498.696044921875,1786838135.0],[123.751856,10.297002,498.54638671875,1786838136.0],[123.751761,10.29692,495.123046875,1786838152.0],[123.751715,10.296893,495.1839599609375,1786838177.0],[123.751709,10.296889,494.998046875,1786838178.0],[123.751646,10.296841,493.474609375,1786838231.0],[123.75162,10.296835,492.7109375,1786838236.0],[123.751554,10.29679,490.68115234375,1786838251.0],[123.751551,10.296784,490.475830078125,1786838252.0],[123.751486,10.296742,487.16552734375,1786838262.0],[123.751458,10.296649,484.0518798828125,1786838275.0],[123.751455,10.296642,483.8187255859375,1786838276.0],[123.75147,10.296565,481.3076171875,1786838290.0],[123.751437,10.296498,479.74853515625,1786838299.0],[123.751409,10.296481,479.1441650390625,1786838302.0],[123.751401,10.296476,479.0662841796875,1786838303.0],[123.751323,10.296402,477.018310546875,1786838316.0],[123.751291,10.296344,476.132080078125,1786838323.0],[123.751285,10.296337,476.035400390625,1786838324.0],[123.751227,10.296282,473.889892578125,1786838332.0],[123.751206,10.296215,472.1595458984375,1786838340.0],[123.751188,10.296194,471.30908203125,1786838343.0],[123.751182,10.296186,471.1690673828125,1786838344.0],[123.751173,10.296132,470.221923828125,1786838353.0],[123.751152,10.296084,468.95684814453125,1786838359.0],[123.751095,10.296031,467.53271484375,1786838368.0],[123.75109,10.296028,467.44659423828125,1786838369.0],[123.751028,10.295983,465.6893310546875,1786838380.0],[123.750984,10.295977,465.52734375,1786838387.0],[123.750939,10.295954,464.68389892578125,1786838398.0],[123.750934,10.295952,464.74908447265625,1786838399.0],[123.750897,10.295918,463.80609130859375,1786838406.0],[123.7509,10.295893,463.17474365234375,1786838411.0],[123.750879,10.295849,461.8770751953125,1786838416.0],[123.750839,10.295811,460.91802978515625,1786838421.0],[123.750831,10.295803,460.85882568359375,1786838422.0],[123.75074,10.295723,459.52447509765625,1786838433.0],[123.750711,10.295681,458.64251708984375,1786838439.0],[123.75071,10.295671,458.5828857421875,1786838440.0],[123.750696,10.295623,458.317138671875,1786838445.0],[123.750622,10.295523,458.08673095703125,1786838456.0],[123.750615,10.295516,458.203125,1786838457.0],[123.750595,10.295493,458.65216064453125,1786838460.0],[123.750533,10.295362,461.29296875,1786838477.0],[123.75053,10.295352,461.40203857421875,1786838478.0],[123.750495,10.29526,461.55987548828125,1786838488.0],[123.750444,10.295206,460.51678466796875,1786838496.0],[123.750439,10.295198,460.416748046875,1786838497.0],[123.750403,10.295151,459.8564453125,1786838506.0],[123.750404,10.295125,459.6214599609375,1786838513.0],[123.750415,10.295103,459.09295654296875,1786838516.0],[123.75044,10.295094,458.678955078125,1786838521.0],[123.750453,10.295072,458.0460205078125,1786838525.0],[123.750482,10.295057,457.064697265625,1786838530.0],[123.750489,10.295055,456.676513671875,1786838531.0],[123.750568,10.294986,452.87750244140625,1786838549.0],[123.750643,10.29497,451.5496826171875,1786838563.0],[123.750648,10.29497,451.388427734375,1786838564.0],[123.750696,10.294941,448.92681884765625,1786838580.0],[123.75073,10.294963,449.021484375,1786838585.0],[123.750782,10.295016,451.67041015625,1786838594.0],[123.750788,10.295022,452.001220703125,1786838595.0],[123.750829,10.295065,453.0672607421875,1786838602.0],[123.75089,10.29517,452.378173828125,1786838617.0],[123.750893,10.295178,452.0732421875,1786838618.0],[123.750935,10.295269,449.9725341796875,1786838630.0],[123.750965,10.295303,447.8319091796875,1786838637.0],[123.750993,10.295319,445.9200439453125,1786838644.0],[123.750998,10.29532,445.6539306640625,1786838645.0],[123.751047,10.295342,443.40008544921875,1786838653.0],[123.75107,10.295339,442.56182861328125,1786838657.0],[123.751123,10.295247,438.739013671875,1786838673.0],[123.751124,10.295239,438.4583740234375,1786838674.0],[123.751124,10.295169,437.197265625,1786838683.0],[123.751113,10.295126,436.5653076171875,1786838688.0],[123.751087,10.295075,436.5689697265625,1786838694.0],[123.751082,10.295067,436.404052734375,1786838695.0],[123.75107,10.295035,436.80859375,1786838701.0],[123.75109,10.294964,433.958740234375,1786838716.0],[123.75108,10.294891,432.6243896484375,1786838741.0],[123.751078,10.294885,432.26324462890625,1786838742.0],[123.751025,10.294723,426.181884765625,1786838769.0],[123.751022,10.294719,426.125244140625,1786838770.0],[123.751018,10.294692,424.85504150390625,1786838773.0],[123.750993,10.294646,423.3594970703125,1786838780.0],[123.750939,10.294608,422.69976806640625,1786838790.0],[123.750923,10.294584,422.023681640625,1786838799.0],[123.750922,10.29458,421.845947265625,1786838800.0],[123.75088,10.294484,419.056640625,1786838814.0],[123.750868,10.294411,416.6463623046875,1786838824.0],[123.750864,10.294401,416.643798828125,1786838825.0],[123.750835,10.294357,416.206298828125,1786838831.0],[123.750832,10.294332,416.13067626953125,1786838838.0],[123.750829,10.294282,413.84527587890625,1786838854.0],[123.750843,10.294225,410.76544189453125,1786838867.0],[123.750844,10.294222,410.61328125,1786838868.0],[123.750864,10.294141,406.9613037109375,1786838893.0],[123.750822,10.29408,401.3603515625,1786838934.0],[123.750833,10.294054,399.88372802734375,1786838944.0],[123.750838,10.294051,399.722900390625,1786838945.0],[123.750862,10.294005,397.5052490234375,1786838961.0],[123.750851,10.293983,396.16705322265625,1786838975.0],[123.750887,10.293916,392.0390625,1786839004.0],[123.750888,10.293885,390.986572265625,1786839023.0],[123.750888,10.29388,390.82244873046875,1786839024.0],[123.750901,10.293854,389.77410888671875,1786839040.0],[123.750954,10.29382,388.4368896484375,1786839091.0],[123.751023,10.293834,389.05426025390625,1786839098.0],[123.751031,10.293835,389.0264892578125,1786839099.0],[123.751087,10.293829,388.27734375,1786839105.0],[123.751204,10.293858,385.8375244140625,1786839133.0],[123.751211,10.293859,385.71868896484375,1786839134.0],[123.751234,10.293863,385.597412109375,1786839142.0],[123.751303,10.293847,382.3546142578125,1786839159.0],[123.75138,10.293861,380.76727294921875,1786839172.0],[123.751383,10.293857,380.6290283203125,1786839173.0],[123.751404,10.293835,379.1182861328125,1786839179.0],[123.751465,10.293803,378.67303466796875,1786839187.0],[123.751539,10.293786,378.802734375,1786839195.0],[123.751549,10.293785,378.7835693359375,1786839196.0],[123.751662,10.293779,378.69378662109375,1786839208.0],[123.751716,10.293764,378.028564453125,1786839214.0],[123.751724,10.293762,377.90167236328125,1786839215.0],[123.75183,10.293731,375.7294921875,1786839228.0],[123.751903,10.293732,373.4921875,1786839240.0],[123.75191,10.29373,373.3309326171875,1786839241.0],[123.751984,10.293709,369.8590087890625,1786839560.0],[123.752085,10.293734,370.2542724609375,1786839575.0],[123.752091,10.293736,370.20745849609375,1786839576.0],[123.752205,10.293787,369.00537109375,1786839593.0],[123.752259,10.293792,368.293212890625,1786839601.0],[123.752265,10.293789,368.19287109375,1786839602.0],[123.752374,10.293735,364.1636962890625,1786839621.0],[123.752417,10.293703,360.62664794921875,1786839648.0],[123.752452,10.293687,360.4940185546875,1786839649.0],[123.752468,10.293663,357.617919921875,1786839670.0],[123.752521,10.293631,354.95269775390625,1786839688.0],[123.752548,10.293632,354.270751953125,1786839690.0],[123.752545,10.293608,354.0552978515625,1786839759.0],[123.752563,10.293586,351.594482421875,1786839765.0],[123.752566,10.293585,351.5078125,1786839766.0],[123.752644,10.293556,348.14013671875,1786839781.0],[123.752696,10.2935,344.623291015625,1786839811.0],[123.752702,10.293471,343.76806640625,1786839816.0],[123.7527,10.293465,343.4622802734375,1786839817.0],[123.752698,10.293421,341.8258056640625,1786839824.0],[123.752711,10.293405,341.970458984375,1786839825.0],[123.752736,10.293412,341.6715087890625,1786839826.0],[123.752717,10.293401,341.20159912109375,1786839835.0],[123.752694,10.293359,339.382568359375,1786839843.0],[123.752693,10.293353,339.004150390625,1786839844.0],[123.75265,10.293243,335.138671875,1786839865.0],[123.75262,10.293198,333.673583984375,1786839874.0],[123.752614,10.293194,333.3636474609375,1786839875.0],[123.752601,10.293171,332.59844970703125,1786839882.0],[123.752596,10.293106,330.87353515625,1786839893.0],[123.752564,10.293071,330.10986328125,1786839900.0],[123.752567,10.293042,329.63427734375,1786839911.0],[123.752567,10.293036,329.3896484375,1786839912.0],[123.752511,10.292945,325.4371337890625,1786839932.0],[123.752441,10.292913,323.42987060546875,1786839948.0],[123.752437,10.292909,323.0899658203125,1786839949.0],[123.752414,10.292891,322.11968994140625,1786839954.0],[123.752398,10.292849,319.3695068359375,1786839970.0],[123.752446,10.292834,318.396484375,1786839975.0],[123.752438,10.292808,315.3614501953125,1786839988.0],[123.752416,10.292786,314.435546875,1786839993.0],[123.752415,10.292782,314.3758544921875,1786839994.0],[123.752403,10.292707,313.49737548828125,1786840007.0],[123.752455,10.292625,313.185546875,1786840022.0],[123.752456,10.292623,313.21197509765625,1786840023.0],[123.752504,10.292573,314.575927734375,1786840035.0],[123.75252,10.292528,313.4102783203125,1786840045.0],[123.752511,10.292504,313.45068359375,1786840050.0],[123.752515,10.292473,312.36346435546875,1786840057.0],[123.752514,10.292469,312.29095458984375,1786840058.0],[123.75255,10.292381,309.4351806640625,1786840073.0],[123.752563,10.292304,308.37060546875,1786840083.0],[123.752562,10.292295,308.18145751953125,1786840084.0],[123.752542,10.292177,307.2783203125,1786840099.0],[123.752565,10.292129,306.8380126953125,1786840106.0],[123.752566,10.292123,306.7862548828125,1786840107.0],[123.752604,10.292085,305.09716796875,1786840132.0],[123.752627,10.292077,303.2064208984375,1786840144.0],[123.752624,10.29205,301.916748046875,1786840162.0],[123.752697,10.292071,298.509765625,1786840189.0],[123.752703,10.292069,298.3258056640625,1786840190.0],[123.752762,10.29206,295.0,1786840202.0],[123.752774,10.292013,295.86773681640625,1786840208.0],[123.752762,10.291993,292.2410888671875,1786840277.0],[123.752735,10.291989,291.808837890625,1786840281.0],[123.752735,10.291987,291.82415771484375,1786840282.0],[123.752733,10.291934,289.04730224609375,1786840333.0],[123.75272,10.291911,287.86358642578125,1786840351.0],[123.752721,10.291862,284.60357666015625,1786840398.0],[123.752747,10.291815,281.552001953125,1786840440.0],[123.752747,10.291814,281.5216064453125,1786840441.0],[123.752772,10.291808,280.02301025390625,1786840465.0],[123.752783,10.291735,276.12957763671875,1786840650.0],[123.752809,10.291692,272.8985595703125,1786840663.0],[123.752812,10.29166,271.83941650390625,1786840668.0],[123.752815,10.291657,271.65899658203125,1786840669.0],[123.752843,10.291647,269.53363037109375,1786840676.0],[123.752874,10.291608,266.99237060546875,1786840689.0],[123.752849,10.291566,265.69451904296875,1786840732.0],[123.752859,10.291542,264.4571533203125,1786840735.0],[123.752888,10.291523,262.63482666015625,1786840741.0],[123.752893,10.29152,262.1934814453125,1786840742.0],[123.752912,10.291467,259.9307861328125,1786840761.0],[123.752944,10.29144,257.3189697265625,1786840768.0],[123.752951,10.291419,256.3699951171875,1786840771.0],[123.752939,10.291399,255.82330322265625,1786840777.0],[123.752914,10.291387,256.43603515625,1786840781.0],[123.752914,10.291386,256.4439697265625,1786840782.0],[123.752936,10.291402,257.4544677734375,1786840798.0],[123.752952,10.29139,257.2835693359375,1786840802.0],[123.752961,10.291369,255.7628173828125,1786840807.0],[123.753006,10.291344,254.47772216796875,1786840828.0],[123.753005,10.291317,253.739501953125,1786840833.0],[123.753023,10.291293,252.3406982421875,1786840839.0],[123.753031,10.291296,252.2640380859375,1786840840.0],[123.753088,10.291291,253.3873291015625,1786840853.0],[123.753146,10.291343,250.0789794921875,1786840969.0],[123.753204,10.291349,248.73516845703125,1786840979.0],[123.753214,10.291349,248.7255859375,1786840980.0],[123.753244,10.29134,247.6441650390625,1786840984.0],[123.753312,10.291282,246.11553955078125,1786841006.0],[123.753366,10.291268,243.24749755859375,1786841018.0],[123.753367,10.291265,243.1810302734375,1786841019.0],[123.753416,10.291247,241.1907958984375,1786841031.0],[123.753465,10.291249,240.8243408203125,1786841038.0],[123.753485,10.291238,240.0211181640625,1786841041.0],[123.753517,10.291194,238.88104248046875,1786841053.0],[123.753523,10.291193,239.065185546875,1786841054.0],[123.753599,10.291094,236.5228271484375,1786841083.0],[123.753649,10.291065,236.28271484375,1786841092.0],[123.753654,10.291061,236.3009033203125,1786841093.0],[123.753683,10.291036,234.85687255859375,1786841102.0],[123.753726,10.291031,235.08648681640625,1786841106.0],[123.753768,10.291002,233.1068115234375,1786841131.0],[123.753768,10.290983,233.244140625,1786841149.0],[123.753793,10.290972,232.62603759765625,1786841150.0],[123.753794,10.290969,232.6220703125,1786841151.0],[123.753816,10.290949,232.248779296875,1786841152.0],[123.75379,10.290945,230.2236328125,1786841170.0],[123.753777,10.290894,228.3927001953125,1786841216.0],[123.75378,10.290868,227.81488037109375,1786841230.0],[123.753808,10.290827,224.7010498046875,1786841245.0],[123.75381,10.290797,222.969482421875,1786841259.0],[123.75381,10.290793,222.863525390625,1786841260.0],[123.753824,10.290693,220.643310546875,1786841354.0],[123.753799,10.290703,218.3912353515625,1786841375.0],[123.7538,10.290681,215.3895263671875,1786841413.0],[123.753783,10.290651,214.148681640625,1786841416.0],[123.75378,10.290645,213.8199462890625,1786841417.0],[123.753789,10.290594,209.127197265625,1786841434.0],[123.75381,10.290579,213.052490234375,1786841476.0],[123.753801,10.290539,211.79193115234375,1786841480.0],[123.75383,10.290495,212.443603515625,1786841490.0],[123.753829,10.290495,212.4334716796875,1786841491.0],[123.753819,10.290473,213.12890625,1786841511.0],[123.753843,10.290478,214.30450439453125,1786841533.0],[123.753864,10.290466,213.9090576171875,1786841537.0],[123.753889,10.290472,213.72283935546875,1786841540.0],[123.753947,10.290428,211.2652587890625,1786841563.0],[123.753949,10.290417,210.900146484375,1786841564.0],[123.75395,10.290416,210.5294189453125,1786841565.0],[123.754009,10.290379,209.86962890625,1786841614.0],[123.754006,10.290356,210.5521240234375,1786841619.0],[123.75403,10.29035,209.6436767578125,1786841631.0],[123.754049,10.29033,208.83355712890625,1786841637.0],[123.754045,10.290301,204.5413818359375,1786841644.0],[123.754044,10.290297,203.49755859375,1786841645.0],[123.754068,10.290217,198.09210205078125,1786841720.0],[123.754091,10.290205,196.859619140625,1786841725.0],[123.754116,10.290211,197.298095703125,1786841732.0],[123.754155,10.290175,195.986328125,1786841753.0],[123.754158,10.290172,195.9713134765625,1786841754.0],[123.754189,10.29013,193.9488525390625,1786841766.0],[123.75421,10.290055,190.7940673828125,1786841781.0],[123.7542,10.290036,191.8924560546875,1786841784.0],[123.754173,10.290025,192.3831787109375,1786841789.0],[123.75417,10.290024,192.3258056640625,1786841790.0],[123.75415,10.290004,193.25616455078125,1786841798.0],[123.754149,10.289977,193.12310791015625,1786841804.0],[123.754172,10.28991,191.62420654296875,1786841825.0],[123.754202,10.289862,190.491455078125,1786841838.0],[123.754204,10.289858,190.95068359375,1786841839.0],[123.754287,10.289731,185.15478515625,1786841898.0],[123.754293,10.289703,184.24560546875,1786841916.0],[123.754295,10.289701,183.8916015625,1786841917.0],[123.754317,10.289687,181.04376220703125,1786841956.0],[123.754365,10.289682,178.157470703125,1786841969.0],[123.754411,10.289663,175.9736328125,1786841984.0],[123.754412,10.289639,175.01751708984375,1786841989.0],[123.754438,10.289627,176.29638671875,1786842032.0],[123.75447,10.289483,171.6068115234375,1786842156.0],[123.754458,10.289456,172.5224609375,1786842254.0],[123.754458,10.289454,172.793212890625,1786842255.0],[123.754473,10.289402,173.2503662109375,1786842269.0],[123.75455,10.289298,172.15106201171875,1786842330.0],[123.754601,10.28924,169.39111328125,1786842358.0],[123.754646,10.289216,164.6292724609375,1786842395.0],[123.754696,10.289208,162.2781982421875,1786842410.0],[123.7547,10.289207,161.856689453125,1786842411.0],[123.754722,10.289193,161.56610107421875,1786842439.0],[123.754749,10.289197,163.0081787109375,1786842448.0],[123.754774,10.289188,162.9910888671875,1786842457.0],[123.75479,10.289167,160.712646484375,1786842467.0],[123.754801,10.289121,158.90008544921875,1786842486.0],[123.754823,10.289103,159.702392578125,1786842490.0],[123.754828,10.2891,159.86279296875,1786842491.0],[123.754934,10.288998,157.19281005859375,1786842524.0],[123.754948,10.288971,157.0257568359375,1786842531.0],[123.754948,10.28897,156.93170166015625,1786842532.0],[123.754964,10.288949,155.072509765625,1786842546.0],[123.754966,10.288886,151.5869140625,1786842563.0],[123.755025,10.288851,149.52191162109375,1786842584.0],[123.755029,10.288853,149.3233642578125,1786842585.0],[123.755059,10.288845,149.08245849609375,1786842595.0],[123.755082,10.288859,149.04150390625,1786842601.0],[123.755092,10.288764,146.837158203125,1786842602.0],[123.755047,10.288701,146.79742431640625,1786842612.0],[123.755041,10.288693,146.88482666015625,1786842613.0],[123.754973,10.288613,147.593017578125,1786842627.0],[123.754908,10.288578,147.3992919921875,1786842635.0],[123.754903,10.288573,147.8314208984375,1786842636.0],[123.754874,10.288555,146.904541015625,1786842641.0],[123.754829,10.288576,148.62640380859375,1786842649.0],[123.754753,10.2885,148.2906494140625,1786842661.0],[123.754746,10.288495,148.071533203125,1786842662.0],[123.754729,10.288423,147.50506591796875,1786842674.0],[123.754685,10.288339,147.62420654296875,1786842687.0],[123.754678,10.288331,147.361083984375,1786842688.0],[123.754613,10.28817,145.234375,1786842740.0],[123.754607,10.288163,144.85626220703125,1786842741.0],[123.754533,10.288088,145.28057861328125,1786842757.0],[123.75451,10.28802,144.08209228515625,1786842768.0],[123.754506,10.288019,144.04449462890625,1786842769.0],[123.75449,10.288001,143.8707275390625,1786842774.0],[123.754454,10.288,144.2921142578125,1786842779.0],[123.754433,10.287983,145.01422119140625,1786842781.0],[123.754413,10.287939,145.873291015625,1786842787.0],[123.754391,10.287915,145.19921875,1786842792.0],[123.75439,10.28791,144.9107666015625,1786842793.0],[123.75431,10.287805,143.234130859375,1786842812.0],[123.754308,10.287804,143.5684814453125,1786842813.0],[123.754285,10.287763,143.30389404296875,1786842821.0],[123.754217,10.287703,141.94964599609375,1786842835.0],[123.754212,10.287701,141.493896484375,1786842836.0],[123.754183,10.287688,142.70721435546875,1786842843.0],[123.754124,10.287639,146.03912353515625,1786842856.0],[123.754076,10.287627,144.9591064453125,1786842863.0],[123.754051,10.287607,145.5203857421875,1786842866.0],[123.754046,10.287599,145.4991455078125,1786842867.0],[123.753948,10.287561,148.7586669921875,1786842883.0],[123.753902,10.287512,150.21099853515625,1786842892.0],[123.753896,10.287506,150.45526123046875,1786842893.0],[123.753833,10.28746,149.284912109375,1786842904.0],[123.753784,10.287441,147.724853515625,1786842916.0],[123.753755,10.287396,146.07220458984375,1786842927.0],[123.75376,10.287391,145.31805419921875,1786842928.0],[123.75376,10.287361,144.701416015625,1786842933.0],[123.753744,10.287319,143.018798828125,1786842941.0],[123.753679,10.28724,143.322509765625,1786842960.0],[123.753675,10.287237,143.20928955078125,1786842961.0],[123.753652,10.287222,143.34942626953125,1786842968.0],[123.753659,10.287198,143.71771240234375,1786842977.0],[123.753585,10.2871,143.03271484375,1786842994.0],[123.753574,10.287094,143.09027099609375,1786842995.0],[123.753515,10.287032,143.210693359375,1786843009.0],[123.753441,10.286979,142.09130859375,1786843057.0],[123.753437,10.286978,142.13153076171875,1786843058.0],[123.753409,10.28698,141.63116455078125,1786843063.0],[123.75337,10.286953,141.28204345703125,1786843071.0],[123.753338,10.286915,142.50518798828125,1786843079.0],[123.753321,10.286866,142.138916015625,1786843086.0],[123.753321,10.286859,141.82220458984375,1786843087.0],[123.753312,10.286827,140.06744384765625,1786843092.0],[123.753325,10.286803,137.0823974609375,1786843105.0],[123.753323,10.286784,135.3912353515625,1786843155.0],[123.753354,10.286752,131.20654296875,1786843160.0],[123.753365,10.286702,129.4757080078125,1786843178.0],[123.753373,10.286697,129.0093994140625,1786843179.0],[123.7534,10.286675,128.810546875,1786843185.0],[123.753402,10.286697,128.894775390625,1786843237.0],[123.753392,10.286721,128.94342041015625,1786843241.0],[123.753399,10.286729,132.6400146484375,1786843243.0],[123.753423,10.286722,132.266357421875,1786843244.0],[123.753435,10.286669,128.97528076171875,1786843250.0],[123.753434,10.286661,128.3798828125,1786843251.0],[123.753437,10.286605,127.3485107421875,1786843256.0],[123.753461,10.286564,125.68963623046875,1786843263.0],[123.753452,10.286541,125.9229736328125,1786843267.0],[123.753474,10.286492,123.9046630859375,1786843288.0],[123.753474,10.286493,123.9150390625,1786843289.0],[123.753508,10.286471,123.1534423828125,1786843344.0],[123.753504,10.28651,124.37579345703125,1786843391.0],[123.753483,10.286498,124.3865966796875,1786843394.0],[123.753483,10.286473,123.09979248046875,1786843400.0],[123.75347,10.286498,125.9937744140625,1786843428.0],[123.753466,10.286503,126.31146240234375,1786843429.0],[123.753463,10.286533,127.10479736328125,1786843436.0],[123.753491,10.286572,127.2265625,1786843442.0],[123.753477,10.286553,126.30853271484375,1786843478.0],[123.753479,10.286501,125.673583984375,1786843490.0],[123.753506,10.28648,125.28948974609375,1786843493.0],[123.753511,10.286478,125.65045166015625,1786843494.0],[123.753466,10.286445,122.1702880859375,1786843524.0],[123.753485,10.286435,122.34649658203125,1786843535.0],[123.753482,10.286411,123.5185546875,1786843539.0],[123.753498,10.28639,122.918701171875,1786843625.0],[123.753473,10.286377,124.375244140625,1786843630.0],[123.753462,10.286378,124.499267578125,1786843631.0],[123.753453,10.286382,124.3812255859375,1786843632.0],[123.753502,10.286379,122.18927001953125,1786843656.0],[123.753516,10.286356,122.4432373046875,1786843660.0],[123.753528,10.286356,121.78424072265625,1786843901.0],[123.753528,10.28635,121.8243408203125,1786843902.0],[123.753514,10.286324,121.18157958984375,1786843913.0],[123.753523,10.2863,119.74420166015625,1786843917.0],[123.753479,10.286207,117.34344482421875,1786843966.0],[123.753437,10.286218,117.66607666015625,1786843975.0],[123.753435,10.286214,117.28961181640625,1786843976.0],[123.753433,10.28619,117.53265380859375,1786843981.0],[123.753415,10.286172,117.01165771484375,1786843987.0],[123.75341,10.286151,116.671630859375,1786843991.0],[123.753425,10.286129,116.9329833984375,1786843996.0],[123.753431,10.286048,117.3819580078125,1786844010.0],[123.753432,10.286041,117.6678466796875,1786844011.0],[123.75345,10.285919,116.619384765625,1786844026.0],[123.753436,10.285897,116.36932373046875,1786844030.0],[123.753412,10.285881,116.602783203125,1786844033.0],[123.753417,10.285878,117.6058349609375,1786844034.0],[123.753426,10.285851,118.40740966796875,1786844037.0],[123.75341,10.285822,121.0118408203125,1786844042.0],[123.753336,10.285752,125.435791015625,1786844056.0],[123.75333,10.28575,126.27362060546875,1786844057.0],[123.753295,10.285716,123.36651611328125,1786844067.0],[123.753216,10.285696,122.2301025390625,1786844077.0],[123.753194,10.285681,122.90338134765625,1786844081.0],[123.753188,10.285679,123.209716796875,1786844082.0],[123.753128,10.285628,120.0174560546875,1786844095.0],[123.753105,10.285626,119.9940185546875,1786844099.0],[123.75305,10.285568,117.90576171875,1786844111.0],[123.753047,10.285565,117.54833984375,1786844112.0],[123.753052,10.285517,116.34222412109375,1786844136.0],[123.753078,10.28548,115.7867431640625,1786844153.0],[123.753081,10.285458,116.114990234375,1786844160.0],[123.753137,10.285457,114.0260009765625,1786844167.0],[123.753145,10.285455,114.074951171875,1786844168.0],[123.753196,10.285443,114.9620361328125,1786844176.0],[123.753251,10.285394,115.00543212890625,1786844190.0],[123.753305,10.285382,114.63720703125,1786844199.0],[123.753312,10.285379,114.3048095703125,1786844200.0],[123.753365,10.285367,113.82708740234375,1786844208.0],[123.753426,10.285326,112.2086181640625,1786844217.0],[123.753434,10.285311,112.00396728515625,1786844219.0],[123.753463,10.2853,111.0501708984375,1786844222.0],[123.753466,10.285293,110.7769775390625,1786844223.0],[123.753479,10.285266,111.24017333984375,1786844228.0],[123.753502,10.285253,111.925048828125,1786844234.0],[123.753528,10.28522,111.6243896484375,1786844241.0],[123.753567,10.285151,111.1885986328125,1786844254.0],[123.753568,10.285145,111.03460693359375,1786844255.0],[123.753598,10.285066,110.75091552734375,1786844268.0],[123.753624,10.285031,111.69427490234375,1786844276.0],[123.753618,10.284982,110.6812744140625,1786844284.0],[123.753619,10.284975,110.5731201171875,1786844285.0],[123.753638,10.284899,108.97271728515625,1786844296.0],[123.753632,10.284874,108.40753173828125,1786844299.0],[123.753603,10.284844,109.4693603515625,1786844307.0],[123.7536,10.284814,110.0955810546875,1786844314.0],[123.753599,10.28481,110.36981201171875,1786844315.0],[123.753564,10.284663,113.99981689453125,1786844343.0],[123.753548,10.284637,113.45458984375,1786844347.0],[123.753543,10.284631,113.6231689453125,1786844348.0],[123.753475,10.284595,114.36700439453125,1786844359.0],[123.75338,10.284566,115.640625,1786844375.0],[123.753373,10.284566,115.4766845703125,1786844376.0],[123.753254,10.284551,117.35675048828125,1786844398.0],[123.753202,10.284531,116.5281982421875,1786844405.0],[123.753195,10.284527,117.36907958984375,1786844406.0],[123.753169,10.284512,116.24896240234375,1786844410.0],[123.753095,10.284498,115.100341796875,1786844420.0],[123.753023,10.284462,113.14373779296875,1786844432.0],[123.753021,10.28446,113.18914794921875,1786844433.0],[123.753003,10.284445,110.8037109375,1786844442.0],[123.752988,10.284411,110.73870849609375,1786844443.0],[123.7529,10.284366,108.24560546875,1786844479.0],[123.752868,10.284365,109.007568359375,1786844484.0],[123.752863,10.284363,107.8385009765625,1786844485.0],[123.752834,10.284364,108.497802734375,1786844494.0],[123.752735,10.284338,109.4293212890625,1786844542.0],[123.75269,10.284299,109.3023681640625,1786844549.0],[123.752684,10.284293,108.415771484375,1786844550.0],[123.75266,10.284306,109.75146484375,1786844554.0],[123.75266,10.284284,107.00933837890625,1786844561.0],[123.752618,10.284245,99.66998291015625,1786844591.0],[123.752597,10.284256,100.61474609375,1786844596.0],[123.752573,10.284242,100.967041015625,1786844600.0],[123.752568,10.28424,101.7576904296875,1786844601.0],[123.752549,10.284203,101.2562255859375,1786844614.0],[123.752526,10.284198,102.06610107421875,1786844618.0],[123.752461,10.284128,100.64501953125,1786844637.0],[123.752454,10.284126,100.204345703125,1786844638.0],[123.752442,10.284073,99.3841552734375,1786844656.0],[123.752408,10.284045,100.7662353515625,1786844659.0],[123.752396,10.284022,99.5023193359375,1786844663.0],[123.752431,10.283987,94.343505859375,1786844671.0],[123.752431,10.283981,93.5625,1786844672.0],[123.752437,10.283887,96.399169921875,1786844697.0],[123.752409,10.283813,99.89569091796875,1786844715.0],[123.752405,10.283805,99.9180908203125,1786844716.0],[123.752386,10.283777,100.27838134765625,1786844720.0],[123.752352,10.283671,99.697509765625,1786844736.0],[123.752357,10.283643,99.771240234375,1786844740.0],[123.752357,10.283633,99.891357421875,1786844741.0],[123.752345,10.28356,99.582763671875,1786844753.0],[123.752263,10.283492,100.1156005859375,1786844774.0],[123.752262,10.28349,99.9300537109375,1786844775.0],[123.752241,10.283473,100.47052001953125,1786844780.0],[123.752232,10.283448,100.0194091796875,1786844783.0],[123.752207,10.283456,101.9368896484375,1786844789.0],[123.752181,10.283417,104.0333251953125,1786844805.0],[123.752157,10.283423,101.77777099609375,1786844810.0],[123.752141,10.283399,102.70074462890625,1786844817.0],[123.752141,10.283395,102.705810546875,1786844818.0],[123.752104,10.283357,101.6575927734375,1786844828.0],[123.752042,10.28332,98.84564208984375,1786844842.0],[123.752007,10.283278,98.4779052734375,1786844853.0],[123.751999,10.283276,98.4488525390625,1786844854.0],[123.751951,10.283245,98.45172119140625,1786844865.0],[123.751926,10.283247,98.2291259765625,1786844868.0],[123.751861,10.283218,98.71405029296875,1786844881.0],[123.751837,10.283197,98.5439453125,1786844885.0],[123.751835,10.283196,98.82177734375,1786844886.0],[123.751808,10.28314,98.85137939453125,1786844896.0],[123.751746,10.283109,97.63079833984375,1786844912.0],[123.751736,10.283081,97.1295166015625,1786844918.0],[123.751735,10.283083,97.18646240234375,1786844919.0],[123.751727,10.283043,96.4310302734375,1786844920.0],[123.751671,10.283072,94.09033203125,1786844925.0],[123.751616,10.283007,90.34307861328125,1786844934.0],[123.751612,10.283002,90.1563720703125,1786844935.0],[123.751565,10.282982,86.94989013671875,1786844940.0],[123.751554,10.282963,86.92529296875,1786844942.0],[123.751577,10.282929,92.85150146484375,1786844959.0],[123.75156,10.282916,89.4482421875,1786844961.0],[123.751563,10.282896,92.9974365234375,1786844966.0],[123.751552,10.282885,93.2740478515625,1786844967.0],[123.75155,10.282883,93.26104736328125,1786844968.0],[123.751556,10.282837,96.74920654296875,1786844997.0],[123.751475,10.282737,95.304931640625,1786845017.0],[123.75147,10.282729,95.4906005859375,1786845018.0],[123.75146,10.282671,94.24859619140625,1786845030.0],[123.751414,10.282612,93.2025146484375,1786845042.0],[123.751408,10.282561,92.57110595703125,1786845051.0],[123.751408,10.282556,92.2742919921875,1786845052.0],[123.751419,10.282528,90.81982421875,1786845057.0],[123.751418,10.282378,87.782958984375,1786845078.0],[123.751421,10.282371,87.26470947265625,1786845079.0],[123.751421,10.282317,89.353515625,1786845087.0],[123.751402,10.282234,86.6787109375,1786845097.0],[123.751384,10.282202,84.98388671875,1786845102.0],[123.751377,10.282203,85.32086181640625,1786845103.0],[123.751364,10.282149,84.947998046875,1786845113.0],[123.751339,10.282142,86.7469482421875,1786845117.0],[123.751327,10.28212,87.020263671875,1786845125.0],[123.751305,10.282112,87.6094970703125,1786845127.0],[123.751289,10.282063,88.2882080078125,1786845133.0],[123.751288,10.282061,88.90582275390625,1786845134.0],[123.751253,10.28199,88.7938232421875,1786845151.0],[123.751226,10.281983,89.0865478515625,1786845154.0],[123.751164,10.281932,90.4737548828125,1786845166.0],[123.751161,10.281927,90.109130859375,1786845167.0],[123.751135,10.281904,89.88983154296875,1786845171.0],[123.751127,10.281839,89.3411865234375,1786845184.0],[123.75111,10.281818,89.04180908203125,1786845194.0],[123.751117,10.281792,89.9931640625,1786845200.0],[123.751138,10.281773,88.829833984375,1786845205.0],[123.751142,10.281774,89.43414306640625,1786845206.0],[123.75122,10.281716,88.7772216796875,1786845233.0],[123.751255,10.28165,87.150390625,1786845246.0],[123.751261,10.281646,86.9312744140625,1786845247.0],[123.751273,10.281593,85.274169921875,1786845259.0],[123.751258,10.281471,86.6063232421875,1786845281.0],[123.751255,10.281463,86.32952880859375,1786845282.0],[123.751224,10.281418,87.22833251953125,1786845288.0],[123.751114,10.281353,92.77081298828125,1786845307.0],[123.751103,10.281351,92.0250244140625,1786845308.0],[123.751095,10.28134,95.0594482421875,1786845313.0],[123.751027,10.281334,99.5111083984375,1786845325.0],[123.751005,10.281323,99.14447021484375,1786845328.0],[123.750959,10.281276,94.527099609375,1786845338.0],[123.750958,10.281276,94.2232666015625,1786845339.0],[123.750948,10.281271,94.30084228515625,1786845340.0],[123.750928,10.28128,92.1219482421875,1786845342.0],[123.750911,10.281269,93.681396484375,1786845344.0],[123.750894,10.281227,96.2945556640625,1786845353.0],[123.750871,10.281219,94.3104248046875,1786845361.0],[123.750844,10.281171,93.24658203125,1786845372.0],[123.750841,10.281164,93.7099609375,1786845373.0],[123.750828,10.281139,92.6932373046875,1786845381.0],[123.750769,10.281104,89.9405517578125,1786845393.0],[123.750768,10.281082,87.9686279296875,1786845397.0],[123.75073,10.281052,86.89996337890625,1786845402.0],[123.750725,10.281049,87.48638916015625,1786845403.0],[123.750708,10.281029,87.0350341796875,1786845408.0],[123.75067,10.281022,87.0606689453125,1786845413.0],[123.75066,10.280999,86.5194091796875,1786845417.0],[123.75067,10.28095,85.7391357421875,1786845423.0],[123.750654,10.280924,85.5804443359375,1786845427.0],[123.750654,10.280923,85.749755859375,1786845428.0],[123.75068,10.280855,82.529541015625,1786845443.0],[123.75073,10.280803,83.42132568359375,1786845463.0],[123.750743,10.280775,83.034423828125,1786845466.0],[123.750744,10.280767,82.79156494140625,1786845467.0],[123.750768,10.280713,83.1273193359375,1786845475.0],[123.750846,10.280612,82.01409912109375,1786845504.0],[123.75085,10.28061,82.12652587890625,1786845505.0],[123.750896,10.280599,84.52789306640625,1786845511.0],[123.750926,10.280567,84.519287109375,1786845518.0],[123.750989,10.280525,83.36956787109375,1786845528.0],[123.750993,10.280523,83.321044921875,1786845529.0],[123.751019,10.28051,82.3043212890625,1786845535.0],[123.751092,10.280503,79.0789794921875,1786845546.0],[123.751122,10.280465,78.65594482421875,1786845554.0],[123.751147,10.280451,79.98529052734375,1786845558.0],[123.751152,10.280449,80.58917236328125,1786845559.0],[123.751177,10.280434,80.65411376953125,1786845564.0],[123.751279,10.280326,81.59588623046875,1786845585.0],[123.751283,10.280317,81.42694091796875,1786845586.0],[123.751279,10.280166,79.92822265625,1786845614.0],[123.751306,10.280138,81.5413818359375,1786845618.0],[123.75132,10.280132,81.2259521484375,1786845619.0],[123.751332,10.280133,81.009521484375,1786845620.0],[123.751332,10.280106,76.13726806640625,1786845622.0],[123.751263,10.279981,76.9752197265625,1786845647.0],[123.751262,10.279975,77.02020263671875,1786845648.0],[123.751218,10.279911,77.5008544921875,1786845661.0],[123.75114,10.279845,77.16998291015625,1786845678.0],[123.751136,10.279842,77.283447265625,1786845679.0],[123.751093,10.279803,79.026611328125,1786845691.0],[123.751076,10.279714,77.17156982421875,1786845703.0],[123.751052,10.279694,76.0264892578125,1786845708.0],[123.751049,10.27969,76.0347900390625,1786845709.0],[123.751037,10.279664,76.1529541015625,1786845713.0],[123.751003,10.279631,76.46673583984375,1786845720.0],[123.75092,10.279567,77.51446533203125,1786845736.0],[123.750915,10.279564,77.541259765625,1786845737.0],[123.750874,10.279523,77.7041015625,1786845747.0],[123.75076,10.279476,79.84918212890625,1786845763.0],[123.750752,10.279473,80.0885009765625,1786845764.0],[123.75066,10.279418,81.572509765625,1786845777.0],[123.750596,10.279365,79.669189453125,1786845787.0],[123.750589,10.27936,79.44793701171875,1786845788.0],[123.750458,10.279242,77.3819580078125,1786845807.0],[123.750452,10.279236,77.36407470703125,1786845808.0],[123.75037,10.27909,78.1693115234375,1786845827.0],[123.750364,10.279084,77.8837890625,1786845828.0],[123.750326,10.279039,78.5343017578125,1786845835.0],[123.750265,10.278932,79.372314453125,1786845853.0],[123.750263,10.278926,79.4310302734375,1786845854.0],[123.750229,10.278778,79.146240234375,1786845878.0],[123.750235,10.27875,78.97589111328125,1786845890.0],[123.750238,10.278745,78.930908203125,1786845891.0],[123.750264,10.278733,78.8001708984375,1786845897.0],[123.750274,10.278713,79.24676513671875,1786845902.0],[123.750298,10.278718,80.91119384765625,1786845909.0],[123.750385,10.278674,79.3824462890625,1786845931.0],[123.75039,10.278673,79.3516845703125,1786845932.0],[123.750501,10.278655,78.24560546875,1786845944.0],[123.750582,10.278653,77.98651123046875,1786845956.0],[123.750592,10.278654,77.9219970703125,1786845957.0],[123.750622,10.278658,78.08856201171875,1786845960.0],[123.750744,10.278719,77.40557861328125,1786845974.0],[123.750753,10.278723,77.3831787109375,1786845975.0],[123.750803,10.278756,78.36651611328125,1786845982.0],[123.750924,10.27881,79.36767578125,1786845999.0],[123.750932,10.278812,79.4866943359375,1786846000.0],[123.751037,10.278856,79.2069091796875,1786846013.0],[123.751103,10.278864,79.1888427734375,1786846020.0],[123.751112,10.278861,79.04180908203125,1786846021.0],[123.751208,10.278841,77.794189453125,1786846032.0],[123.751266,10.278803,76.91552734375,1786846039.0],[123.751274,10.278796,76.83929443359375,1786846040.0],[123.751321,10.278752,74.538818359375,1786846047.0],[123.751375,10.278677,73.6983642578125,1786846056.0],[123.751381,10.278669,73.7119140625,1786846057.0],[123.751465,10.278542,73.1705322265625,1786846073.0],[123.751469,10.278534,73.2110595703125,1786846074.0],[123.7515,10.278474,72.8499755859375,1786846081.0],[123.751525,10.278386,73.1005859375,1786846090.0],[123.751527,10.278376,73.1126708984375,1786846091.0],[123.751561,10.278219,73.7052001953125,1786846107.0],[123.751563,10.278211,73.79400634765625,1786846108.0],[123.751562,10.278058,71.1900634765625,1786846124.0],[123.751559,10.278048,71.05584716796875,1786846125.0],[123.751552,10.277975,70.61181640625,1786846133.0],[123.751527,10.27788,70.619873046875,1786846144.0],[123.751523,10.277873,70.85955810546875,1786846145.0],[123.751528,10.277789,72.10028076171875,1786846155.0],[123.751572,10.277711,73.11285400390625,1786846165.0],[123.751579,10.277706,73.1856689453125,1786846166.0],[123.751653,10.277638,73.50274658203125,1786846178.0],[123.751679,10.277563,74.294677734375,1786846187.0],[123.751683,10.277553,74.21392822265625,1786846188.0],[123.751791,10.277411,74.547119140625,1786846207.0],[123.751798,10.277404,74.365234375,1786846208.0],[123.751923,10.277302,73.32489013671875,1786846225.0],[123.75193,10.277296,73.6136474609375,1786846226.0],[123.752073,10.277195,72.52410888671875,1786846245.0],[123.752083,10.277192,72.3941650390625,1786846246.0],[123.752246,10.277117,72.53948974609375,1786846265.0],[123.752256,10.277113,72.2559814453125,1786846266.0],[123.752353,10.277077,70.75885009765625,1786846277.0],[123.752433,10.277062,70.1151123046875,1786846286.0],[123.752442,10.277059,69.9813232421875,1786846287.0],[123.75262,10.27706,71.0758056640625,1786846307.0],[123.75263,10.277061,71.248291015625,1786846308.0],[123.752742,10.277048,71.5911865234375,1786846320.0],[123.752795,10.277031,71.8221435546875,1786846326.0],[123.752805,10.277028,71.8836669921875,1786846327.0],[123.752972,10.276991,70.3336181640625,1786846345.0],[123.75298,10.276988,70.2252197265625,1786846346.0],[123.753106,10.276948,70.496826171875,1786846361.0],[123.75315,10.276918,70.30511474609375,1786846367.0],[123.753157,10.276912,70.3262939453125,1786846368.0],[123.753311,10.276859,69.56182861328125,1786846384.0],[123.75332,10.276856,69.5457763671875,1786846385.0],[123.7534,10.276822,69.142333984375,1786846394.0],[123.753462,10.276782,68.23834228515625,1786846402.0],[123.75347,10.276777,68.20220947265625,1786846403.0],[123.753548,10.276729,68.11865234375,1786846413.0],[123.753601,10.276675,67.27685546875,1786846421.0],[123.753607,10.276668,67.1904296875,1786846422.0],[123.753728,10.276564,66.50628662109375,1786846439.0],[123.753733,10.276555,66.46197509765625,1786846440.0],[123.753786,10.276475,66.27490234375,1786846450.0],[123.753813,10.276396,65.72747802734375,1786846460.0],[123.753815,10.276388,65.75152587890625,1786846461.0],[123.753819,10.276225,67.03863525390625,1786846479.0],[123.753818,10.276217,67.10650634765625,1786846480.0],[123.753783,10.276038,67.84442138671875,1786846501.0],[123.75378,10.27603,67.886962890625,1786846502.0],[123.753753,10.275874,68.4476318359375,1786846519.0],[123.753751,10.275865,68.43280029296875,1786846520.0],[123.753725,10.275716,68.1700439453125,1786846536.0],[123.753724,10.275707,68.13775634765625,1786846537.0],[123.75372,10.275647,67.14068603515625,1786846544.0],[123.753691,10.275592,67.1600341796875,1786846551.0],[123.75368,10.275544,66.3760986328125,1786846556.0],[123.753677,10.275535,66.5645751953125,1786846557.0],[123.753657,10.275465,67.46832275390625,1786846565.0],[123.753661,10.275377,67.865234375,1786846575.0],[123.753661,10.275369,68.03753662109375,1786846576.0],[123.753671,10.27528,66.13934326171875,1786846600.0],[123.7537,10.275214,64.89361572265625,1786846607.0],[123.753707,10.275207,64.80303955078125,1786846608.0],[123.753741,10.275165,63.8114013671875,1786846617.0],[123.753779,10.275154,63.2747802734375,1786846621.0],[123.753823,10.275109,64.09783935546875,1786846628.0],[123.75384,10.275109,63.1248779296875,1786846629.0],[123.753847,10.275107,63.08795166015625,1786846630.0],[123.753871,10.275126,62.42303466796875,1786846635.0],[123.753928,10.275091,63.05792236328125,1786846644.0],[123.754012,10.275071,63.35430908203125,1786846654.0],[123.75402,10.275072,63.32574462890625,1786846655.0],[123.75419,10.275065,64.5540771484375,1786846671.0],[123.754201,10.275065,64.5347900390625,1786846672.0],[123.754365,10.275055,64.89483642578125,1786846688.0],[123.754374,10.275054,64.851806640625,1786846689.0],[123.754478,10.275041,64.593017578125,1786846700.0],[123.754502,10.275053,64.29815673828125,1786846703.0],[123.754524,10.275035,64.33148193359375,1786846706.0],[123.754524,10.275034,64.33233642578125,1786846707.0],[123.75462,10.275044,64.16925048828125,1786846726.0],[123.754703,10.275039,63.23406982421875,1786846735.0],[123.754712,10.275039,62.98614501953125,1786846736.0]]]}}]}