{"type":"FeatureCollection","features":[{"type":"Feature","id":"2b7e81d1-18f9-4b46-a8ce-a00c15ee7eb8","properties":{"id":"2b7e81d1-18f9-4b46-a8ce-a00c15ee7eb8","updated_date":"2026-08-21T04:50:57Z","time_created":"2026-08-20T22:18:50Z","last_updated_on_server":"2026-08-21T04:50:57.336498","db_insert_date":"2026-08-21T04:50:46Z","deleted":false,"title":"August 21, 2026 at 7:18 AM","public":false,"color":"#A726BC","hexcolor":"#A726BC","is_active":true,"revision":1787287857,"notes":"","track_type":"track","routing_mode":null,"uploaded_gpx_to_osm":null,"flag":null,"source":null,"cover_photo_id":null,"distance":5264.707150302059,"total_ascent":268.6666666666667,"total_descent":251.00000000000003,"stopped_time":1566.0,"total_time":13018.0,"average_speed":0.40441751039345974,"moving_time":11452.0,"moving_speed":0.4597194507773366,"activities":[],"imported":true,"folder":"ea200b67-1744-46a6-bf72-4933fc52ada7","privacy_level":null,"sync_to_mobile":null,"preferred_link":"/public/Bm14oLq9sbj6sSzow0kEG5Cp","favorite_count":0,"comment_count":0,"comments":[],"user_photo_count":0,"latitude":10.243791925541466,"longitude":123.76001904717509,"writable":false},"style":{"stroke":"#A726BC"},"geometry":{"type":"MultiLineString","coordinates":[[[123.76122,10.248338,252.0,1787264330.0],[123.76128,10.248268,250.0,1787264339.0],[123.76135,10.248182,248.0,1787264350.0],[123.7614,10.248101,247.0,1787264358.0],[123.76149,10.248046,246.0,1787264369.0],[123.76157,10.247987,246.0,1787264377.0],[123.76164,10.247937,245.0,1787264385.0],[123.76173,10.24788,247.0,1787264395.0],[123.76183,10.247824,250.0,1787264407.0],[123.76191,10.247751,252.0,1787264418.0],[123.76201,10.24769,253.0,1787264432.0],[123.76209,10.247655,256.0,1787264444.0],[123.76219,10.247627,258.0,1787264457.0],[123.7623,10.247607,260.0,1787264553.0],[123.76241,10.247574,261.0,1787264567.0],[123.76251,10.247566,263.0,1787264577.0],[123.76261,10.247545,266.0,1787264588.0],[123.76271,10.24754,267.0,1787264597.0],[123.76281,10.247536,270.0,1787264607.0],[123.76292,10.247547,271.0,1787264616.0],[123.76304,10.247538,272.0,1787264636.0],[123.76315,10.247531,272.0,1787264646.0],[123.76325,10.24752,272.0,1787264655.0],[123.76336,10.247494,274.0,1787264665.0],[123.76346,10.247497,276.0,1787264675.0],[123.7634,10.247425,275.0,1787264796.0],[123.76332,10.247351,275.0,1787264877.0],[123.76325,10.247258,277.0,1787264888.0],[123.76322,10.247175,278.0,1787264932.0],[123.76321,10.247081,278.0,1787264979.0],[123.76321,10.246879,276.0,1787265007.0],[123.76325,10.246783,275.0,1787265021.0],[123.76331,10.246703,274.0,1787265037.0],[123.76335,10.246585,273.0,1787265096.0],[123.76339,10.2465,269.0,1787265119.0],[123.76344,10.246416,264.0,1787265139.0],[123.76346,10.246316,260.0,1787265161.0],[123.76354,10.246252,258.0,1787265182.0],[123.7636,10.246172,255.0,1787265202.0],[123.76369,10.246024,251.0,1787265301.0],[123.76375,10.245943,250.0,1787265312.0],[123.76382,10.245854,247.0,1787265401.0],[123.76392,10.245842,245.0,1787265416.0],[123.76401,10.245787,243.0,1787265499.0],[123.76402,10.245696,241.0,1787265518.0],[123.76411,10.245714,241.0,1787265539.0],[123.76417,10.245635,239.0,1787265559.0],[123.76422,10.245545,235.0,1787265643.0],[123.76426,10.245458,233.0,1787265749.0],[123.76429,10.245364,227.0,1787265767.0],[123.76437,10.245311,226.0,1787265786.0],[123.7644,10.24522,225.0,1787265803.0],[123.76431,10.245204,222.0,1787265817.0],[123.76442,10.245231,223.0,1787265865.0],[123.76446,10.245135,219.0,1787265887.0],[123.76454,10.245047,217.0,1787266021.0],[123.76455,10.244952,214.0,1787266045.0],[123.76462,10.244892,212.0,1787266060.0],[123.76464,10.244764,209.0,1787266174.0],[123.76467,10.244663,206.0,1787266191.0],[123.76469,10.244559,205.0,1787266205.0],[123.76466,10.244465,203.0,1787266232.0],[123.76465,10.244371,202.0,1787266243.0],[123.76463,10.244266,200.0,1787266257.0],[123.76463,10.244076,197.0,1787266285.0],[123.76466,10.24397,196.0,1787266297.0],[123.76472,10.24388,195.0,1787266403.0],[123.76477,10.243778,194.0,1787266417.0],[123.76479,10.243676,190.0,1787266432.0],[123.7648,10.243572,188.0,1787266448.0],[123.7648,10.243467,184.0,1787266511.0],[123.76486,10.243382,181.0,1787266669.0],[123.76491,10.243307,180.0,1787266713.0],[123.76493,10.243203,177.0,1787266744.0],[123.76498,10.243108,175.0,1787266985.0],[123.765,10.243009,172.0,1787266999.0],[123.765,10.24291,171.0,1787267109.0],[123.76502,10.242816,167.0,1787267128.0],[123.76503,10.242707,164.0,1787267144.0],[123.76508,10.242628,161.0,1787267157.0],[123.76512,10.242524,159.0,1787267174.0],[123.76512,10.242429,157.0,1787267202.0],[123.76516,10.24234,155.0,1787267215.0],[123.76522,10.242271,154.0,1787267291.0],[123.76526,10.242189,154.0,1787267301.0],[123.76534,10.242112,153.0,1787267314.0],[123.76539,10.242024,150.0,1787267327.0],[123.76546,10.24197,147.0,1787267361.0],[123.76555,10.241915,144.0,1787267381.0],[123.76566,10.241909,143.0,1787267403.0],[123.76575,10.241859,140.0,1787267423.0],[123.76584,10.24184,138.0,1787267441.0],[123.76591,10.241773,134.0,1787267456.0],[123.76597,10.241695,133.0,1787267468.0],[123.76604,10.241619,131.0,1787267480.0],[123.76611,10.241543,126.0,1787267496.0],[123.7662,10.241513,124.0,1787267507.0],[123.7663,10.241499,123.0,1787267515.0],[123.76639,10.241451,125.0,1787267525.0],[123.76646,10.24137,124.0,1787267538.0],[123.76656,10.241338,121.0,1787267554.0],[123.76664,10.241269,115.0,1787267745.0],[123.76669,10.241243,114.0,1787267883.0],[123.76672,10.241201,114.0,1787267884.0],[123.76687,10.241081,112.0,1787267911.0],[123.76693,10.241003,110.0,1787267921.0],[123.76701,10.240957,108.0,1787267938.0],[123.76709,10.240902,106.0,1787267951.0],[123.76716,10.240825,106.0,1787268046.0],[123.76723,10.240756,104.0,1787268072.0],[123.76729,10.240684,102.0,1787268099.0],[123.76738,10.240633,99.0,1787268112.0],[123.7675,10.240456,91.0,1787268151.0],[123.76756,10.240266,85.0,1787268185.0],[123.76752,10.240175,80.0,1787268207.0],[123.76745,10.240099,79.0,1787268220.0],[123.76738,10.240038,77.0,1787268256.0],[123.76731,10.239928,75.0,1787268389.0],[123.7672,10.239847,71.0,1787268581.0],[123.7671,10.239825,68.0,1787268594.0],[123.76701,10.239798,64.0,1787268606.0],[123.76692,10.23977,63.0,1787268618.0],[123.76683,10.239721,61.0,1787268629.0],[123.76674,10.239681,58.0,1787268645.0],[123.76661,10.239628,56.0,1787268661.0],[123.76659,10.239517,50.0,1787268692.0],[123.76671,10.239426,48.0,1787268710.0],[123.76672,10.239338,45.0,1787268723.0],[123.76676,10.239247,43.0,1787268739.0],[123.76665,10.239297,40.0,1787268766.0],[123.76656,10.239321,42.0,1787268776.0],[123.76643,10.239341,41.0,1787269290.0],[123.76633,10.239397,40.0,1787269299.0],[123.76622,10.239418,39.0,1787269309.0],[123.76609,10.23947,38.0,1787269321.0],[123.76599,10.239493,39.0,1787269330.0],[123.76588,10.239523,39.0,1787269338.0],[123.76577,10.239539,38.0,1787269346.0],[123.76567,10.239552,39.0,1787269354.0],[123.76556,10.239545,38.0,1787269376.0],[123.76545,10.239549,38.0,1787269385.0],[123.76535,10.239542,39.0,1787269393.0],[123.76525,10.239532,39.0,1787269401.0],[123.76515,10.239517,39.0,1787269410.0],[123.76505,10.239513,39.0,1787269418.0],[123.76495,10.239499,39.0,1787269426.0],[123.76485,10.23949,39.0,1787269434.0],[123.76476,10.239471,40.0,1787269441.0],[123.76466,10.239475,39.0,1787269448.0],[123.76455,10.239472,40.0,1787269458.0],[123.76444,10.239506,42.0,1787269466.0],[123.76435,10.239514,45.0,1787269474.0],[123.76424,10.239514,48.0,1787269484.0],[123.76414,10.239534,52.0,1787269492.0],[123.76406,10.239564,55.0,1787269499.0],[123.76396,10.239587,58.0,1787269508.0],[123.76386,10.23957,60.0,1787269514.0],[123.76378,10.23963,63.0,1787269526.0],[123.76367,10.239628,63.0,1787270193.0],[123.76351,10.239689,63.0,1787270209.0],[123.76335,10.239664,62.0,1787270226.0],[123.76325,10.239641,61.0,1787270236.0],[123.76316,10.239589,64.0,1787270245.0],[123.76306,10.239562,64.0,1787270253.0],[123.76297,10.239561,65.0,1787270300.0],[123.76288,10.239511,67.0,1787270310.0],[123.76277,10.239478,69.0,1787270323.0],[123.76272,10.239384,69.0,1787270332.0],[123.7626,10.239324,65.0,1787270344.0],[123.76245,10.239293,62.0,1787270357.0],[123.76231,10.239263,61.0,1787270368.0],[123.76221,10.239224,62.0,1787270376.0],[123.76212,10.239179,63.0,1787270385.0],[123.76202,10.239177,62.0,1787270402.0],[123.76191,10.239137,59.0,1787270411.0],[123.76181,10.239094,61.0,1787270420.0],[123.76173,10.239033,64.0,1787270429.0],[123.76162,10.239001,66.0,1787270438.0],[123.76148,10.238996,68.0,1787270449.0],[123.76139,10.238959,69.0,1787270457.0],[123.76131,10.238901,69.0,1787270471.0],[123.76121,10.238864,66.0,1787270482.0],[123.76102,10.238864,65.0,1787270537.0],[123.76093,10.238815,69.0,1787270550.0],[123.76084,10.238777,72.0,1787270560.0],[123.76074,10.238754,73.0,1787270567.0],[123.76065,10.238717,75.0,1787270577.0],[123.76056,10.238674,77.0,1787270586.0],[123.76047,10.238683,79.0,1787270596.0],[123.76036,10.238667,80.0,1787270605.0],[123.76025,10.238654,82.0,1787270616.0],[123.76014,10.238637,82.0,1787270625.0],[123.76009,10.238553,85.0,1787270635.0],[123.75998,10.238528,88.0,1787270644.0],[123.75984,10.238489,91.0,1787270659.0],[123.75975,10.238455,92.0,1787270670.0],[123.75964,10.238443,93.0,1787270680.0],[123.75954,10.238452,95.0,1787270695.0],[123.75945,10.238342,97.0,1787270783.0],[123.75937,10.238299,101.0,1787270795.0],[123.75926,10.238288,101.0,1787270938.0],[123.75933,10.238365,100.0,1787270985.0],[123.75943,10.238406,101.0,1787271093.0],[123.75936,10.238465,94.0,1787271215.0],[123.75927,10.238475,96.0,1787271226.0],[123.75917,10.238455,96.0,1787271236.0],[123.75908,10.238456,98.0,1787271247.0],[123.75898,10.238441,99.0,1787271256.0],[123.75883,10.238433,101.0,1787271303.0],[123.75869,10.238465,98.0,1787271370.0],[123.75859,10.238454,97.0,1787271381.0],[123.7585,10.238479,97.0,1787271392.0],[123.7584,10.238496,98.0,1787271420.0],[123.7583,10.238518,99.0,1787271430.0],[123.7582,10.238543,100.0,1787271440.0],[123.75811,10.238586,101.0,1787271450.0],[123.75803,10.238628,103.0,1787271461.0],[123.75793,10.238639,103.0,1787271471.0],[123.75784,10.238679,103.0,1787271480.0],[123.75774,10.238712,105.0,1787271506.0],[123.75764,10.238729,105.0,1787271518.0],[123.75754,10.238758,105.0,1787271529.0],[123.75744,10.238802,106.0,1787271540.0],[123.75734,10.238838,107.0,1787271550.0],[123.75724,10.238878,109.0,1787271561.0],[123.75715,10.238889,110.0,1787271571.0],[123.75706,10.238952,112.0,1787271581.0],[123.75699,10.23901,113.0,1787271591.0],[123.75691,10.239073,114.0,1787271601.0],[123.75683,10.239142,115.0,1787271611.0],[123.75675,10.23922,116.0,1787271621.0],[123.75671,10.2393,118.0,1787271632.0],[123.75665,10.239393,119.0,1787271645.0],[123.75659,10.239472,119.0,1787271655.0],[123.75656,10.239561,118.0,1787271676.0],[123.7565,10.239649,118.0,1787271688.0],[123.75646,10.239737,117.0,1787271699.0],[123.75642,10.23984,117.0,1787271711.0],[123.75638,10.239927,117.0,1787271722.0],[123.75637,10.240017,117.0,1787271757.0],[123.75629,10.240115,119.0,1787271787.0],[123.75626,10.240209,121.0,1787271799.0],[123.75627,10.240307,120.0,1787271808.0],[123.75625,10.240443,123.0,1787271822.0],[123.75626,10.240539,127.0,1787271834.0],[123.75628,10.240639,130.0,1787271844.0],[123.75624,10.240722,133.0,1787271852.0],[123.75622,10.240831,137.0,1787271864.0],[123.75618,10.240914,137.0,1787271873.0],[123.75614,10.241017,138.0,1787271883.0],[123.75611,10.241115,139.0,1787272289.0],[123.75607,10.241214,138.0,1787272299.0],[123.75604,10.24131,138.0,1787272308.0],[123.756,10.241402,140.0,1787272317.0],[123.75593,10.24155,138.0,1787272372.0],[123.75589,10.241641,138.0,1787272380.0],[123.75584,10.241728,139.0,1787272388.0],[123.75579,10.24182,138.0,1787272397.0],[123.75575,10.241915,140.0,1787272406.0],[123.75571,10.242005,139.0,1787272415.0],[123.75566,10.242085,141.0,1787272424.0],[123.75562,10.242178,143.0,1787272432.0],[123.75557,10.242268,146.0,1787272441.0],[123.7555,10.242343,151.0,1787272450.0],[123.75544,10.242417,154.0,1787272459.0],[123.75537,10.242489,156.0,1787272468.0],[123.7553,10.242566,160.0,1787272477.0],[123.75523,10.242642,162.0,1787272522.0],[123.75516,10.242706,162.0,1787272532.0],[123.75509,10.242778,163.0,1787272549.0],[123.75503,10.242856,164.0,1787272559.0],[123.75497,10.242923,163.0,1787272569.0],[123.7549,10.243001,163.0,1787272587.0],[123.75483,10.243089,163.0,1787272598.0],[123.75476,10.243169,166.0,1787272611.0],[123.7547,10.243247,166.0,1787272620.0],[123.75463,10.24332,166.0,1787272629.0],[123.75456,10.2434,167.0,1787272638.0],[123.75449,10.243468,167.0,1787272666.0],[123.75443,10.243545,166.0,1787272676.0],[123.75435,10.243615,166.0,1787272692.0],[123.75428,10.243693,168.0,1787272702.0],[123.7542,10.243754,168.0,1787272712.0],[123.75414,10.243846,169.0,1787272723.0],[123.75407,10.243921,169.0,1787272733.0],[123.754,10.243988,171.0,1787272743.0],[123.75394,10.244073,175.0,1787272752.0],[123.75385,10.244143,176.0,1787272762.0],[123.75378,10.244216,178.0,1787272771.0],[123.75371,10.244297,179.0,1787272781.0],[123.75365,10.24437,180.0,1787272790.0],[123.75356,10.244437,180.0,1787272799.0],[123.75348,10.24449,180.0,1787272807.0],[123.7534,10.244533,180.0,1787272816.0],[123.75331,10.244583,180.0,1787272825.0],[123.75321,10.244611,180.0,1787272834.0],[123.75313,10.244671,180.0,1787272843.0],[123.75322,10.244709,181.0,1787272870.0],[123.75331,10.244667,181.0,1787272880.0],[123.75341,10.244623,181.0,1787272890.0],[123.7535,10.244571,182.0,1787272900.0],[123.75359,10.244514,183.0,1787272910.0],[123.75367,10.244573,184.0,1787272921.0],[123.75374,10.244641,184.0,1787272932.0],[123.75382,10.244705,185.0,1787272944.0],[123.75389,10.244775,186.0,1787272955.0],[123.75398,10.244801,188.0,1787273021.0],[123.75403,10.244886,191.0,1787273036.0],[123.75413,10.244867,192.0,1787273049.0],[123.75421,10.244826,190.0,1787273066.0],[123.75432,10.244822,190.0,1787273087.0],[123.75441,10.244863,191.0,1787273098.0],[123.75451,10.244885,191.0,1787273109.0],[123.7547,10.244929,195.0,1787273138.0],[123.7548,10.24493,199.0,1787273157.0],[123.75491,10.244947,201.0,1787273265.0],[123.755,10.244909,206.0,1787273278.0],[123.7551,10.244905,205.0,1787273298.0],[123.7552,10.244914,206.0,1787273343.0],[123.7553,10.245008,208.0,1787273359.0],[123.7554,10.245031,209.0,1787273444.0],[123.75548,10.245096,209.0,1787273455.0],[123.75558,10.245116,211.0,1787273464.0],[123.75563,10.245216,213.0,1787273489.0],[123.75562,10.245312,213.0,1787273499.0],[123.75572,10.245171,213.0,1787273572.0],[123.7558,10.245244,214.0,1787273596.0],[123.75582,10.245123,214.0,1787273639.0],[123.75593,10.245101,214.0,1787273649.0],[123.75603,10.24508,215.0,1787273660.0],[123.75613,10.245008,218.0,1787274012.0],[123.75622,10.244965,218.0,1787274025.0],[123.75632,10.244924,221.0,1787274066.0],[123.75641,10.244895,223.0,1787274082.0],[123.75649,10.244854,223.0,1787274092.0],[123.75661,10.244853,230.0,1787274122.0],[123.75671,10.244822,233.0,1787274141.0],[123.7568,10.244795,235.0,1787274155.0],[123.75689,10.244778,236.0,1787274170.0],[123.75699,10.24478,238.0,1787274186.0],[123.75698,10.2449,243.0,1787274224.0],[123.75695,10.244996,248.0,1787274239.0],[123.75693,10.245091,252.0,1787274261.0],[123.75688,10.245174,256.0,1787274283.0],[123.75696,10.245233,267.0,1787274500.0],[123.75687,10.245335,267.0,1787274534.0],[123.75681,10.245428,272.0,1787274605.0],[123.75689,10.245479,274.0,1787274620.0],[123.75693,10.245561,277.0,1787274638.0],[123.75694,10.245652,279.0,1787274653.0],[123.75686,10.245714,278.0,1787274683.0],[123.75685,10.245811,281.0,1787274698.0],[123.7568,10.245905,283.0,1787274713.0],[123.75672,10.245977,284.0,1787274725.0],[123.75661,10.246053,287.0,1787274749.0],[123.75657,10.246153,287.0,1787274762.0],[123.7565,10.246223,289.0,1787274776.0],[123.75642,10.24627,288.0,1787274791.0],[123.75634,10.246321,291.0,1787274810.0],[123.75625,10.246382,290.0,1787274820.0],[123.75617,10.246437,290.0,1787274830.0],[123.7561,10.246502,290.0,1787274842.0],[123.75604,10.246584,289.0,1787274853.0],[123.75597,10.246661,290.0,1787274864.0],[123.7559,10.246723,289.0,1787274880.0],[123.75584,10.246797,290.0,1787275188.0],[123.75577,10.246927,291.0,1787275203.0],[123.75582,10.247016,292.0,1787275212.0],[123.7559,10.247055,292.0,1787275244.0],[123.756,10.247117,296.0,1787275265.0],[123.75616,10.247155,299.0,1787275328.0],[123.75631,10.247202,305.0,1787275344.0],[123.7564,10.247226,308.0,1787275354.0],[123.75649,10.247273,308.0,1787275375.0],[123.75655,10.247353,307.0,1787275388.0],[123.75655,10.247494,311.0,1787275408.0],[123.75653,10.247585,312.0,1787275421.0],[123.75647,10.247665,313.0,1787275433.0],[123.75646,10.247762,312.0,1787275446.0],[123.75647,10.247872,310.0,1787275458.0],[123.75649,10.247973,310.0,1787275469.0],[123.75647,10.248066,308.0,1787275482.0],[123.7565,10.248198,302.0,1787275561.0],[123.7565,10.248298,300.0,1787275575.0],[123.75651,10.248404,299.0,1787275588.0],[123.75653,10.248506,297.0,1787275602.0],[123.75661,10.248583,295.0,1787275617.0],[123.75669,10.248651,296.0,1787275627.0],[123.75675,10.248728,295.0,1787275639.0],[123.75678,10.248813,292.0,1787275699.0],[123.75687,10.248884,293.0,1787275712.0],[123.75695,10.248952,293.0,1787275723.0],[123.75701,10.249033,290.0,1787275734.0],[123.75704,10.249127,286.0,1787275749.0],[123.75705,10.249221,283.0,1787275776.0],[123.75702,10.249322,276.0,1787275821.0],[123.75707,10.249415,272.0,1787275858.0],[123.75707,10.249506,268.0,1787275930.0],[123.75709,10.2496,263.0,1787275956.0],[123.75703,10.249676,261.0,1787276021.0],[123.75704,10.249767,259.0,1787276032.0],[123.75712,10.249876,259.0,1787276176.0],[123.75715,10.249974,261.0,1787276186.0],[123.75718,10.250062,264.0,1787276204.0],[123.75722,10.25015,267.0,1787276215.0],[123.75729,10.250215,270.0,1787276231.0],[123.75735,10.250302,273.0,1787276365.0],[123.75745,10.250408,277.0,1787276383.0],[123.75754,10.250464,281.0,1787276473.0],[123.75763,10.250512,286.0,1787276487.0],[123.75772,10.250563,288.0,1787276499.0],[123.75781,10.250557,291.0,1787276513.0],[123.75791,10.250565,293.0,1787276524.0],[123.75801,10.250547,294.0,1787276536.0],[123.75811,10.25056,296.0,1787276546.0],[123.7582,10.250582,299.0,1787276559.0],[123.7583,10.250589,302.0,1787276577.0],[123.75843,10.250517,304.0,1787276619.0],[123.75852,10.250475,303.0,1787276631.0],[123.75862,10.250452,303.0,1787276646.0],[123.7587,10.250491,304.0,1787276659.0],[123.75879,10.250526,307.0,1787276676.0],[123.75891,10.250536,308.0,1787276694.0],[123.75901,10.250488,308.0,1787276705.0],[123.75907,10.250406,306.0,1787276719.0],[123.75917,10.250383,307.0,1787276805.0],[123.75926,10.250334,306.0,1787276817.0],[123.75932,10.250255,306.0,1787276828.0],[123.7594,10.250201,307.0,1787276840.0],[123.75949,10.250155,306.0,1787276850.0],[123.75958,10.250099,306.0,1787276860.0],[123.75968,10.25005,305.0,1787276871.0],[123.75975,10.249982,303.0,1787276885.0],[123.75982,10.249909,301.0,1787276900.0],[123.7599,10.249857,299.0,1787276912.0],[123.75996,10.249776,297.0,1787276930.0],[123.76002,10.249706,297.0,1787276947.0],[123.76011,10.249669,291.0,1787276966.0],[123.76021,10.249599,286.0,1787276980.0],[123.76028,10.249526,285.0,1787276989.0],[123.76032,10.249323,281.0,1787277024.0],[123.76038,10.24925,276.0,1787277037.0],[123.76046,10.249194,277.0,1787277203.0],[123.76049,10.249104,273.0,1787277217.0],[123.76057,10.24904,272.0,1787277230.0],[123.76063,10.248948,268.0,1787277245.0],[123.76072,10.248918,267.0,1787277259.0],[123.76078,10.24884,265.0,1787277274.0],[123.76078,10.248696,262.0,1787277297.0],[123.76086,10.248626,261.0,1787277309.0],[123.76093,10.248551,258.0,1787277320.0],[123.76098,10.248468,256.0,1787277332.0],[123.76106,10.248405,252.0,1787277342.0],[123.76109,10.248368,252.0,1787277348.0]]]}}]}