{"type":"FeatureCollection","features":[{"type":"Feature","id":"8a219b07-23ff-434e-b94d-90fbdce18b0c","properties":{"id":"8a219b07-23ff-434e-b94d-90fbdce18b0c","updated_date":"2024-10-30T10:47:04Z","time_created":"2024-04-24T13:15:56Z","last_updated_on_server":"2026-02-14T08:17:59.192778","db_insert_date":"2024-10-30T10:46:50Z","deleted":false,"title":"Pangilatan Peak Route","public":false,"color":"#000000","hexcolor":"#000000","is_active":true,"revision":1771057079,"notes":"","track_type":"route","routing_mode":"pedestrian","uploaded_gpx_to_osm":null,"flag":null,"source":null,"cover_photo_id":null,"distance":2564.352673260246,"total_ascent":155.97899199999998,"total_descent":151.57892399999997,"stopped_time":0.0,"total_time":0.0,"average_speed":0,"moving_time":0.0,"moving_speed":0,"activities":[],"imported":false,"folder":"5846eda4-747f-4498-a291-2d262ecd3479","privacy_level":null,"sync_to_mobile":null,"preferred_link":"/public/GCc2X3NV90QqD77bd4x3qqDC","favorite_count":0,"comment_count":0,"comments":[],"user_photo_count":0,"latitude":10.24793813790431,"longitude":123.7585077656399,"writable":false},"style":{"stroke":"#000000"},"geometry":{"type":"MultiLineString","coordinates":[[[123.76156,10.247996,239.708493,0.0],[123.761412,10.248083,242.263519,0.0],[123.760868,10.248761,255.794748,0.0],[123.760847,10.24888,258.357446,0.0],[123.760729,10.249025,262.270844,0.0],[123.760565,10.249115,265.940324,0.0],[123.760187,10.249722,282.974554,0.0],[123.760104,10.249735,284.239133,0.0],[123.759986,10.24987,289.901702,0.0],[123.759082,10.250538,296.514147,0.0],[123.758602,10.250701,298.113122,0.0],[123.758205,10.25096,295.72136,0.0],[123.758205,10.25096,295.72136,0.0],[123.757677,10.250548,281.247609,0.0],[123.757322,10.250247,264.429407,0.0],[123.757194,10.250049,256.396789,0.0],[123.757084,10.249698,252.789181,0.0],[123.757086,10.249049,276.192133,0.0],[123.75659,10.248498,286.723923,0.0],[123.756541,10.247989,303.473575,0.0],[123.75653,10.247729,306.2496,0.0],[123.756629,10.247514,301.0152,0.0],[123.756618,10.247378,296.813096,0.0],[123.756502,10.247253,295.719036,0.0],[123.755988,10.247063,298.550127,0.0],[123.755874,10.247018,297.0571,0.0],[123.75583,10.246951,295.961101,0.0],[123.75596,10.246758,293.218131,0.0],[123.756177,10.246486,285.2303,0.0],[123.75661,10.246237,274.104717,0.0],[123.756626,10.246088,275.346117,0.0],[123.756757,10.246055,272.129033,0.0],[123.756926,10.24584,271.023955,0.0],[123.756927,10.245764,269.549626,0.0],[123.75699,10.245727,266.783875,0.0],[123.757014,10.245663,264.736472,0.0],[123.756943,10.245508,263.098529,0.0],[123.756878,10.245474,260.842113,0.0],[123.756877,10.245419,258.505919,0.0],[123.756939,10.245362,257.235428,0.0],[123.757027,10.245297,253.213501,0.0],[123.756954,10.245197,250.097618,0.0],[123.756975,10.244921,237.681052,0.0],[123.757105,10.244821,234.38459,0.0],[123.757109,10.244772,232.609126,0.0],[123.757202,10.244837,235.590643,0.0],[123.757465,10.244829,234.519875,0.0],[123.757625,10.244879,231.35644,0.0],[123.757625,10.244879,231.35644,0.0],[123.75784,10.244945,224.73176,0.0],[123.758218,10.24532,212.588269,0.0],[123.758304,10.245486,211.856127,0.0],[123.758454,10.245483,211.631339,0.0],[123.758524,10.245459,211.375629,0.0],[123.75861,10.245486,212.243206,0.0],[123.758827,10.245425,211.121916,0.0],[123.758999,10.245454,212.326676,0.0],[123.75909,10.245583,216.228275,0.0],[123.759104,10.245588,216.347,0.0],[123.759104,10.245588,216.347,0.0],[123.75911,10.245572,216.081107,0.0],[123.759381,10.245614,216.679255,0.0],[123.759652,10.245656,218.038825,0.0],[123.759759,10.245673,218.346379,0.0],[123.759759,10.245673,218.346379,0.0],[123.759761,10.245699,218.448889,0.0],[123.759982,10.246166,215.312813,0.0],[123.759988,10.246265,213.898998,0.0],[123.759948,10.246349,213.242554,0.0],[123.759807,10.246482,215.142691,0.0],[123.759734,10.246606,217.29418,0.0],[123.759715,10.246831,218.191526,0.0],[123.759695,10.247035,218.293896,0.0],[123.75965,10.247401,217.070792,0.0],[123.759526,10.24762,216.01687,0.0],[123.759316,10.247834,214.908041,0.0],[123.759107,10.24795,216.276448,0.0],[123.758965,10.248012,218.486474,0.0],[123.758891,10.248061,218.8728,0.0],[123.758891,10.248061,218.8728,0.0],[123.758891,10.248061,218.8728,0.0],[123.758822,10.248165,220.269826,0.0],[123.758763,10.248441,222.2136,0.0],[123.758677,10.248632,227.092387,0.0],[123.758383,10.249011,231.806802,0.0],[123.758237,10.249192,232.930259,0.0],[123.758212,10.249237,234.011411,0.0],[123.758226,10.249274,233.663075,0.0],[123.758273,10.249303,232.328591,0.0],[123.758363,10.24932,230.523568,0.0],[123.758598,10.249321,229.502478,0.0],[123.758924,10.249271,231.1468,0.0],[123.759247,10.249172,237.579858,0.0],[123.75962,10.249012,240.4864,0.0],[123.760018,10.248826,241.266671,0.0],[123.760194,10.248733,242.957942,0.0],[123.760663,10.248507,247.323381,0.0],[123.760829,10.248377,247.105619,0.0],[123.760947,10.24831,245.596637,0.0],[123.761071,10.248249,244.108561,0.0]]]}}]}