{"type":"FeatureCollection","features":[{"type":"Feature","properties":{"id":1889,"title":"House/s","category":"house","lucide":"<path d=\"M15 21v-8a1 1 0 0 0-1-1h-4a1 1 0 0 0-1 1v8\"/>\r\n<path d=\"M3 10a2 2 0 0 1 .709-1.528l7-6a2 2 0 0 1 2.582 0l7 6A2 2 0 0 1 21 10v9a2 2 0 0 1-2 2H5a2 2 0 0 1-2-2z\"/>","note":"A house/s located along the hiking route."},"geometry":{"type":"Point","coordinates":[123.798486,10.348125]}},{"type":"Feature","properties":{"id":1888,"title":"House/s","category":"house","lucide":"<path d=\"M15 21v-8a1 1 0 0 0-1-1h-4a1 1 0 0 0-1 1v8\"/>\r\n<path d=\"M3 10a2 2 0 0 1 .709-1.528l7-6a2 2 0 0 1 2.582 0l7 6A2 2 0 0 1 21 10v9a2 2 0 0 1-2 2H5a2 2 0 0 1-2-2z\"/>","note":"A house/s located along the hiking route."},"geometry":{"type":"Point","coordinates":[123.798919,10.348217]}},{"type":"Feature","properties":{"id":1887,"title":"House/s","category":"house","lucide":"<path d=\"M15 21v-8a1 1 0 0 0-1-1h-4a1 1 0 0 0-1 1v8\"/>\r\n<path d=\"M3 10a2 2 0 0 1 .709-1.528l7-6a2 2 0 0 1 2.582 0l7 6A2 2 0 0 1 21 10v9a2 2 0 0 1-2 2H5a2 2 0 0 1-2-2z\"/>","note":"A house/s located along the hiking route."},"geometry":{"type":"Point","coordinates":[123.800894,10.349228]}},{"type":"Feature","properties":{"id":1643,"title":"Sari-Sari Store","category":"sari-sari-store","lucide":"<circle cx=\"8\" cy=\"21\" r=\"1\"/>\r\n<circle cx=\"19\" cy=\"21\" r=\"1\"/>\r\n<path d=\"M2.05 2.05h2l2.66 12.42a2 2 0 0 0 2 1.58h9.78a2 2 0 0 0 1.95-1.57l1.65-7.43H5.12\"/>","note":"A small sari-sari store along the route."},"geometry":{"type":"Point","coordinates":[123.807022,10.345031000000001]}},{"type":"Feature","properties":{"id":1597,"title":"House/s","category":"house","lucide":"<path d=\"M15 21v-8a1 1 0 0 0-1-1h-4a1 1 0 0 0-1 1v8\"/>\r\n<path d=\"M3 10a2 2 0 0 1 .709-1.528l7-6a2 2 0 0 1 2.582 0l7 6A2 2 0 0 1 21 10v9a2 2 0 0 1-2 2H5a2 2 0 0 1-2-2z\"/>","note":"A house/s located along the hiking route."},"geometry":{"type":"Point","coordinates":[123.810508,10.342381]}},{"type":"Feature","properties":{"id":1596,"title":"Canopy","category":"canopy","lucide":"<path d=\"M8 19h8a4 4 0 0 0 3.8-2.8 4 4 0 0 0-1.6-4.5c1-1.1 1-2.7.4-4-.7-1.2-2.2-2-3.6-1.7a3 3 0 0 0-3-3 3 3 0 0 0-3 3c-1.4-.2-2.9.5-3.6 1.7-.7 1.3-.5 2.9.4 4a4 4 0 0 0-1.6 4.5A4 4 0 0 0 8 19Z\"/>\r\n<path d=\"M12 19v3\"/>","note":"Tree cover and shade along the route."},"geometry":{"type":"Point","coordinates":[123.81594200000001,10.343999999999999]}},{"type":"Feature","properties":{"id":1595,"title":"Spring","category":"spring","lucide":"<path d=\"M7 16.3c2.2 0 4-1.83 4-4.05 0-1.16-.57-2.26-1.71-3.19S7.29 6.75 7 5.3c-.29 1.45-1.14 2.84-2.29 3.76S3 11.1 3 12.25c0 2.22 1.8 4.05 4 4.05z\"/>\r\n<path d=\"M12.56 6.6A10.97 10.97 0 0 0 14 3.02c.5 2.5 2 4.9 4 6.5s3 3.5 3 5.5a6.98 6.98 0 0 1-11.91 4.97\"/>","note":"Small natural spring with pipes supplying water to communities downhill."},"geometry":{"type":"Point","coordinates":[123.826286,10.356214]}},{"type":"Feature","properties":{"id":1273,"title":"House/s","category":"house","lucide":"<path d=\"M15 21v-8a1 1 0 0 0-1-1h-4a1 1 0 0 0-1 1v8\"/>\r\n<path d=\"M3 10a2 2 0 0 1 .709-1.528l7-6a2 2 0 0 1 2.582 0l7 6A2 2 0 0 1 21 10v9a2 2 0 0 1-2 2H5a2 2 0 0 1-2-2z\"/>","note":"A house/s located along the hiking route."},"geometry":{"type":"Point","coordinates":[123.8258361,10.3559556]}},{"type":"Feature","properties":{"id":1272,"title":"House/s","category":"house","lucide":"<path d=\"M15 21v-8a1 1 0 0 0-1-1h-4a1 1 0 0 0-1 1v8\"/>\r\n<path d=\"M3 10a2 2 0 0 1 .709-1.528l7-6a2 2 0 0 1 2.582 0l7 6A2 2 0 0 1 21 10v9a2 2 0 0 1-2 2H5a2 2 0 0 1-2-2z\"/>","note":"A house/s located along the hiking route."},"geometry":{"type":"Point","coordinates":[123.82638,10.35783]}},{"type":"Feature","properties":{"id":1271,"title":"House/s","category":"house","lucide":"<path d=\"M15 21v-8a1 1 0 0 0-1-1h-4a1 1 0 0 0-1 1v8\"/>\r\n<path d=\"M3 10a2 2 0 0 1 .709-1.528l7-6a2 2 0 0 1 2.582 0l7 6A2 2 0 0 1 21 10v9a2 2 0 0 1-2 2H5a2 2 0 0 1-2-2z\"/>","note":"A house/s located along the hiking route."},"geometry":{"type":"Point","coordinates":[123.8240194,10.349388899999999]}},{"type":"Feature","properties":{"id":1270,"title":"Spring","category":"spring","lucide":"<path d=\"M7 16.3c2.2 0 4-1.83 4-4.05 0-1.16-.57-2.26-1.71-3.19S7.29 6.75 7 5.3c-.29 1.45-1.14 2.84-2.29 3.76S3 11.1 3 12.25c0 2.22 1.8 4.05 4 4.05z\"/>\r\n<path d=\"M12.56 6.6A10.97 10.97 0 0 0 14 3.02c.5 2.5 2 4.9 4 6.5s3 3.5 3 5.5a6.98 6.98 0 0 1-11.91 4.97\"/>","note":"A small \"waterfall\" catchment used by locals for everyday chores."},"geometry":{"type":"Point","coordinates":[123.82919440000001,10.348050000000001]}},{"type":"Feature","properties":{"id":1269,"title":"House/s","category":"house","lucide":"<path d=\"M15 21v-8a1 1 0 0 0-1-1h-4a1 1 0 0 0-1 1v8\"/>\r\n<path d=\"M3 10a2 2 0 0 1 .709-1.528l7-6a2 2 0 0 1 2.582 0l7 6A2 2 0 0 1 21 10v9a2 2 0 0 1-2 2H5a2 2 0 0 1-2-2z\"/>","note":"A house/s located along the hiking route."},"geometry":{"type":"Point","coordinates":[123.8304278,10.347088899999999]}},{"type":"Feature","properties":{"id":1246,"title":"House/s","category":"house","lucide":"<path d=\"M15 21v-8a1 1 0 0 0-1-1h-4a1 1 0 0 0-1 1v8\"/>\r\n<path d=\"M3 10a2 2 0 0 1 .709-1.528l7-6a2 2 0 0 1 2.582 0l7 6A2 2 0 0 1 21 10v9a2 2 0 0 1-2 2H5a2 2 0 0 1-2-2z\"/>","note":"A house/s located along the hiking route."},"geometry":{"type":"Point","coordinates":[123.7667,10.241213999999999]}},{"type":"Feature","properties":{"id":1245,"title":"House/s","category":"house","lucide":"<path d=\"M15 21v-8a1 1 0 0 0-1-1h-4a1 1 0 0 0-1 1v8\"/>\r\n<path d=\"M3 10a2 2 0 0 1 .709-1.528l7-6a2 2 0 0 1 2.582 0l7 6A2 2 0 0 1 21 10v9a2 2 0 0 1-2 2H5a2 2 0 0 1-2-2z\"/>","note":"A house/s located along the hiking route."},"geometry":{"type":"Point","coordinates":[123.765869,10.241811]}},{"type":"Feature","properties":{"id":1244,"title":"House/s","category":"house","lucide":"<path d=\"M15 21v-8a1 1 0 0 0-1-1h-4a1 1 0 0 0-1 1v8\"/>\r\n<path d=\"M3 10a2 2 0 0 1 .709-1.528l7-6a2 2 0 0 1 2.582 0l7 6A2 2 0 0 1 21 10v9a2 2 0 0 1-2 2H5a2 2 0 0 1-2-2z\"/>","note":"A house/s located along the hiking route."},"geometry":{"type":"Point","coordinates":[123.75685799999999,10.245792]}},{"type":"Feature","properties":{"id":1243,"title":"Spring","category":"spring","lucide":"<path d=\"M7 16.3c2.2 0 4-1.83 4-4.05 0-1.16-.57-2.26-1.71-3.19S7.29 6.75 7 5.3c-.29 1.45-1.14 2.84-2.29 3.76S3 11.1 3 12.25c0 2.22 1.8 4.05 4 4.05z\"/>\r\n<path d=\"M12.56 6.6A10.97 10.97 0 0 0 14 3.02c.5 2.5 2 4.9 4 6.5s3 3.5 3 5.5a6.98 6.98 0 0 1-11.91 4.97\"/>","note":"Small natural spring with pipes supplying water to communities downhill."},"geometry":{"type":"Point","coordinates":[123.755622,10.245319]}},{"type":"Feature","properties":{"id":1242,"title":"House/s","category":"house","lucide":"<path d=\"M15 21v-8a1 1 0 0 0-1-1h-4a1 1 0 0 0-1 1v8\"/>\r\n<path d=\"M3 10a2 2 0 0 1 .709-1.528l7-6a2 2 0 0 1 2.582 0l7 6A2 2 0 0 1 21 10v9a2 2 0 0 1-2 2H5a2 2 0 0 1-2-2z\"/>","note":"A house/s located along the hiking route."},"geometry":{"type":"Point","coordinates":[123.760025,10.249706]}},{"type":"Feature","properties":{"id":1219,"title":"Matun-og Falls","category":"swim-spot","lucide":"<path d=\"M2 12q2.5 2 5 0t5 0 5 0 5 0\"/>\r\n<path d=\"M2 19q2.5 2 5 0t5 0 5 0 5 0\"/>\r\n<path d=\"M2 5q2.5 2 5 0t5 0 5 0 5 0\"/>","note":"Matun-og Falls swimming area"},"geometry":{"type":"Point","coordinates":[123.75334554498998,10.286614798848575]}},{"type":"Feature","properties":{"id":865,"title":"Sari-Sari Store","category":"sari-sari-store","lucide":"<circle cx=\"8\" cy=\"21\" r=\"1\"/>\r\n<circle cx=\"19\" cy=\"21\" r=\"1\"/>\r\n<path d=\"M2.05 2.05h2l2.66 12.42a2 2 0 0 0 2 1.58h9.78a2 2 0 0 0 1.95-1.57l1.65-7.43H5.12\"/>","note":"A small sari-sari store along the route."},"geometry":{"type":"Point","coordinates":[123.72418647038918,10.274026915009536]}},{"type":"Feature","properties":{"id":864,"title":"House/s","category":"house","lucide":"<path d=\"M15 21v-8a1 1 0 0 0-1-1h-4a1 1 0 0 0-1 1v8\"/>\r\n<path d=\"M3 10a2 2 0 0 1 .709-1.528l7-6a2 2 0 0 1 2.582 0l7 6A2 2 0 0 1 21 10v9a2 2 0 0 1-2 2H5a2 2 0 0 1-2-2z\"/>","note":"A house/s located along the hiking route."},"geometry":{"type":"Point","coordinates":[123.71739001245386,10.26235030136054]}},{"type":"Feature","properties":{"id":798,"title":"House/s","category":"house","lucide":"<path d=\"M15 21v-8a1 1 0 0 0-1-1h-4a1 1 0 0 0-1 1v8\"/>\r\n<path d=\"M3 10a2 2 0 0 1 .709-1.528l7-6a2 2 0 0 1 2.582 0l7 6A2 2 0 0 1 21 10v9a2 2 0 0 1-2 2H5a2 2 0 0 1-2-2z\"/>","note":"A house/s located along the hiking route."},"geometry":{"type":"Point","coordinates":[123.78975057688803,10.289320280653094]}},{"type":"Feature","properties":{"id":796,"title":"Cutod Falls","category":"swim-spot","lucide":"<path d=\"M2 12q2.5 2 5 0t5 0 5 0 5 0\"/>\r\n<path d=\"M2 19q2.5 2 5 0t5 0 5 0 5 0\"/>\r\n<path d=\"M2 5q2.5 2 5 0t5 0 5 0 5 0\"/>","note":"Cutod Falls swimming area"},"geometry":{"type":"Point","coordinates":[123.7708056,10.25975]}},{"type":"Feature","properties":{"id":774,"title":"House/s","category":"house","lucide":"<path d=\"M15 21v-8a1 1 0 0 0-1-1h-4a1 1 0 0 0-1 1v8\"/>\r\n<path d=\"M3 10a2 2 0 0 1 .709-1.528l7-6a2 2 0 0 1 2.582 0l7 6A2 2 0 0 1 21 10v9a2 2 0 0 1-2 2H5a2 2 0 0 1-2-2z\"/>","note":"A house/s located along the hiking route."},"geometry":{"type":"Point","coordinates":[123.79066408007336,10.287934058090402]}},{"type":"Feature","properties":{"id":772,"title":"Sari-Sari Store","category":"sari-sari-store","lucide":"<circle cx=\"8\" cy=\"21\" r=\"1\"/>\r\n<circle cx=\"19\" cy=\"21\" r=\"1\"/>\r\n<path d=\"M2.05 2.05h2l2.66 12.42a2 2 0 0 0 2 1.58h9.78a2 2 0 0 0 1.95-1.57l1.65-7.43H5.12\"/>","note":"A small sari-sari store along the route."},"geometry":{"type":"Point","coordinates":[123.79095416199605,10.280027545739676]}},{"type":"Feature","properties":{"id":757,"title":"Danasan Falls","category":"swim-spot","lucide":"<path d=\"M2 12q2.5 2 5 0t5 0 5 0 5 0\"/>\r\n<path d=\"M2 19q2.5 2 5 0t5 0 5 0 5 0\"/>\r\n<path d=\"M2 5q2.5 2 5 0t5 0 5 0 5 0\"/>","note":"Danasan Falls swimming area"},"geometry":{"type":"Point","coordinates":[123.844903,10.569127999999999]}},{"type":"Feature","properties":{"id":756,"title":"Veloso Lake Campsite","category":"campsite","lucide":"<path d=\"M3.5 21 14 3\"/>\r\n<path d=\"M20.5 21 10 3\"/>\r\n<path d=\"M15.5 21 12 15l-3.5 6\"/>\r\n<path d=\"M2 21h20\"/>","note":"Tree-shaded campsite by the lake."},"geometry":{"type":"Point","coordinates":[123.66295,10.24123]}},{"type":"Feature","properties":{"id":453,"title":"Toong Lumadnon","category":"campsite","lucide":"<path d=\"M3.5 21 14 3\"/>\r\n<path d=\"M20.5 21 10 3\"/>\r\n<path d=\"M15.5 21 12 15l-3.5 6\"/>\r\n<path d=\"M2 21h20\"/>","note":"A campsite with panoramic city views and swimming pools."},"geometry":{"type":"Point","coordinates":[123.84996078614572,10.300132803013053]}},{"type":"Feature","properties":{"id":418,"title":"Mini Switzerland Campsite","category":"campsite","lucide":"<path d=\"M3.5 21 14 3\"/>\r\n<path d=\"M20.5 21 10 3\"/>\r\n<path d=\"M15.5 21 12 15l-3.5 6\"/>\r\n<path d=\"M2 21h20\"/>","note":"A campsite with 360\u00b0 views and improved road access."},"geometry":{"type":"Point","coordinates":[123.79259,10.31902]}},{"type":"Feature","properties":{"id":383,"title":"Mt. Kalatkat Campsite","category":"campsite","lucide":"<path d=\"M3.5 21 14 3\"/>\r\n<path d=\"M20.5 21 10 3\"/>\r\n<path d=\"M15.5 21 12 15l-3.5 6\"/>\r\n<path d=\"M2 21h20\"/>","note":"A campsite with panoramic views."},"geometry":{"type":"Point","coordinates":[123.58150999999999,10.084569999999999]}},{"type":"Feature","properties":{"id":362,"title":"Spring","category":"spring","lucide":"<path d=\"M7 16.3c2.2 0 4-1.83 4-4.05 0-1.16-.57-2.26-1.71-3.19S7.29 6.75 7 5.3c-.29 1.45-1.14 2.84-2.29 3.76S3 11.1 3 12.25c0 2.22 1.8 4.05 4 4.05z\"/>\r\n<path d=\"M12.56 6.6A10.97 10.97 0 0 0 14 3.02c.5 2.5 2 4.9 4 6.5s3 3.5 3 5.5a6.98 6.98 0 0 1-11.91 4.97\"/>","note":"A concrete spring catchment used by locals for everyday chores."},"geometry":{"type":"Point","coordinates":[123.67661939909829,10.233794700684854]}}]}
