{"type":"FeatureCollection","features":[{"type":"Feature","geometry":{"type":"Point","coordinates":[123.83907670000001,10.249790000000001]},"properties":{"category":"service","signal_dbm":-104,"preserve":true,"sequence":0,"survey_group":"1e40914ebea01d51"}},{"type":"Feature","geometry":{"type":"Point","coordinates":[123.8393117,10.2530383]},"properties":{"category":"service","signal_dbm":-104,"preserve":false,"sequence":1,"survey_group":"1e40914ebea01d51"}},{"type":"Feature","geometry":{"type":"Point","coordinates":[123.84031,10.2590267]},"properties":{"category":"service","signal_dbm":-104,"preserve":false,"sequence":2,"survey_group":"1e40914ebea01d51"}},{"type":"Feature","geometry":{"type":"Point","coordinates":[123.8416017,10.265683299999999]},"properties":{"category":"service","signal_dbm":-97,"preserve":false,"sequence":3,"survey_group":"1e40914ebea01d51"}},{"type":"Feature","geometry":{"type":"Point","coordinates":[123.8487933,10.2729683]},"properties":{"category":"service","signal_dbm":-98,"preserve":false,"sequence":4,"survey_group":"1e40914ebea01d51"}},{"type":"Feature","geometry":{"type":"Point","coordinates":[123.8604383,10.2851417]},"properties":{"category":"service","signal_dbm":-98,"preserve":false,"sequence":5,"survey_group":"1e40914ebea01d51"}},{"type":"Feature","geometry":{"type":"Point","coordinates":[123.86585169999999,10.288578299999999]},"properties":{"category":"service","signal_dbm":-98,"preserve":false,"sequence":6,"survey_group":"1e40914ebea01d51"}},{"type":"Feature","geometry":{"type":"Point","coordinates":[123.872855,10.289858300000001]},"properties":{"category":"service","signal_dbm":-98,"preserve":false,"sequence":7,"survey_group":"1e40914ebea01d51"}},{"type":"Feature","geometry":{"type":"Point","coordinates":[123.87860000000001,10.2920433]},"properties":{"category":"service","signal_dbm":-98,"preserve":false,"sequence":8,"survey_group":"1e40914ebea01d51"}},{"type":"Feature","geometry":{"type":"Point","coordinates":[123.88328,10.295288299999999]},"properties":{"category":"service","signal_dbm":-98,"preserve":true,"sequence":9,"survey_group":"1e40914ebea01d51"}},{"type":"Feature","geometry":{"type":"Point","coordinates":[123.7544125,10.289639599999999]},"properties":{"category":"no_service","signal_dbm":null,"preserve":true,"sequence":24,"survey_group":"11e8f19f50b68a79"}},{"type":"Feature","geometry":{"type":"Point","coordinates":[123.75403350000001,10.290286699999999]},"properties":{"category":"no_service","signal_dbm":null,"preserve":false,"sequence":23,"survey_group":"11e8f19f50b68a79"}},{"type":"Feature","geometry":{"type":"Point","coordinates":[123.7536377,10.291072]},"properties":{"category":"no_service","signal_dbm":null,"preserve":false,"sequence":22,"survey_group":"11e8f19f50b68a79"}},{"type":"Feature","geometry":{"type":"Point","coordinates":[123.75291439999999,10.291391600000001]},"properties":{"category":"no_service","signal_dbm":null,"preserve":false,"sequence":21,"survey_group":"11e8f19f50b68a79"}},{"type":"Feature","geometry":{"type":"Point","coordinates":[123.7526974,10.2920716]},"properties":{"category":"no_service","signal_dbm":null,"preserve":false,"sequence":20,"survey_group":"11e8f19f50b68a79"}},{"type":"Feature","geometry":{"type":"Point","coordinates":[123.7526005,10.2931601]},"properties":{"category":"no_service","signal_dbm":null,"preserve":true,"sequence":19,"survey_group":"11e8f19f50b68a79"}},{"type":"Feature","geometry":{"type":"Point","coordinates":[123.7519142,10.2937198]},"properties":{"category":"service","signal_dbm":-114,"preserve":true,"sequence":18,"survey_group":"11e8f19f50b68a79"}},{"type":"Feature","geometry":{"type":"Point","coordinates":[123.7508708,10.2939434]},"properties":{"category":"no_service","signal_dbm":null,"preserve":true,"sequence":17,"survey_group":"11e8f19f50b68a79"}},{"type":"Feature","geometry":{"type":"Point","coordinates":[123.7511234,10.295159]},"properties":{"category":"service","signal_dbm":-131,"preserve":true,"sequence":16,"survey_group":"11e8f19f50b68a79"}},{"type":"Feature","geometry":{"type":"Point","coordinates":[123.7510017,10.295977600000001]},"properties":{"category":"service","signal_dbm":null,"preserve":false,"sequence":15,"survey_group":"11e8f19f50b68a79"}},{"type":"Feature","geometry":{"type":"Point","coordinates":[123.752168,10.2972226]},"properties":{"category":"service","signal_dbm":-116,"preserve":false,"sequence":14,"survey_group":"11e8f19f50b68a79"}},{"type":"Feature","geometry":{"type":"Point","coordinates":[123.7499361,10.298017700000001]},"properties":{"category":"service","signal_dbm":-101,"preserve":false,"sequence":12,"survey_group":"11e8f19f50b68a79"}},{"type":"Feature","geometry":{"type":"Point","coordinates":[123.7512756,10.2980334]},"properties":{"category":"service","signal_dbm":-114,"preserve":false,"sequence":13,"survey_group":"11e8f19f50b68a79"}},{"type":"Feature","geometry":{"type":"Point","coordinates":[123.7485039,10.298118799999999]},"properties":{"category":"service","signal_dbm":-101,"preserve":false,"sequence":11,"survey_group":"11e8f19f50b68a79"}},{"type":"Feature","geometry":{"type":"Point","coordinates":[123.74666240000001,10.2988097]},"properties":{"category":"service","signal_dbm":-115,"preserve":false,"sequence":10,"survey_group":"11e8f19f50b68a79"}},{"type":"Feature","geometry":{"type":"Point","coordinates":[123.7457263,10.2996689]},"properties":{"category":"service","signal_dbm":-95,"preserve":false,"sequence":9,"survey_group":"11e8f19f50b68a79"}},{"type":"Feature","geometry":{"type":"Point","coordinates":[123.7451871,10.301157999999999]},"properties":{"category":"service","signal_dbm":-115,"preserve":false,"sequence":8,"survey_group":"11e8f19f50b68a79"}},{"type":"Feature","geometry":{"type":"Point","coordinates":[123.7460198,10.3014501]},"properties":{"category":"service","signal_dbm":-93,"preserve":false,"sequence":7,"survey_group":"11e8f19f50b68a79"}},{"type":"Feature","geometry":{"type":"Point","coordinates":[123.7463156,10.3025433]},"properties":{"category":"service","signal_dbm":-93,"preserve":false,"sequence":6,"survey_group":"11e8f19f50b68a79"}},{"type":"Feature","geometry":{"type":"Point","coordinates":[123.7468068,10.3039796]},"properties":{"category":"service","signal_dbm":-98,"preserve":false,"sequence":5,"survey_group":"11e8f19f50b68a79"}},{"type":"Feature","geometry":{"type":"Point","coordinates":[123.74626019999999,10.3043183]},"properties":{"category":"service","signal_dbm":-102,"preserve":false,"sequence":4,"survey_group":"11e8f19f50b68a79"}},{"type":"Feature","geometry":{"type":"Point","coordinates":[123.7460244,10.304845500000001]},"properties":{"category":"service","signal_dbm":-85,"preserve":false,"sequence":3,"survey_group":"11e8f19f50b68a79"}},{"type":"Feature","geometry":{"type":"Point","coordinates":[123.7459611,10.3054396]},"properties":{"category":"service","signal_dbm":-110,"preserve":false,"sequence":2,"survey_group":"11e8f19f50b68a79"}},{"type":"Feature","geometry":{"type":"Point","coordinates":[123.74541809999999,10.3056655]},"properties":{"category":"service","signal_dbm":-94,"preserve":false,"sequence":1,"survey_group":"11e8f19f50b68a79"}},{"type":"Feature","geometry":{"type":"Point","coordinates":[123.7449938,10.305843899999999]},"properties":{"category":"service","signal_dbm":-99,"preserve":true,"sequence":0,"survey_group":"11e8f19f50b68a79"}},{"type":"Feature","geometry":{"type":"Point","coordinates":[123.77984789999999,10.240278500000001]},"properties":{"category":"service","signal_dbm":-85,"preserve":true,"sequence":22,"survey_group":"54f305bb156e3779"}},{"type":"Feature","geometry":{"type":"Point","coordinates":[123.7677735,10.2541925]},"properties":{"category":"service","signal_dbm":-115,"preserve":false,"sequence":21,"survey_group":"54f305bb156e3779"}},{"type":"Feature","geometry":{"type":"Point","coordinates":[123.7580485,10.262430500000001]},"properties":{"category":"service","signal_dbm":-95,"preserve":false,"sequence":20,"survey_group":"54f305bb156e3779"}},{"type":"Feature","geometry":{"type":"Point","coordinates":[123.753798,10.275138]},"properties":{"category":"service","signal_dbm":null,"preserve":false,"sequence":19,"survey_group":"54f305bb156e3779"}},{"type":"Feature","geometry":{"type":"Point","coordinates":[123.7527764,10.2770355]},"properties":{"category":"service","signal_dbm":null,"preserve":false,"sequence":18,"survey_group":"54f305bb156e3779"}},{"type":"Feature","geometry":{"type":"Point","coordinates":[123.7511356,10.278858]},"properties":{"category":"service","signal_dbm":null,"preserve":true,"sequence":17,"survey_group":"54f305bb156e3779"}},{"type":"Feature","geometry":{"type":"Point","coordinates":[123.75098560000001,10.279615]},"properties":{"category":"no_service","signal_dbm":null,"preserve":true,"sequence":16,"survey_group":"54f305bb156e3779"}},{"type":"Feature","geometry":{"type":"Point","coordinates":[123.75067009999999,10.2809384]},"properties":{"category":"no_service","signal_dbm":null,"preserve":false,"sequence":15,"survey_group":"54f305bb156e3779"}},{"type":"Feature","geometry":{"type":"Point","coordinates":[123.75132739999999,10.282120300000001]},"properties":{"category":"no_service","signal_dbm":null,"preserve":false,"sequence":14,"survey_group":"54f305bb156e3779"}},{"type":"Feature","geometry":{"type":"Point","coordinates":[123.7521224,10.283372399999999]},"properties":{"category":"no_service","signal_dbm":null,"preserve":false,"sequence":13,"survey_group":"54f305bb156e3779"}},{"type":"Feature","geometry":{"type":"Point","coordinates":[123.75275739999999,10.284345200000001]},"properties":{"category":"no_service","signal_dbm":null,"preserve":false,"sequence":12,"survey_group":"54f305bb156e3779"}},{"type":"Feature","geometry":{"type":"Point","coordinates":[123.7534702,10.2852879]},"properties":{"category":"no_service","signal_dbm":null,"preserve":false,"sequence":11,"survey_group":"54f305bb156e3779"}},{"type":"Feature","geometry":{"type":"Point","coordinates":[123.75349110000001,10.286484]},"properties":{"category":"no_service","signal_dbm":null,"preserve":false,"sequence":10,"survey_group":"54f305bb156e3779"}},{"type":"Feature","geometry":{"type":"Point","coordinates":[123.7534569,10.286987699999999]},"properties":{"category":"no_service","signal_dbm":null,"preserve":false,"sequence":9,"survey_group":"54f305bb156e3779"}},{"type":"Feature","geometry":{"type":"Point","coordinates":[123.75464239999999,10.288242]},"properties":{"category":"no_service","signal_dbm":null,"preserve":false,"sequence":8,"survey_group":"54f305bb156e3779"}},{"type":"Feature","geometry":{"type":"Point","coordinates":[123.7553434,10.2888766]},"properties":{"category":"no_service","signal_dbm":null,"preserve":true,"sequence":0,"survey_group":"54f305bb156e3779"}},{"type":"Feature","geometry":{"type":"Point","coordinates":[123.7564957,10.289022299999999]},"properties":{"category":"no_service","signal_dbm":null,"preserve":false,"sequence":1,"survey_group":"54f305bb156e3779"}},{"type":"Feature","geometry":{"type":"Point","coordinates":[123.7560771,10.2890479]},"properties":{"category":"no_service","signal_dbm":null,"preserve":false,"sequence":7,"survey_group":"54f305bb156e3779"}},{"type":"Feature","geometry":{"type":"Point","coordinates":[123.7576906,10.2892815]},"properties":{"category":"no_service","signal_dbm":null,"preserve":false,"sequence":3,"survey_group":"54f305bb156e3779"}},{"type":"Feature","geometry":{"type":"Point","coordinates":[123.75652770000001,10.289517099999999]},"properties":{"category":"no_service","signal_dbm":null,"preserve":false,"sequence":6,"survey_group":"54f305bb156e3779"}},{"type":"Feature","geometry":{"type":"Point","coordinates":[123.7568048,10.289830200000001]},"properties":{"category":"no_service","signal_dbm":null,"preserve":false,"sequence":2,"survey_group":"54f305bb156e3779"}},{"type":"Feature","geometry":{"type":"Point","coordinates":[123.75806489999999,10.2898446]},"properties":{"category":"no_service","signal_dbm":null,"preserve":false,"sequence":4,"survey_group":"54f305bb156e3779"}},{"type":"Feature","geometry":{"type":"Point","coordinates":[123.7744532,10.236730100000001]},"properties":{"category":"service","signal_dbm":-84,"preserve":true,"sequence":0,"survey_group":"f1c4e0958e306e55"}},{"type":"Feature","geometry":{"type":"Point","coordinates":[123.7593916,10.238141499999999]},"properties":{"category":"no_service","signal_dbm":null,"preserve":true,"sequence":21,"survey_group":"f1c4e0958e306e55"}},{"type":"Feature","geometry":{"type":"Point","coordinates":[123.76056060000001,10.2386762]},"properties":{"category":"service","signal_dbm":-125,"preserve":true,"sequence":20,"survey_group":"f1c4e0958e306e55"}},{"type":"Feature","geometry":{"type":"Point","coordinates":[123.75782529999999,10.238708900000001]},"properties":{"category":"service","signal_dbm":-83,"preserve":true,"sequence":22,"survey_group":"f1c4e0958e306e55"}},{"type":"Feature","geometry":{"type":"Point","coordinates":[123.7666102,10.239326]},"properties":{"category":"service","signal_dbm":-97,"preserve":false,"sequence":16,"survey_group":"f1c4e0958e306e55"}},{"type":"Feature","geometry":{"type":"Point","coordinates":[123.7630121,10.2396054]},"properties":{"category":"service","signal_dbm":-125,"preserve":false,"sequence":19,"survey_group":"f1c4e0958e306e55"}},{"type":"Feature","geometry":{"type":"Point","coordinates":[123.7656418,10.2396169]},"properties":{"category":"service","signal_dbm":-121,"preserve":false,"sequence":17,"survey_group":"f1c4e0958e306e55"}},{"type":"Feature","geometry":{"type":"Point","coordinates":[123.7637718,10.239708500000001]},"properties":{"category":"service","signal_dbm":-121,"preserve":false,"sequence":18,"survey_group":"f1c4e0958e306e55"}},{"type":"Feature","geometry":{"type":"Point","coordinates":[123.7672457,10.2399173]},"properties":{"category":"service","signal_dbm":-97,"preserve":false,"sequence":15,"survey_group":"f1c4e0958e306e55"}},{"type":"Feature","geometry":{"type":"Point","coordinates":[123.7562799,10.240151300000001]},"properties":{"category":"service","signal_dbm":-83,"preserve":false,"sequence":23,"survey_group":"f1c4e0958e306e55"}},{"type":"Feature","geometry":{"type":"Point","coordinates":[123.7675066,10.240445599999999]},"properties":{"category":"service","signal_dbm":-97,"preserve":false,"sequence":14,"survey_group":"f1c4e0958e306e55"}},{"type":"Feature","geometry":{"type":"Point","coordinates":[123.7561386,10.241085699999999]},"properties":{"category":"service","signal_dbm":-116,"preserve":false,"sequence":24,"survey_group":"f1c4e0958e306e55"}},{"type":"Feature","geometry":{"type":"Point","coordinates":[123.76655529999999,10.2413629]},"properties":{"category":"service","signal_dbm":-97,"preserve":false,"sequence":13,"survey_group":"f1c4e0958e306e55"}},{"type":"Feature","geometry":{"type":"Point","coordinates":[123.7557413,10.2419093]},"properties":{"category":"service","signal_dbm":-113,"preserve":false,"sequence":25,"survey_group":"f1c4e0958e306e55"}},{"type":"Feature","geometry":{"type":"Point","coordinates":[123.7651733,10.242325599999999]},"properties":{"category":"service","signal_dbm":-97,"preserve":false,"sequence":12,"survey_group":"f1c4e0958e306e55"}},{"type":"Feature","geometry":{"type":"Point","coordinates":[123.7649229,10.243180799999999]},"properties":{"category":"service","signal_dbm":-97,"preserve":false,"sequence":11,"survey_group":"f1c4e0958e306e55"}},{"type":"Feature","geometry":{"type":"Point","coordinates":[123.75418070000001,10.243762]},"properties":{"category":"service","signal_dbm":-113,"preserve":false,"sequence":26,"survey_group":"f1c4e0958e306e55"}},{"type":"Feature","geometry":{"type":"Point","coordinates":[123.7646787,10.243917700000001]},"properties":{"category":"service","signal_dbm":-123,"preserve":false,"sequence":10,"survey_group":"f1c4e0958e306e55"}},{"type":"Feature","geometry":{"type":"Point","coordinates":[123.7538708,10.2447614]},"properties":{"category":"service","signal_dbm":-113,"preserve":false,"sequence":27,"survey_group":"f1c4e0958e306e55"}},{"type":"Feature","geometry":{"type":"Point","coordinates":[123.75515350000001,10.244897099999999]},"properties":{"category":"service","signal_dbm":-113,"preserve":false,"sequence":28,"survey_group":"f1c4e0958e306e55"}},{"type":"Feature","geometry":{"type":"Point","coordinates":[123.7646173,10.244909099999999]},"properties":{"category":"service","signal_dbm":-104,"preserve":false,"sequence":9,"survey_group":"f1c4e0958e306e55"}},{"type":"Feature","geometry":{"type":"Point","coordinates":[123.7569917,10.244929900000001]},"properties":{"category":"service","signal_dbm":-102,"preserve":false,"sequence":31,"survey_group":"f1c4e0958e306e55"}},{"type":"Feature","geometry":{"type":"Point","coordinates":[123.7561367,10.245002400000001]},"properties":{"category":"service","signal_dbm":-102,"preserve":false,"sequence":30,"survey_group":"f1c4e0958e306e55"}},{"type":"Feature","geometry":{"type":"Point","coordinates":[123.75577730000001,10.245337900000001]},"properties":{"category":"service","signal_dbm":-113,"preserve":false,"sequence":29,"survey_group":"f1c4e0958e306e55"}},{"type":"Feature","geometry":{"type":"Point","coordinates":[123.7642626,10.245422899999999]},"properties":{"category":"service","signal_dbm":-104,"preserve":false,"sequence":8,"survey_group":"f1c4e0958e306e55"}},{"type":"Feature","geometry":{"type":"Point","coordinates":[123.76392439999999,10.245836000000001]},"properties":{"category":"service","signal_dbm":-104,"preserve":false,"sequence":7,"survey_group":"f1c4e0958e306e55"}},{"type":"Feature","geometry":{"type":"Point","coordinates":[123.763424,10.246425800000001]},"properties":{"category":"service","signal_dbm":-104,"preserve":false,"sequence":6,"survey_group":"f1c4e0958e306e55"}},{"type":"Feature","geometry":{"type":"Point","coordinates":[123.7561106,10.2464809]},"properties":{"category":"service","signal_dbm":-102,"preserve":false,"sequence":32,"survey_group":"f1c4e0958e306e55"}},{"type":"Feature","geometry":{"type":"Point","coordinates":[123.769702,10.2465104]},"properties":{"category":"service","signal_dbm":-84,"preserve":false,"sequence":1,"survey_group":"f1c4e0958e306e55"}},{"type":"Feature","geometry":{"type":"Point","coordinates":[123.76335210000001,10.2473902]},"properties":{"category":"service","signal_dbm":-119,"preserve":false,"sequence":5,"survey_group":"f1c4e0958e306e55"}},{"type":"Feature","geometry":{"type":"Point","coordinates":[123.76229619999999,10.2476284]},"properties":{"category":"service","signal_dbm":-110,"preserve":false,"sequence":4,"survey_group":"f1c4e0958e306e55"}},{"type":"Feature","geometry":{"type":"Point","coordinates":[123.7564698,10.247779]},"properties":{"category":"service","signal_dbm":-125,"preserve":false,"sequence":33,"survey_group":"f1c4e0958e306e55"}},{"type":"Feature","geometry":{"type":"Point","coordinates":[123.7610883,10.248371499999999]},"properties":{"category":"service","signal_dbm":-110,"preserve":false,"sequence":3,"survey_group":"f1c4e0958e306e55"}},{"type":"Feature","geometry":{"type":"Point","coordinates":[123.76455900000001,10.2488514]},"properties":{"category":"service","signal_dbm":-109,"preserve":false,"sequence":2,"survey_group":"f1c4e0958e306e55"}},{"type":"Feature","geometry":{"type":"Point","coordinates":[123.7607675,10.2488736]},"properties":{"category":"service","signal_dbm":-123,"preserve":true,"sequence":39,"survey_group":"f1c4e0958e306e55"}},{"type":"Feature","geometry":{"type":"Point","coordinates":[123.7570382,10.249176800000001]},"properties":{"category":"service","signal_dbm":-118,"preserve":false,"sequence":34,"survey_group":"f1c4e0958e306e55"}},{"type":"Feature","geometry":{"type":"Point","coordinates":[123.76023530000001,10.249690599999999]},"properties":{"category":"service","signal_dbm":-123,"preserve":false,"sequence":38,"survey_group":"f1c4e0958e306e55"}},{"type":"Feature","geometry":{"type":"Point","coordinates":[123.7570991,10.249776199999999]},"properties":{"category":"service","signal_dbm":-118,"preserve":false,"sequence":35,"survey_group":"f1c4e0958e306e55"}},{"type":"Feature","geometry":{"type":"Point","coordinates":[123.7573019,10.2502412]},"properties":{"category":"service","signal_dbm":-118,"preserve":false,"sequence":36,"survey_group":"f1c4e0958e306e55"}},{"type":"Feature","geometry":{"type":"Point","coordinates":[123.7587429,10.2504629]},"properties":{"category":"service","signal_dbm":-118,"preserve":false,"sequence":37,"survey_group":"f1c4e0958e306e55"}},{"type":"Feature","geometry":{"type":"Point","coordinates":[123.8144848,10.3377839]},"properties":{"category":"service","signal_dbm":-126,"preserve":false,"sequence":46,"survey_group":"770e7e3c63867daf"}},{"type":"Feature","geometry":{"type":"Point","coordinates":[123.8153938,10.3380896]},"properties":{"category":"service","signal_dbm":-126,"preserve":false,"sequence":45,"survey_group":"770e7e3c63867daf"}},{"type":"Feature","geometry":{"type":"Point","coordinates":[123.8161425,10.3381127]},"properties":{"category":"service","signal_dbm":-127,"preserve":false,"sequence":44,"survey_group":"770e7e3c63867daf"}},{"type":"Feature","geometry":{"type":"Point","coordinates":[123.8175205,10.3389376]},"properties":{"category":"service","signal_dbm":null,"preserve":true,"sequence":43,"survey_group":"770e7e3c63867daf"}},{"type":"Feature","geometry":{"type":"Point","coordinates":[123.81652800000001,10.3391786]},"properties":{"category":"no_service","signal_dbm":null,"preserve":true,"sequence":42,"survey_group":"770e7e3c63867daf"}},{"type":"Feature","geometry":{"type":"Point","coordinates":[123.8141322,10.3395888]},"properties":{"category":"service","signal_dbm":-126,"preserve":false,"sequence":47,"survey_group":"770e7e3c63867daf"}},{"type":"Feature","geometry":{"type":"Point","coordinates":[123.8168436,10.340051000000001]},"properties":{"category":"no_service","signal_dbm":null,"preserve":true,"sequence":41,"survey_group":"770e7e3c63867daf"}},{"type":"Feature","geometry":{"type":"Point","coordinates":[123.81925219999999,10.340064999999999]},"properties":{"category":"service","signal_dbm":null,"preserve":true,"sequence":40,"survey_group":"770e7e3c63867daf"}},{"type":"Feature","geometry":{"type":"Point","coordinates":[123.81324239999999,10.340388900000001]},"properties":{"category":"service","signal_dbm":-126,"preserve":false,"sequence":48,"survey_group":"770e7e3c63867daf"}},{"type":"Feature","geometry":{"type":"Point","coordinates":[123.82068049999999,10.340809699999999]},"properties":{"category":"no_service","signal_dbm":null,"preserve":true,"sequence":39,"survey_group":"770e7e3c63867daf"}},{"type":"Feature","geometry":{"type":"Point","coordinates":[123.81136600000001,10.341271300000001]},"properties":{"category":"service","signal_dbm":-126,"preserve":false,"sequence":49,"survey_group":"770e7e3c63867daf"}},{"type":"Feature","geometry":{"type":"Point","coordinates":[123.8262395,10.3413925]},"properties":{"category":"no_service","signal_dbm":null,"preserve":false,"sequence":36,"survey_group":"770e7e3c63867daf"}},{"type":"Feature","geometry":{"type":"Point","coordinates":[123.8103954,10.3414743]},"properties":{"category":"service","signal_dbm":-126,"preserve":false,"sequence":50,"survey_group":"770e7e3c63867daf"}},{"type":"Feature","geometry":{"type":"Point","coordinates":[123.8281808,10.341507699999999]},"properties":{"category":"no_service","signal_dbm":null,"preserve":false,"sequence":35,"survey_group":"770e7e3c63867daf"}},{"type":"Feature","geometry":{"type":"Point","coordinates":[123.8244941,10.341562400000001]},"properties":{"category":"no_service","signal_dbm":null,"preserve":false,"sequence":37,"survey_group":"770e7e3c63867daf"}},{"type":"Feature","geometry":{"type":"Point","coordinates":[123.8230756,10.342550599999999]},"properties":{"category":"no_service","signal_dbm":null,"preserve":false,"sequence":38,"survey_group":"770e7e3c63867daf"}},{"type":"Feature","geometry":{"type":"Point","coordinates":[123.8101781,10.342882700000001]},"properties":{"category":"service","signal_dbm":-126,"preserve":true,"sequence":51,"survey_group":"770e7e3c63867daf"}},{"type":"Feature","geometry":{"type":"Point","coordinates":[123.83043979999999,10.343207100000001]},"properties":{"category":"no_service","signal_dbm":null,"preserve":false,"sequence":34,"survey_group":"770e7e3c63867daf"}},{"type":"Feature","geometry":{"type":"Point","coordinates":[123.8103146,10.3434697]},"properties":{"category":"no_service","signal_dbm":null,"preserve":true,"sequence":52,"survey_group":"770e7e3c63867daf"}},{"type":"Feature","geometry":{"type":"Point","coordinates":[123.8080416,10.3439286]},"properties":{"category":"service","signal_dbm":null,"preserve":false,"sequence":55,"survey_group":"770e7e3c63867daf"}},{"type":"Feature","geometry":{"type":"Point","coordinates":[123.8091204,10.343936100000001]},"properties":{"category":"service","signal_dbm":null,"preserve":true,"sequence":53,"survey_group":"770e7e3c63867daf"}},{"type":"Feature","geometry":{"type":"Point","coordinates":[123.8087805,10.3444805]},"properties":{"category":"service","signal_dbm":null,"preserve":false,"sequence":54,"survey_group":"770e7e3c63867daf"}},{"type":"Feature","geometry":{"type":"Point","coordinates":[123.83262209999999,10.34503]},"properties":{"category":"no_service","signal_dbm":null,"preserve":true,"sequence":33,"survey_group":"770e7e3c63867daf"}},{"type":"Feature","geometry":{"type":"Point","coordinates":[123.80708749999999,10.345059900000001]},"properties":{"category":"service","signal_dbm":null,"preserve":false,"sequence":56,"survey_group":"770e7e3c63867daf"}},{"type":"Feature","geometry":{"type":"Point","coordinates":[123.8308684,10.3461161]},"properties":{"category":"service","signal_dbm":null,"preserve":false,"sequence":30,"survey_group":"770e7e3c63867daf"}},{"type":"Feature","geometry":{"type":"Point","coordinates":[123.8074129,10.346126099999999]},"properties":{"category":"service","signal_dbm":null,"preserve":false,"sequence":57,"survey_group":"770e7e3c63867daf"}},{"type":"Feature","geometry":{"type":"Point","coordinates":[123.83495069999999,10.3462011]},"properties":{"category":"service","signal_dbm":-121,"preserve":true,"sequence":32,"survey_group":"770e7e3c63867daf"}},{"type":"Feature","geometry":{"type":"Point","coordinates":[123.8326318,10.3463888]},"properties":{"category":"service","signal_dbm":-121,"preserve":false,"sequence":31,"survey_group":"770e7e3c63867daf"}},{"type":"Feature","geometry":{"type":"Point","coordinates":[123.8077684,10.3468316]},"properties":{"category":"service","signal_dbm":-117,"preserve":false,"sequence":58,"survey_group":"770e7e3c63867daf"}},{"type":"Feature","geometry":{"type":"Point","coordinates":[123.8298987,10.3476531]},"properties":{"category":"service","signal_dbm":null,"preserve":true,"sequence":29,"survey_group":"770e7e3c63867daf"}},{"type":"Feature","geometry":{"type":"Point","coordinates":[123.8270929,10.347720900000001]},"properties":{"category":"service","signal_dbm":null,"preserve":true,"sequence":27,"survey_group":"770e7e3c63867daf"}},{"type":"Feature","geometry":{"type":"Point","coordinates":[123.8257395,10.347833899999999]},"properties":{"category":"service","signal_dbm":-113,"preserve":false,"sequence":26,"survey_group":"770e7e3c63867daf"}},{"type":"Feature","geometry":{"type":"Point","coordinates":[123.80791240000001,10.347932500000001]},"properties":{"category":"service","signal_dbm":-117,"preserve":true,"sequence":59,"survey_group":"770e7e3c63867daf"}},{"type":"Feature","geometry":{"type":"Point","coordinates":[123.8285522,10.3479952]},"properties":{"category":"no_service","signal_dbm":null,"preserve":true,"sequence":28,"survey_group":"770e7e3c63867daf"}},{"type":"Feature","geometry":{"type":"Point","coordinates":[123.80782189999999,10.347996999999999]},"properties":{"category":"no_service","signal_dbm":null,"preserve":true,"sequence":0,"survey_group":"770e7e3c63867daf"}},{"type":"Feature","geometry":{"type":"Point","coordinates":[123.8251613,10.3482088]},"properties":{"category":"service","signal_dbm":-114,"preserve":false,"sequence":25,"survey_group":"770e7e3c63867daf"}},{"type":"Feature","geometry":{"type":"Point","coordinates":[123.8091498,10.3486142]},"properties":{"category":"service","signal_dbm":-127,"preserve":true,"sequence":1,"survey_group":"770e7e3c63867daf"}},{"type":"Feature","geometry":{"type":"Point","coordinates":[123.82452960000001,10.3489247]},"properties":{"category":"service","signal_dbm":-114,"preserve":false,"sequence":24,"survey_group":"770e7e3c63867daf"}},{"type":"Feature","geometry":{"type":"Point","coordinates":[123.824018,10.349255299999999]},"properties":{"category":"service","signal_dbm":-114,"preserve":false,"sequence":23,"survey_group":"770e7e3c63867daf"}},{"type":"Feature","geometry":{"type":"Point","coordinates":[123.8103213,10.349345700000001]},"properties":{"category":"no_service","signal_dbm":null,"preserve":true,"sequence":2,"survey_group":"770e7e3c63867daf"}},{"type":"Feature","geometry":{"type":"Point","coordinates":[123.8240392,10.349993]},"properties":{"category":"service","signal_dbm":-114,"preserve":false,"sequence":22,"survey_group":"770e7e3c63867daf"}},{"type":"Feature","geometry":{"type":"Point","coordinates":[123.8128636,10.3502326]},"properties":{"category":"service","signal_dbm":null,"preserve":true,"sequence":3,"survey_group":"770e7e3c63867daf"}},{"type":"Feature","geometry":{"type":"Point","coordinates":[123.82374280000001,10.351191500000001]},"properties":{"category":"service","signal_dbm":-114,"preserve":false,"sequence":21,"survey_group":"770e7e3c63867daf"}},{"type":"Feature","geometry":{"type":"Point","coordinates":[123.8245168,10.3513947]},"properties":{"category":"service","signal_dbm":-114,"preserve":false,"sequence":20,"survey_group":"770e7e3c63867daf"}},{"type":"Feature","geometry":{"type":"Point","coordinates":[123.8133401,10.3515842]},"properties":{"category":"no_service","signal_dbm":null,"preserve":true,"sequence":4,"survey_group":"770e7e3c63867daf"}},{"type":"Feature","geometry":{"type":"Point","coordinates":[123.8248756,10.352460799999999]},"properties":{"category":"service","signal_dbm":-119,"preserve":false,"sequence":19,"survey_group":"770e7e3c63867daf"}},{"type":"Feature","geometry":{"type":"Point","coordinates":[123.8248365,10.353359899999999]},"properties":{"category":"service","signal_dbm":-120,"preserve":false,"sequence":18,"survey_group":"770e7e3c63867daf"}},{"type":"Feature","geometry":{"type":"Point","coordinates":[123.81487509999999,10.3533828]},"properties":{"category":"service","signal_dbm":null,"preserve":true,"sequence":5,"survey_group":"770e7e3c63867daf"}},{"type":"Feature","geometry":{"type":"Point","coordinates":[123.8250177,10.353839300000001]},"properties":{"category":"service","signal_dbm":-120,"preserve":false,"sequence":17,"survey_group":"770e7e3c63867daf"}},{"type":"Feature","geometry":{"type":"Point","coordinates":[123.8250695,10.3547052]},"properties":{"category":"service","signal_dbm":-120,"preserve":false,"sequence":16,"survey_group":"770e7e3c63867daf"}},{"type":"Feature","geometry":{"type":"Point","coordinates":[123.8172948,10.3549785]},"properties":{"category":"service","signal_dbm":null,"preserve":false,"sequence":6,"survey_group":"770e7e3c63867daf"}},{"type":"Feature","geometry":{"type":"Point","coordinates":[123.8252569,10.355662000000001]},"properties":{"category":"service","signal_dbm":-121,"preserve":false,"sequence":15,"survey_group":"770e7e3c63867daf"}},{"type":"Feature","geometry":{"type":"Point","coordinates":[123.825987,10.356170499999999]},"properties":{"category":"service","signal_dbm":-120,"preserve":false,"sequence":14,"survey_group":"770e7e3c63867daf"}},{"type":"Feature","geometry":{"type":"Point","coordinates":[123.82067360000001,10.356313]},"properties":{"category":"service","signal_dbm":null,"preserve":true,"sequence":7,"survey_group":"770e7e3c63867daf"}},{"type":"Feature","geometry":{"type":"Point","coordinates":[123.8263929,10.356619999999999]},"properties":{"category":"service","signal_dbm":-120,"preserve":false,"sequence":13,"survey_group":"770e7e3c63867daf"}},{"type":"Feature","geometry":{"type":"Point","coordinates":[123.826528,10.357382299999999]},"properties":{"category":"service","signal_dbm":-120,"preserve":false,"sequence":12,"survey_group":"770e7e3c63867daf"}},{"type":"Feature","geometry":{"type":"Point","coordinates":[123.82052899999999,10.358503300000001]},"properties":{"category":"no_service","signal_dbm":null,"preserve":true,"sequence":8,"survey_group":"770e7e3c63867daf"}},{"type":"Feature","geometry":{"type":"Point","coordinates":[123.8235651,10.3592341]},"properties":{"category":"service","signal_dbm":null,"preserve":true,"sequence":9,"survey_group":"770e7e3c63867daf"}},{"type":"Feature","geometry":{"type":"Point","coordinates":[123.8260466,10.3593794]},"properties":{"category":"service","signal_dbm":-120,"preserve":false,"sequence":11,"survey_group":"770e7e3c63867daf"}},{"type":"Feature","geometry":{"type":"Point","coordinates":[123.82521819999999,10.3613131]},"properties":{"category":"service","signal_dbm":-120,"preserve":false,"sequence":10,"survey_group":"770e7e3c63867daf"}}]}
