{"type":"FeatureCollection","features":[{"type":"Feature","geometry":{"type":"Point","coordinates":[123.83868,10.249135000000001]},"properties":{"category":"service","signal_dbm":-97,"preserve":false,"sequence":2,"survey_group":"1e40914ebea01d51"}},{"type":"Feature","geometry":{"type":"Point","coordinates":[123.83907670000001,10.249790000000001]},"properties":{"category":"service","signal_dbm":-104,"preserve":false,"sequence":3,"survey_group":"1e40914ebea01d51"}},{"type":"Feature","geometry":{"type":"Point","coordinates":[123.834895,10.2502833]},"properties":{"category":"service","signal_dbm":-96,"preserve":false,"sequence":1,"survey_group":"1e40914ebea01d51"}},{"type":"Feature","geometry":{"type":"Point","coordinates":[123.83400829999999,10.250763299999999]},"properties":{"category":"service","signal_dbm":-91,"preserve":true,"sequence":0,"survey_group":"1e40914ebea01d51"}},{"type":"Feature","geometry":{"type":"Point","coordinates":[123.8393117,10.2530383]},"properties":{"category":"service","signal_dbm":-104,"preserve":false,"sequence":4,"survey_group":"1e40914ebea01d51"}},{"type":"Feature","geometry":{"type":"Point","coordinates":[123.8442867,10.2688133]},"properties":{"category":"service","signal_dbm":-98,"preserve":false,"sequence":5,"survey_group":"1e40914ebea01d51"}},{"type":"Feature","geometry":{"type":"Point","coordinates":[123.8487933,10.2729683]},"properties":{"category":"service","signal_dbm":-98,"preserve":false,"sequence":6,"survey_group":"1e40914ebea01d51"}},{"type":"Feature","geometry":{"type":"Point","coordinates":[123.8526617,10.2767783]},"properties":{"category":"service","signal_dbm":-98,"preserve":false,"sequence":7,"survey_group":"1e40914ebea01d51"}},{"type":"Feature","geometry":{"type":"Point","coordinates":[123.8561983,10.28035]},"properties":{"category":"service","signal_dbm":-98,"preserve":false,"sequence":8,"survey_group":"1e40914ebea01d51"}},{"type":"Feature","geometry":{"type":"Point","coordinates":[123.8604383,10.2851417]},"properties":{"category":"service","signal_dbm":-98,"preserve":false,"sequence":9,"survey_group":"1e40914ebea01d51"}},{"type":"Feature","geometry":{"type":"Point","coordinates":[123.86585169999999,10.288578299999999]},"properties":{"category":"service","signal_dbm":-98,"preserve":false,"sequence":10,"survey_group":"1e40914ebea01d51"}},{"type":"Feature","geometry":{"type":"Point","coordinates":[123.872855,10.289858300000001]},"properties":{"category":"service","signal_dbm":-98,"preserve":false,"sequence":11,"survey_group":"1e40914ebea01d51"}},{"type":"Feature","geometry":{"type":"Point","coordinates":[123.87860000000001,10.2920433]},"properties":{"category":"service","signal_dbm":-98,"preserve":false,"sequence":12,"survey_group":"1e40914ebea01d51"}},{"type":"Feature","geometry":{"type":"Point","coordinates":[123.88423,10.2942167]},"properties":{"category":"service","signal_dbm":-105,"preserve":true,"sequence":14,"survey_group":"1e40914ebea01d51"}},{"type":"Feature","geometry":{"type":"Point","coordinates":[123.88328,10.295288299999999]},"properties":{"category":"service","signal_dbm":-98,"preserve":false,"sequence":13,"survey_group":"1e40914ebea01d51"}}]}
