{"type":"FeatureCollection","features":[{"type":"Feature","properties":[],"geometry":{"type":"MultiLineString","coordinates":[[[123.80791000000001,10.347863,160,1791068240],[123.80781,10.347856999999999,157,1791068296],[123.80771,10.347834000000001,156,1791068304],[123.80761,10.347789000000001,154,1791068316],[123.80752,10.347744,154,1791068327],[123.80739,10.347702,155,1791068459],[123.80728999999999,10.347678,155,1791068471],[123.80719999999999,10.347656000000001,155,1791068486],[123.80710999999999,10.347638999999999,157,1791068536],[123.80701999999999,10.347614,156,1791068545],[123.80691,10.347614,157,1791068554],[123.8068,10.347623,157,1791068563],[123.80670000000001,10.347605,157,1791068572],[123.8066,10.347585,158,1791068581],[123.80651,10.347587000000001,159,1791068589],[123.8064,10.347600999999999,159,1791068610],[123.80629999999999,10.347588,160,1791068625],[123.80620999999999,10.347572,159,1791068635],[123.80611,10.347557,159,1791068644],[123.806,10.347543999999999,160,1791068653],[123.80589999999999,10.347516000000001,161,1791068664],[123.80580999999999,10.347492000000001,161,1791068672],[123.80571,10.347474,163,1791068681],[123.8056,10.347469,163,1791068691],[123.80549999999999,10.347481,164,1791068700],[123.80540000000001,10.347486999999999,166,1791068711],[123.8053,10.347490000000001,168,1791068772],[123.80521,10.347543,168,1791068782],[123.80511,10.347524999999999,169,1791068792],[123.80502,10.347537000000001,171,1791068803],[123.80492,10.347552,172,1791068816],[123.80484,10.347607,174,1791068827],[123.80477,10.347689000000001,175,1791068838],[123.8047,10.347775,177,1791068849],[123.80464000000001,10.347848000000001,179,1791068861],[123.80457,10.34792,181,1791068888],[123.80459,10.348053999999999,185,1791068961],[123.80459999999999,10.348146,187,1791068973],[123.80450999999999,10.348193999999999,191,1791068987],[123.80444,10.348264,192,1791068999],[123.80437000000001,10.348331999999999,195,1791069058],[123.80425,10.348364999999999,198,1791069167],[123.80415000000001,10.348361000000001,198,1791069178],[123.80406000000001,10.348378,200,1791069188],[123.80397000000001,10.348425000000001,200,1791069197],[123.80394,10.348518,200,1791069206],[123.8039,10.348602,201,1791069217],[123.80374,10.348725999999999,202,1791069236],[123.80362,10.348734,205,1791069254],[123.80356,10.348805,204,1791069263],[123.8035,10.348889,204,1791069273],[123.80347,10.348990000000001,206,1791069284],[123.80342,10.349067,207,1791069295],[123.80333,10.3491,206,1791069305],[123.8032,10.349118000000001,206,1791069339],[123.80309,10.34911,206,1791069349],[123.80298999999999,10.349107999999999,205,1791069359],[123.80289,10.349092000000001,205,1791069369],[123.8028,10.349138999999999,206,1791069379],[123.80273,10.349212,208,1791069390],[123.80269,10.349297999999999,215,1791069408],[123.80271999999999,10.349394,213,1791069422],[123.80262999999999,10.349517000000001,218,1791069606],[123.80255,10.349576000000001,218,1791069629],[123.80244999999999,10.349589,219,1791069699],[123.80235,10.349584,222,1791069905],[123.80229,10.349489999999999,226,1791069921],[123.80225,10.349389,226,1791069932],[123.80222000000001,10.349285999999999,226,1791069967],[123.80213999999999,10.349202999999999,226,1791069978],[123.80204999999999,10.349129,225,1791070025],[123.80195000000001,10.349078,225,1791070036],[123.80186,10.349067,224,1791070048],[123.80175,10.349055999999999,222,1791070063],[123.80167,10.349085000000001,220,1791070075],[123.80155999999999,10.349131,217,1791070101],[123.80145,10.349130000000001,220,1791070182],[123.80137000000001,10.349214999999999,225,1791070212],[123.80127,10.349257,228,1791070299],[123.80116,10.349282000000001,228,1791070311],[123.80107,10.349285999999999,227,1791070674],[123.80096,10.349265000000001,229,1791070700],[123.80088000000001,10.349223,231,1791070712],[123.80077,10.349183,232,1791070724],[123.80067,10.349193,233,1791070736],[123.80056,10.349224,236,1791070750],[123.80045,10.349237,239,1791070764],[123.80038999999999,10.349173,241,1791070797],[123.80043000000001,10.349085000000001,239,1791070820],[123.80038999999999,10.348983,235,1791070854],[123.80031,10.348914000000001,237,1791070864],[123.80022,10.348871000000001,234,1791070876],[123.80011,10.348851,232,1791070889],[123.80001,10.348850000000001,231,1791070899],[123.79991,10.348829,230,1791070914],[123.7998,10.348838000000001,228,1791070948],[123.79973,10.348777,229,1791070980],[123.79977,10.348675999999999,231,1791070994],[123.79978,10.348572000000001,233,1791071011],[123.79977,10.348471999999999,235,1791071026],[123.79974,10.348371,237,1791071052],[123.79969,10.348215,245,1791071099],[123.79976000000001,10.348147000000001,246,1791071126],[123.79982,10.348074,249,1791071140],[123.79978,10.347975999999999,249,1791071152],[123.79974,10.347894999999999,250,1791071165],[123.79967000000001,10.347827000000001,250,1791071202],[123.79961,10.347746000000001,252,1791071215],[123.79951,10.347813,253,1791071241],[123.79949999999999,10.347922000000001,255,1791071255],[123.79949999999999,10.348029,256,1791071269],[123.79942,10.348076000000001,259,1791071290],[123.79931000000001,10.348098,261,1791071308],[123.79922000000001,10.348094,265,1791071324],[123.79912,10.34811,267,1791071343],[123.79903,10.348155999999999,271,1791071362],[123.79893,10.348207,274,1791071384],[123.79883,10.348252,278,1791071408],[123.79873000000001,10.348253,278,1791071432],[123.79863,10.348207,283,1791071464],[123.79855000000001,10.34816,287,1791071481],[123.79845,10.34811,291,1791071502],[123.79834,10.348128000000001,291,1791071516],[123.79825,10.348105,298,1791071551],[123.79815000000001,10.348091999999999,301,1791071570],[123.79804,10.348084999999999,303,1791071586],[123.79796,10.348122,305,1791071603],[123.79785,10.348110999999999,308,1791071848],[123.79776,10.348153,312,1791071866],[123.79768,10.348202000000001,315,1791071882],[123.79756999999999,10.34822,319,1791071979],[123.79746,10.348186999999999,323,1791072059],[123.79734999999999,10.348197000000001,325,1791072074],[123.79728,10.348248999999999,327,1791072087],[123.79718,10.348269999999999,332,1791072111],[123.7971,10.34831,335,1791072165],[123.797,10.348343,339,1791072191],[123.79691,10.348392,342,1791072269],[123.79680999999999,10.34843,345,1791072818],[123.79673,10.348477000000001,350,1791072833],[123.79662,10.348478,351,1791072928],[123.79653999999999,10.348535,356,1791072947],[123.79644,10.348549999999999,360,1791073023],[123.79633,10.348592999999999,364,1791073049],[123.79624,10.348609,366,1791073078],[123.79615,10.348677,370,1791073108],[123.79606,10.348704,373,1791073134],[123.79595999999999,10.348731000000001,376,1791073156],[123.79586,10.348735,379,1791073172],[123.79577,10.348725999999999,382,1791073189],[123.79566,10.348704,380,1791073225],[123.79555999999999,10.348739,380,1791073267],[123.79546999999999,10.348796,381,1791073279],[123.79537999999999,10.348855,384,1791073293],[123.79528999999999,10.348917,384,1791073348],[123.79522,10.348969,388,1791073362],[123.79516,10.349041,394,1791073376],[123.79508,10.349118000000001,399,1791073391],[123.79503,10.349211,398,1791073403],[123.79499,10.349295,398,1791073413],[123.79495,10.349387999999999,399,1791073424],[123.79492,10.34948,401,1791073448],[123.79492999999999,10.349591,405,1791073480],[123.79491,10.349696,409,1791073501],[123.79483999999999,10.34979,412,1791073521],[123.79481,10.349886,412,1791073533],[123.79478,10.349975000000001,415,1791073548],[123.79479000000001,10.350078999999999,415,1791073563],[123.79479000000001,10.350182999999999,416,1791073578],[123.79477,10.350282,412,1791073604],[123.79474999999999,10.350386,409,1791073630],[123.79472,10.350488,408,1791073645],[123.79468,10.350573000000001,409,1791073657],[123.79461999999999,10.350663000000001,411,1791073673],[123.79456999999999,10.350758000000001,410,1791073689],[123.79452999999999,10.350875,414,1791073706],[123.79452000000001,10.350977,415,1791073721],[123.79447999999999,10.351074000000001,418,1791073742],[123.79443999999999,10.351165999999999,421,1791073760],[123.79446,10.351259000000001,421,1791073835],[123.79447999999999,10.351357999999999,421,1791073848],[123.79452999999999,10.351459999999999,422,1791073888],[123.79458,10.351557,424,1791073904],[123.79461000000001,10.351645,426,1791073918],[123.79465,10.351744999999999,423,1791073933],[123.79458,10.351829,422,1791073947],[123.79451,10.351884,422,1791073960],[123.79443999999999,10.351953,424,1791073972],[123.79436,10.352017,425,1791073993],[123.79432,10.352115,427,1791074009],[123.79425999999999,10.352202999999999,427,1791074053],[123.79416999999999,10.352256000000001,428,1791074078],[123.7941,10.352314,430,1791074097],[123.79407,10.352415000000001,430,1791074137],[123.79416999999999,10.352460000000001,431,1791074155],[123.79425000000001,10.352513,434,1791074788],[123.79433,10.352582,433,1791074799],[123.7944,10.352674,435,1791074814],[123.7945,10.352732,436,1791074913],[123.79459,10.352797000000001,439,1791074934],[123.79468,10.352859,441,1791074948],[123.79477,10.352911000000001,444,1791074965],[123.7949,10.35295,446,1791075438],[123.79499,10.353012,451,1791075471],[123.79509,10.35308,454,1791075708],[123.79519000000001,10.353127000000001,457,1791075723],[123.7953,10.353152,460,1791075743],[123.7954,10.353173,460,1791075844],[123.79549,10.353251,460,1791075857],[123.79558,10.353304,464,1791075877],[123.79564999999999,10.353389,466,1791075897],[123.79572,10.353453999999999,468,1791075912],[123.79579,10.353510999999999,471,1791075931],[123.79588,10.35356,473,1791075945],[123.79595999999999,10.353602,475,1791075971],[123.79595999999999,10.353692000000001,476,1791075983],[123.79601,10.35378,478,1791075997],[123.79606,10.353861,482,1791076056],[123.79608,10.353958,487,1791076076],[123.79612,10.354050000000001,489,1791076097],[123.79618000000001,10.354127999999999,494,1791076232],[123.79627000000001,10.354200000000001,499,1791076299],[123.79636000000001,10.35431,505,1791076342],[123.79637,10.354407,507,1791076449],[123.79644999999999,10.354476,509,1791076463],[123.79651,10.354562,517,1791076530],[123.79653999999999,10.354658000000001,519,1791076568],[123.79653999999999,10.354763999999999,522,1791076586],[123.79655,10.354868,525,1791076630],[123.79658000000001,10.354972,527,1791076650],[123.79656,10.355078000000001,530,1791076744],[123.79662999999999,10.355164,537,1791076769],[123.79669,10.355233999999999,541,1791076784],[123.79673,10.355313000000001,544,1791076803],[123.79676000000001,10.355416,547,1791076855],[123.79679,10.355537,554,1791076899],[123.79687,10.355603,557,1791076919],[123.79694000000001,10.355683000000001,559,1791076973],[123.79698,10.355776000000001,562,1791076992],[123.79704,10.355843,563,1791077004],[123.79711,10.355900999999999,565,1791077016],[123.79718,10.355961000000001,568,1791077029],[123.79722,10.356056000000001,568,1791077046],[123.79730000000001,10.356125,571,1791077063],[123.79737,10.356197,573,1791077082],[123.7974,10.356303,576,1791077097],[123.79742,10.356405000000001,580,1791077117],[123.79743999999999,10.356510999999999,582,1791077134],[123.79749,10.356595,583,1791077150],[123.79756999999999,10.356665,587,1791077166],[123.79758,10.35676,591,1791077191],[123.79758,10.35685,593,1791077280],[123.79755,10.356960000000001,596,1791077297],[123.79749,10.357056,593,1791077315],[123.79742,10.357136000000001,595,1791077475],[123.79743999999999,10.357241,600,1791077492],[123.79747,10.357339,604,1791077508],[123.79752999999999,10.357417999999999,608,1791077585],[123.7976,10.357493,613,1791077608],[123.79765,10.357574,618,1791077638],[123.79771,10.357647999999999,621,1791077665],[123.79777,10.357723,623,1791077687],[123.79787,10.357777,624,1791077703],[123.79789,10.357868,625,1791077744],[123.79791,10.357975,629,1791077765],[123.79792,10.358083000000001,632,1791077792],[123.79789,10.358181999999999,637,1791077815],[123.79788000000001,10.358278,639,1791077852],[123.79781,10.358378,645,1791078362],[123.79779000000001,10.358472000000001,648,1791078383],[123.79771,10.358534000000001,650,1791078404],[123.79764,10.358617000000001,653,1791078433],[123.79756,10.358718,660,1791078581],[123.79747,10.358789,665,1791078604],[123.79741,10.358873000000001,667,1791078626],[123.79733,10.358941,669,1791078651],[123.79725999999999,10.359007999999999,673,1791078676],[123.79719,10.359078999999999,675,1791078708],[123.79716999999999,10.359183,679,1791078740],[123.79723,10.359263,683,1791078768],[123.79718,10.359347,688,1791078981],[123.79716999999999,10.359439999999999,692,1791079013],[123.79716000000001,10.359552000000001,697,1791079067],[123.79712000000001,10.359639,699,1791079107],[123.79707999999999,10.359719,701,1791079167],[123.79703000000001,10.359807,706,1791079192],[123.79702,10.359899,711,1791079256],[123.79698999999999,10.359992,716,1791079295],[123.79698999999999,10.360101999999999,724,1791079357],[123.79701,10.360193000000001,730,1791079401],[123.79709,10.360237,732,1791079422],[123.79715,10.360308,732,1791079472],[123.79706,10.360355999999999,736,1791079550],[123.7971,10.360458,738,1791079566]]]}}]}
