{"type":"FeatureCollection","features":[{"type":"Feature","properties":[],"geometry":{"type":"MultiLineString","coordinates":[[[123.797639,10.265366,47.899999999999991,1783895270],[123.797549,10.265383,48.799999999999997,1783895323],[123.79753599999999,10.265404999999999,49,1783895327],[123.797551,10.265420000000001,49.200000000000003,1783895337],[123.797546,10.265446000000001,48.899999999999991,1783895354],[123.79754800000001,10.265446000000001,48.799999999999997,1783895355],[123.797481,10.265548000000001,52.200000000000003,1783895375],[123.797471,10.265530999999999,52.200000000000003,1783895385],[123.797476,10.265499999999999,52.399999999999991,1783895387],[123.79747999999999,10.265496000000001,52.299999999999997,1783895388],[123.79751,10.265499999999999,52.200000000000003,1783895394],[123.7975,10.265551,56.600000000000009,1783895424],[123.79747999999999,10.265582999999999,56.600000000000009,1783895426],[123.797428,10.265606,56.799999999999997,1783895432],[123.79741799999999,10.265616,56.899999999999991,1783895433],[123.79739499999999,10.265643000000001,57.100000000000009,1783895437],[123.797416,10.265648000000001,56.799999999999997,1783895457],[123.79739499999999,10.265670999999999,58,1783895458],[123.79735599999999,10.265765,62.600000000000009,1783895471],[123.797355,10.26577,62.899999999999991,1783895472],[123.79733899999999,10.265845000000001,64.900000000000006,1783895529],[123.797343,10.26587,65.700000000000003,1783895532],[123.79732300000001,10.265916000000001,66.799999999999997,1783895540],[123.79733400000001,10.265917999999999,67.599999999999994,1783895607],[123.79734999999999,10.26601,71.200000000000003,1783895608],[123.797348,10.266011000000001,71.299999999999997,1783895609],[123.797325,10.266045,71.900000000000006,1783895617],[123.79732799999999,10.266030000000001,71.599999999999994,1783895649],[123.79732,10.266069,71,1783895667],[123.797265,10.266090999999999,70,1783895697],[123.79729500000001,10.266066,71.5,1783895710],[123.797291,10.266068000000001,71.5,1783895711],[123.797285,10.266069999999999,71.400000000000006,1783895712],[123.797348,10.26609,69.299999999999997,1783895727],[123.79739499999999,10.266085,69.799999999999997,1783895732],[123.797436,10.266056000000001,70.099999999999994,1783895739],[123.797443,10.266055,70.299999999999997,1783895740],[123.797471,10.266061000000001,69.599999999999994,1783895760],[123.797473,10.266098,69.099999999999994,1783895774],[123.79747,10.266045999999999,72.200000000000003,1783895775],[123.797505,10.26601,74.100000000000009,1783895785],[123.797535,10.26601,74.40000000000002,1783895791],[123.797533,10.266012999999999,74.40000000000002,1783895792],[123.79771599999999,10.266033999999999,77.299999999999997,1783895864],[123.797726,10.266036,77.40000000000002,1783895865],[123.797836,10.266076,78.100000000000009,1783895875],[123.79784600000001,10.2661,78.40000000000002,1783895879],[123.797816,10.266118000000001,78.100000000000009,1783895885],[123.797811,10.266123,78.200000000000003,1783895886],[123.797783,10.266135999999999,78.299999999999997,1783895891],[123.797755,10.26618,79.40000000000002,1783895898],[123.79771,10.2662,80.799999999999997,1783895905],[123.79765500000001,10.266204999999999,82.200000000000003,1783895914],[123.797646,10.266209999999999,82.200000000000003,1783895915],[123.797595,10.266235999999999,82.700000000000003,1783895922],[123.79758099999999,10.266258000000001,83.799999999999997,1783895929],[123.797558,10.266265000000001,85.200000000000003,1783895933],[123.797546,10.26634,89.600000000000009,1783895977],[123.797544,10.266344999999999,89.799999999999997,1783895978],[123.79754800000001,10.266420999999999,91.600000000000009,1783895990],[123.797566,10.266520999999999,94.40000000000002,1783896005],[123.79756999999999,10.266526000000001,94.600000000000009,1783896006],[123.797573,10.266553,95.299999999999997,1783896010],[123.79761999999999,10.266638,99.40000000000002,1783896025],[123.797636,10.266693,102.2,1783896036],[123.797634,10.266703,102.40000000000002,1783896037],[123.79759900000001,10.266780000000001,104,1783896077],[123.797651,10.266766000000001,110.10000000000001,1783896103],[123.79768799999999,10.266726,110.8,1783896112],[123.797691,10.266726,110.8,1783896113],[123.79770499999999,10.266728000000001,110.8,1783896134],[123.79770499999999,10.266814999999999,110.49999999999999,1783896138],[123.797715,10.266833999999999,110.3,1783896141],[123.79770499999999,10.266914999999999,110.60000000000001,1783896152],[123.797703,10.266921,110.7,1783896153],[123.79768,10.267013,112.3,1783896166],[123.79768,10.267075999999999,112.8,1783896171],[123.797675,10.267080999999999,112.99999999999999,1783896172],[123.797651,10.267137999999999,114.90000000000002,1783896180],[123.797634,10.267253,117.40000000000002,1783896193],[123.797631,10.267261,117.60000000000001,1783896194],[123.79759799999999,10.267405,120.7,1783896208],[123.797583,10.267431,121.49999999999999,1783896211],[123.797578,10.267441,121.7,1783896212],[123.797561,10.267496,124.2,1783896222],[123.79754800000001,10.267481,124.7,1783896242],[123.79755299999999,10.267461000000001,124.49999999999999,1783896244],[123.797579,10.267429999999999,123.8,1783896249],[123.797586,10.267398,123.60000000000001,1783896253],[123.797586,10.267393,123.49999999999999,1783896254],[123.797588,10.267360999999999,122.99999999999999,1783896258],[123.797552,10.267467,123,1783896289],[123.797558,10.267493,122.99999999999999,1783896300],[123.797556,10.267500999999999,122.90000000000002,1783896301],[123.79753100000001,10.267515,122.60000000000001,1783896613],[123.797556,10.267595,121.49999999999999,1783896614],[123.797544,10.267611,121.49999999999999,1783896616],[123.79756500000001,10.267704999999999,120.8,1783896627],[123.79756500000001,10.267713000000001,120.8,1783896628],[123.79758099999999,10.267815000000001,122.7,1783896640],[123.797566,10.267894999999999,125.2,1783896653],[123.79756500000001,10.267901,125.40000000000002,1783896654],[123.797538,10.268000000000001,127.8,1783896664],[123.79754,10.268075,129.80000000000001,1783896671],[123.797535,10.268081,130.19999999999999,1783896672],[123.797526,10.26811,131.69999999999999,1783896676],[123.797538,10.268186,134,1783896687],[123.79752499999999,10.268255999999999,135.69999999999999,1783896695],[123.797526,10.268262999999999,135.90000000000003,1783896696],[123.797544,10.268284,136.40000000000003,1783896699],[123.797563,10.268333,138,1783896707],[123.79760899999999,10.268340999999999,137.90000000000003,1783896718],[123.797646,10.268386,137.80000000000001,1783896727],[123.797651,10.268393,137.90000000000003,1783896728],[123.797681,10.268435,139.10000000000002,1783896738],[123.797678,10.268478,140.60000000000002,1783896749],[123.797708,10.268549999999999,142.80000000000001,1783896762],[123.797708,10.268553000000001,143,1783896763],[123.797724,10.268599999999999,144.5,1783896771],[123.797701,10.268646,145.69999999999999,1783896778],[123.797693,10.268689999999999,146.30000000000001,1783896784],[123.797673,10.26872,147,1783896788],[123.797668,10.26873,147.19999999999999,1783896789],[123.797634,10.268770999999999,148.60000000000002,1783896794],[123.797613,10.26882,150.30000000000001,1783896800],[123.797611,10.268845000000001,151,1783896804],[123.79763,10.268865999999999,152,1783896845],[123.79761499999999,10.268838000000001,150.60000000000002,1783896882],[123.797611,10.268838000000001,150.60000000000002,1783896883],[123.797585,10.268825,150.19999999999999,1783896890],[123.797611,10.268829999999999,149.40000000000003,1783896910],[123.797606,10.268871000000001,149.90000000000003,1783896915],[123.79761999999999,10.268915,150.10000000000002,1783896921],[123.79760400000001,10.26896,149.69999999999999,1783896924],[123.797606,10.268967999999999,149.5,1783896925],[123.797611,10.268973000000001,149.5,1783896926],[123.797588,10.268935000000001,151.19999999999999,1783896940],[123.79759300000001,10.268884999999999,151.19999999999999,1783896945],[123.797613,10.268846,151,1783896949],[123.797596,10.26882,151.10000000000002,1783896954],[123.79759300000001,10.26882,151.19999999999999,1783896955],[123.797588,10.268929999999999,152.5,1783896971],[123.797606,10.268983,152.60000000000002,1783896979],[123.79760899999999,10.268988,152.60000000000002,1783896980],[123.79763,10.269007999999999,153,1783896984],[123.79767099999999,10.269023000000001,153.40000000000003,1783896990],[123.797719,10.269015,153,1783897004],[123.797741,10.26905,152.90000000000003,1783897012],[123.797741,10.269061000000001,152.80000000000001,1783897013],[123.797731,10.26909,152.69999999999999,1783897016],[123.797738,10.269145999999999,152.60000000000002,1783897023],[123.797724,10.269225,153.30000000000001,1783897035],[123.797724,10.269233,153.40000000000003,1783897036],[123.79770600000001,10.269283,153.60000000000002,1783897043],[123.797698,10.26937,155.10000000000002,1783897055],[123.797681,10.269391000000001,155.19999999999999,1783897057],[123.797678,10.269396,155.10000000000002,1783897058],[123.797676,10.26939,154.80000000000001,1783897059],[123.797675,10.269436000000001,155.19999999999999,1783897066],[123.797715,10.269553,158.5,1783897087],[123.79772,10.269558,158.69999999999999,1783897088],[123.79773299999999,10.269636,160.40000000000003,1783897097],[123.797729,10.269710999999999,162.10000000000002,1783897105],[123.797726,10.269721000000001,162.40000000000003,1783897106],[123.797726,10.269812999999999,165.80000000000001,1783897117],[123.797708,10.269893,168.80000000000001,1783897124],[123.797708,10.269905,169.19999999999999,1783897125],[123.797641,10.270051,171.60000000000002,1783897138],[123.797634,10.270061,171.69999999999999,1783897139],[123.797628,10.270092999999999,171.69999999999999,1783897142],[123.797555,10.270225999999999,173.60000000000002,1783897160],[123.797551,10.270236000000001,173.60000000000002,1783897161],[123.79752499999999,10.270281000000001,174.40000000000003,1783897169],[123.797436,10.270363,176.40000000000003,1783897181],[123.79742400000001,10.270372999999999,176.40000000000003,1783897182],[123.797366,10.270408,177,1783897187],[123.797309,10.27046,178.10000000000002,1783897194],[123.797303,10.270465,178.40000000000003,1783897195],[123.797231,10.270473000000001,179.19999999999999,1783897264],[123.797135,10.270460999999999,178.90000000000003,1783897273],[123.797123,10.270462999999999,178.90000000000003,1783897274],[123.79697899999999,10.270523000000001,180.30000000000001,1783897288],[123.79696,10.27051,181.60000000000002,1783897299],[123.79695100000001,10.270517999999999,181.60000000000002,1783897301],[123.796926,10.270548,180.60000000000002,1783897351],[123.79683,10.270613000000001,181.40000000000003,1783897362],[123.79682,10.270614999999999,181.30000000000001,1783897363],[123.796763,10.270613000000001,181.19999999999999,1783897368],[123.796666,10.270675000000001,182.19999999999999,1783897378],[123.796655,10.270681,182.30000000000001,1783897379],[123.796581,10.270721,182.60000000000002,1783897388],[123.796566,10.270743,180.40000000000003,1783897435],[123.796581,10.270735,179.90000000000003,1783897484],[123.796565,10.270770000000001,180.30000000000001,1783897485],[123.79653500000001,10.270768,180.5,1783897490],[123.796528,10.270768,180.60000000000002,1783897491],[123.79648,10.270783,181.10000000000002,1783897498],[123.796431,10.270833,182.10000000000002,1783897507],[123.79638,10.270856,182.40000000000003,1783897513],[123.796368,10.270864,182.40000000000003,1783897514],[123.796201,10.270943000000001,185,1783897531],[123.79619,10.270951,185.10000000000002,1783897532],[123.79609600000001,10.271045000000001,187.30000000000001,1783897546],[123.796055,10.271072999999999,187.19999999999999,1783897556],[123.796046,10.271077999999999,187.30000000000001,1783897557],[123.795923,10.271131,188.19999999999999,1783897568],[123.795873,10.271167999999999,189.10000000000002,1783897574],[123.795863,10.271171000000001,189.19999999999999,1783897575],[123.795813,10.271189,189.40000000000003,1783897581],[123.79573499999999,10.271265,189.90000000000003,1783897593],[123.795731,10.271265,189.90000000000003,1783897594],[123.79568999999999,10.271281,188.69999999999999,1783897606],[123.79562300000001,10.271281999999999,187,1783897621],[123.795666,10.271276,186.30000000000001,1783897632],[123.79567,10.271278000000001,186.30000000000001,1783897633],[123.79571799999999,10.271245,185.5,1783897642],[123.795661,10.271269999999999,185.80000000000001,1783897669],[123.79563,10.271318000000001,186.19999999999999,1783897676],[123.79562300000001,10.271319999999999,186.40000000000003,1783897677],[123.79550999999999,10.271345,187.19999999999999,1783897689],[123.795463,10.271378,187.10000000000002,1783897696],[123.79546000000001,10.271381,187.19999999999999,1783897697],[123.795401,10.271428,187.80000000000001,1783897706],[123.795333,10.271501000000001,189.19999999999999,1783897716],[123.795323,10.271509999999999,189.30000000000001,1783897717],[123.795213,10.271573,191.10000000000002,1783897732],[123.79516599999999,10.271578,191.30000000000001,1783897738],[123.795168,10.271576,191.30000000000001,1783897739],[123.795084,10.271606,190.10000000000002,1783897752],[123.795024,10.271651,190.30000000000001,1783897759],[123.795018,10.271658,190.5,1783897760],[123.79499,10.271701,191.30000000000001,1783897766],[123.79492999999999,10.271716,192.10000000000002,1783897772],[123.79488499999999,10.271749,194.40000000000003,1783897780],[123.794878,10.271756,194.80000000000001,1783897781],[123.79485,10.271811,196.90000000000003,1783897787],[123.79475100000001,10.271863,198.19999999999999,1783897796],[123.794741,10.271868,198.19999999999999,1783897797],[123.794713,10.271876000000001,198.60000000000002,1783897802],[123.794703,10.271921000000001,199.90000000000003,1783897810],[123.794676,10.27196,201.5,1783897817],[123.79463,10.271981,202.69999999999999,1783897823],[123.794623,10.271985000000001,202.80000000000001,1783897824],[123.794574,10.272005,203.80000000000001,1783897830],[123.794551,10.272005,204.30000000000001,1783897833],[123.79453100000001,10.271991,204,1783897836],[123.79449,10.271986,203.30000000000001,1783897847],[123.794466,10.271966000000001,203.40000000000003,1783897849],[123.794465,10.271963,203.5,1783897850],[123.794445,10.271936,204.19999999999999,1783897858],[123.794445,10.271944,204.40000000000003,1783897865],[123.794476,10.271955999999999,204.60000000000002,1783897866],[123.794476,10.271979999999999,205.30000000000001,1783897871],[123.794426,10.272033,205.5,1783897879],[123.794416,10.272043,205.40000000000003,1783897880],[123.79436800000001,10.272071,205.69999999999999,1783897885],[123.794321,10.272081,204.90000000000003,1783897893],[123.794383,10.272048,204.10000000000002,1783897907],[123.794391,10.272040000000001,204.10000000000002,1783897908],[123.794438,10.272003,204.69999999999999,1783897913],[123.79445,10.271979999999999,205.30000000000001,1783897917],[123.794498,10.271972999999999,204.60000000000002,1783897931],[123.7945,10.271993,203.69999999999999,1783897955],[123.794454,10.271993,202.19999999999999,1783897957],[123.79445,10.271996,202.19999999999999,1783897958],[123.794313,10.272073000000001,203.60000000000002,1783897987],[123.794303,10.272079,203.60000000000002,1783897988],[123.794206,10.272145999999999,205.40000000000003,1783898004],[123.794203,10.272197999999999,205.80000000000001,1783898012],[123.794201,10.2722,205.80000000000001,1783898013],[123.794151,10.272246000000001,206.5,1783898023],[123.79410799999999,10.272335999999999,207.60000000000002,1783898038],[123.794101,10.272345,207.69999999999999,1783898039],[123.794028,10.272435,208.40000000000003,1783898050],[123.793976,10.272468,208.80000000000001,1783898055],[123.793965,10.272470999999999,208.90000000000003,1783898056],[123.793858,10.272546,209.30000000000001,1783898078],[123.793815,10.272548,208.80000000000001,1783898083],[123.793803,10.272546,208.80000000000001,1783898084],[123.79374799999999,10.272525999999999,208.40000000000003,1783898091],[123.79372600000001,10.272535,208.5,1783898094],[123.793676,10.272532999999999,208.80000000000001,1783898100],[123.793651,10.272543000000001,208.5,1783898104],[123.79364099999999,10.272573,209.10000000000002,1783898109],[123.79363600000001,10.272577999999999,209.30000000000001,1783898110],[123.793601,10.272625,210.69999999999999,1783898128],[123.793553,10.272658,210.60000000000002,1783898131],[123.793516,10.272724999999999,210.80000000000001,1783898139],[123.793513,10.272729999999999,210.80000000000001,1783898140],[123.79343799999999,10.272771000000001,210.80000000000001,1783898172],[123.793436,10.2729,212.40000000000003,1783898189],[123.79343799999999,10.272905,212.60000000000002,1783898190],[123.793401,10.273031,215.60000000000002,1783898208],[123.79336600000001,10.273065000000001,216.19999999999999,1783898212],[123.79336000000001,10.273068,216.40000000000003,1783898213],[123.793318,10.273111,218,1783898223],[123.79331500000001,10.273135,221.30000000000001,1783898248],[123.79327499999999,10.273196,221,1783898279],[123.793266,10.273256,223,1783898301],[123.793268,10.273263,223,1783898302],[123.793261,10.273318,222.60000000000002,1783898309],[123.793238,10.273315999999999,222.30000000000001,1783898316],[123.793226,10.273293000000001,222.69999999999999,1783898321],[123.79324099999999,10.273273,223.10000000000002,1783898325],[123.793263,10.273275999999999,222.5,1783898342],[123.793296,10.27331,222.19999999999999,1783898344],[123.793301,10.273315999999999,222.30000000000001,1783898345],[123.7933,10.273375,222.90000000000003,1783898352],[123.79327499999999,10.273417999999999,223.90000000000003,1783898359],[123.79321899999999,10.273466000000001,225.19999999999999,1783898370],[123.793216,10.273471000000001,225.40000000000003,1783898371],[123.79318499999999,10.273512999999999,226.5,1783898382],[123.79317500000001,10.27355,227.40000000000003,1783898383],[123.793116,10.273591,227.10000000000002,1783898390],[123.793115,10.273595,227.10000000000002,1783898391],[123.79311300000001,10.273605,226.80000000000001,1783898404],[123.793153,10.273543,227.10000000000002,1783898465],[123.79311,10.273626,227.5,1783898466],[123.793076,10.27366,228.80000000000001,1783898473],[123.79307300000001,10.273668000000001,229,1783898474],[123.79305100000001,10.273716,229.69999999999999,1783898481],[123.793043,10.273778999999999,231,1783898488],[123.793021,10.273820000000001,232.69999999999999,1783898502],[123.793025,10.273849999999999,232.5,1783898503],[123.793025,10.273853000000001,232.5,1783898504],[123.79304999999999,10.273863,231.5,1783898518],[123.793065,10.273853000000001,230.90000000000003,1783898542],[123.793046,10.273887999999999,230.90000000000003,1783898543],[123.793026,10.273903000000001,231.60000000000002,1783898546],[123.793046,10.27394,233,1783898552],[123.793036,10.273966,232.80000000000001,1783898554],[123.793041,10.273973,233,1783898555],[123.793065,10.274046,234.60000000000002,1783898566],[123.793055,10.274145000000001,236.30000000000001,1783898576],[123.79305100000001,10.274153,236.5,1783898577],[123.793036,10.274226000000001,238.40000000000003,1783898587],[123.793018,10.274246,239.40000000000003,1783898594],[123.793025,10.274319999999999,239.30000000000001,1783898665],[123.79302300000001,10.274321,239.5,1783898666],[123.79301100000001,10.27435,239.19999999999999,1783898675],[123.793058,10.274395999999999,239.40000000000003,1783898685],[123.793076,10.274471,240.5,1783898695],[123.79307799999999,10.274478,240.60000000000002,1783898696],[123.79307799999999,10.274495,240.80000000000001,1783898697],[123.79306,10.274518,241.10000000000002,1783898756],[123.79311800000001,10.274531,241.80000000000001,1783898757],[123.793131,10.274554999999999,242.5,1783898764],[123.793122,10.27458,243,1783898773],[123.79312899999999,10.274618,243.40000000000003,1783898779],[123.79312400000001,10.274623999999999,243.40000000000003,1783898780],[123.79311,10.274651,243.40000000000003,1783898783],[123.793121,10.274770999999999,244.60000000000002,1783898798],[123.793115,10.274801,244.40000000000003,1783898801],[123.79310599999999,10.274818,244.40000000000003,1783898802],[123.793098,10.274881000000001,244.5,1783898809],[123.793111,10.274927999999999,245.30000000000001,1783898819],[123.793105,10.275001,244.60000000000002,1783898829],[123.79311,10.275005999999999,244.5,1783898830],[123.79312299999999,10.275035000000001,243.80000000000001,1783898836],[123.793116,10.275050999999999,243.60000000000002,1783898838],[123.793121,10.275112999999999,242.19999999999999,1783898845],[123.79313999999999,10.27516,241.90000000000003,1783898853],[123.79314100000001,10.275166,241.90000000000003,1783898854],[123.79315800000001,10.275245,242.10000000000002,1783898863],[123.79315,10.275264999999999,242.30000000000001,1783898866],[123.793159,10.275342999999999,241.19999999999999,1783898881],[123.793159,10.27535,241.30000000000001,1783898882],[123.793138,10.275373,240.40000000000003,1783898911],[123.793173,10.275433,240.5,1783898921],[123.793211,10.275475999999999,241.30000000000001,1783898927],[123.793216,10.275480999999999,241.40000000000003,1783898928],[123.79324,10.27549,241.90000000000003,1783898931],[123.79327000000001,10.275525999999999,242.10000000000002,1783898935],[123.793266,10.275631000000001,243,1783898949],[123.793266,10.275638000000001,243.10000000000002,1783898950],[123.79326500000001,10.27572,243.90000000000003,1783898960],[123.79328099999999,10.275824999999999,245,1783898975],[123.79328,10.275833,244.90000000000003,1783898976],[123.793318,10.27594,245.69999999999999,1783898988],[123.79331999999999,10.27599,246.10000000000002,1783898993],[123.79332100000001,10.276001000000001,246.30000000000001,1783898994],[123.79332599999999,10.276061,247,1783899001],[123.79336000000001,10.276119,247.60000000000002,1783899008],[123.793356,10.276176,248.40000000000003,1783899014],[123.79335,10.276187999999999,248.5,1783899015],[123.793313,10.276241000000001,248.69999999999999,1783899021],[123.793273,10.276353,250.30000000000001,1783899035],[123.79327000000001,10.276361,250.40000000000003,1783899036],[123.79326500000001,10.27642,251.40000000000003,1783899042],[123.793249,10.276456,251.90000000000003,1783899047],[123.79322500000001,10.276465999999999,252,1783899053],[123.793228,10.276494,252,1783899068],[123.793173,10.276562999999999,252.19999999999999,1783899077],[123.79317,10.27657,252.10000000000002,1783899078],[123.793148,10.276616000000001,252,1783899086],[123.79312899999999,10.276631,251.69999999999999,1783899089],[123.793066,10.276646,250.80000000000001,1783899104],[123.79305100000001,10.276669999999999,250,1783899113],[123.793046,10.276666000000001,249.80000000000001,1783899114],[123.79303899999999,10.276662999999999,249.90000000000003,1783899115],[123.79297,10.276745,249.40000000000003,1783899136],[123.792911,10.276781,249.69999999999999,1783899143],[123.792911,10.276783999999999,249.60000000000002,1783899144],[123.792901,10.2768,249.5,1783899150],[123.79285900000001,10.276818,249.40000000000003,1783899155],[123.79285400000001,10.276840999999999,249.60000000000002,1783899158],[123.792824,10.276870000000001,249,1783899210],[123.792838,10.276945,248,1783899257],[123.792843,10.276945,247.90000000000003,1783899258],[123.792821,10.276961,247.10000000000002,1783899270],[123.792755,10.276978,242.60000000000002,1783899305],[123.792745,10.276954999999999,242,1783899315],[123.792753,10.276933,242.5,1783899337],[123.79276400000001,10.276935,242.40000000000003,1783899338],[123.792745,10.276963,241.19999999999999,1783899350],[123.792738,10.27697,241,1783899351],[123.792745,10.276956,240.10000000000002,1783899365],[123.79278100000001,10.276954999999999,239,1783899375],[123.79277500000001,10.276975,239.30000000000001,1783899381],[123.792799,10.277008,239.10000000000002,1783899390],[123.792761,10.277021,239.90000000000003,1783899392],[123.792753,10.277025999999999,239.90000000000003,1783899393],[123.79267400000001,10.277066,239.60000000000002,1783899400],[123.792635,10.277118,240.19999999999999,1783899408],[123.79261,10.27713,240.69999999999999,1783899412],[123.792608,10.277134999999999,241,1783899413],[123.792613,10.277163,241.5,1783899418],[123.792603,10.277181000000001,241.69999999999999,1783899421],[123.792506,10.277303,243.60000000000002,1783899444],[123.792491,10.277316000000001,243.30000000000001,1783899445],[123.792393,10.277396,242.80000000000001,1783899454],[123.79234,10.277462999999999,243.90000000000003,1783899467],[123.792331,10.277480000000001,243.80000000000001,1783899468],[123.79230800000001,10.277507999999999,243.80000000000001,1783899472],[123.79224499999999,10.277535,243.60000000000002,1783899479],[123.79222900000001,10.277604999999999,243.80000000000001,1783899487],[123.79223500000001,10.277611,243.69999999999999,1783899488],[123.79224600000001,10.277618,243.40000000000003,1783899489],[123.792259,10.277728,241.10000000000002,1783899506],[123.79227299999999,10.277751,239.60000000000002,1783899510],[123.79222900000001,10.277808,236.80000000000001,1783899522],[123.792224,10.277811,236.5,1783899523],[123.79221099999999,10.277853,235.40000000000003,1783899529],[123.79218,10.27788,233.30000000000001,1783899560],[123.79215000000001,10.27796,231.10000000000002,1783899569],[123.792125,10.277971000000001,232.30000000000001,1783899574],[123.792118,10.27797,232.5,1783899575],[123.792086,10.278015999999999,232.69999999999999,1783899582],[123.79207100000001,10.278105999999999,235.10000000000002,1783899592],[123.792068,10.278115,235.30000000000001,1783899593],[123.792044,10.278223000000001,236.5,1783899607],[123.79204900000001,10.278280000000001,237.10000000000002,1783899616],[123.79204799999999,10.278286,237.10000000000002,1783899617],[123.792046,10.278321,237.30000000000001,1783899621],[123.792058,10.278361,238,1783899625],[123.79208300000001,10.278396000000001,237.90000000000003,1783899630],[123.792058,10.278441000000001,237.5,1783899636],[123.792055,10.278447999999999,237.40000000000003,1783899637],[123.79198100000001,10.278530999999999,237.19999999999999,1783899646],[123.791968,10.278575,237.5,1783899650],[123.791965,10.278587999999999,237.60000000000002,1783899651],[123.79195,10.278686,237.40000000000003,1783899660],[123.791956,10.278715,237.30000000000001,1783899663],[123.791946,10.278748,237.10000000000002,1783899666],[123.791946,10.278763,236.80000000000001,1783899667],[123.791943,10.278795000000001,236,1783899675],[123.79190800000001,10.278848,235.5,1783899684],[123.791831,10.278933,234.40000000000003,1783899713],[123.791826,10.278941,234.40000000000003,1783899714],[123.791765,10.278966,234.5,1783899744],[123.791715,10.279014999999999,232.40000000000003,1783899745],[123.79165399999999,10.279051000000001,232.30000000000001,1783899759],[123.791646,10.279051000000001,232.19999999999999,1783899760],[123.79161499999999,10.279061,232.19999999999999,1783899764],[123.791556,10.2791,232.69999999999999,1783899772],[123.79150300000001,10.279185999999999,233.5,1783899796],[123.791501,10.279192999999999,233.60000000000002,1783899797],[123.79146799999999,10.279233,233.60000000000002,1783899803],[123.79146799999999,10.279213,233.69999999999999,1783899810],[123.79144599999999,10.279228,233.5,1783899825],[123.79146799999999,10.279273,233.90000000000003,1783899832],[123.79146299999999,10.279301,233.90000000000003,1783899836],[123.791461,10.279308,233.90000000000003,1783899837],[123.791436,10.279373,234.40000000000003,1783899843],[123.79140599999999,10.279405000000001,234.90000000000003,1783899847],[123.79140099999999,10.27943,235.30000000000001,1783899850],[123.791414,10.279461,235.80000000000001,1783899853],[123.791421,10.279472999999999,235.69999999999999,1783899854],[123.791431,10.279526000000001,235.60000000000002,1783899858],[123.79140599999999,10.279585000000001,236.19999999999999,1783899863],[123.79139600000001,10.279636,236.60000000000002,1783899869],[123.79139600000001,10.279641,236.69999999999999,1783899870],[123.79134000000001,10.279741,237.80000000000001,1783899884],[123.791286,10.279776,238.40000000000003,1783899889],[123.791275,10.279786,238.40000000000003,1783899890],[123.791138,10.27989,238.69999999999999,1783899904],[123.79113,10.279897999999999,238.80000000000001,1783899905],[123.791045,10.279965000000001,238.90000000000003,1783899917],[123.79101799999999,10.279963,238.69999999999999,1783899922],[123.79098,10.279992999999999,238.90000000000003,1783899930],[123.790971,10.279999999999999,239,1783899931],[123.790938,10.280046,240,1783899941],[123.790886,10.280093000000001,240.60000000000002,1783899950],[123.79086599999999,10.280138000000001,241.10000000000002,1783899956],[123.79085600000001,10.280141,241.30000000000001,1783899957],[123.790851,10.280146,241.5,1783899958],[123.79082099999999,10.280170999999999,242.19999999999999,1783899963],[123.79080999999999,10.280195000000001,242.5,1783899968],[123.79079299999999,10.280265999999999,243.10000000000002,1783899976],[123.790791,10.280328000000001,243.69999999999999,1783899983],[123.790791,10.280336,243.90000000000003,1783899984],[123.790789,10.280391,245,1783899990],[123.79076999999999,10.280453,245.80000000000001,1783899997],[123.790775,10.280507999999999,246.60000000000002,1783900002],[123.79077100000001,10.280518000000001,246.69999999999999,1783900003],[123.790683,10.28063,247.5,1783900026],[123.790683,10.280663000000001,247.40000000000003,1783900028],[123.790685,10.280668,247.30000000000001,1783900029],[123.790676,10.280697999999999,247.19999999999999,1783900033],[123.790655,10.280709999999999,246.90000000000003,1783900038],[123.79065,10.280751,246.5,1783900062],[123.790615,10.280810000000001,246.19999999999999,1783900071],[123.790611,10.280813999999999,246.19999999999999,1783900072],[123.79053,10.280975,247.19999999999999,1783900094],[123.790526,10.280984999999999,247.60000000000002,1783900095],[123.79052,10.281015,248.19999999999999,1783900098],[123.790565,10.281091,248.5,1783900106],[123.790576,10.281141,248.5,1783900111],[123.79057400000001,10.281153,248.40000000000003,1783900112],[123.790533,10.281233,248.69999999999999,1783900121],[123.79053500000001,10.281278,249.5,1783900130],[123.79051800000001,10.281305,249.69999999999999,1783900132],[123.790514,10.281314999999999,249.80000000000001,1783900133],[123.790451,10.281359999999999,250.5,1783900152],[123.790436,10.281381,250.60000000000002,1783900155],[123.79044500000001,10.281458000000001,251.40000000000003,1783900168],[123.790448,10.281461,251.5,1783900169],[123.79044,10.281492999999999,252.10000000000002,1783900174],[123.79036600000001,10.281593000000001,252.5,1783900183],[123.79036000000001,10.281606,252.5,1783900184],[123.790306,10.281708,252.40000000000003,1783900192],[123.79026500000001,10.281748,252.10000000000002,1783900196],[123.790268,10.281751,252.10000000000002,1783900197],[123.790266,10.281796,252.10000000000002,1783900206],[123.790226,10.281921000000001,252.5,1783900224],[123.790223,10.281929999999999,252.60000000000002,1783900225],[123.790198,10.281976,253.30000000000001,1783900230],[123.79018600000001,10.282045,253.30000000000001,1783900237],[123.790138,10.282085,252.90000000000003,1783900242],[123.79013,10.282093,252.80000000000001,1783900243],[123.79003400000001,10.282203000000001,252.80000000000001,1783900255],[123.790003,10.282201000000001,252.80000000000001,1783900262],[123.789998,10.282203000000001,252.60000000000002,1783900263],[123.789956,10.282230999999999,252.60000000000002,1783900269],[123.789896,10.282246000000001,251.19999999999999,1783900320],[123.78989300000001,10.282273,244.80000000000001,1783900326],[123.789913,10.282285,244.69999999999999,1783900354],[123.789866,10.28229,243.80000000000001,1783900355],[123.789861,10.28229,243.69999999999999,1783900356],[123.789816,10.282301,243.5,1783900378],[123.789841,10.282299999999999,243.30000000000001,1783900386],[123.789856,10.282285,243.10000000000002,1783900390],[123.78985299999999,10.282259,242,1783900434],[123.789861,10.282292999999999,243.30000000000001,1783900469],[123.78986,10.282298000000001,243.19999999999999,1783900470],[123.78983599999999,10.282321,243,1783900474],[123.78983599999999,10.282296000000001,242.60000000000002,1783900486],[123.789856,10.282263,242,1783900544],[123.789768,10.282368,242.40000000000003,1783900567],[123.789761,10.282375999999999,242.40000000000003,1783900568],[123.789716,10.282401,242,1783900575],[123.789635,10.282481000000001,241.60000000000002,1783900590],[123.789631,10.282486,241.69999999999999,1783900591],[123.78961099999999,10.28251,242,1783900595],[123.789573,10.28253,242.5,1783900601],[123.78948,10.282546,242.30000000000001,1783900608],[123.789466,10.282546,242.19999999999999,1783900609],[123.78934,10.282572999999999,240.30000000000001,1783900625],[123.78929100000001,10.282601,239.69999999999999,1783900631],[123.789283,10.282608,239.69999999999999,1783900632],[123.78924000000001,10.282645,239.80000000000001,1783900638],[123.789134,10.282684,239.5,1783900648],[123.78912,10.282690000000001,239.40000000000003,1783900649],[123.78908800000001,10.282703,238.69999999999999,1783900652],[123.789023,10.282768000000001,236,1783900667],[123.788983,10.28279,234.90000000000003,1783900671],[123.788973,10.282798,234.69999999999999,1783900672],[123.78882900000001,10.2829,229.10000000000002,1783900699],[123.78882299999999,10.282905,229,1783900700],[123.78870999999999,10.28295,226.90000000000003,1783900737],[123.78868799999999,10.282976,226.5,1783900738],[123.788681,10.283006,226.10000000000002,1783900741],[123.788679,10.283013,225.90000000000003,1783900742],[123.788653,10.283045,225.60000000000002,1783900780],[123.788613,10.283054999999999,224.90000000000003,1783900781],[123.788594,10.283075,224.5,1783900791],[123.788566,10.283148000000001,225.30000000000001,1783900802],[123.78855900000001,10.283156,225.30000000000001,1783900803],[123.78853599999999,10.283175999999999,225.30000000000001,1783900806],[123.78847399999999,10.283296,225.60000000000002,1783900821],[123.78846900000001,10.283305,225.60000000000002,1783900822],[123.788453,10.283334999999999,224.69999999999999,1783900829],[123.78846900000001,10.28341,223.80000000000001,1783900843],[123.788453,10.283478000000001,223.30000000000001,1783900854],[123.78845099999999,10.283481,223.19999999999999,1783900855],[123.78843500000001,10.283493,222.69999999999999,1783900877],[123.788425,10.283473000000001,222.10000000000002,1783900878],[123.78843500000001,10.283448999999999,221.80000000000001,1783900881],[123.78842299999999,10.283426,221.30000000000001,1783900885],[123.788403,10.283412999999999,221,1783900889],[123.788358,10.283438,221,1783900894],[123.78834999999999,10.283443,221,1783900895],[123.78831,10.283476,220.80000000000001,1783900901],[123.788195,10.283518000000001,220.40000000000003,1783900916],[123.78819,10.283518000000001,220.40000000000003,1783900917],[123.78810300000001,10.283659999999999,222.60000000000002,1783900941],[123.7881,10.283666,222.80000000000001,1783900942],[123.788073,10.283716,224.19999999999999,1783900956],[123.788031,10.283758000000001,225.40000000000003,1783900963],[123.788003,10.283754999999999,226,1783900979],[123.787975,10.283792999999999,227.30000000000001,1783900983],[123.78796800000001,10.283796000000001,227.30000000000001,1783900984],[123.787948,10.283815000000001,228,1783900990],[123.787961,10.283863999999999,229.40000000000003,1783901001],[123.78795100000001,10.283953,231,1783901012],[123.787955,10.283961,231.40000000000003,1783901013],[123.78794000000001,10.284018,233.30000000000001,1783901022],[123.787863,10.284098,236.19999999999999,1783901039],[123.78787800000001,10.284125,238,1783901115],[123.787873,10.284133000000001,238.30000000000001,1783901116],[123.787893,10.284103,239.19999999999999,1783901147],[123.787851,10.284122999999999,238.80000000000001,1783901148],[123.787853,10.284181,239.30000000000001,1783901155],[123.787871,10.284186,239.69999999999999,1783901220],[123.787868,10.284255,243.5,1783901221],[123.78786599999999,10.284261000000001,243.69999999999999,1783901222],[123.78786599999999,10.284233,243.40000000000003,1783901232],[123.787888,10.284246,244.19999999999999,1783901247],[123.78788,10.284321,245.60000000000002,1783901261],[123.787896,10.284371,247.69999999999999,1783901272],[123.78789399999999,10.284376,248,1783901273],[123.787831,10.284461,250.5,1783901304],[123.787826,10.284509999999999,250.40000000000003,1783901305],[123.78780999999999,10.284538,250.69999999999999,1783901312],[123.78780399999999,10.284545,250.80000000000001,1783901313],[123.787778,10.284592999999999,251.19999999999999,1783901320],[123.787798,10.284636000000001,251.69999999999999,1783901385],[123.787853,10.284687999999999,245,1783901408],[123.787756,10.284708999999999,248.69999999999999,1783901432],[123.78774900000001,10.284711,248.69999999999999,1783901433],[123.787762,10.284742,248,1783901443],[123.78771,10.28477,247.90000000000003,1783901454],[123.787666,10.284806,247.60000000000002,1783901461],[123.787659,10.284813,247.60000000000002,1783901462],[123.787659,10.28482,247.60000000000002,1783901463],[123.78765,10.284798,248.60000000000002,1783901473],[123.78762999999999,10.284801,252.40000000000003,1783901498],[123.78765799999999,10.284853,254.80000000000001,1783901499],[123.78768100000001,10.284865999999999,256.80000000000001,1783901506],[123.78767999999999,10.284878000000001,257.80000000000001,1783901538],[123.787606,10.284905,259.39999999999998,1783901539],[123.78762,10.284879999999999,258.69999999999999,1783901547],[123.78762,10.284876000000001,258.69999999999999,1783901548],[123.787634,10.284881,257.19999999999999,1783901587],[123.78766400000001,10.284917999999999,256.89999999999998,1783901598],[123.787696,10.284986,259.39999999999998,1783901610],[123.787718,10.285005999999999,259.60000000000002,1783901613],[123.787721,10.285015,259.60000000000002,1783901614],[123.78773,10.285043,260.10000000000002,1783901620],[123.787721,10.285086,261.39999999999998,1783901626],[123.787735,10.285133,261.89999999999998,1783901631],[123.787723,10.285185999999999,262.89999999999998,1783901636],[123.787721,10.285195,263.10000000000002,1783901637],[123.787668,10.28528,264.89999999999998,1783901648],[123.787668,10.285353000000001,267.30000000000001,1783901663],[123.78767000000001,10.285446,269.39999999999998,1783901686],[123.78773,10.285536,269.60000000000002,1783901711],[123.787779,10.285518,270.30000000000001,1783901721],[123.787724,10.285621000000001,268.5,1783901722],[123.787693,10.285576000000001,270.19999999999999,1783901723],[123.787668,10.285576000000001,270.5,1783901765],[123.787668,10.285598,271,1783901766],[123.787671,10.285596,271,1783901767],[123.78756799999999,10.285721000000001,275.89999999999998,1783901823],[123.78756300000001,10.285726,276.10000000000002,1783901824],[123.787521,10.285788,277.5,1783901834],[123.787476,10.285807999999999,278.60000000000002,1783901841],[123.787451,10.285805,279.5,1783901846],[123.787426,10.285821,280.39999999999998,1783901853],[123.78742099999999,10.285826,280.5,1783901854],[123.787351,10.28589,281.69999999999999,1783901866],[123.787301,10.28589,282,1783901872],[123.787271,10.2859,282.19999999999999,1783901876],[123.78726399999999,10.285902999999999,282.19999999999999,1783901877],[123.78723100000001,10.285936,281.30000000000001,1783901978],[123.787091,10.285933,280.69999999999999,1783901994],[123.78708399999999,10.285931,280.69999999999999,1783901995],[123.787041,10.285914999999999,280.80000000000001,1783902000],[123.78702800000001,10.285890999999999,280.69999999999999,1783902003],[123.78700600000001,10.285879,280.5,1783902006],[123.786923,10.285866,280.80000000000001,1783902014],[123.786913,10.285866,280.89999999999998,1783902015],[123.786805,10.285852999999999,282.69999999999999,1783902033],[123.786798,10.285883,282.69999999999999,1783902092],[123.786843,10.285819999999999,279.69999999999999,1783902094],[123.786843,10.285812999999999,279.60000000000002,1783902095],[123.786841,10.285848,279.80000000000001,1783902103],[123.78683100000001,10.285855,279.69999999999999,1783902126],[123.78679099999999,10.285825000000001,278.89999999999998,1783902129],[123.786738,10.285826,278.69999999999999,1783902137],[123.786728,10.285826,278.69999999999999,1783902138],[123.78668500000001,10.285841,280.10000000000002,1783902185],[123.786708,10.285807999999999,281.10000000000002,1783902186],[123.78672,10.28581,282.10000000000002,1783902269],[123.786745,10.285848,282.60000000000002,1783902274],[123.786759,10.28585,282.80000000000001,1783902304],[123.786703,10.285828,282.89999999999998,1783902305],[123.786703,10.285831,282.89999999999998,1783902306],[123.786686,10.285814999999999,282.30000000000001,1783902340],[123.786773,10.28584,280.10000000000002,1783902488],[123.786778,10.285831,279.80000000000001,1783902502],[123.786798,10.285866,277.89999999999998,1783902504],[123.786798,10.285868000000001,277.80000000000001,1783902505],[123.78680300000001,10.285864999999999,277.60000000000002,1783902561],[123.786761,10.285845999999999,278.30000000000001,1783902562],[123.786715,10.285833999999999,279,1783902567],[123.786691,10.28584,277.39999999999998,1783902689],[123.786658,10.285812999999999,277.5,1783902717],[123.786615,10.285831,276.19999999999999,1783902718],[123.786609,10.285833,276.10000000000002,1783902719],[123.78646500000001,10.285855,274.89999999999998,1783902751],[123.786411,10.285845,274.39999999999998,1783902765],[123.78640799999999,10.285845,274.30000000000001,1783902766],[123.786388,10.28584,274.19999999999999,1783902770],[123.78636899999999,10.285850999999999,273.89999999999998,1783902772],[123.78636,10.285875000000001,273.30000000000001,1783902777],[123.7863,10.285843,271.19999999999999,1783902809],[123.78627,10.285843,270.60000000000002,1783902813],[123.786261,10.285845999999999,270.30000000000001,1783902814],[123.786216,10.285852999999999,268.19999999999999,1783902820],[123.786108,10.285831,266.60000000000002,1783902831],[123.786106,10.285828,266.39999999999998,1783902832],[123.785948,10.285795999999999,262.69999999999999,1783902850],[123.785938,10.285795,262.5,1783902851],[123.7859,10.285791,262.30000000000001,1783902854],[123.785878,10.285779,262.10000000000002,1783902858],[123.78582400000001,10.285676,260.10000000000002,1783902873],[123.78582299999999,10.28567,260,1783902874],[123.78581800000001,10.285610999999999,259.19999999999999,1783902881],[123.785799,10.285598,259.39999999999998,1783902886],[123.785831,10.285518,258.80000000000001,1783902899],[123.785831,10.285515,258.60000000000002,1783902900],[123.785736,10.285437999999999,258.19999999999999,1783902918],[123.785676,10.285432999999999,257.80000000000001,1783902924],[123.78567,10.28543,257.80000000000001,1783902925],[123.7856,10.285404,257.19999999999999,1783902937],[123.785556,10.285378,257.30000000000001,1783902951],[123.78553100000001,10.285373999999999,257,1783902953],[123.785505,10.285354999999999,256.69999999999999,1783902957],[123.78549599999999,10.285346000000001,256.60000000000002,1783902958],[123.785405,10.285263,253.69999999999999,1783902973],[123.785381,10.285218,251.30000000000001,1783902978],[123.78537300000001,10.285211,251,1783902979],[123.785343,10.285201000000001,245.40000000000003,1783903014],[123.78527099999999,10.285197999999999,244.40000000000003,1783903030],[123.785203,10.285175000000001,243.5,1783903040],[123.785196,10.285176,243.5,1783903041],[123.78509099999999,10.285175000000001,241.5,1783903055],[123.78501300000001,10.285195,239.60000000000002,1783903066],[123.785005,10.285195999999999,239.5,1783903067],[123.784955,10.28518,237.60000000000002,1783903075],[123.784843,10.285176,235.80000000000001,1783903088],[123.784836,10.285169,235.60000000000002,1783903089],[123.78483300000001,10.285166,235.40000000000003,1783903090],[123.78478800000001,10.285145,234.30000000000001,1783903095],[123.784665,10.285128,232,1783903110],[123.784656,10.285126,231.80000000000001,1783903111],[123.784491,10.285078,227.30000000000001,1783903132],[123.784488,10.285076,227.30000000000001,1783903133],[123.784476,10.285057999999999,226.80000000000001,1783903138],[123.784431,10.285075000000001,225.40000000000003,1783903143],[123.784389,10.285076,224.80000000000001,1783903147],[123.784368,10.285061000000001,224.30000000000001,1783903152],[123.78434,10.285057999999999,224,1783903158],[123.78433099999999,10.285061000000001,223.80000000000001,1783903159],[123.784305,10.285068000000001,223.5,1783903167],[123.784243,10.285000999999999,221.80000000000001,1783903179],[123.784183,10.285005999999999,221.80000000000001,1783903186],[123.78416900000001,10.28501,221.69999999999999,1783903187],[123.78409499999999,10.285005999999999,221.40000000000003,1783903195],[123.78405100000001,10.284976,221.19999999999999,1783903202],[123.784026,10.284934,220.90000000000003,1783903208],[123.784015,10.284922999999999,220.5,1783903209],[123.78398,10.284876000000001,219.90000000000003,1783903217],[123.783925,10.284746,217.30000000000001,1783903236],[123.78391999999999,10.284715,216.60000000000002,1783903240],[123.783916,10.284706,216.40000000000003,1783903241],[123.783878,10.284573999999999,212,1783903268],[123.783858,10.284564,211.10000000000002,1783903283],[123.78387499999999,10.284516,209.40000000000003,1783903285],[123.78388,10.284511,209.19999999999999,1783903286],[123.783883,10.284503000000001,209.10000000000002,1783903287],[123.783945,10.284485,207.60000000000002,1783903297],[123.783986,10.284461,206.69999999999999,1783903304],[123.78401100000001,10.284463000000001,205.10000000000002,1783903311],[123.784041,10.284451000000001,204.19999999999999,1783903315],[123.78405100000001,10.284446000000001,204,1783903316],[123.784099,10.284402,201,1783903335],[123.784126,10.284285000000001,200.69999999999999,1783903350],[123.784128,10.284274999999999,200.80000000000001,1783903351],[123.78414100000001,10.284215,200.40000000000003,1783903361],[123.78416,10.284198,200.10000000000002,1783903372],[123.78417899999999,10.284125,198,1783903382],[123.784216,10.284093,196.60000000000002,1783903389],[123.784218,10.284088000000001,196.5,1783903390],[123.784245,10.284043,195.40000000000003,1783903396],[123.78424800000001,10.284001,192.5,1783903405],[123.784188,10.283925,187.5,1783903452],[123.78417399999999,10.283893000000001,182.30000000000001,1783903453],[123.78418000000001,10.283891000000001,182.19999999999999,1783903454],[123.784218,10.283844999999999,180.30000000000001,1783903484],[123.784195,10.283798000000001,178.90000000000003,1783903485],[123.784178,10.283796000000001,177.40000000000003,1783903519],[123.784166,10.283763,174.5,1783903520],[123.78414600000001,10.283758000000001,173.90000000000003,1783903531],[123.78413500000001,10.283718,173,1783903532],[123.78413500000001,10.283709999999999,173,1783903533],[123.784136,10.283681,172.60000000000002,1783903539],[123.784154,10.283659999999999,171,1783903552],[123.784105,10.283541,168.19999999999999,1783903572],[123.78410100000001,10.283536,168.10000000000002,1783903573],[123.78405600000001,10.283507999999999,166.30000000000001,1783903583],[123.78404999999999,10.283467999999999,164.90000000000003,1783903603],[123.78401100000001,10.283441,162.60000000000002,1783903617],[123.783963,10.283433,159.80000000000001,1783903627],[123.783956,10.283426,159.60000000000002,1783903628],[123.78392599999999,10.283412999999999,158.30000000000001,1783903635],[123.78383100000001,10.28341,156,1783903652],[123.783858,10.283363,155.10000000000002,1783903660],[123.78386500000001,10.283355999999999,155,1783903661],[123.78386500000001,10.283325,153,1783903676],[123.78399400000001,10.28327,148.40000000000003,1783903697],[123.78400499999999,10.283265999999999,148.19999999999999,1783903698],[123.784035,10.28326,147.19999999999999,1783903703],[123.784065,10.283223,145.5,1783903712],[123.784071,10.283199,144.90000000000003,1783903716],[123.784093,10.283186000000001,144.19999999999999,1783903720],[123.784145,10.283188000000001,142.5,1783903728],[123.78415099999999,10.283185,142.40000000000003,1783903729],[123.784201,10.283185,140.80000000000001,1783903735],[123.78424,10.283206,139.5,1783903740],[123.78428599999999,10.283203,137.80000000000001,1783903749],[123.784316,10.283188000000001,137.10000000000002,1783903753],[123.78432599999999,10.283185,137,1783903754],[123.784381,10.283188000000001,136,1783903759],[123.784426,10.283203,134.30000000000001,1783903765],[123.784441,10.283181000000001,133.5,1783903776],[123.78447,10.283170999999999,132.60000000000002,1783903777],[123.784485,10.283146,131.90000000000003,1783903784],[123.784471,10.283075999999999,129.90000000000003,1783903797],[123.784451,10.283058,129.5,1783903802],[123.78443799999999,10.282956,129.30000000000001,1783903819],[123.78443799999999,10.28295,129.19999999999999,1783903820],[123.78436600000001,10.282893,128.40000000000003,1783903832],[123.784288,10.282871,127.3,1783903839],[123.78428099999999,10.282866,127.2,1783903840],[123.78426399999999,10.282838,126.90000000000002,1783903844],[123.78426399999999,10.282818000000001,126.7,1783903846],[123.784306,10.282731,125.60000000000001,1783903860],[123.78428599999999,10.28271,124.90000000000002,1783903865],[123.784283,10.28271,124.8,1783903866],[123.78427000000001,10.282660999999999,123.2,1783903876],[123.7842,10.282556,120.3,1783903893],[123.78419599999999,10.282551,120.2,1783903894],[123.78416799999999,10.282508,118.99999999999999,1783903900],[123.784121,10.282463,117.8,1783903908],[123.78409600000001,10.282411,116.90000000000002,1783903916],[123.784091,10.282406,116.7,1783903917],[123.784058,10.282341000000001,114.90000000000002,1783903927],[123.784071,10.282268,113.40000000000002,1783903939],[123.784053,10.282238,112.7,1783903943],[123.784048,10.282235999999999,112.49999999999999,1783903944],[123.78402800000001,10.282223,111.99999999999999,1783903948],[123.78399400000001,10.282168,110.99999999999999,1783903955],[123.783933,10.282128,108.8,1783903966],[123.78393,10.282131,108.40000000000002,1783903967],[123.783861,10.282074,104.99999999999999,1783903981],[123.78384,10.282029,103.3,1783903987],[123.78383100000001,10.281986,102.10000000000001,1783903992],[123.78383100000001,10.281980000000001,101.99999999999999,1783903993],[123.783798,10.28195,100.99999999999999,1783903998],[123.783776,10.281943,100.7,1783904000],[123.783765,10.281921000000001,100.40000000000002,1783904003],[123.78377500000001,10.281858,98.999999999999986,1783904008],[123.783771,10.281853,98.90000000000002,1783904009],[123.78373499999999,10.281831,98.90000000000002,1783904014],[123.783666,10.281755,99.100000000000009,1783904024],[123.78366,10.281749,98.999999999999986,1783904025],[123.783585,10.281601,100.60000000000001,1783904047],[123.783574,10.281594999999999,100.60000000000001,1783904048],[123.78346500000001,10.281473,100.40000000000002,1783904066],[123.783461,10.281463,100.10000000000001,1783904067],[123.78343,10.281418,98.299999999999997,1783904073],[123.78331799999999,10.281361,96.200000000000003,1783904089],[123.783311,10.281359999999999,96.200000000000003,1783904090],[123.78326,10.281345,95.799999999999997,1783904098],[123.783243,10.281326,95.600000000000009,1783904101],[123.783231,10.281286,95.40000000000002,1783904106],[123.78318400000001,10.281248,95.200000000000003,1783904114],[123.78317800000001,10.281243,95.100000000000009,1783904115],[123.783151,10.2812,94.600000000000009,1783904120],[123.783143,10.28115,94.200000000000003,1783904125],[123.783115,10.281116000000001,93.799999999999997,1783904131],[123.783089,10.281103,93.700000000000003,1783904134],[123.783085,10.281096,93.700000000000003,1783904135],[123.783055,10.281053,93.700000000000003,1783904141],[123.78304799999999,10.28101,93.700000000000003,1783904146],[123.783056,10.280993,93.700000000000003,1783904148],[123.7831,10.280961,93.299999999999997,1783904153],[123.783113,10.280955000000001,93.100000000000009,1783904154],[123.783221,10.280882999999999,91.499999999999986,1783904166],[123.783248,10.280843000000001,91.299999999999997,1783904171],[123.783248,10.280835,91.200000000000003,1783904172],[123.78328,10.280716,89.700000000000003,1783904188],[123.783278,10.280663000000001,88.700000000000003,1783904194],[123.783276,10.280654999999999,88.40000000000002,1783904195],[123.78330099999999,10.280474999999999,83.499999999999986,1783904220],[123.78330099999999,10.280465,83.299999999999997,1783904221],[123.783304,10.280405999999999,81.799999999999997,1783904227],[123.783406,10.280336,78.600000000000009,1783904241],[123.783416,10.280333000000001,78.40000000000002,1783904242],[123.783574,10.280236,77.90000000000002,1783904264],[123.78358299999999,10.28023,77.999999999999986,1783904265],[123.783663,10.280161,79.499999999999986,1783904276],[123.783671,10.280123,79.700000000000003,1783904279],[123.78369600000001,10.280098000000001,80.100000000000009,1783904283],[123.783705,10.28009,80.200000000000003,1783904284],[123.783833,10.280001,80.999999999999986,1783904295],[123.783838,10.279992999999999,81.100000000000009,1783904296],[123.78391000000001,10.279913000000001,82.40000000000002,1783904307],[123.783923,10.279847999999999,83.299999999999997,1783904314],[123.78392599999999,10.27984,83.40000000000002,1783904315],[123.78394,10.279798,84.200000000000003,1783904320],[123.78398900000001,10.279743,84.799999999999997,1783904328],[123.78403,10.279714999999999,85.40000000000002,1783904333],[123.784035,10.279705999999999,85.499999999999986,1783904334],[123.784053,10.279683,86.100000000000009,1783904337],[123.784116,10.279650999999999,85.299999999999997,1783904342],[123.784155,10.279608,85.40000000000002,1783904351],[123.784156,10.279603,85.40000000000002,1783904352],[123.784155,10.279593,85.299999999999997,1783904375],[123.784173,10.279629999999999,82.40000000000002,1783904376],[123.784201,10.279591,75.799999999999997,1783904441],[123.784143,10.279578000000001,73.999999999999986,1783904462],[123.784153,10.279574999999999,74.200000000000003,1783904463],[123.78416,10.279571000000001,74.40000000000002,1783904464],[123.784223,10.279539,76.799999999999997,1783904473],[123.78423600000001,10.279515999999999,79.799999999999997,1783904481],[123.78420800000001,10.279451,81.40000000000002,1783904487],[123.784206,10.279439999999999,81.600000000000009,1783904488],[123.7842,10.279389999999999,82.700000000000003,1783904492],[123.784215,10.279320999999999,84.40000000000002,1783904498],[123.784251,10.279283,85.600000000000009,1783904503],[123.78425900000001,10.279275999999999,85.999999999999986,1783904504],[123.78442099999999,10.279218,90.299999999999997,1783904521],[123.784436,10.279213,90.299999999999997,1783904522],[123.784516,10.279176,89.799999999999997,1783904529],[123.78457299999999,10.279135,90.100000000000009,1783904535],[123.784583,10.279126,90.299999999999997,1783904536],[123.784633,10.279093,90.90000000000002,1783904541],[123.78467000000001,10.279090999999999,91.200000000000003,1783904543],[123.78474300000001,10.279048,91.299999999999997,1783904550],[123.78475299999999,10.279040999999999,91.299999999999997,1783904551],[123.784826,10.278993,91.100000000000009,1783904559],[123.78489399999999,10.278962999999999,92.700000000000003,1783904566],[123.78490499999999,10.27896,92.799999999999997,1783904567],[123.785021,10.278905,91.299999999999997,1783904582],[123.785053,10.278858,91.90000000000002,1783904587],[123.785053,10.278843999999999,91.999999999999986,1783904588],[123.785169,10.27875,93.299999999999997,1783904598],[123.78518,10.278740000000001,93.499999999999986,1783904599],[123.78524899999999,10.27868,93.40000000000002,1783904607],[123.785296,10.278656,93.600000000000009,1783904611],[123.78531599999999,10.278627999999999,94.100000000000009,1783904615],[123.785321,10.278615,94.299999999999997,1783904616],[123.78533299999999,10.278591,94.700000000000003,1783904620],[123.785393,10.278549999999999,95.100000000000009,1783904625],[123.78540599999999,10.27853,95.200000000000003,1783904627],[123.785433,10.278518,95.700000000000003,1783904630],[123.78544599999999,10.278511,95.799999999999997,1783904631],[123.78549599999999,10.278473,95.90000000000002,1783904635],[123.78554800000001,10.278365000000001,96.100000000000009,1783904645],[123.785556,10.278354999999999,96.200000000000003,1783904646],[123.785571,10.278320000000001,96.600000000000009,1783904649],[123.785658,10.278211000000001,98.999999999999986,1783904663],[123.785663,10.278203,99.40000000000002,1783904664],[123.78575499999999,10.278046,98.999999999999986,1783904686],[123.785758,10.278040000000001,98.90000000000002,1783904687],[123.78582299999999,10.277943,98.200000000000003,1783904698],[123.785838,10.277882999999999,98.90000000000002,1783904704],[123.78583999999999,10.277873,98.999999999999986,1783904705],[123.785841,10.277837999999999,99.100000000000009,1783904708],[123.785883,10.277780999999999,99.700000000000003,1783904715],[123.78590800000001,10.277713,100.40000000000002,1783904722],[123.78590800000001,10.277704999999999,100.49999999999999,1783904723],[123.785916,10.27765,100.7,1783904728],[123.78591299999999,10.277568,100.99999999999999,1783904735],[123.78592999999999,10.277545999999999,101.40000000000002,1783904737],[123.785938,10.277533,101.60000000000001,1783904738],[123.78595799999999,10.277473000000001,103.49999999999999,1783904748],[123.785956,10.277445999999999,104.10000000000001,1783904752],[123.78602100000001,10.277371,104.7,1783904762],[123.78602600000001,10.277367999999999,104.8,1783904763],[123.786188,10.277326,105.99999999999999,1783904780],[123.786196,10.277323000000001,106.10000000000001,1783904781],[123.78625599999999,10.2773,106.60000000000001,1783904787],[123.786315,10.277233000000001,107.49999999999999,1783904794],[123.786323,10.277225,107.7,1783904795],[123.78636400000001,10.277198,108.3,1783904799],[123.786438,10.277191,106.90000000000002,1783904805],[123.78646500000001,10.277198,106.49999999999999,1783904808],[123.78648,10.277208,106.40000000000002,1783904809],[123.78651600000001,10.277221000000001,106.3,1783904812],[123.786571,10.277263,105.3,1783904818],[123.78665100000001,10.277284999999999,103.40000000000002,1783904826],[123.786665,10.277286,103.10000000000001,1783904827],[123.78670099999999,10.277288,101.99999999999999,1783904830],[123.78673999999999,10.277274999999999,100.90000000000002,1783904834],[123.78681,10.277213,100.10000000000001,1783904844],[123.78681899999999,10.277205,99.999999999999986,1783904845],[123.78687600000001,10.277201,100.7,1783904849],[123.78690899999999,10.277189999999999,101.10000000000001,1783904852],[123.786956,10.277127999999999,103.10000000000001,1783904861],[123.78695999999999,10.277125,103.40000000000002,1783904862],[123.786991,10.277082999999999,103.99999999999999,1783904867],[123.787048,10.277046,104.60000000000001,1783904873],[123.78708399999999,10.277009,104.90000000000002,1783904877],[123.78709499999999,10.276994999999999,104.90000000000002,1783904878],[123.787153,10.276945,104.2,1783904885],[123.78725300000001,10.276928,103.49999999999999,1783904893],[123.78726899999999,10.276925,103.3,1783904894],[123.787308,10.276908000000001,102.40000000000002,1783904896],[123.787373,10.276852999999999,100.10000000000001,1783904902],[123.78741100000001,10.276835,99.100000000000009,1783904905],[123.787423,10.276831,98.700000000000003,1783904906],[123.78749999999999,10.276809999999999,96.600000000000009,1783904913],[123.787538,10.276816,95.700000000000003,1783904916],[123.787571,10.276801000000001,94.700000000000003,1783904919],[123.787581,10.276795,94.40000000000002,1783904920],[123.787645,10.276748,92.299999999999997,1783904928],[123.78775400000001,10.27675,89.999999999999986,1783904937],[123.78777100000001,10.27675,89.90000000000002,1783904938],[123.78792900000001,10.276711000000001,87.600000000000009,1783904951],[123.787943,10.276705,87.700000000000003,1783904952],[123.787983,10.276691,87.499999999999986,1783904955],[123.788054,10.276643,87.200000000000003,1783904965],[123.78811399999999,10.276636,86.700000000000003,1783904970],[123.78812600000001,10.276631,86.499999999999986,1783904971],[123.78822099999999,10.276593,85.700000000000003,1783904980],[123.788296,10.276590000000001,85.200000000000003,1783904988],[123.78830600000001,10.276591,84.999999999999986,1783904989],[123.788346,10.276598,84.100000000000009,1783904992],[123.78843999999999,10.276578000000001,81.799999999999997,1783904999],[123.788455,10.276585000000001,81.299999999999997,1783905000],[123.78848600000001,10.276581,80.600000000000009,1783905002],[123.788571,10.276533000000001,77.799999999999997,1783905017],[123.788624,10.276536,76.700000000000003,1783905023],[123.788628,10.276535000000001,76.499999999999986,1783905024],[123.788676,10.276524999999999,75.40000000000002,1783905032],[123.788691,10.276508,75.600000000000009,1783905034],[123.78873299999999,10.276491,74.90000000000002,1783905040],[123.788786,10.276491,73.600000000000009,1783905046],[123.788793,10.276488000000001,73.40000000000002,1783905047],[123.788821,10.276489,72.999999999999986,1783905051],[123.788898,10.276444,72.599999999999994,1783905058],[123.78892999999999,10.276399,73.700000000000003,1783905064],[123.788938,10.276393000000001,73.999999999999986,1783905065],[123.78897499999999,10.276361,75.999999999999986,1783905073],[123.789,10.276281000000001,78.499999999999986,1783905079],[123.788996,10.276246,79.799999999999997,1783905082],[123.78899800000001,10.276235,80.200000000000003,1783905083],[123.789025,10.276198000000001,81.499999999999986,1783905088],[123.789108,10.276192999999999,82.299999999999997,1783905094],[123.78914,10.276206,81.999999999999986,1783905095],[123.78915499999999,10.276201,82.200000000000003,1783905096],[123.78917800000001,10.276187999999999,81.299999999999997,1783905097],[123.789216,10.276175,80.299999999999997,1783905100],[123.789275,10.276173,79.40000000000002,1783905105],[123.78933600000001,10.27614,79.299999999999997,1783905110],[123.78934599999999,10.276135999999999,79.40000000000002,1783905111],[123.789441,10.276119,78.799999999999997,1783905121],[123.789511,10.276088,79.499999999999986,1783905130],[123.789523,10.27608,79.600000000000009,1783905131],[123.789579,10.276018000000001,80.100000000000009,1783905138],[123.789655,10.275966,79.999999999999986,1783905144],[123.78966,10.275952999999999,79.90000000000002,1783905145],[123.78969499999999,10.275888,79.90000000000002,1783905152],[123.78976299999999,10.275845,80.200000000000003,1783905157],[123.789776,10.275835000000001,80.100000000000009,1783905158],[123.789783,10.275826,80.200000000000003,1783905159],[123.789753,10.275793999999999,81.200000000000003,1783905167],[123.789733,10.275728000000001,80.90000000000002,1783905173],[123.789753,10.275688000000001,81.200000000000003,1783905177],[123.789771,10.275672999999999,81.200000000000003,1783905178],[123.789781,10.275658,81.100000000000009,1783905179],[123.789821,10.275589999999999,81.799999999999997,1783905185],[123.789851,10.275558,82.299999999999997,1783905188],[123.789873,10.275518,82.799999999999997,1783905193],[123.78986999999999,10.275508,82.999999999999986,1783905194],[123.789866,10.275496,83.200000000000003,1783905195],[123.789868,10.275458,83.499999999999986,1783905198],[123.78985299999999,10.27539,84.499999999999986,1783905205],[123.78985400000001,10.275313000000001,86.200000000000003,1783905210],[123.78986500000001,10.275296000000001,86.600000000000009,1783905211],[123.78987499999999,10.275229,87.799999999999997,1783905214],[123.789856,10.275126,89.700000000000003,1783905220],[123.78987100000001,10.275118000000001,89.799999999999997,1783905221],[123.789953,10.275067999999999,89.299999999999997,1783905228],[123.789973,10.275065,89.299999999999997,1783905229],[123.790036,10.275080000000001,88.799999999999997,1783905232],[123.79007,10.275091,88.40000000000002,1783905233],[123.79011,10.275093,88.700000000000003,1783905235],[123.79015800000001,10.275076,88.600000000000009,1783905240],[123.790235,10.275016000000001,89.999999999999986,1783905251],[123.79023599999999,10.27501,89.90000000000002,1783905252],[123.79024800000001,10.274975,89.799999999999997,1783905256],[123.790244,10.274956,89.799999999999997,1783905257],[123.790299,10.274886,90.999999999999986,1783905265],[123.79031000000001,10.274881000000001,91.200000000000003,1783905266],[123.79035,10.274848,91.200000000000003,1783905271],[123.79039299999999,10.274765,89.200000000000003,1783905277],[123.790418,10.274766,88.700000000000003,1783905278],[123.79044,10.274768,88.200000000000003,1783905279],[123.790471,10.274761,87.40000000000002,1783905281],[123.79048400000001,10.274751,86.999999999999986,1783905282],[123.790488,10.274728,86.700000000000003,1783905284],[123.79055,10.274701,84.40000000000002,1783905294],[123.790566,10.274668999999999,84.299999999999997,1783905298],[123.790569,10.274661,84.299999999999997,1783905299],[123.790604,10.274601000000001,84.100000000000009,1783905305],[123.79069,10.274558000000001,85.299999999999997,1783905315],[123.79068599999999,10.27455,85.299999999999997,1783905316],[123.79069800000001,10.274493,85.100000000000009,1783905322],[123.790745,10.274435,82.999999999999986,1783905328],[123.79078,10.274406000000001,82.40000000000002,1783905330],[123.79078800000001,10.274395,82.40000000000002,1783905331],[123.79079299999999,10.274357999999999,82.499999999999986,1783905335],[123.79082099999999,10.274290000000001,82.40000000000002,1783905345],[123.790863,10.274251,82.999999999999986,1783905355],[123.790893,10.274205,83.799999999999997,1783905356],[123.790898,10.274194,83.799999999999997,1783905357],[123.79090600000001,10.274108,85.299999999999997,1783905367],[123.79092300000001,10.274073,85.499999999999986,1783905371],[123.790926,10.274025999999999,85.40000000000002,1783905374],[123.790925,10.274010000000001,85.499999999999986,1783905375],[123.79092900000001,10.273928,85.600000000000009,1783905382],[123.790955,10.273896000000001,86.200000000000003,1783905386],[123.790975,10.273847999999999,87.200000000000003,1783905392],[123.790976,10.273835,87.200000000000003,1783905393],[123.790995,10.273725000000001,87.40000000000002,1783905403],[123.790975,10.273673,87.499999999999986,1783905408],[123.79097299999999,10.273663000000001,87.40000000000002,1783905409],[123.790958,10.273611000000001,87.999999999999986,1783905414],[123.79094499999999,10.273483000000001,88.600000000000009,1783905425],[123.790941,10.273471000000001,88.700000000000003,1783905426],[123.790915,10.273383000000001,89.299999999999997,1783905434],[123.79086599999999,10.27333,90.100000000000009,1783905440],[123.790863,10.273318,90.299999999999997,1783905441],[123.79084400000001,10.273285,90.999999999999986,1783905444],[123.790846,10.273237999999999,91.90000000000002,1783905448],[123.79083,10.273203000000001,92.200000000000003,1783905452],[123.790826,10.273151,92.299999999999997,1783905456],[123.790823,10.273137999999999,92.299999999999997,1783905457],[123.790828,10.273059999999999,91.600000000000009,1783905463],[123.790853,10.272986,90.200000000000003,1783905469],[123.790851,10.272975000000001,90.200000000000003,1783905470],[123.790843,10.272966,89.999999999999986,1783905471],[123.790853,10.272902999999999,88.90000000000002,1783905478],[123.79086599999999,10.272868000000001,87.799999999999997,1783905482],[123.790898,10.272831,84.499999999999986,1783905488],[123.790896,10.272815,83.499999999999986,1783905489],[123.790903,10.272805,82.600000000000009,1783905490],[123.79092,10.272735000000001,78.600000000000009,1783905500],[123.79092900000001,10.272755,76.299999999999997,1783905509],[123.790885,10.272735000000001,73.700000000000003,1783905527],[123.790916,10.272733000000001,72.90000000000002,1783905532],[123.790926,10.272743,72.099999999999994,1783905533],[123.79086,10.272743999999999,70.099999999999994,1783905549],[123.79083799999999,10.272755,69.900000000000006,1783905551],[123.79083,10.272778000000001,69.799999999999997,1783905570],[123.790888,10.272795,68.599999999999994,1783905575],[123.790891,10.272796,68.299999999999997,1783905576],[123.790898,10.272805999999999,66.799999999999997,1783905600],[123.790966,10.272819999999999,66.5,1783905604],[123.790961,10.272796,68.299999999999997,1783905642],[123.79093399999999,10.272758,68.700000000000003,1783905649],[123.79092900000001,10.272755,68.700000000000003,1783905650],[123.79094499999999,10.272774999999999,68.900000000000006,1783905675],[123.791023,10.272823000000001,68.299999999999997,1783905676],[123.790961,10.272816000000001,66,1783905704],[123.79097299999999,10.272793,66.900000000000006,1783905712],[123.79100099999999,10.272800999999999,65.299999999999997,1783905729],[123.791005,10.2728,65.200000000000003,1783905730],[123.791011,10.272798,65,1783905731],[123.79098999999999,10.272788,64.200000000000003,1783905744],[123.79098500000001,10.272762999999999,64.400000000000006,1783905753],[123.79097299999999,10.272753,64.299999999999997,1783905754],[123.790926,10.272733000000001,63.899999999999991,1783905759],[123.790948,10.272743,63,1783905779],[123.790953,10.272774999999999,63.299999999999997,1783905780],[123.790953,10.272781,63.399999999999991,1783905781],[123.79106299999999,10.272834,62.5,1783905806],[123.791038,10.272795,64.099999999999994,1783905818],[123.791028,10.272785000000001,64.200000000000003,1783905819],[123.79099600000001,10.272755,64.200000000000003,1783905822],[123.790969,10.27275,64.299999999999997,1783905824],[123.79097299999999,10.2728,64.200000000000003,1783905832],[123.79098,10.272812999999999,64.099999999999994,1783905834],[123.791006,10.272826,63.700000000000003,1783905836],[123.79101,10.272828000000001,63.600000000000009,1783905837],[123.79098999999999,10.27281,63.399999999999991,1783905842],[123.79099100000001,10.272762999999999,63.799999999999997,1783905848],[123.790995,10.272736,64.900000000000006,1783905852],[123.791021,10.272705,66.599999999999994,1783905857],[123.791026,10.27267,68.599999999999994,1783905861],[123.79102899999999,10.272663,68.900000000000006,1783905862],[123.791048,10.272589999999999,71.700000000000003,1783905870],[123.791078,10.272551,72.5,1783905874],[123.79108600000001,10.272503,72.999999999999986,1783905877],[123.79107999999999,10.272487999999999,73.40000000000002,1783905878],[123.79108100000001,10.272475999999999,73.299999999999997,1783905879],[123.79107,10.272451,72.099999999999994,1783905882],[123.791033,10.272435,71,1783905885],[123.791054,10.272423,68.799999999999997,1783905889],[123.791056,10.272398000000001,66.700000000000003,1783905898],[123.79108100000001,10.272398000000001,65.900000000000006,1783905908],[123.791106,10.272411,66.200000000000003,1783905910],[123.79111399999999,10.272418,66.200000000000003,1783905911],[123.79114,10.272436000000001,66.299999999999997,1783905913],[123.791123,10.272418,66.900000000000006,1783905921],[123.791096,10.272415000000001,66.700000000000003,1783905924],[123.79109800000001,10.272435,66.700000000000003,1783905928],[123.791121,10.272391000000001,69,1783905955],[123.791144,10.272371,69.5,1783905958],[123.791155,10.272361,69.700000000000003,1783905959],[123.791185,10.272321,71.400000000000006,1783905965],[123.79123800000001,10.272295,73.200000000000003,1783905972],[123.79125000000001,10.272238,74.299999999999997,1783905977],[123.791251,10.27223,74.499999999999986,1783905978],[123.79130000000001,10.272173,74.799999999999997,1783905985],[123.79132,10.272095,74.799999999999997,1783905992],[123.791321,10.272086,74.799999999999997,1783905993],[123.791335,10.272,75.100000000000009,1783906003],[123.791376,10.271928000000001,74.90000000000002,1783906009],[123.791388,10.271917999999999,74.999999999999986,1783906010],[123.7914,10.271881,75.299999999999997,1783906013],[123.79142299999999,10.271850000000001,75.499999999999986,1783906018],[123.791421,10.271822999999999,75.100000000000009,1783906021],[123.79148600000001,10.27178,74.299999999999997,1783906026],[123.791506,10.271766,73.700000000000003,1783906027],[123.791545,10.271739999999999,72.799999999999997,1783906030],[123.79155299999999,10.271718999999999,72.200000000000003,1783906032],[123.79163800000001,10.271644999999999,73.100000000000009,1783906042],[123.791636,10.271630999999999,73.499999999999986,1783906043],[123.791633,10.271597999999999,74.90000000000002,1783906046],[123.791648,10.27155,76.700000000000003,1783906050],[123.79168900000001,10.271471,80.299999999999997,1783906059],[123.791693,10.271461,80.600000000000009,1783906060],[123.791693,10.271445,81.200000000000003,1783906061],[123.791708,10.271423,82.499999999999986,1783906063],[123.791805,10.271355,88.299999999999997,1783906074],[123.791821,10.271330000000001,89.100000000000009,1783906077],[123.791825,10.271319999999999,89.200000000000003,1783906078],[123.791825,10.271307999999999,89.299999999999997,1783906079],[123.791905,10.271208,88.999999999999986,1783906096],[123.791961,10.271189,87.100000000000009,1783906098],[123.79197600000001,10.271183000000001,86.799999999999997,1783906099],[123.79210399999999,10.271115999999999,84.299999999999997,1783906109],[123.792115,10.271106,83.90000000000002,1783906110],[123.79219399999999,10.271045000000001,81.499999999999986,1783906117],[123.79224600000001,10.271025,80.600000000000009,1783906120],[123.792259,10.271015999999999,80.40000000000002,1783906121],[123.79235300000001,10.270936000000001,77.299999999999997,1783906134],[123.79239099999999,10.270918,76.299999999999997,1783906137],[123.7924,10.270913,75.90000000000002,1783906138],[123.792473,10.270875999999999,74.200000000000003,1783906145],[123.792529,10.270810000000001,72.099999999999994,1783906152],[123.79253799999999,10.270801000000001,71.900000000000006,1783906153],[123.792548,10.270771,70.599999999999994,1783906157],[123.79257,10.270758000000001,69.900000000000006,1783906160],[123.792591,10.270718,69.400000000000006,1783906166],[123.792655,10.270673,68.799999999999997,1783906172],[123.79267299999999,10.270668000000001,68.700000000000003,1783906173],[123.792726,10.270640999999999,68.099999999999994,1783906177],[123.792788,10.270588,67.200000000000003,1783906182],[123.792801,10.270578,67,1783906183],[123.79283100000001,10.270538,65.599999999999994,1783906188],[123.792845,10.270495,63.799999999999997,1783906193],[123.79289799999999,10.270438,62.100000000000009,1783906199],[123.792901,10.270426,61.799999999999997,1783906200],[123.792946,10.270375,60.299999999999997,1783906207],[123.79294899999999,10.270351,59.700000000000003,1783906209],[123.79298799999999,10.270288000000001,58.299999999999997,1783906215],[123.792986,10.270275,58.200000000000003,1783906216],[123.792979,10.270163,57.600000000000009,1783906228],[123.793018,10.270125999999999,57.299999999999997,1783906233],[123.79302300000001,10.270118,57.200000000000003,1783906234],[123.793098,10.270054999999999,57,1783906240],[123.79311300000001,10.270008000000001,56.899999999999991,1783906243],[123.793116,10.269990999999999,56.899999999999991,1783906244],[123.793153,10.269825000000001,58.5,1783906261],[123.79315800000001,10.269811000000001,58.5,1783906262],[123.793173,10.269767999999999,58.799999999999997,1783906265],[123.793218,10.269726,59.100000000000009,1783906270],[123.793226,10.269674999999999,58,1783906275],[123.79323100000001,10.269655999999999,57.399999999999991,1783906276],[123.793246,10.269600000000001,56.799999999999997,1783906281],[123.79324800000001,10.269475999999999,57.600000000000009,1783906294],[123.793246,10.269465,57.700000000000003,1783906295],[123.793238,10.269435,57.799999999999997,1783906298],[123.79327000000001,10.269382999999999,59,1783906304],[123.79326500000001,10.269335999999999,59.799999999999997,1783906308],[123.79328599999999,10.269315000000001,60.5,1783906311],[123.793291,10.269304999999999,60.700000000000003,1783906312],[123.793401,10.269195,61.399999999999991,1783906322],[123.79340999999999,10.269183,61.200000000000003,1783906323],[123.793453,10.269114999999999,60,1783906336],[123.793435,10.269062999999999,59.200000000000003,1783906344],[123.793451,10.269038999999999,58.799999999999997,1783906348],[123.79346,10.269031,58.700000000000003,1783906349],[123.793533,10.268986,58.700000000000003,1783906356],[123.793581,10.268938,59.100000000000009,1783906360],[123.793595,10.268926,59.299999999999997,1783906361],[123.793626,10.268910999999999,59.5,1783906363],[123.79366400000001,10.268871000000001,60.200000000000003,1783906367],[123.79368599999999,10.268793000000001,60.5,1783906376],[123.793693,10.268784999999999,60.5,1783906377],[123.79380500000001,10.268743000000001,61.700000000000003,1783906387],[123.793836,10.268701,62.399999999999991,1783906392],[123.79384400000001,10.268696,62.5,1783906393],[123.793888,10.268651,61,1783906397],[123.79392,10.268601,59.600000000000009,1783906402],[123.79395100000001,10.268586000000001,59.299999999999997,1783906405],[123.793961,10.268578,59.200000000000003,1783906406],[123.794061,10.268506,59.5,1783906418],[123.794093,10.268466,60.200000000000003,1783906424],[123.794094,10.268466,60.299999999999997,1783906425],[123.794161,10.268435999999999,61.5,1783906438],[123.79422099999999,10.268357999999999,62,1783906447],[123.79422599999999,10.268352999999999,62.100000000000009,1783906448],[123.794298,10.268257999999999,65.099999999999994,1783906460],[123.79434000000001,10.268221,66.599999999999994,1783906465],[123.794353,10.268216000000001,66.900000000000006,1783906466],[123.79441300000001,10.268184,68.5,1783906471],[123.794438,10.26815,69.900000000000006,1783906475],[123.79443499999999,10.268072999999999,71.900000000000006,1783906481],[123.794436,10.26806,72.299999999999997,1783906482],[123.794453,10.268015,73.499999999999986,1783906486],[123.794483,10.268001,74.200000000000003,1783906488],[123.79455799999999,10.267998,74.799999999999997,1783906492],[123.794573,10.267988000000001,74.799999999999997,1783906493],[123.79466600000001,10.267937999999999,73.90000000000002,1783906500],[123.794696,10.267899999999999,72.799999999999997,1783906504],[123.794724,10.267880999999999,72.200000000000003,1783906507],[123.79473299999999,10.267875999999999,72.099999999999994,1783906508],[123.794783,10.267821,71.099999999999994,1783906514],[123.79483399999999,10.267787999999999,70.299999999999997,1783906518],[123.794844,10.267780999999999,70.099999999999994,1783906519],[123.79485,10.267749999999999,69.400000000000006,1783906522],[123.794921,10.267730999999999,67.5,1783906529],[123.794983,10.267676,65.799999999999997,1783906540],[123.794988,10.267670000000001,65.5,1783906541],[123.795078,10.267598,63.799999999999997,1783906553],[123.79512099999999,10.267580000000001,63,1783906558],[123.795131,10.267574,62.899999999999991,1783906559],[123.795293,10.267505999999999,60.600000000000009,1783906574],[123.795305,10.267500999999999,60.5,1783906575],[123.795396,10.267471,59.799999999999997,1783906584],[123.795438,10.267416000000001,60.799999999999997,1783906589],[123.79545299999999,10.26741,61.100000000000009,1783906590],[123.795506,10.267393999999999,62.200000000000003,1783906595],[123.795541,10.267363,63.700000000000003,1783906600],[123.795536,10.267331,64.099999999999994,1783906602],[123.795556,10.267303,64.299999999999997,1783906604],[123.795564,10.267291,64.400000000000006,1783906605],[123.795615,10.26727,64.700000000000003,1783906609],[123.79563,10.267248,64.599999999999994,1783906612],[123.79564000000001,10.267201,65,1783906618],[123.79568999999999,10.26718,64.599999999999994,1783906624],[123.795698,10.267175999999999,64.700000000000003,1783906625],[123.795761,10.267132999999999,65.099999999999994,1783906631],[123.79585299999999,10.267101,65,1783906638],[123.795863,10.267094999999999,64.900000000000006,1783906639],[123.79589300000001,10.267085,64.799999999999997,1783906642],[123.795911,10.267065000000001,64.599999999999994,1783906645],[123.79596100000001,10.266956,65.099999999999994,1783906656],[123.79598,10.266958000000001,65,1783906657],[123.79607,10.266996000000001,62.399999999999991,1783906663],[123.79615099999999,10.267003000000001,61.399999999999991,1783906667],[123.79617500000001,10.267006,61.100000000000009,1783906668],[123.796245,10.267001,60.600000000000009,1783906671],[123.796288,10.266988,60.100000000000009,1783906674],[123.796308,10.266969,59.600000000000009,1783906677],[123.796331,10.266923999999999,58.600000000000009,1783906683],[123.796335,10.266920000000001,58.5,1783906684],[123.796386,10.266816,57.700000000000003,1783906696],[123.796421,10.266775000000001,57.899999999999991,1783906703],[123.796425,10.266762999999999,58.100000000000009,1783906704],[123.79648,10.266708,58.100000000000009,1783906709],[123.79648299999999,10.266686,58.100000000000009,1783906711],[123.796513,10.266643,58.399999999999991,1783906716],[123.79651800000001,10.266638,58.399999999999991,1783906717],[123.79656,10.266572999999999,58.899999999999991,1783906724],[123.79658499999999,10.266508,58.600000000000009,1783906731],[123.796605,10.266488000000001,58.600000000000009,1783906734],[123.79661400000001,10.266481000000001,58.700000000000003,1783906735],[123.796651,10.26642,57.600000000000009,1783906742],[123.796643,10.266396,57.100000000000009,1783906744],[123.796648,10.266381000000001,57,1783906745],[123.796693,10.266348000000001,56.5,1783906748],[123.79670400000001,10.26634,56.399999999999991,1783906749],[123.796836,10.266204999999999,53.799999999999997,1783906769],[123.796836,10.266192999999999,53.899999999999991,1783906770],[123.796841,10.266161,54.100000000000009,1783906773],[123.79688899999999,10.266124,54,1783906777],[123.79690600000001,10.266064999999999,53.399999999999991,1783906784],[123.796916,10.266056000000001,53.299999999999997,1783906785],[123.79692300000001,10.266050999999999,53.299999999999997,1783906786],[123.796971,10.265995999999999,53.200000000000003,1783906793],[123.79697,10.265938,53.299999999999997,1783906799],[123.796986,10.26591,53.5,1783906803],[123.79698999999999,10.265903,53.5,1783906804],[123.79709800000001,10.265786,53,1783906817],[123.797105,10.265777999999999,53.100000000000009,1783906818],[123.79714,10.265655000000001,53.200000000000003,1783906831],[123.79715899999999,10.265616,53.100000000000009,1783906834],[123.797166,10.265603,53.100000000000009,1783906835],[123.79719299999999,10.265549999999999,52.799999999999997,1783906840],[123.797201,10.265508000000001,52,1783906844],[123.797265,10.265465000000001,51.200000000000003,1783906852],[123.797268,10.265456,51.200000000000003,1783906853],[123.79728299999999,10.26538,50.899999999999991,1783906862],[123.79730600000001,10.265343,51.5,1783906865],[123.79731099999999,10.265314999999999,52.399999999999991,1783906867],[123.797318,10.265302999999999,52.700000000000003,1783906868],[123.797338,10.265275000000001,53.100000000000009,1783906871],[123.797343,10.265231,53.5,1783906876],[123.79736,10.265196,53.600000000000009,1783906880],[123.797376,10.265180000000001,53.399999999999991,1783906882]]]}}]}
