{"type":"FeatureCollection","features":[{"type":"Feature","properties":[],"geometry":{"type":"MultiLineString","coordinates":[[[123.9515,10.465089000000001,125,1779664842],[123.95153999999999,10.465202,129,1779664866],[123.95153999999999,10.465541999999999,163,1779664936],[123.95161,10.465627,162,1779664957],[123.95171999999999,10.465605999999999,162,1779665004],[123.95174,10.465742000000001,160,1779665085],[123.9517,10.465843,157,1779665099],[123.95171000000001,10.46594,154,1779665115],[123.95162999999999,10.466016,150,1779665148],[123.95162999999999,10.466135,147,1779665212],[123.95171000000001,10.466196,145,1779665312],[123.95179,10.466284999999999,147,1779665327],[123.95180999999999,10.466393999999999,147,1779665339],[123.95180000000001,10.466485,145,1779665356],[123.95175,10.466573,148,1779665371],[123.95173,10.466671,149,1779665431],[123.95174,10.466783,149,1779665477],[123.95175999999999,10.466886000000001,147,1779665527],[123.95179,10.46701,144,1779665596],[123.95182,10.467112,137,1779665736],[123.95180000000001,10.467212999999999,135,1779665751],[123.95184999999999,10.467337000000001,129,1779665853],[123.95189999999999,10.467458000000001,125,1779665957],[123.95178,10.467568999999999,115,1779666091],[123.95179,10.467663999999999,112,1779666158],[123.95180999999999,10.467758999999999,108,1779666177],[123.95189000000001,10.467834999999999,105,1779666311],[123.95191,10.467934,102,1779666336],[123.95198000000001,10.467998,98,1779666361],[123.95207000000001,10.468052,97,1779666406],[123.95213,10.468143,93,1779666426],[123.95215,10.468249999999999,91,1779666537],[123.95220999999999,10.468337,88,1779666587],[123.95229,10.468442,83,1779666612],[123.95238999999999,10.468499,81,1779666631],[123.95247999999999,10.468553999999999,77,1779666855],[123.95256999999999,10.468631999999999,77,1779666960],[123.95251,10.46852,78,1779667122],[123.95262,10.468633000000001,76,1779667376],[123.95272,10.46869,74,1779667397],[123.95282,10.468737000000001,72,1779667506],[123.9529,10.468783,70,1779667531],[123.95296999999999,10.468862,66,1779667560],[123.95305999999999,10.468912,63,1779667578],[123.95301000000001,10.469028,59,1779667983],[123.95296999999999,10.469139999999999,58,1779668030],[123.95305999999999,10.469201999999999,53,1779668171],[123.95314,10.469129000000001,53,1779668198],[123.95326,10.469155000000001,56,1779668228],[123.95329,10.46926,55,1779668262],[123.95328000000001,10.469139999999999,58,1779668407],[123.95341000000001,10.469099,59,1779668613],[123.95347,10.469029000000001,57,1779668745],[123.95358,10.469018,58,1779668920],[123.95368999999999,10.469023,57,1779668935],[123.95359999999999,10.469085,56,1779669005],[123.95350999999999,10.469099999999999,57,1779669023],[123.9534,10.469106,57,1779669038],[123.9533,10.469149,60,1779669102],[123.95327,10.469248,55,1779669117],[123.95321,10.469324,55,1779669132],[123.95322,10.469417,55,1779669146],[123.95332999999999,10.469455,51,1779669213],[123.95328000000001,10.469538,56,1779669250],[123.95332000000001,10.469626999999999,52,1779669422],[123.9533,10.469720000000001,52,1779669443],[123.95335,10.469816,51,1779669476],[123.95337000000001,10.469922,52,1779669495],[123.95345,10.469988000000001,52,1779669514],[123.95355000000001,10.470024,53,1779670019],[123.95345,10.469976000000001,52,1779670291],[123.95337000000001,10.469913,51,1779670321],[123.95332000000001,10.469832,53,1779670337],[123.95331,10.469725,52,1779670381],[123.95327,10.469623,53,1779670395],[123.95322,10.469529,55,1779670409],[123.95319000000001,10.469431999999999,59,1779670423],[123.95313,10.469344,58,1779670440],[123.95305999999999,10.469272,57,1779670458],[123.95312,10.469169000000001,55,1779670502],[123.95313,10.469061,56,1779670520],[123.95304,10.469027000000001,59,1779670543],[123.95301000000001,10.468937,62,1779670604],[123.95296,10.468845,66,1779670784],[123.9529,10.46875,71,1779670807],[123.95277,10.468696,74,1779670930],[123.95268,10.468646,75,1779670946],[123.95258,10.468608,76,1779670990],[123.95251,10.468513,78,1779671006],[123.95242,10.468484,80,1779671021],[123.95234000000001,10.468423,82,1779671037],[123.95225000000001,10.468353,87,1779671059],[123.95219,10.468261,90,1779671140],[123.95215,10.468154,94,1779671163],[123.9521,10.468054,96,1779671244],[123.95202999999999,10.467985000000001,99,1779671262],[123.95196,10.467909000000001,101,1779671332],[123.95189000000001,10.467781,106,1779671413],[123.95184,10.467662000000001,111,1779671456],[123.95182,10.467574000000001,116,1779671553],[123.95191,10.467292,130,1779671915],[123.95184999999999,10.467186999999999,134,1779672012],[123.95186,10.467091,137,1779672074],[123.95182,10.466998,143,1779672094],[123.95179,10.466892,146,1779672130],[123.95175,10.466797,147,1779672142],[123.95169,10.466710000000001,148,1779672159],[123.95174,10.466626,150,1779672166],[123.95180999999999,10.466562,149,1779672177],[123.95180000000001,10.466461000000001,148,1779672190],[123.95180999999999,10.466347000000001,145,1779672203],[123.95177,10.466258,147,1779672220],[123.95174,10.466168,146,1779672229],[123.95168,10.466067000000001,148,1779672242],[123.95168,10.465966,152,1779672287],[123.9517,10.465873999999999,155,1779672352],[123.95171999999999,10.465741,159,1779672369],[123.95174,10.465617999999999,163,1779672440],[123.95161,10.465617999999999,164,1779672541],[123.95153999999999,10.465482,166,1779672571],[123.95155,10.465341,165,1779672627],[123.95144000000001,10.46524,166,1779672642],[123.95143,10.465125,167,1779672650],[123.95149000000001,10.465049,168,1779672665],[123.95142,10.464981,170,1779672718],[123.95141,10.464983,171,1779672878]]]}}]}
