{"type":"FeatureCollection","features":[{"type":"Feature","geometry":{"type":"Point","coordinates":[123.8389859,10.249238200000001]},"properties":{"category":"service"}},{"type":"Feature","geometry":{"type":"Point","coordinates":[123.8378333,10.250158300000001]},"properties":{"category":"service"}},{"type":"Feature","geometry":{"type":"Point","coordinates":[123.83902329999999,10.250272900000001]},"properties":{"category":"service"}},{"type":"Feature","geometry":{"type":"Point","coordinates":[123.8390766,10.251000299999999]},"properties":{"category":"service"}},{"type":"Feature","geometry":{"type":"Point","coordinates":[123.8392283,10.252716700000001]},"properties":{"category":"service"}},{"type":"Feature","geometry":{"type":"Point","coordinates":[123.8392806,10.253590000000001]},"properties":{"category":"service"}},{"type":"Feature","geometry":{"type":"Point","coordinates":[123.83943170000001,10.2538067]},"properties":{"category":"service"}},{"type":"Feature","geometry":{"type":"Point","coordinates":[123.839555,10.255278300000001]},"properties":{"category":"service"}},{"type":"Feature","geometry":{"type":"Point","coordinates":[123.8195983,10.256276700000001]},"properties":{"category":"service"}},{"type":"Feature","geometry":{"type":"Point","coordinates":[123.8189383,10.257858300000001]},"properties":{"category":"service"}},{"type":"Feature","geometry":{"type":"Point","coordinates":[123.83969329999999,10.260669999999999]},"properties":{"category":"service"}},{"type":"Feature","geometry":{"type":"Point","coordinates":[123.83709500000001,10.261793300000001]},"properties":{"category":"service"}}]}
