{"type":"FeatureCollection","features":[{"type":"Feature","geometry":{"type":"Point","coordinates":[123.8389859,10.249238200000001]},"properties":{"category":"service","preserve":false,"sequence":25,"survey_group":"ba09bfbac8922f97"}},{"type":"Feature","geometry":{"type":"Point","coordinates":[123.8378333,10.250158300000001]},"properties":{"category":"service","preserve":false,"sequence":21,"survey_group":"ba09bfbac8922f97"}},{"type":"Feature","geometry":{"type":"Point","coordinates":[123.83902329999999,10.250272900000001]},"properties":{"category":"service","preserve":false,"sequence":17,"survey_group":"ba09bfbac8922f97"}},{"type":"Feature","geometry":{"type":"Point","coordinates":[123.8390766,10.251000299999999]},"properties":{"category":"service","preserve":false,"sequence":16,"survey_group":"ba09bfbac8922f97"}},{"type":"Feature","geometry":{"type":"Point","coordinates":[123.83357669999999,10.2510633]},"properties":{"category":"service","preserve":true,"sequence":26,"survey_group":"ba09bfbac8922f97"}},{"type":"Feature","geometry":{"type":"Point","coordinates":[123.83255149999999,10.251516199999999]},"properties":{"category":"service","preserve":true,"sequence":0,"survey_group":"ba09bfbac8922f97"}},{"type":"Feature","geometry":{"type":"Point","coordinates":[123.8392283,10.252716700000001]},"properties":{"category":"service","preserve":false,"sequence":14,"survey_group":"ba09bfbac8922f97"}},{"type":"Feature","geometry":{"type":"Point","coordinates":[123.8282432,10.253219899999999]},"properties":{"category":"service","preserve":false,"sequence":1,"survey_group":"ba09bfbac8922f97"}},{"type":"Feature","geometry":{"type":"Point","coordinates":[123.8392806,10.253590000000001]},"properties":{"category":"service","preserve":false,"sequence":13,"survey_group":"ba09bfbac8922f97"}},{"type":"Feature","geometry":{"type":"Point","coordinates":[123.8281837,10.253639700000001]},"properties":{"category":"service","preserve":false,"sequence":2,"survey_group":"ba09bfbac8922f97"}},{"type":"Feature","geometry":{"type":"Point","coordinates":[123.83943170000001,10.2538067]},"properties":{"category":"service","preserve":false,"sequence":11,"survey_group":"ba09bfbac8922f97"}},{"type":"Feature","geometry":{"type":"Point","coordinates":[123.8255312,10.2542755]},"properties":{"category":"service","preserve":false,"sequence":3,"survey_group":"ba09bfbac8922f97"}},{"type":"Feature","geometry":{"type":"Point","coordinates":[123.839555,10.255278300000001]},"properties":{"category":"service","preserve":false,"sequence":10,"survey_group":"ba09bfbac8922f97"}},{"type":"Feature","geometry":{"type":"Point","coordinates":[123.8195983,10.256276700000001]},"properties":{"category":"service","preserve":false,"sequence":4,"survey_group":"ba09bfbac8922f97"}},{"type":"Feature","geometry":{"type":"Point","coordinates":[123.8189383,10.257858300000001]},"properties":{"category":"service","preserve":false,"sequence":5,"survey_group":"ba09bfbac8922f97"}},{"type":"Feature","geometry":{"type":"Point","coordinates":[123.8252367,10.258621700000001]},"properties":{"category":"service","preserve":false,"sequence":6,"survey_group":"ba09bfbac8922f97"}},{"type":"Feature","geometry":{"type":"Point","coordinates":[123.8314067,10.25975]},"properties":{"category":"service","preserve":false,"sequence":7,"survey_group":"ba09bfbac8922f97"}},{"type":"Feature","geometry":{"type":"Point","coordinates":[123.83969329999999,10.260669999999999]},"properties":{"category":"service","preserve":false,"sequence":9,"survey_group":"ba09bfbac8922f97"}},{"type":"Feature","geometry":{"type":"Point","coordinates":[123.83709500000001,10.261793300000001]},"properties":{"category":"service","preserve":false,"sequence":8,"survey_group":"ba09bfbac8922f97"}}]}
