{"type":"FeatureCollection","features":[{"type":"Feature","geometry":{"type":"Point","coordinates":[123.83907670000001,10.249790000000001]},"properties":{"category":"service","signal_dbm":-104,"preserve":true,"sequence":0,"survey_group":"1e40914ebea01d51"}},{"type":"Feature","geometry":{"type":"Point","coordinates":[123.8393117,10.2530383]},"properties":{"category":"service","signal_dbm":-104,"preserve":false,"sequence":1,"survey_group":"1e40914ebea01d51"}},{"type":"Feature","geometry":{"type":"Point","coordinates":[123.84031,10.2590267]},"properties":{"category":"service","signal_dbm":-104,"preserve":false,"sequence":2,"survey_group":"1e40914ebea01d51"}},{"type":"Feature","geometry":{"type":"Point","coordinates":[123.8416017,10.265683299999999]},"properties":{"category":"service","signal_dbm":-97,"preserve":false,"sequence":3,"survey_group":"1e40914ebea01d51"}},{"type":"Feature","geometry":{"type":"Point","coordinates":[123.8487933,10.2729683]},"properties":{"category":"service","signal_dbm":-98,"preserve":false,"sequence":4,"survey_group":"1e40914ebea01d51"}},{"type":"Feature","geometry":{"type":"Point","coordinates":[123.8604383,10.2851417]},"properties":{"category":"service","signal_dbm":-98,"preserve":false,"sequence":5,"survey_group":"1e40914ebea01d51"}},{"type":"Feature","geometry":{"type":"Point","coordinates":[123.86585169999999,10.288578299999999]},"properties":{"category":"service","signal_dbm":-98,"preserve":false,"sequence":6,"survey_group":"1e40914ebea01d51"}},{"type":"Feature","geometry":{"type":"Point","coordinates":[123.872855,10.289858300000001]},"properties":{"category":"service","signal_dbm":-98,"preserve":false,"sequence":7,"survey_group":"1e40914ebea01d51"}},{"type":"Feature","geometry":{"type":"Point","coordinates":[123.87860000000001,10.2920433]},"properties":{"category":"service","signal_dbm":-98,"preserve":false,"sequence":8,"survey_group":"1e40914ebea01d51"}},{"type":"Feature","geometry":{"type":"Point","coordinates":[123.88328,10.295288299999999]},"properties":{"category":"service","signal_dbm":-98,"preserve":true,"sequence":9,"survey_group":"1e40914ebea01d51"}},{"type":"Feature","geometry":{"type":"Point","coordinates":[123.7544125,10.289639599999999]},"properties":{"category":"no_service","signal_dbm":null,"preserve":true,"sequence":24,"survey_group":"11e8f19f50b68a79"}},{"type":"Feature","geometry":{"type":"Point","coordinates":[123.75403350000001,10.290286699999999]},"properties":{"category":"no_service","signal_dbm":null,"preserve":false,"sequence":23,"survey_group":"11e8f19f50b68a79"}},{"type":"Feature","geometry":{"type":"Point","coordinates":[123.7536377,10.291072]},"properties":{"category":"no_service","signal_dbm":null,"preserve":false,"sequence":22,"survey_group":"11e8f19f50b68a79"}},{"type":"Feature","geometry":{"type":"Point","coordinates":[123.75291439999999,10.291391600000001]},"properties":{"category":"no_service","signal_dbm":null,"preserve":false,"sequence":21,"survey_group":"11e8f19f50b68a79"}},{"type":"Feature","geometry":{"type":"Point","coordinates":[123.7526974,10.2920716]},"properties":{"category":"no_service","signal_dbm":null,"preserve":false,"sequence":20,"survey_group":"11e8f19f50b68a79"}},{"type":"Feature","geometry":{"type":"Point","coordinates":[123.7526005,10.2931601]},"properties":{"category":"no_service","signal_dbm":null,"preserve":true,"sequence":19,"survey_group":"11e8f19f50b68a79"}},{"type":"Feature","geometry":{"type":"Point","coordinates":[123.7519142,10.2937198]},"properties":{"category":"service","signal_dbm":-114,"preserve":true,"sequence":18,"survey_group":"11e8f19f50b68a79"}},{"type":"Feature","geometry":{"type":"Point","coordinates":[123.7508708,10.2939434]},"properties":{"category":"no_service","signal_dbm":null,"preserve":true,"sequence":17,"survey_group":"11e8f19f50b68a79"}},{"type":"Feature","geometry":{"type":"Point","coordinates":[123.7511234,10.295159]},"properties":{"category":"service","signal_dbm":-131,"preserve":true,"sequence":16,"survey_group":"11e8f19f50b68a79"}},{"type":"Feature","geometry":{"type":"Point","coordinates":[123.7510017,10.295977600000001]},"properties":{"category":"service","signal_dbm":null,"preserve":false,"sequence":15,"survey_group":"11e8f19f50b68a79"}},{"type":"Feature","geometry":{"type":"Point","coordinates":[123.752168,10.2972226]},"properties":{"category":"service","signal_dbm":-116,"preserve":false,"sequence":14,"survey_group":"11e8f19f50b68a79"}},{"type":"Feature","geometry":{"type":"Point","coordinates":[123.7499361,10.298017700000001]},"properties":{"category":"service","signal_dbm":-101,"preserve":false,"sequence":12,"survey_group":"11e8f19f50b68a79"}},{"type":"Feature","geometry":{"type":"Point","coordinates":[123.7512756,10.2980334]},"properties":{"category":"service","signal_dbm":-114,"preserve":false,"sequence":13,"survey_group":"11e8f19f50b68a79"}},{"type":"Feature","geometry":{"type":"Point","coordinates":[123.7485039,10.298118799999999]},"properties":{"category":"service","signal_dbm":-101,"preserve":false,"sequence":11,"survey_group":"11e8f19f50b68a79"}},{"type":"Feature","geometry":{"type":"Point","coordinates":[123.74666240000001,10.2988097]},"properties":{"category":"service","signal_dbm":-115,"preserve":false,"sequence":10,"survey_group":"11e8f19f50b68a79"}},{"type":"Feature","geometry":{"type":"Point","coordinates":[123.7457263,10.2996689]},"properties":{"category":"service","signal_dbm":-95,"preserve":false,"sequence":9,"survey_group":"11e8f19f50b68a79"}},{"type":"Feature","geometry":{"type":"Point","coordinates":[123.7451871,10.301157999999999]},"properties":{"category":"service","signal_dbm":-115,"preserve":false,"sequence":8,"survey_group":"11e8f19f50b68a79"}},{"type":"Feature","geometry":{"type":"Point","coordinates":[123.7460198,10.3014501]},"properties":{"category":"service","signal_dbm":-93,"preserve":false,"sequence":7,"survey_group":"11e8f19f50b68a79"}},{"type":"Feature","geometry":{"type":"Point","coordinates":[123.7463156,10.3025433]},"properties":{"category":"service","signal_dbm":-93,"preserve":false,"sequence":6,"survey_group":"11e8f19f50b68a79"}},{"type":"Feature","geometry":{"type":"Point","coordinates":[123.7468068,10.3039796]},"properties":{"category":"service","signal_dbm":-98,"preserve":false,"sequence":5,"survey_group":"11e8f19f50b68a79"}},{"type":"Feature","geometry":{"type":"Point","coordinates":[123.74626019999999,10.3043183]},"properties":{"category":"service","signal_dbm":-102,"preserve":false,"sequence":4,"survey_group":"11e8f19f50b68a79"}},{"type":"Feature","geometry":{"type":"Point","coordinates":[123.7460244,10.304845500000001]},"properties":{"category":"service","signal_dbm":-85,"preserve":false,"sequence":3,"survey_group":"11e8f19f50b68a79"}},{"type":"Feature","geometry":{"type":"Point","coordinates":[123.7459611,10.3054396]},"properties":{"category":"service","signal_dbm":-110,"preserve":false,"sequence":2,"survey_group":"11e8f19f50b68a79"}},{"type":"Feature","geometry":{"type":"Point","coordinates":[123.74541809999999,10.3056655]},"properties":{"category":"service","signal_dbm":-94,"preserve":false,"sequence":1,"survey_group":"11e8f19f50b68a79"}},{"type":"Feature","geometry":{"type":"Point","coordinates":[123.7449938,10.305843899999999]},"properties":{"category":"service","signal_dbm":-99,"preserve":true,"sequence":0,"survey_group":"11e8f19f50b68a79"}},{"type":"Feature","geometry":{"type":"Point","coordinates":[123.77984789999999,10.240278500000001]},"properties":{"category":"service","signal_dbm":-85,"preserve":true,"sequence":24,"survey_group":"54f305bb156e3779"}},{"type":"Feature","geometry":{"type":"Point","coordinates":[123.7677735,10.2541925]},"properties":{"category":"service","signal_dbm":-115,"preserve":false,"sequence":23,"survey_group":"54f305bb156e3779"}},{"type":"Feature","geometry":{"type":"Point","coordinates":[123.7580485,10.262430500000001]},"properties":{"category":"service","signal_dbm":-95,"preserve":true,"sequence":22,"survey_group":"54f305bb156e3779"}},{"type":"Feature","geometry":{"type":"Point","coordinates":[123.7537809,10.272888]},"properties":{"category":"no_service","signal_dbm":null,"preserve":true,"sequence":21,"survey_group":"54f305bb156e3779"}},{"type":"Feature","geometry":{"type":"Point","coordinates":[123.753798,10.275138]},"properties":{"category":"service","signal_dbm":null,"preserve":true,"sequence":20,"survey_group":"54f305bb156e3779"}},{"type":"Feature","geometry":{"type":"Point","coordinates":[123.7527764,10.2770355]},"properties":{"category":"service","signal_dbm":null,"preserve":false,"sequence":19,"survey_group":"54f305bb156e3779"}},{"type":"Feature","geometry":{"type":"Point","coordinates":[123.7511356,10.278858]},"properties":{"category":"service","signal_dbm":null,"preserve":true,"sequence":18,"survey_group":"54f305bb156e3779"}},{"type":"Feature","geometry":{"type":"Point","coordinates":[123.75098560000001,10.279615]},"properties":{"category":"no_service","signal_dbm":null,"preserve":true,"sequence":17,"survey_group":"54f305bb156e3779"}},{"type":"Feature","geometry":{"type":"Point","coordinates":[123.75067009999999,10.2809384]},"properties":{"category":"no_service","signal_dbm":null,"preserve":false,"sequence":16,"survey_group":"54f305bb156e3779"}},{"type":"Feature","geometry":{"type":"Point","coordinates":[123.75132739999999,10.282120300000001]},"properties":{"category":"no_service","signal_dbm":null,"preserve":false,"sequence":15,"survey_group":"54f305bb156e3779"}},{"type":"Feature","geometry":{"type":"Point","coordinates":[123.7521224,10.283372399999999]},"properties":{"category":"no_service","signal_dbm":null,"preserve":false,"sequence":14,"survey_group":"54f305bb156e3779"}},{"type":"Feature","geometry":{"type":"Point","coordinates":[123.75275739999999,10.284345200000001]},"properties":{"category":"no_service","signal_dbm":null,"preserve":false,"sequence":13,"survey_group":"54f305bb156e3779"}},{"type":"Feature","geometry":{"type":"Point","coordinates":[123.7534702,10.2852879]},"properties":{"category":"no_service","signal_dbm":null,"preserve":false,"sequence":12,"survey_group":"54f305bb156e3779"}},{"type":"Feature","geometry":{"type":"Point","coordinates":[123.75349110000001,10.286484]},"properties":{"category":"no_service","signal_dbm":null,"preserve":false,"sequence":11,"survey_group":"54f305bb156e3779"}},{"type":"Feature","geometry":{"type":"Point","coordinates":[123.7534569,10.286987699999999]},"properties":{"category":"no_service","signal_dbm":null,"preserve":false,"sequence":10,"survey_group":"54f305bb156e3779"}},{"type":"Feature","geometry":{"type":"Point","coordinates":[123.75464239999999,10.288242]},"properties":{"category":"no_service","signal_dbm":null,"preserve":false,"sequence":9,"survey_group":"54f305bb156e3779"}},{"type":"Feature","geometry":{"type":"Point","coordinates":[123.7553434,10.2888766]},"properties":{"category":"no_service","signal_dbm":null,"preserve":false,"sequence":1,"survey_group":"54f305bb156e3779"}},{"type":"Feature","geometry":{"type":"Point","coordinates":[123.7564957,10.289022299999999]},"properties":{"category":"no_service","signal_dbm":null,"preserve":false,"sequence":2,"survey_group":"54f305bb156e3779"}},{"type":"Feature","geometry":{"type":"Point","coordinates":[123.7560771,10.2890479]},"properties":{"category":"no_service","signal_dbm":null,"preserve":false,"sequence":8,"survey_group":"54f305bb156e3779"}},{"type":"Feature","geometry":{"type":"Point","coordinates":[123.7576906,10.2892815]},"properties":{"category":"no_service","signal_dbm":null,"preserve":false,"sequence":4,"survey_group":"54f305bb156e3779"}},{"type":"Feature","geometry":{"type":"Point","coordinates":[123.7544705,10.289483199999999]},"properties":{"category":"no_service","signal_dbm":null,"preserve":true,"sequence":0,"survey_group":"54f305bb156e3779"}},{"type":"Feature","geometry":{"type":"Point","coordinates":[123.75652770000001,10.289517099999999]},"properties":{"category":"no_service","signal_dbm":null,"preserve":false,"sequence":7,"survey_group":"54f305bb156e3779"}},{"type":"Feature","geometry":{"type":"Point","coordinates":[123.7568048,10.289830200000001]},"properties":{"category":"no_service","signal_dbm":null,"preserve":false,"sequence":3,"survey_group":"54f305bb156e3779"}},{"type":"Feature","geometry":{"type":"Point","coordinates":[123.75806489999999,10.2898446]},"properties":{"category":"no_service","signal_dbm":null,"preserve":false,"sequence":5,"survey_group":"54f305bb156e3779"}}]}
