{"type":"FeatureCollection","features":[{"type":"Feature","properties":[],"geometry":{"type":"MultiLineString","coordinates":[[[123.65992,10.237755999999999,284.30000000000001,1781911389],[123.65992900000001,10.2378,288,1781911786],[123.659983,10.237724999999999,288,1781911801],[123.66000099999999,10.237724999999999,287.60000000000002,1781911807],[123.66003499999999,10.237686,287.19999999999999,1781911814],[123.66010799999999,10.237774999999999,287.60000000000002,1781911865],[123.66019900000001,10.237755,287.80000000000001,1781911866],[123.66022100000001,10.237761000000001,287.80000000000001,1781911868],[123.660325,10.237755,288.89999999999998,1781911881],[123.66033,10.237762999999999,289,1781911882],[123.66033299999999,10.237766000000001,289.10000000000002,1781911883],[123.660381,10.237878,287.80000000000001,1781911906],[123.660371,10.237901000000001,287.60000000000002,1781911949],[123.660464,10.237893,289.30000000000001,1781911950],[123.66049,10.237873,289.80000000000001,1781911984],[123.660571,10.237931,293.10000000000002,1781911985],[123.66058099999999,10.237935999999999,293,1781911986],[123.66069899999999,10.237940999999999,300.69999999999999,1781912071],[123.660706,10.237893,308,1781912072],[123.660695,10.237890999999999,309.60000000000002,1781912083],[123.660713,10.237833,313.10000000000002,1781912084],[123.66074500000001,10.237819999999999,314.19999999999999,1781912088],[123.660855,10.237852999999999,318.60000000000002,1781912110],[123.660888,10.237848,317.89999999999998,1781912126],[123.661001,10.237902999999999,317.80000000000001,1781912131],[123.661145,10.23799,318.19999999999999,1781912193],[123.661361,10.237965000000001,320,1781912218],[123.661373,10.237961,320.19999999999999,1781912219],[123.661401,10.237968,320.60000000000002,1781912222],[123.661483,10.238018,321.5,1781912226],[123.66152599999999,10.23807,322,1781912229],[123.661546,10.238080999999999,322.30000000000001,1781912230],[123.66158799999999,10.238121,322.89999999999998,1781912233],[123.661591,10.238144999999999,322.69999999999999,1781912234],[123.66160600000001,10.238159,322.89999999999998,1781912251],[123.661609,10.238203,324,1781912261],[123.66151000000001,10.238175,325.69999999999999,1781912273],[123.66149799999999,10.238175,325.80000000000001,1781912274],[123.66150500000001,10.238168,326,1781912275],[123.6615,10.238153000000001,326,1781912284],[123.661671,10.238208,329.5,1781912341],[123.661693,10.238206,330,1781912372],[123.661756,10.238273,326.5,1781912373],[123.661748,10.238284999999999,326.10000000000002,1781912378],[123.66172,10.238293000000001,325.69999999999999,1781912379],[123.66172299999999,10.238288000000001,325.5,1781912380],[123.661716,10.238275,325.30000000000001,1781912462],[123.661794,10.238215,328,1781912471],[123.661873,10.238191,330.19999999999999,1781912480],[123.66189900000001,10.238199,330,1781912487],[123.66199400000001,10.238175,330.69999999999999,1781912493],[123.66201100000001,10.238175999999999,330.80000000000001,1781912494],[123.66196100000001,10.238144999999999,331.30000000000001,1781912530],[123.662055,10.238143000000001,332.10000000000002,1781912532],[123.662086,10.238125999999999,332.80000000000001,1781912552],[123.662076,10.238218,336.19999999999999,1781912553],[123.662081,10.23823,336.39999999999998,1781912554],[123.66209600000001,10.238248,336.80000000000001,1781912577],[123.662178,10.238289,339,1781912597],[123.662143,10.238273,342.30000000000001,1781912618],[123.66224800000001,10.238244999999999,343.69999999999999,1781912677],[123.662288,10.238248,344,1781912681],[123.662296,10.238249,343.89999999999998,1781912682],[123.66234,10.238303,343.80000000000001,1781912693],[123.662375,10.238326000000001,343.39999999999998,1781912694],[123.662386,10.238318,343.30000000000001,1781912707],[123.66250599999999,10.238403,343.10000000000002,1781912711],[123.662514,10.238408,343.10000000000002,1781912712],[123.66263600000001,10.238503,345.69999999999999,1781912729],[123.66277599999999,10.238588,348.69999999999999,1781912790],[123.662791,10.238595999999999,348.69999999999999,1781912791],[123.662953,10.238676,348.5,1781912804],[123.66295599999999,10.238678,348.39999999999998,1781912805],[123.663033,10.238728,347.39999999999998,1781912810],[123.663051,10.238775,346.89999999999998,1781912815],[123.66307999999999,10.238796000000001,346.80000000000001,1781912817],[123.663083,10.238796000000001,346.69999999999999,1781912818],[123.66319,10.238916,342.39999999999998,1781912897],[123.663208,10.238911,342.19999999999999,1781912939],[123.66330000000001,10.238965,342.10000000000002,1781912941],[123.66331,10.238966,342.19999999999999,1781912942],[123.663391,10.239055,344.5,1781912980],[123.663426,10.239072999999999,344.5,1781912981],[123.66344599999999,10.239113,343.60000000000002,1781912997],[123.663526,10.239167999999999,341.60000000000002,1781912999],[123.66353100000001,10.239174999999999,341.5,1781913000],[123.663585,10.2392,340.80000000000001,1781913006],[123.663646,10.239246,339.69999999999999,1781913068],[123.663686,10.239336,338.69999999999999,1781913070],[123.66369299999999,10.239345999999999,338.69999999999999,1781913071],[123.663714,10.239374,338.69999999999999,1781913073],[123.66372,10.239398,338.69999999999999,1781913089],[123.663763,10.239402999999999,338.60000000000002,1781913090],[123.66377799999999,10.239418000000001,338.5,1781913112],[123.663804,10.239490999999999,338.39999999999998,1781913113],[123.66377300000001,10.239452999999999,337.39999999999998,1781913121],[123.663765,10.23945,337.30000000000001,1781913122],[123.66375600000001,10.239451000000001,337.30000000000001,1781913123],[123.663828,10.239540999999999,336,1781913159],[123.663825,10.239571,336,1781913179],[123.66389100000001,10.239637999999999,337.30000000000001,1781913198],[123.663916,10.23964,337.5,1781913218],[123.663996,10.239687999999999,341.19999999999999,1781913219],[123.664006,10.239693000000001,341.60000000000002,1781913220],[123.664046,10.239701,342.5,1781913223],[123.66415499999999,10.239696,343.5,1781913353],[123.664103,10.239777999999999,342.39999999999998,1781913356],[123.66404300000001,10.239849,341.80000000000001,1781913407],[123.664033,10.239860999999999,341.80000000000001,1781913408],[123.66403099999999,10.239893,341.60000000000002,1781913446],[123.66406600000001,10.239978000000001,342.19999999999999,1781913447],[123.66400299999999,10.2401,342.30000000000001,1781913464],[123.663971,10.240197999999999,343.30000000000001,1781913497],[123.663973,10.240201000000001,343.19999999999999,1781913498],[123.66394099999999,10.240288,343.89999999999998,1781913512],[123.66392999999999,10.240383,344,1781913525],[123.663888,10.240481000000001,345.10000000000002,1781913531],[123.66388600000001,10.240494999999999,345.30000000000001,1781913532],[123.663853,10.240665,347.80000000000001,1781913567],[123.66381,10.240717999999999,347.10000000000002,1781913579],[123.66373,10.240769999999999,346.30000000000001,1781913580],[123.663718,10.240776,346.10000000000002,1781913581],[123.663607,10.240857,344,1781913759],[123.663555,10.240824999999999,344.19999999999999,1781913873],[123.66357000000001,10.240795,344.89999999999998,1781914001],[123.663499,10.240856000000001,345,1781914002],[123.663493,10.24086,345,1781914003],[123.66341799999999,10.240947999999999,344.39999999999998,1781914015],[123.66334000000001,10.241011,343.60000000000002,1781914023],[123.66333299999999,10.241018,343.60000000000002,1781914024],[123.663213,10.241083,341.60000000000002,1781914040],[123.663093,10.241099999999999,339.10000000000002,1781914069],[123.663073,10.241097999999999,339.10000000000002,1781914071],[123.663073,10.241085,338.89999999999998,1781914107],[123.662975,10.241108000000001,337.10000000000002,1781914108],[123.662963,10.241116,336.89999999999998,1781914109],[123.66286599999999,10.241158,336.30000000000001,1781914284],[123.66261,10.241185,335.5,1781914314],[123.662603,10.241187999999999,335.5,1781914315],[123.662509,10.241218999999999,334,1781914804],[123.662561,10.241187999999999,337.30000000000001,1781915166],[123.66261299999999,10.241180999999999,337.5,1781915171],[123.662623,10.241178,337.5,1781915172],[123.662668,10.241163,337.60000000000002,1781915184],[123.66276999999999,10.241153000000001,336,1781915200],[123.662831,10.241128,337.5,1781915218],[123.66283799999999,10.241123,337.60000000000002,1781915219],[123.66289,10.241092999999999,338.5,1781915230],[123.663023,10.241054999999999,341,1781915240],[123.663033,10.241047999999999,341.10000000000002,1781915241],[123.663053,10.241028,341.60000000000002,1781915246],[123.66319900000001,10.241008000000001,343.19999999999999,1781915257],[123.663211,10.241006,343.39999999999998,1781915258],[123.663281,10.240976,344.10000000000002,1781915264],[123.663303,10.240935,344.30000000000001,1781915269],[123.663301,10.240883,343.80000000000001,1781915276],[123.663303,10.240878,343.69999999999999,1781915277],[123.66331,10.240878,343.19999999999999,1781915288],[123.66330000000001,10.240805999999999,342.60000000000002,1781915498],[123.663286,10.24076,343.5,1781915499],[123.66330600000001,10.240769999999999,343.69999999999999,1781915512],[123.66340599999999,10.240776,344.60000000000002,1781915514],[123.663414,10.240778000000001,344.69999999999999,1781915515],[123.66346299999999,10.240796,345.10000000000002,1781915519],[123.663501,10.240798,345.60000000000002,1781915531],[123.66362599999999,10.240791,346.80000000000001,1781915534],[123.663653,10.240778000000001,347.39999999999998,1781915537],[123.663676,10.240781,346.80000000000001,1781915538],[123.663706,10.240791,345.89999999999998,1781915585],[123.663785,10.240743,346.39999999999998,1781915586],[123.66380599999999,10.240684999999999,346.89999999999998,1781915592],[123.66380599999999,10.240629999999999,347.89999999999998,1781915598],[123.663804,10.240618,348,1781915599],[123.663831,10.240565999999999,349,1781915604],[123.66381800000001,10.240436000000001,351.5,1781915619],[123.66383399999999,10.240360000000001,352.89999999999998,1781915626],[123.66383399999999,10.240347999999999,352.89999999999998,1781915627],[123.663833,10.240308000000001,353,1781915641],[123.663856,10.240213000000001,354,1781915642],[123.66388999999999,10.240161000000001,354,1781915647],[123.663898,10.240128,354.10000000000002,1781915650],[123.663903,10.240118000000001,354.10000000000002,1781915651],[123.663918,10.240041,354,1781915656],[123.66398599999999,10.239988,354,1781915674],[123.66408,10.239936,354.30000000000001,1781915676],[123.664086,10.239933000000001,354.19999999999999,1781915677],[123.66419999999999,10.23986,353.30000000000001,1781915718],[123.664331,10.239820999999999,353,1781915729],[123.66434599999999,10.239815999999999,352.89999999999998,1781915730],[123.664563,10.239843,352.89999999999998,1781915748],[123.664575,10.239846,352.89999999999998,1781915749],[123.66463,10.239896,352,1781915762],[123.66473999999999,10.239938,352.5,1781915771],[123.66482600000001,10.240003,353,1781915781],[123.664835,10.24001,353,1781915782],[123.66495,10.240057999999999,353.80000000000001,1781915791],[123.66498300000001,10.24009,353.89999999999998,1781915794],[123.664995,10.240118000000001,353.39999999999998,1781915796],[123.66502300000001,10.240129,353.10000000000002,1781915799],[123.665075,10.240178,352.80000000000001,1781915804],[123.665098,10.240186,353,1781915806],[123.665131,10.240225000000001,352.60000000000002,1781915817],[123.665238,10.24029,350.69999999999999,1781915822],[123.66529800000001,10.240326,352.89999999999998,1781915829],[123.665441,10.240470999999999,353.39999999999998,1781915846],[123.665446,10.240475999999999,353.30000000000001,1781915847],[123.665498,10.240583000000001,353.69999999999999,1781915860],[123.66558000000001,10.240672999999999,354.30000000000001,1781915873],[123.665593,10.240705,354.80000000000001,1781915874],[123.665598,10.240717999999999,354.60000000000002,1781915875],[123.66568100000001,10.240796,355.10000000000002,1781915889],[123.665733,10.240812999999999,356,1781915897],[123.66583900000001,10.240906000000001,357.30000000000001,1781915918],[123.66584400000001,10.24091,357.39999999999998,1781915919],[123.665941,10.24094,358.60000000000002,1781916053],[123.665971,10.24103,359.80000000000001,1781916054],[123.666031,10.241070000000001,359.69999999999999,1781916059],[123.666033,10.241075,359.60000000000002,1781916060],[123.666141,10.241116,360.19999999999999,1781916182],[123.666268,10.241216,361.10000000000002,1781916199],[123.66628,10.241220999999999,361.19999999999999,1781916200],[123.66639499999999,10.241296,360.89999999999998,1781916246],[123.666414,10.241336,360.80000000000001,1781916250],[123.666511,10.241441,360.10000000000002,1781916263],[123.666523,10.241455,360,1781916264],[123.666555,10.241512999999999,359.69999999999999,1781916269],[123.666561,10.241555,359.80000000000001,1781916272],[123.66660299999999,10.241621,359.80000000000001,1781916277],[123.666611,10.241629,359.80000000000001,1781916278],[123.666625,10.241666,359.80000000000001,1781916282],[123.66666499999999,10.241701000000001,359.10000000000002,1781916289],[123.666748,10.241743,359.19999999999999,1781916298],[123.66676,10.241745,359.30000000000001,1781916299],[123.66686300000001,10.2418,359,1781916324],[123.667035,10.241806,357,1781916383],[123.667041,10.241804999999999,357,1781916384],[123.66704900000001,10.241806,357,1781916385],[123.667028,10.241841000000001,357.5,1781916465],[123.667224,10.241853000000001,357.69999999999999,1781916488],[123.667238,10.241854999999999,357.60000000000002,1781916489],[123.667333,10.24183,357.60000000000002,1781916499],[123.667385,10.241830999999999,357.30000000000001,1781916512],[123.667463,10.241783,357.30000000000001,1781916513],[123.66747599999999,10.241776,357.30000000000001,1781916514],[123.66765599999999,10.241676,357,1781916530],[123.667666,10.241669999999999,357.10000000000002,1781916531],[123.66766800000001,10.241655,357.5,1781916542],[123.667748,10.241607999999999,358.69999999999999,1781916543],[123.667823,10.241571,358.69999999999999,1781916555],[123.667896,10.241553,358.5,1781916560],[123.66791499999999,10.241548,358.5,1781916561],[123.667948,10.241541,358.60000000000002,1781916563],[123.668075,10.241555999999999,358.80000000000001,1781916574],[123.66814100000001,10.241648,359,1781916591],[123.668138,10.24166,358.89999999999998,1781916592],[123.668148,10.241678,358.69999999999999,1781916593],[123.668201,10.241740999999999,358.5,1781916615],[123.66823100000001,10.2418,359.10000000000002,1781916621],[123.66824,10.241841000000001,359.19999999999999,1781916624],[123.66824099999999,10.241851,359.19999999999999,1781916625],[123.66821400000001,10.241965,360.30000000000001,1781916663],[123.668218,10.241989999999999,360.5,1781916674],[123.668255,10.242073,360.19999999999999,1781916675],[123.668358,10.242172999999999,362,1781916690],[123.66837099999999,10.242184999999999,361.89999999999998,1781916691],[123.66844500000001,10.242240000000001,362.30000000000001,1781916702],[123.66853999999999,10.242385000000001,365.19999999999999,1781916717],[123.66853999999999,10.242391,365.39999999999998,1781916718],[123.66857,10.242407999999999,365.89999999999998,1781916722],[123.668595,10.242459999999999,366.69999999999999,1781916725],[123.668646,10.242526,367.39999999999998,1781916731],[123.66865799999999,10.242535999999999,367.39999999999998,1781916732],[123.668699,10.242633,368,1781916774],[123.66874300000001,10.242686000000001,368.30000000000001,1781916795],[123.668798,10.242701,368.39999999999998,1781916800],[123.66880500000001,10.242699999999999,368.39999999999998,1781916801],[123.66884899999999,10.24272,368.30000000000001,1781916814],[123.66895,10.242725,368.5,1781916815],[123.669066,10.242683,369,1781916866],[123.66918800000001,10.242666,369.5,1781916902],[123.6692,10.242668,369.5,1781916903],[123.669211,10.24267,369.5,1781916931],[123.66931,10.242580999999999,368.69999999999999,1781916944],[123.669398,10.242535999999999,368,1781916946],[123.669426,10.242533,367.80000000000001,1781916947],[123.66963800000001,10.242505,367.10000000000002,1781916960],[123.66966600000001,10.242501000000001,367.19999999999999,1781916961],[123.66981800000001,10.242483999999999,367.80000000000001,1781916972],[123.669844,10.242473,367.80000000000001,1781916974],[123.66986300000001,10.242475000000001,367.69999999999999,1781916975],[123.66992399999999,10.242468000000001,368.10000000000002,1781916979],[123.67,10.242478,368.39999999999998,1781916984],[123.670006,10.242483,368.5,1781916985],[123.67007599999999,10.242525000000001,368.69999999999999,1781917047],[123.669825,10.242526,370.39999999999998,1781917082],[123.669813,10.242528999999999,370.5,1781917083],[123.66971100000001,10.242565000000001,371.19999999999999,1781917095],[123.66963,10.242559999999999,370.5,1781917115],[123.66955299999999,10.242635,369.80000000000001,1781917117],[123.669551,10.242635999999999,369.89999999999998,1781917118],[123.66955,10.242664,369.69999999999999,1781917121],[123.669516,10.242743000000001,369.5,1781917128],[123.669465,10.242820999999999,368.69999999999999,1781917134],[123.669461,10.242831000000001,368.5,1781917135],[123.669428,10.242915999999999,367.19999999999999,1781917144],[123.66946799999999,10.242981,366.5,1781917150],[123.669478,10.242995000000001,366.5,1781917151],[123.669488,10.243023000000001,366.19999999999999,1781917165],[123.66946799999999,10.243141,366.10000000000002,1781917168],[123.669501,10.243247999999999,365.5,1781917179],[123.669511,10.243325,364.5,1781917182],[123.66951400000001,10.243338,364.60000000000002,1781917183],[123.66960400000001,10.243639999999999,363.60000000000002,1781917210],[123.669611,10.243653,363.69999999999999,1781917211],[123.669656,10.24375,364.19999999999999,1781917219],[123.66967,10.243803,364,1781917232],[123.669726,10.243876,363.89999999999998,1781917233],[123.669731,10.243883,363.89999999999998,1781917234],[123.66989100000001,10.244058000000001,361,1781917284],[123.66992,10.244076,360.69999999999999,1781917291],[123.669956,10.24413,360,1781917293],[123.669963,10.244142999999999,359.89999999999998,1781917294],[123.669996,10.244194999999999,359.30000000000001,1781917299],[123.670063,10.244261,357.89999999999998,1781917308],[123.67012800000001,10.244327999999999,356.5,1781917334],[123.670163,10.244391,355.80000000000001,1781917341],[123.67024499999999,10.244481,354.19999999999999,1781917354],[123.67024499999999,10.244495000000001,354,1781917355],[123.670238,10.24452,353.60000000000002,1781917422],[123.67027,10.244560999999999,353.30000000000001,1781917423],[123.67028000000001,10.244596,353.30000000000001,1781917426],[123.670286,10.244788,352.89999999999998,1781917467],[123.67028500000001,10.244797999999999,352.89999999999998,1781917468],[123.67025,10.244880999999999,352.89999999999998,1781917517],[123.670258,10.244840999999999,352.69999999999999,1781917529],[123.670281,10.244911,352.60000000000002,1781917530],[123.670283,10.244946000000001,352.5,1781917570],[123.67024000000001,10.245001,352.19999999999999,1781917571],[123.670241,10.245008,352.30000000000001,1781917572],[123.670271,10.245028,352.39999999999998,1781917575],[123.670276,10.245051,352.5,1781917577],[123.67026300000001,10.245082999999999,352.5,1781917599],[123.67028000000001,10.245105000000001,352.5,1781917600],[123.670261,10.245158,352.69999999999999,1781917606],[123.67026,10.245165999999999,352.60000000000002,1781917607],[123.670233,10.245196,352.30000000000001,1781917652],[123.67019999999999,10.245279999999999,353,1781917653],[123.670208,10.245305999999999,353.30000000000001,1781917662],[123.67017300000001,10.245414999999999,354.60000000000002,1781917667],[123.67020100000001,10.245511,355.19999999999999,1781917677],[123.67021800000001,10.24554,354.89999999999998,1781917682],[123.670241,10.245556000000001,354.80000000000001,1781917683],[123.67030099999999,10.245561,353.39999999999998,1781917690],[123.670311,10.245558000000001,353.19999999999999,1781917691],[123.670333,10.245558000000001,352.60000000000002,1781917694],[123.67042600000001,10.245602999999999,350,1781917705],[123.670461,10.245646000000001,349.89999999999998,1781917710],[123.670463,10.245654999999999,350,1781917711],[123.670508,10.245723,349.10000000000002,1781917717],[123.670526,10.24579,347.60000000000002,1781917724],[123.670548,10.245891,346,1781917733],[123.670603,10.245955,345.5,1781917742],[123.670643,10.246043,344,1781917749],[123.67066,10.246117999999999,343.19999999999999,1781917754],[123.670666,10.246128000000001,343.10000000000002,1781917755],[123.670708,10.24624,342.60000000000002,1781917766],[123.670714,10.246368,340,1781917810],[123.670698,10.246433,341.10000000000002,1781917825],[123.670698,10.246446000000001,341.19999999999999,1781917826],[123.67067,10.246559,342,1781917837],[123.670635,10.246606,342,1781917840],[123.67062300000001,10.24666,342.30000000000001,1781917844],[123.67062,10.246675,342.19999999999999,1781917845],[123.670621,10.246743,341.60000000000002,1781917851],[123.670661,10.246786999999999,340,1781917862],[123.670766,10.246781,338.10000000000002,1781917869],[123.670773,10.246779999999999,337.89999999999998,1781917870],[123.670936,10.246751,335.60000000000002,1781917884],[123.67094299999999,10.246753,335.19999999999999,1781917885],[123.67099,10.246753,334.60000000000002,1781917889],[123.67105100000001,10.246729999999999,333.30000000000001,1781917894],[123.67112,10.246746,331.80000000000001,1781917944],[123.67112899999999,10.246743,331.80000000000001,1781917945],[123.67117,10.246727999999999,331.60000000000002,1781917950],[123.671193,10.246727999999999,331.69999999999999,1781917952],[123.67116799999999,10.246738000000001,331.30000000000001,1781917961],[123.671188,10.246748,330.89999999999998,1781917981],[123.67120799999999,10.246738000000001,331,1781917990],[123.67126500000001,10.246740000000001,331,1781917992],[123.671278,10.246738000000001,331.10000000000002,1781917993],[123.67143799999999,10.246786,329.10000000000002,1781918006],[123.67145499999999,10.246790000000001,328.60000000000002,1781918007],[123.671603,10.246793,327.19999999999999,1781918025],[123.67167999999999,10.24681,326.19999999999999,1781918032],[123.671693,10.246813,325.80000000000001,1781918033],[123.671806,10.246822999999999,324.69999999999999,1781918041],[123.671868,10.246817999999999,324,1781918046],[123.67187800000001,10.246816000000001,323.89999999999998,1781918047],[123.67203499999999,10.246803,320.19999999999999,1781918060],[123.67204599999999,10.246801,320.10000000000002,1781918061],[123.672251,10.246743,315,1781918080],[123.672265,10.246740000000001,314.80000000000001,1781918081],[123.672405,10.246683000000001,312.80000000000001,1781918091],[123.672416,10.246677999999999,312.69999999999999,1781918092],[123.67255299999999,10.246603,312.10000000000002,1781918104],[123.67256500000001,10.246598000000001,312.19999999999999,1781918105],[123.672645,10.246591,311.60000000000002,1781918114],[123.672803,10.246603,310.69999999999999,1781918131],[123.672816,10.246606,310.80000000000001,1781918132],[123.67286300000001,10.246594999999999,310.89999999999998,1781918138],[123.672994,10.246641,309.30000000000001,1781918148],[123.672999,10.246646,309.10000000000002,1781918149],[123.67316099999999,10.246661,308.19999999999999,1781918162],[123.673171,10.246665,308.39999999999998,1781918163],[123.673264,10.246691,309.30000000000001,1781918170],[123.67334,10.246729999999999,309.30000000000001,1781918177],[123.673346,10.246729999999999,309.39999999999998,1781918178],[123.673458,10.246755,311.5,1781918235],[123.673534,10.246790000000001,313.5,1781918244],[123.673548,10.246791,313.69999999999999,1781918245],[123.67362,10.246813,315.39999999999998,1781918253],[123.673711,10.24682,316.30000000000001,1781918259],[123.673728,10.246824999999999,316.5,1781918260],[123.673896,10.246867999999999,318.60000000000002,1781918274],[123.67391000000001,10.246878000000001,318.5,1781918275],[123.67395,10.246886,319.10000000000002,1781918283],[123.673996,10.246918000000001,319.80000000000001,1781918285],[123.67406,10.246928,321,1781918289],[123.674071,10.246929,321.39999999999998,1781918290],[123.674177,10.247002,323,1781918301],[123.674233,10.247052999999999,323.60000000000002,1781918305],[123.67425,10.24708,323.60000000000002,1781918307],[123.674261,10.247097999999999,323.5,1781918308],[123.674313,10.247166,323.39999999999998,1781918314],[123.67432599999999,10.247204999999999,322.60000000000002,1781918317],[123.674325,10.247233,322.60000000000002,1781918319],[123.674331,10.247251,322.5,1781918320],[123.674336,10.247335,321.39999999999998,1781918326],[123.674373,10.247411,320.5,1781918333],[123.67437099999999,10.247423,320.39999999999998,1781918334],[123.67441599999999,10.247563,321.60000000000002,1781918345],[123.674425,10.247574999999999,321.69999999999999,1781918346],[123.674486,10.247628000000001,321.30000000000001,1781918352],[123.674528,10.247698,320.89999999999998,1781918358],[123.674538,10.247711000000001,320.60000000000002,1781918359],[123.674601,10.247816,319,1781918370],[123.674616,10.247858000000001,317.89999999999998,1781918372],[123.67461900000001,10.247866,317.89999999999998,1781918373],[123.674628,10.247941000000001,316.69999999999999,1781918378],[123.674668,10.248037999999999,316.80000000000001,1781918387],[123.67467499999999,10.248049999999999,316.69999999999999,1781918388],[123.6747,10.24816,315.60000000000002,1781918397],[123.674746,10.248246,314.80000000000001,1781918407],[123.674753,10.248255,314.80000000000001,1781918408],[123.67476600000001,10.248298,315.30000000000001,1781918411],[123.674798,10.248346,315.39999999999998,1781918415],[123.674806,10.248400999999999,314.30000000000001,1781918418],[123.674813,10.248408,314.19999999999999,1781918419],[123.67489500000001,10.248469999999999,314.80000000000001,1781918429],[123.675028,10.248525000000001,316.60000000000002,1781918443],[123.67503600000001,10.248531,316.5,1781918444],[123.675085,10.248545999999999,316.19999999999999,1781918448],[123.675213,10.248556000000001,316,1781918458],[123.675223,10.248552999999999,316,1781918459],[123.675316,10.248545,315.10000000000002,1781918466],[123.675365,10.248528,314.39999999999998,1781918469],[123.67537799999999,10.248523,313.80000000000001,1781918470],[123.675421,10.248493,312.80000000000001,1781918473],[123.675483,10.248416000000001,311.19999999999999,1781918481],[123.67550799999999,10.248400999999999,310.80000000000001,1781918483],[123.675518,10.248390000000001,310.80000000000001,1781918484],[123.67557600000001,10.248345,310.69999999999999,1781918490],[123.67565500000001,10.24831,310,1781918496],[123.675668,10.248303999999999,309.89999999999998,1781918497],[123.675811,10.248286,307.19999999999999,1781918508],[123.675828,10.248286,307,1781918509],[123.67590800000001,10.248298,306.89999999999998,1781918515],[123.676013,10.248336,308,1781918526],[123.676025,10.248343,308.10000000000002,1781918527],[123.67612800000001,10.248391,308.89999999999998,1781918536],[123.67618400000001,10.248405,309.39999999999998,1781918541],[123.676198,10.248411000000001,309.39999999999998,1781918542],[123.67627299999999,10.248430000000001,309.30000000000001,1781918547],[123.676346,10.248426,309.10000000000002,1781918554],[123.676355,10.248430000000001,309.10000000000002,1781918555],[123.676373,10.248435000000001,309.10000000000002,1781918562],[123.676615,10.248393,306.69999999999999,1781918582],[123.676625,10.248386,306.39999999999998,1781918583],[123.676796,10.248358,304.60000000000002,1781918596],[123.67680799999999,10.24836,304.19999999999999,1781918597],[123.676991,10.248340000000001,300.5,1781918615],[123.677008,10.248333000000001,300.30000000000001,1781918616],[123.677048,10.248328000000001,299.5,1781918619],[123.6772,10.248341,297,1781918632],[123.67721299999999,10.248340000000001,297,1781918633],[123.67725900000001,10.248365,296.89999999999998,1781918637],[123.677336,10.248378000000001,296.5,1781918643],[123.67735999999999,10.248398,296.5,1781918646],[123.677368,10.248405999999999,296.30000000000001,1781918647],[123.677486,10.248471,295,1781918697],[123.677504,10.248540999999999,294.69999999999999,1781918740],[123.677516,10.24854,294.80000000000001,1781918741],[123.67761299999999,10.248551000000001,295.19999999999999,1781918749],[123.677598,10.248568000000001,295.19999999999999,1781918758],[123.67753399999999,10.248555,295.60000000000002,1781918763],[123.677526,10.248552999999999,295.5,1781918764],[123.67751800000001,10.248545,294.89999999999998,1781918765],[123.677621,10.248526,297.69999999999999,1781918793],[123.677666,10.248531,298.19999999999999,1781918797],[123.677705,10.248521,298.80000000000001,1781918813],[123.677808,10.248519999999999,299.60000000000002,1781918815],[123.677813,10.248519999999999,299.69999999999999,1781918816],[123.67788899999999,10.248523,299.69999999999999,1781918824],[123.677938,10.248500999999999,300,1781918834],[123.678048,10.248483,298.60000000000002,1781918836],[123.678066,10.248476,298.30000000000001,1781918837],[123.678235,10.248446,294.80000000000001,1781918851],[123.67824299999999,10.248446,294.5,1781918852],[123.678393,10.248428000000001,291.10000000000002,1781918863],[123.678404,10.248426,290.80000000000001,1781918864],[123.67845800000001,10.248416000000001,289.10000000000002,1781918868],[123.67851899999999,10.248421,287.5,1781918872],[123.67858099999999,10.248398,286.19999999999999,1781918877],[123.678591,10.248391,286,1781918878],[123.678721,10.24832,283.80000000000001,1781918889],[123.67872800000001,10.248313,283.69999999999999,1781918890],[123.678878,10.248236,283.80000000000001,1781918903],[123.678888,10.248233000000001,283.89999999999998,1781918904],[123.67894099999999,10.248211,284.19999999999999,1781918908],[123.679025,10.248158,285.10000000000002,1781918916],[123.679036,10.248155000000001,285.10000000000002,1781918917],[123.679115,10.248125,285,1781918923],[123.67916099999999,10.248120999999999,285,1781918927],[123.67918,10.248138000000001,285,1781918943],[123.67921,10.248141,285.10000000000002,1781918944],[123.679214,10.248135,285.10000000000002,1781918945],[123.679238,10.248103,285,1781918948],[123.67934099999999,10.248060000000001,284.89999999999998,1781918956],[123.679356,10.248054,284.89999999999998,1781918957],[123.679429,10.248028,285.5,1781918963],[123.679518,10.248025999999999,286.10000000000002,1781918970],[123.679528,10.248025999999999,286.19999999999999,1781918971],[123.679638,10.248048000000001,287.39999999999998,1781918980],[123.679683,10.248048000000001,287.39999999999998,1781918983],[123.679698,10.248049999999999,287.39999999999998,1781918984],[123.679793,10.248035,288.60000000000002,1781918992],[123.679863,10.248006,290.60000000000002,1781918998],[123.679878,10.248003000000001,291,1781918999],[123.679941,10.248003000000001,292.89999999999998,1781919004],[123.679993,10.24799,294.89999999999998,1781919009],[123.680041,10.247964,296.30000000000001,1781919013],[123.680053,10.247960000000001,296.69999999999999,1781919014],[123.68013000000001,10.247938,298.60000000000002,1781919022],[123.680243,10.24793,299.89999999999998,1781919030],[123.680255,10.247925,300.19999999999999,1781919031],[123.680423,10.247921,301.89999999999998,1781919046],[123.680463,10.247930999999999,303.10000000000002,1781919049],[123.680511,10.247918,304.10000000000002,1781919053],[123.680578,10.247915000000001,305.39999999999998,1781919058],[123.680581,10.247915000000001,305.60000000000002,1781919059],[123.680755,10.247953000000001,305.89999999999998,1781919128],[123.68077,10.247954999999999,305.89999999999998,1781919129],[123.680908,10.247985999999999,307,1781919142],[123.680986,10.247976,307.69999999999999,1781919149],[123.680995,10.247968,307.80000000000001,1781919150],[123.681023,10.247958000000001,308,1781919152],[123.68105300000001,10.247921,308.10000000000002,1781919156],[123.681096,10.247818000000001,308.30000000000001,1781919165],[123.6811,10.247807999999999,308.30000000000001,1781919166],[123.681133,10.247707999999999,308.39999999999998,1781919174],[123.68113,10.247655,308.89999999999998,1781919178],[123.68112600000001,10.247638999999999,309.10000000000002,1781919179],[123.681128,10.247590000000001,309.30000000000001,1781919183],[123.681151,10.247479999999999,308.60000000000002,1781919193],[123.681158,10.24747,308.60000000000002,1781919194],[123.68121600000001,10.247311,309,1781919209],[123.68122099999999,10.247305000000001,309,1781919210],[123.681251,10.247215000000001,308.69999999999999,1781919216],[123.68129399999999,10.24714,308.60000000000002,1781919224],[123.681298,10.247131,308.5,1781919225],[123.681316,10.247096000000001,308.5,1781919229],[123.681326,10.247045,308.19999999999999,1781919233],[123.681366,10.246995,307.10000000000002,1781919237],[123.681378,10.246981,306.80000000000001,1781919238],[123.681409,10.246907999999999,306.30000000000001,1781919246],[123.681409,10.246798,306,1781919258],[123.681411,10.246786,306,1781919259],[123.681406,10.246748999999999,305.39999999999998,1781919263],[123.681414,10.246681000000001,304.80000000000001,1781919269],[123.68143999999999,10.246606,303.10000000000002,1781919278],[123.68143999999999,10.246600000000001,302.89999999999998,1781919279],[123.681434,10.246456,302,1781919297],[123.681443,10.246347999999999,300.80000000000001,1781919303],[123.681443,10.246331,300.5,1781919304],[123.68144100000001,10.246270000000001,299.39999999999998,1781919309],[123.68148100000001,10.246169999999999,298.19999999999999,1781919317],[123.681493,10.246153,297.69999999999999,1781919318],[123.681583,10.246034999999999,296.19999999999999,1781919327],[123.681596,10.246022999999999,295.60000000000002,1781919328],[123.681753,10.245958,292.10000000000002,1781919339],[123.681769,10.245956,291.60000000000002,1781919340],[123.681963,10.245925,286.39999999999998,1781919355],[123.68197600000001,10.24592,286.19999999999999,1781919356],[123.682166,10.24592,284.39999999999998,1781919370],[123.682323,10.245906,283.60000000000002,1781919381],[123.682333,10.245903999999999,283.5,1781919382],[123.682411,10.245911,282.89999999999998,1781919388],[123.682491,10.245903999999999,282.30000000000001,1781919393],[123.68250500000001,10.245900000000001,282.19999999999999,1781919394],[123.68268999999999,10.245853,285.5,1781919410],[123.68270099999999,10.245851,285.69999999999999,1781919411],[123.682793,10.245848000000001,288.10000000000002,1781919418],[123.68288099999999,10.245825,290.69999999999999,1781919426],[123.68289,10.245820999999999,291.10000000000002,1781919427],[123.68291499999999,10.245810000000001,292.19999999999999,1781919430],[123.683058,10.245818,296.89999999999998,1781919441],[123.68307,10.245823,297.19999999999999,1781919442],[123.683143,10.245841,299.30000000000001,1781919449],[123.6832,10.245832999999999,301.19999999999999,1781919454],[123.68326,10.245853,303.19999999999999,1781919459],[123.68326999999999,10.245855000000001,303.60000000000002,1781919460],[123.683465,10.245913,309.60000000000002,1781919478],[123.683475,10.245915,310,1781919479],[123.683643,10.245927999999999,310.39999999999998,1781919491],[123.68365300000001,10.245927999999999,310.69999999999999,1781919492],[123.68386099999999,10.245953,314.19999999999999,1781919509],[123.68388,10.245955,314.69999999999999,1781919510],[123.684005,10.245960999999999,317.30000000000001,1781919521],[123.68405300000001,10.245955,318.30000000000001,1781919526],[123.68406299999999,10.245951,318.60000000000002,1781919527],[123.68411399999999,10.245941,319,1781919531],[123.68420399999999,10.245949,318.80000000000001,1781919537],[123.68422099999999,10.245951,318.80000000000001,1781919538],[123.68423799999999,10.24596,318.69999999999999,1781919539],[123.684333,10.245946,319,1781919546],[123.68440099999999,10.24591,319.19999999999999,1781919552],[123.68441300000001,10.245906,319,1781919553],[123.68450799999999,10.24586,317.80000000000001,1781919562],[123.684566,10.245799999999999,318,1781919588],[123.68458,10.245793000000001,317.89999999999998,1781919589],[123.684691,10.245746,316.69999999999999,1781919596],[123.684758,10.245737999999999,315.69999999999999,1781919600],[123.68477799999999,10.245735,315.39999999999998,1781919601],[123.684956,10.245721,311.39999999999998,1781919616],[123.68497600000001,10.24572,311.30000000000001,1781919617],[123.685044,10.245710000000001,310.89999999999998,1781919622],[123.685148,10.245716,309.39999999999998,1781919630],[123.68516,10.245714,309.30000000000001,1781919631],[123.68534,10.245678,309.39999999999998,1781919648],[123.68535300000001,10.245678,309.60000000000002,1781919649],[123.68545899999999,10.24568,311.30000000000001,1781919658],[123.68550999999999,10.245668,312.10000000000002,1781919662],[123.685523,10.245665000000001,312.19999999999999,1781919663],[123.68565599999999,10.245663,313.5,1781919672],[123.685671,10.245665000000001,313.60000000000002,1781919673],[123.68572,10.245666,314,1781919676],[123.685811,10.245642999999999,314.19999999999999,1781919682],[123.68582600000001,10.245642999999999,314.19999999999999,1781919683],[123.68592599999999,10.245649999999999,314.60000000000002,1781919692],[123.686016,10.245635999999999,314.80000000000001,1781919700],[123.68603299999999,10.245633,314.80000000000001,1781919701],[123.686189,10.245597999999999,316.69999999999999,1781919714],[123.686205,10.245596000000001,316.69999999999999,1781919715],[123.686288,10.245576,316.69999999999999,1781919721],[123.686369,10.24554,317,1781919728],[123.686381,10.245533999999999,317.10000000000002,1781919729],[123.686548,10.245473,317.60000000000002,1781919745],[123.686556,10.245469999999999,317.69999999999999,1781919746],[123.686609,10.24544,317,1781919751],[123.686713,10.245405,317,1781919759],[123.68672599999999,10.2454,317.10000000000002,1781919760],[123.686865,10.245338,315.69999999999999,1781919770],[123.68687799999999,10.245331,315.69999999999999,1781919771],[123.687046,10.245286,315.30000000000001,1781919784],[123.687056,10.245281,315.30000000000001,1781919785],[123.687085,10.245281,315.30000000000001,1781919787],[123.68721499999999,10.24522,315.39999999999998,1781919798],[123.687231,10.245215999999999,315.5,1781919799],[123.687405,10.245203,316.89999999999998,1781919812],[123.687416,10.245198,317,1781919813],[123.687573,10.245161,317.69999999999999,1781919825],[123.68758800000001,10.245158,317.80000000000001,1781919826],[123.687735,10.245138000000001,319,1781919835],[123.68775100000001,10.245138000000001,319,1781919836],[123.68776800000001,10.245139999999999,318.89999999999998,1781919837],[123.68786900000001,10.245103,319,1781919846],[123.687926,10.245105000000001,318.60000000000002,1781919851],[123.687941,10.245108,318.5,1781919852],[123.68808300000001,10.245136,317.5,1781919862],[123.688098,10.245139999999999,317.30000000000001,1781919863],[123.68816,10.245141,317.19999999999999,1781919867],[123.68826300000001,10.24517,317.80000000000001,1781919875],[123.68828000000001,10.245175,317.80000000000001,1781919876],[123.688315,10.245181000000001,317.89999999999998,1781919879],[123.68841999999999,10.245236,318.5,1781919887],[123.68842600000001,10.245238000000001,318.60000000000002,1781919888],[123.688586,10.245305,318.69999999999999,1781919902],[123.688596,10.245312999999999,318.69999999999999,1781919903],[123.688678,10.245348,319.19999999999999,1781919910],[123.68869599999999,10.245367999999999,319.69999999999999,1781919912],[123.68875800000001,10.2454,320.60000000000002,1781919918],[123.688768,10.245405999999999,320.80000000000001,1781919919],[123.688816,10.245445999999999,321.89999999999998,1781919924],[123.68888800000001,10.245471,322.30000000000001,1781919929],[123.688901,10.245476,322.39999999999998,1781919930],[123.68897800000001,10.245507999999999,323.19999999999999,1781919936],[123.68903299999999,10.245520000000001,324.30000000000001,1781919941],[123.689041,10.245521,324.5,1781919942],[123.689123,10.245540999999999,325.10000000000002,1781919948],[123.689201,10.245518000000001,325.5,1781919954],[123.689213,10.245513000000001,325.60000000000002,1781919955],[123.689308,10.245436,326.30000000000001,1781919965],[123.689348,10.245386,326.60000000000002,1781919972],[123.689358,10.245376,326.80000000000001,1781919973],[123.68949600000001,10.24525,328.69999999999999,1781919988],[123.68950599999999,10.245241,328.80000000000001,1781919989],[123.68958600000001,10.245170999999999,327.69999999999999,1781919998],[123.689635,10.245096,326.89999999999998,1781920005],[123.689643,10.245085,326.80000000000001,1781920006],[123.68972100000001,10.244963,325.19999999999999,1781920016],[123.68973099999999,10.244954999999999,325,1781920017],[123.68981100000001,10.244826,322.5,1781920029],[123.689818,10.244818,322.30000000000001,1781920030],[123.68986599999999,10.244743,321.30000000000001,1781920039],[123.68992799999999,10.244679,321.10000000000002,1781920046],[123.689925,10.244671,321,1781920047],[123.68992299999999,10.244662999999999,321,1781920048],[123.689966,10.244616000000001,321.10000000000002,1781920177],[123.68996799999999,10.244540000000001,322.30000000000001,1781920186],[123.68992299999999,10.244448,323.60000000000002,1781920197],[123.68991800000001,10.244440000000001,323.69999999999999,1781920198],[123.68988299999999,10.244406,324.10000000000002,1781920201],[123.689781,10.244349,325.89999999999998,1781920211],[123.68977599999999,10.244343000000001,326,1781920212],[123.68965,10.244258,328.39999999999998,1781920223],[123.689643,10.244253,328.39999999999998,1781920224],[123.68949600000001,10.244159,329,1781920244],[123.689485,10.244151,329,1781920245],[123.689418,10.244109999999999,328.60000000000002,1781920251],[123.689351,10.244018000000001,328.30000000000001,1781920260],[123.68934299999999,10.244006000000001,328.19999999999999,1781920261],[123.689328,10.243957999999999,328.19999999999999,1781920267],[123.68929,10.243907999999999,328.30000000000001,1781920274],[123.689246,10.243771000000001,326.89999999999998,1781920287],[123.689241,10.24376,326.89999999999998,1781920288],[123.689196,10.24367,327.10000000000002,1781920296],[123.68919,10.243638000000001,327.10000000000002,1781920298],[123.68915,10.243588000000001,327.39999999999998,1781920304],[123.689021,10.243458,327.80000000000001,1781920318],[123.68901,10.243448000000001,327.60000000000002,1781920319],[123.68895999999999,10.243410000000001,327.39999999999998,1781920324],[123.688923,10.243401,327.10000000000002,1781920326],[123.68886999999999,10.243368,327.5,1781920330],[123.688861,10.243361,327.69999999999999,1781920331],[123.688721,10.243268,326.30000000000001,1781920350],[123.688711,10.243266,326.39999999999998,1781920351],[123.68858299999999,10.243218000000001,326.69999999999999,1781920362],[123.688571,10.243216,326.80000000000001,1781920363],[123.688474,10.243193,327,1781920370],[123.68840299999999,10.243141,327,1781920377],[123.688395,10.243133,327.10000000000002,1781920378],[123.68835799999999,10.243115,327,1781920381],[123.688271,10.243045,327.80000000000001,1781920398],[123.68823999999999,10.243005,328.19999999999999,1781920402],[123.688221,10.242955,328.69999999999999,1781920407],[123.688216,10.24295,328.69999999999999,1781920408],[123.68819999999999,10.24292,329,1781920411],[123.68806600000001,10.242827999999999,325.19999999999999,1781920426],[123.688035,10.242787999999999,324,1781920431],[123.688035,10.242777999999999,323.89999999999998,1781920432],[123.687994,10.242666,322.19999999999999,1781920452],[123.687989,10.242613,322.19999999999999,1781920455],[123.688,10.242580999999999,322.19999999999999,1781920457],[123.68800299999999,10.242566,322.10000000000002,1781920458],[123.688013,10.242521,322.10000000000002,1781920462],[123.68801000000001,10.24249,322.10000000000002,1781920463],[123.687978,10.2424,321.30000000000001,1781920469],[123.687971,10.242391,321,1781920470],[123.687955,10.242357999999999,320,1781920476],[123.687901,10.242153,315,1781920492],[123.687901,10.242141,314.80000000000001,1781920493],[123.687906,10.242091,314.10000000000002,1781920497],[123.687956,10.241973,312.5,1781920509],[123.68799300000001,10.241921,311.19999999999999,1781920513],[123.688081,10.24184,309.89999999999998,1781920523],[123.688091,10.241830999999999,309.80000000000001,1781920524],[123.688151,10.241745,308.89999999999998,1781920534],[123.688168,10.241681,308.5,1781920538],[123.688171,10.241664999999999,308.39999999999998,1781920539],[123.688183,10.241580000000001,309,1781920546],[123.688169,10.241510999999999,309.30000000000001,1781920551],[123.688166,10.241496,309.39999999999998,1781920552],[123.688108,10.241341,309.69999999999999,1781920565],[123.688101,10.241327999999999,309.80000000000001,1781920566],[123.68799799999999,10.24123,310.5,1781920583],[123.68792999999999,10.241205000000001,312.30000000000001,1781920585],[123.687916,10.241198000000001,312.5,1781920586],[123.68782299999999,10.241115000000001,315.60000000000002,1781920597],[123.68777300000001,10.241099999999999,315.69999999999999,1781920600],[123.687765,10.241091000000001,315.89999999999998,1781920601],[123.687743,10.241076,316.69999999999999,1781920679],[123.68776800000001,10.241046000000001,317.89999999999998,1781920680],[123.68773,10.240988,319.10000000000002,1781920686],[123.687724,10.240933,320,1781920691],[123.687726,10.240921,320.19999999999999,1781920692],[123.687758,10.240803,321.69999999999999,1781920726],[123.687781,10.240771000000001,321.89999999999998,1781920729],[123.687786,10.240741,322.19999999999999,1781920731],[123.68779000000001,10.240733000000001,322.30000000000001,1781920732],[123.68786900000001,10.240513999999999,324.60000000000002,1781920753],[123.687873,10.240501,324.69999999999999,1781920754],[123.687888,10.240478,325.19999999999999,1781920757],[123.687928,10.240326,326.39999999999998,1781920769],[123.687928,10.240315000000001,326.30000000000001,1781920770],[123.687946,10.240219,327.30000000000001,1781920779],[123.687934,10.24014,328.89999999999998,1781920787],[123.687934,10.240129,329.10000000000002,1781920788],[123.68794,10.239998,329.60000000000002,1781920798],[123.687951,10.239946,329,1781920802],[123.687955,10.239929999999999,329,1781920803],[123.687973,10.239849,328,1781920809],[123.68797000000001,10.239786,328.39999999999998,1781920815],[123.687985,10.239753,328.10000000000002,1781920818],[123.687986,10.239744999999999,327.80000000000001,1781920819],[123.688024,10.239591000000001,327.80000000000001,1781920832],[123.688028,10.239585,327.80000000000001,1781920833],[123.68803,10.239493,327,1781920840],[123.688013,10.239431,326.30000000000001,1781920845],[123.688013,10.239420000000001,326.30000000000001,1781920846],[123.687988,10.239350999999999,326.10000000000002,1781920853],[123.68798099999999,10.239261000000001,325.10000000000002,1781920859],[123.68798099999999,10.239250999999999,324.89999999999998,1781920860],[123.68796399999999,10.239198,324.30000000000001,1781920866],[123.687963,10.239126000000001,323.19999999999999,1781920873],[123.68794800000001,10.239068,322.69999999999999,1781920878],[123.687945,10.239058,322.80000000000001,1781920879],[123.68793100000001,10.239003,322.30000000000001,1781920884],[123.68793599999999,10.23889,321.5,1781920938],[123.68792500000001,10.238861,321.60000000000002,1781920942],[123.68789099999999,10.238778,322,1781920948],[123.68785099999999,10.238711,322.5,1781920954],[123.687848,10.2387,322.60000000000002,1781920955],[123.687731,10.238521,324.30000000000001,1781920972],[123.687719,10.23851,324.39999999999998,1781920973],[123.687623,10.238375,327.60000000000002,1781920983],[123.687613,10.238363,327.80000000000001,1781920984],[123.68750799999999,10.238241,330.30000000000001,1781921000],[123.687406,10.238101,333.5,1781921017],[123.687376,10.238030999999999,333.60000000000002,1781921021],[123.68737299999999,10.238016,333.5,1781921022],[123.68736800000001,10.237966,333.5,1781921027],[123.687331,10.237857999999999,334.80000000000001,1781921036],[123.687335,10.237845999999999,335,1781921037],[123.68732799999999,10.23781,335.89999999999998,1781921040],[123.68728299999999,10.237730000000001,337.69999999999999,1781921048],[123.687276,10.237698999999999,338.30000000000001,1781921051],[123.687268,10.237688,338.60000000000002,1781921052],[123.687203,10.237601,340.10000000000002,1781921061],[123.687181,10.237545000000001,340.5,1781921066],[123.687178,10.237531000000001,340.60000000000002,1781921067],[123.68714300000001,10.237458,340.89999999999998,1781921074],[123.687091,10.237385,341.30000000000001,1781921081],[123.68708100000001,10.237373,341.5,1781921082],[123.686983,10.237247999999999,342.69999999999999,1781921094],[123.68697299999999,10.23724,342.69999999999999,1781921095],[123.686915,10.237133,340.89999999999998,1781921105],[123.686879,10.237095,340.89999999999998,1781921109],[123.68687300000001,10.237085,340.80000000000001,1781921110],[123.686825,10.236965,341.89999999999998,1781921123],[123.68680000000001,10.236924999999999,342.19999999999999,1781921126],[123.68679299999999,10.236910999999999,342.19999999999999,1781921127],[123.68677,10.236739999999999,342.19999999999999,1781921143],[123.686768,10.236725,342.10000000000002,1781921144],[123.686753,10.236553000000001,342,1781921157],[123.686753,10.236542999999999,342,1781921158],[123.686763,10.236420000000001,342.19999999999999,1781921170],[123.68678,10.23639,342.5,1781921172],[123.68678800000001,10.236383,342.39999999999998,1781921173],[123.686815,10.236314999999999,342.89999999999998,1781921179],[123.686868,10.236255,343.60000000000002,1781921184],[123.686876,10.236243,343.69999999999999,1781921185],[123.686909,10.23616,343.39999999999998,1781921190],[123.686953,10.236108,344.30000000000001,1781921196],[123.686956,10.2361,344.39999999999998,1781921197],[123.68698500000001,10.235853000000001,346.5,1781921218],[123.686988,10.23584,346.60000000000002,1781921219],[123.687001,10.235816,346.89999999999998,1781921221],[123.686998,10.235747999999999,348,1781921227],[123.686983,10.235706,348.39999999999998,1781921231],[123.686961,10.235685999999999,348.39999999999998,1781921235],[123.686961,10.235580000000001,349.60000000000002,1781921243],[123.686976,10.235536,349.89999999999998,1781921246],[123.686981,10.235528,350,1781921247],[123.68703499999999,10.235474999999999,350.80000000000001,1781921260],[123.68708100000001,10.235465,350.10000000000002,1781921261],[123.687133,10.235434,348.69999999999999,1781921266],[123.687145,10.235429999999999,348.69999999999999,1781921267],[123.68720399999999,10.235388,347.89999999999998,1781921273],[123.687296,10.235351,348.69999999999999,1781921283],[123.687318,10.235346,348.80000000000001,1781921284],[123.687383,10.235315,349.10000000000002,1781921289],[123.687425,10.23526,349.30000000000001,1781921294],[123.68750900000001,10.23521,350.69999999999999,1781921303],[123.687523,10.235196,350.69999999999999,1781921304],[123.68756999999999,10.235151,350.80000000000001,1781921308],[123.687648,10.235099999999999,350.80000000000001,1781921313],[123.687664,10.235093000000001,350.89999999999998,1781921314],[123.687731,10.235063999999999,351.19999999999999,1781921319],[123.687793,10.235021,351.5,1781921324],[123.687808,10.235018,351.60000000000002,1781921325],[123.68789,10.234988,352.19999999999999,1781921331],[123.687921,10.234931,350.80000000000001,1781921336],[123.687928,10.234925,350.69999999999999,1781921337],[123.687956,10.234897999999999,350.5,1781921340],[123.68804799999999,10.234863000000001,350.19999999999999,1781921347],[123.68806499999999,10.234857999999999,350.19999999999999,1781921348],[123.68817799999999,10.234805,350.39999999999998,1781921359],[123.688215,10.234795999999999,350.39999999999998,1781921362],[123.688225,10.234793,350.39999999999998,1781921363],[123.68828499999999,10.234778,350.80000000000001,1781921368],[123.688306,10.234783,351.10000000000002,1781921370],[123.68840299999999,10.234738,351.69999999999999,1781921379],[123.68841399999999,10.234730000000001,351.60000000000002,1781921380],[123.688546,10.234641,353.30000000000001,1781921393],[123.688588,10.234629999999999,354.10000000000002,1781921396],[123.68860100000001,10.234621000000001,354.19999999999999,1781921397],[123.688626,10.234608,354.10000000000002,1781921399],[123.688678,10.234546,353.30000000000001,1781921404],[123.68873000000001,10.234525,353.89999999999998,1781921407],[123.688738,10.234513,353.80000000000001,1781921408],[123.688818,10.234468,354.10000000000002,1781921415],[123.688886,10.234450000000001,354,1781921420],[123.688896,10.234441,354.19999999999999,1781921421],[123.68895500000001,10.234425,354.89999999999998,1781921427],[123.689065,10.234354,357.80000000000001,1781921439],[123.68907799999999,10.234351,358.10000000000002,1781921440],[123.689123,10.234321,358.5,1781921444],[123.689223,10.234278,360.39999999999998,1781921452],[123.689235,10.234275999999999,360.60000000000002,1781921453],[123.689318,10.234225,360.5,1781921490],[123.689335,10.234170000000001,360.39999999999998,1781921491],[123.68939,10.234145,362,1781921496],[123.68939899999999,10.23414,362.30000000000001,1781921497],[123.68947799999999,10.234085,365.19999999999999,1781921507],[123.68955,10.234063000000001,367.30000000000001,1781921514],[123.689561,10.234059999999999,367.5,1781921515],[123.689643,10.234023000000001,369.5,1781921523],[123.689661,10.234000999999999,368.89999999999998,1781921524],[123.68973,10.23396,369.89999999999998,1781921530],[123.68974,10.233946,369.89999999999998,1781921531],[123.68980000000001,10.233917999999999,370.60000000000002,1781921535],[123.68982,10.233858,371.5,1781921557],[123.68985600000001,10.233851,371,1781921559],[123.689868,10.233848999999999,371,1781921560],[123.689958,10.233813,371.10000000000002,1781921568],[123.68994000000001,10.233829999999999,370.69999999999999,1781921574],[123.68988299999999,10.233828000000001,369.5,1781921580],[123.68987799999999,10.233825,369.30000000000001,1781921581],[123.68987,10.233825,369.19999999999999,1781921582],[123.68988400000001,10.233808,368.5,1781921590],[123.689971,10.233768,369.80000000000001,1781921599],[123.690046,10.233765999999999,370.69999999999999,1781921607],[123.690055,10.233763,370.80000000000001,1781921608],[123.690113,10.23376,371.80000000000001,1781921614],[123.69018,10.233741,372.69999999999999,1781921627],[123.69027,10.233765,373.5,1781921628],[123.690303,10.233755,373.60000000000002,1781921630],[123.690326,10.233746,373.60000000000002,1781921631],[123.69035100000001,10.233745000000001,373.30000000000001,1781921632],[123.69038999999999,10.23373,373.19999999999999,1781921634],[123.690406,10.233713,373,1781921636],[123.69043600000001,10.233706,373.30000000000001,1781921639],[123.690485,10.23372,373.39999999999998,1781921643],[123.69049800000001,10.23372,373.30000000000001,1781921644],[123.690511,10.233711,373,1781921645],[123.690544,10.23372,372.89999999999998,1781921648],[123.690653,10.233706,371.30000000000001,1781921656],[123.690685,10.233713,370.39999999999998,1781921659],[123.690696,10.233713,370.5,1781921660],[123.690753,10.233701,370.80000000000001,1781921666],[123.69083999999999,10.23362,370.30000000000001,1781921678],[123.69085099999999,10.233623,370.30000000000001,1781921679],[123.690876,10.233611,370.10000000000002,1781921682],[123.690912,10.233575,370,1781921688],[123.690951,10.233560000000001,370.60000000000002,1781921691],[123.691001,10.233560000000001,369.89999999999998,1781921695],[123.69104900000001,10.233516,370,1781921702],[123.69111100000001,10.233499999999999,370.30000000000001,1781921708],[123.691143,10.233501,370.39999999999998,1781921709],[123.691153,10.233491000000001,370.39999999999998,1781921710],[123.691181,10.233480999999999,371.69999999999999,1781921715],[123.691228,10.233483,372.5,1781921719],[123.691255,10.233461,372.10000000000002,1781921721],[123.69129,10.233449999999999,371.89999999999998,1781921724],[123.691299,10.233451000000001,372,1781921725],[123.69135799999999,10.233451000000001,371.80000000000001,1781921730],[123.691461,10.233406,370.5,1781921738],[123.691475,10.233406,370.5,1781921739],[123.69153300000001,10.233388,370.80000000000001,1781921744],[123.691563,10.233358000000001,371.10000000000002,1781921747],[123.691624,10.233326,371.5,1781921755],[123.691633,10.233318000000001,371.60000000000002,1781921756],[123.69167899999999,10.233286,371.5,1781921763],[123.69173600000001,10.23319,371.10000000000002,1781921771],[123.69174599999999,10.233181,371,1781921772],[123.691793,10.233116000000001,371.39999999999998,1781921780],[123.691816,10.233038000000001,372.19999999999999,1781921786],[123.69182000000001,10.233027999999999,372.39999999999998,1781921787],[123.691861,10.232953,372.80000000000001,1781921794],[123.691855,10.232931000000001,372.5,1781921795],[123.691878,10.23287,373.10000000000002,1781921800],[123.69187599999999,10.232855000000001,373,1781921801],[123.691883,10.232837999999999,372.69999999999999,1781921802],[123.69187100000001,10.232794999999999,372,1781921804],[123.69192099999999,10.232711,373,1781921811],[123.691923,10.232697999999999,373,1781921812],[123.691951,10.232628,373.19999999999999,1781921820],[123.69196100000001,10.232564999999999,373.39999999999998,1781921825],[123.691986,10.23254,373.69999999999999,1781921828],[123.69199500000001,10.232533,373.89999999999998,1781921829],[123.69206,10.23255,374.5,1781921836],[123.692083,10.232576,375.5,1781921844],[123.692128,10.232581,376.10000000000002,1781921848],[123.69215800000001,10.2326,377.19999999999999,1781921852],[123.692171,10.2326,377.60000000000002,1781921853],[123.69218499999999,10.232602999999999,377.89999999999998,1781921854],[123.692196,10.232623,378.5,1781921858],[123.69223599999999,10.232628,380,1781921862],[123.692295,10.232656,382,1781921867],[123.69231600000001,10.232678,382.69999999999999,1781921871],[123.69237099999999,10.232691000000001,383.80000000000001,1781921874],[123.69248899999999,10.232754999999999,388,1781921884],[123.692503,10.232760000000001,388.39999999999998,1781921885],[123.692628,10.232803000000001,392.10000000000002,1781921899],[123.69274299999999,10.232816,394.80000000000001,1781921904],[123.692761,10.23282,395.19999999999999,1781921905],[123.692891,10.232855000000001,398.10000000000002,1781921919],[123.692953,10.232858,399,1781921920],[123.692965,10.232858999999999,399.30000000000001,1781921921],[123.69299599999999,10.232863,399.30000000000001,1781921923],[123.69308100000001,10.232825999999999,398.69999999999999,1781921930],[123.69313099999999,10.23279,396.39999999999998,1781921934],[123.693133,10.232773,395.80000000000001,1781921935],[123.693136,10.232763,395.30000000000001,1781921936],[123.69319299999999,10.232668,392.30000000000001,1781921954],[123.693223,10.23255,388.89999999999998,1781921957],[123.693226,10.23254,388.60000000000002,1781921958],[123.69327,10.232400999999999,386.89999999999998,1781921968],[123.693273,10.232390000000001,386.69999999999999,1781921969],[123.693288,10.232346,384.69999999999999,1781921973],[123.69332,10.232335000000001,383.19999999999999,1781921975],[123.693331,10.232313,382.39999999999998,1781921977],[123.693378,10.232271000000001,380.69999999999999,1781921982],[123.693388,10.23226,380.30000000000001,1781921983],[123.693423,10.232227999999999,379.30000000000001,1781922045],[123.693461,10.232146,378.5,1781922046],[123.693451,10.232100000000001,379.30000000000001,1781922050],[123.69342399999999,10.232048000000001,379.89999999999998,1781922054],[123.69342,10.232037999999999,380,1781922055],[123.693381,10.231888,380.69999999999999,1781922068],[123.693386,10.231875,380.80000000000001,1781922069],[123.693366,10.231835,381.30000000000001,1781922072],[123.69335100000001,10.231768000000001,382.10000000000002,1781922078],[123.693375,10.231688999999999,383.19999999999999,1781922085],[123.693376,10.231680000000001,383.39999999999998,1781922086],[123.693376,10.231648,384.30000000000001,1781922090],[123.693361,10.231608,384.89999999999998,1781922094],[123.69338500000001,10.231538,385.30000000000001,1781922100],[123.69340099999999,10.231422999999999,388.30000000000001,1781922116],[123.693398,10.231415,388.39999999999998,1781922117],[123.69338999999999,10.231408,388.69999999999999,1781922136],[123.693383,10.231348000000001,388.19999999999999,1781922137],[123.693398,10.231325999999999,388.19999999999999,1781922141],[123.693398,10.231275999999999,388.30000000000001,1781922153],[123.693375,10.231175,389,1781922155],[123.69337299999999,10.231158000000001,389.19999999999999,1781922156],[123.69337299999999,10.231121,389.89999999999998,1781922161],[123.69333399999999,10.231006000000001,391.10000000000002,1781922170],[123.69333,10.230995999999999,391.19999999999999,1781922171],[123.693316,10.230945999999999,391.30000000000001,1781922174],[123.693315,10.230876,392.10000000000002,1781922180],[123.69330100000001,10.230843999999999,392.60000000000002,1781922182],[123.693296,10.230835000000001,392.69999999999999,1781922183],[123.693236,10.230778000000001,391.69999999999999,1781922187],[123.693203,10.23066,393.19999999999999,1781922254],[123.693203,10.23063,393.60000000000002,1781922257],[123.693206,10.230620999999999,393.69999999999999,1781922258],[123.693215,10.230566,394.60000000000002,1781922263],[123.69320500000001,10.230537999999999,395,1781922265],[123.69321100000001,10.230454999999999,396.39999999999998,1781922272],[123.693215,10.230446000000001,396.69999999999999,1781922273],[123.69322099999999,10.230388,397.89999999999998,1781922283],[123.69327800000001,10.230302999999999,400.39999999999998,1781922294],[123.693293,10.230205,400.89999999999998,1781922295],[123.69331099999999,10.230178,402.10000000000002,1781922298],[123.693313,10.230171,402.30000000000001,1781922299],[123.693231,10.230130000000001,403.30000000000001,1781922313],[123.693168,10.230136,405.60000000000002,1781922322],[123.693116,10.230165,406.10000000000002,1781922329],[123.69308599999999,10.230165,406.10000000000002,1781922333],[123.69299599999999,10.230195999999999,407.60000000000002,1781922356],[123.692921,10.230256000000001,410.10000000000002,1781922358],[123.69291800000001,10.230257999999999,410.30000000000001,1781922359],[123.69273099999999,10.230383,413.5,1781922389],[123.692621,10.230435999999999,414.5,1781922402],[123.69261299999999,10.230442999999999,414.60000000000002,1781922403],[123.692485,10.230510000000001,415.30000000000001,1781922419],[123.69243299999999,10.230555000000001,415.60000000000002,1781922452],[123.692335,10.230605000000001,415.60000000000002,1781922454],[123.692328,10.23061,415.60000000000002,1781922455],[123.692205,10.230639999999999,416.89999999999998,1781922481],[123.6921,10.230729999999999,417.19999999999999,1781922491],[123.691998,10.230765999999999,416.60000000000002,1781922493],[123.691993,10.230771000000001,416.60000000000002,1781922494],[123.691878,10.230801,415.39999999999998,1781922517],[123.691801,10.230866000000001,415.10000000000002,1781922518],[123.69167299999999,10.230948,411.39999999999998,1781922532],[123.69166300000001,10.23095,411.30000000000001,1781922533],[123.69160100000001,10.230973000000001,408.5,1781922540],[123.69150399999999,10.230968000000001,407.19999999999999,1781922548],[123.69144900000001,10.230993,405.5,1781922553],[123.691435,10.231,404.89999999999998,1781922554],[123.69128000000001,10.231055,403,1781922567],[123.691266,10.231059999999999,402.89999999999998,1781922568],[123.691091,10.231096000000001,400.89999999999998,1781922582],[123.691076,10.231101000000001,400.80000000000001,1781922583],[123.690921,10.231154999999999,399.80000000000001,1781922595],[123.69090799999999,10.231156,399.60000000000002,1781922596],[123.690746,10.231225999999999,399.69999999999999,1781922610],[123.690735,10.231236000000001,399.89999999999998,1781922611],[123.690713,10.231242999999999,399.80000000000001,1781922627],[123.690696,10.231413,399.60000000000002,1781922636],[123.69069399999999,10.231422999999999,399.5,1781922637],[123.690653,10.231545000000001,400.30000000000001,1781922650],[123.69061499999999,10.231579999999999,401.19999999999999,1781922655],[123.690603,10.231584,401.5,1781922656],[123.690538,10.231638,403.69999999999999,1781922665],[123.69044599999999,10.231693,406,1781922674],[123.69044,10.231700999999999,406.30000000000001,1781922675],[123.690405,10.231719999999999,407,1781922678],[123.69037,10.231757999999999,408.10000000000002,1781922683],[123.690308,10.231776,409.39999999999998,1781922693],[123.690268,10.2318,410.30000000000001,1781922694],[123.69025600000001,10.231807999999999,410.39999999999998,1781922695],[123.69009800000001,10.231895,412.39999999999998,1781922711],[123.69008599999999,10.2319,412.5,1781922712],[123.68993,10.231961,413.89999999999998,1781922725],[123.689916,10.231968,413.89999999999998,1781922726],[123.689823,10.23198,413.89999999999998,1781922735],[123.689745,10.232013999999999,413.5,1781922742],[123.689728,10.23202,413.39999999999998,1781922743],[123.68951800000001,10.232116,415.19999999999999,1781922765],[123.68951,10.232123,415.39999999999998,1781922766],[123.68937099999999,10.232196,415.5,1781922782],[123.689346,10.232218,415.69999999999999,1781922783],[123.68933800000001,10.23222,415.80000000000001,1781922784],[123.68915800000001,10.232294,416.10000000000002,1781922801],[123.689121,10.232324999999999,416.5,1781922803],[123.689086,10.232341,416.60000000000002,1781922806],[123.689041,10.232348,417.19999999999999,1781922810],[123.68899500000001,10.232383,416.80000000000001,1781922815],[123.688984,10.232384,417,1781922816],[123.68890500000001,10.232419999999999,417.89999999999998,1781922825],[123.688845,10.232468000000001,419.60000000000002,1781922831],[123.68884,10.232475000000001,419.80000000000001,1781922832],[123.68880799999999,10.232506000000001,420.69999999999999,1781922837],[123.688738,10.232551000000001,422.19999999999999,1781922885],[123.688706,10.232590999999999,422.10000000000002,1781922889],[123.6887,10.232602999999999,422,1781922890],[123.68869100000001,10.23264,422,1781922893],[123.688568,10.232703000000001,422.39999999999998,1781922906],[123.688558,10.232713,422.19999999999999,1781922907],[123.68855000000001,10.232723,422.19999999999999,1781922908],[123.68846600000001,10.232751,423.69999999999999,1781922917],[123.688401,10.232760000000001,424.80000000000001,1781922923],[123.688395,10.232768,424.89999999999998,1781922924],[123.688384,10.232768999999999,425.19999999999999,1781922925],[123.688276,10.232811,428.39999999999998,1781922945],[123.68819999999999,10.232877999999999,432.10000000000002,1781922947],[123.68819000000001,10.232885,432.39999999999998,1781922948],[123.68809299999999,10.232904,433.89999999999998,1781922956],[123.687973,10.232915,437.60000000000002,1781922969],[123.68786,10.232894999999999,441.69999999999999,1781922986],[123.687781,10.232906,445.89999999999998,1781923013],[123.68777900000001,10.232896,445.89999999999998,1781923014],[123.68777900000001,10.232835,446,1781923017],[123.687793,10.232778,447.5,1781923019],[123.68782,10.232758,448.5,1781923022],[123.687816,10.232746000000001,450.60000000000002,1781923224],[123.687754,10.232715000000001,454.60000000000002,1781923225],[123.68774999999999,10.232713,454.69999999999999,1781923226],[123.687715,10.232713,455.19999999999999,1781923269],[123.687555,10.232631,455.80000000000001,1781923299],[123.68748600000001,10.232618,455,1781923302],[123.687388,10.232570000000001,454.30000000000001,1781923312],[123.68723900000001,10.23246,452.10000000000002,1781923326],[123.687225,10.232448,451.80000000000001,1781923327],[123.68711,10.232360999999999,449.60000000000002,1781923336],[123.687083,10.232321000000001,447.89999999999998,1781923340],[123.687078,10.232313,447.69999999999999,1781923341],[123.68705300000001,10.232278000000001,446.89999999999998,1781923345],[123.686975,10.232231000000001,445.30000000000001,1781923351],[123.68696,10.232222999999999,444.89999999999998,1781923352],[123.686815,10.232141,439.30000000000001,1781923378],[123.686813,10.232135,439.30000000000001,1781923379],[123.686773,10.232108,439.10000000000002,1781923383],[123.686705,10.232081000000001,438.80000000000001,1781923388],[123.68669,10.232049999999999,438.69999999999999,1781923391],[123.686683,10.232041000000001,438.69999999999999,1781923392],[123.68663100000001,10.23199,438.39999999999998,1781923398],[123.686548,10.231946000000001,437.60000000000002,1781923405],[123.686536,10.23194,437.5,1781923406],[123.686458,10.2319,437.30000000000001,1781923415],[123.686391,10.231881,437.19999999999999,1781923419],[123.686375,10.231878,437.19999999999999,1781923420],[123.686323,10.231869,437.39999999999998,1781923757],[123.68630899999999,10.231851000000001,439.89999999999998,1781923758],[123.686196,10.231875,439.89999999999998,1781923768],[123.68618499999999,10.231878,439.89999999999998,1781923769],[123.68602799999999,10.231966,438.39999999999998,1781923788],[123.686016,10.231971,438.19999999999999,1781923789],[123.685918,10.232093000000001,436.60000000000002,1781923802],[123.68591000000001,10.232103,436.5,1781923803],[123.685821,10.232220999999999,436.89999999999998,1781923815],[123.685816,10.232226000000001,436.80000000000001,1781923816],[123.685638,10.232291,434.10000000000002,1781923833],[123.685598,10.232283000000001,433.5,1781923836],[123.68559500000001,10.232284999999999,433.39999999999998,1781923837],[123.685575,10.232294,433.10000000000002,1781923845],[123.68545,10.232264000000001,428,1781923854],[123.685388,10.232196,427.89999999999998,1781923862],[123.68537600000001,10.232189999999999,427.80000000000001,1781923863],[123.685361,10.232177999999999,427.60000000000002,1781923881],[123.685333,10.232087999999999,427.69999999999999,1781923882],[123.685231,10.232013999999999,427.60000000000002,1781923892],[123.68521800000001,10.232010000000001,427.60000000000002,1781923893],[123.68512800000001,10.231918,428.10000000000002,1781923905],[123.68507,10.231775000000001,428.30000000000001,1781923917],[123.685068,10.231755,428.39999999999998,1781923918],[123.685056,10.231693,428.5,1781923921],[123.685023,10.23161,428.19999999999999,1781923927],[123.68502100000001,10.231590000000001,428.10000000000002,1781923928],[123.685016,10.231431000000001,427.60000000000002,1781923941],[123.68500899999999,10.231413,427.5,1781923942],[123.684996,10.231287999999999,426.80000000000001,1781923952],[123.68498,10.23124,426.30000000000001,1781923958],[123.68498599999999,10.231121,424.69999999999999,1781923967],[123.68497000000001,10.23105,424.10000000000002,1781923973],[123.684966,10.231038,424,1781923974],[123.68496500000001,10.23095,423.60000000000002,1781923981],[123.684923,10.230866000000001,423,1781923987],[123.68491899999999,10.230853,423.10000000000002,1781923988],[123.68487500000001,10.23076,423.10000000000002,1781923997],[123.684856,10.230676000000001,422.5,1781924004],[123.68482899999999,10.230663,422.60000000000002,1781924006],[123.684821,10.23066,422.60000000000002,1781924007],[123.684755,10.230655,422.10000000000002,1781924012],[123.684701,10.230623,421.10000000000002,1781924017],[123.68467099999999,10.23062,420.69999999999999,1781924021],[123.68458,10.230664000000001,419.80000000000001,1781924028],[123.68450300000001,10.230722999999999,418.89999999999998,1781924037],[123.684495,10.230727999999999,418.89999999999998,1781924038],[123.68444,10.230746,418.69999999999999,1781924044],[123.684423,10.230765999999999,419,1781924049],[123.684335,10.230822999999999,421.10000000000002,1781924060],[123.684236,10.230998,419.5,1781924072],[123.684228,10.231000999999999,419.39999999999998,1781924073],[123.684178,10.231021,419.30000000000001,1781924081],[123.684066,10.231040999999999,420.69999999999999,1781924095],[123.683981,10.231040999999999,420.69999999999999,1781924096],[123.68397,10.231036,420.60000000000002,1781924097],[123.683938,10.231021,420.39999999999998,1781924100],[123.683841,10.231006000000001,420,1781924112],[123.683711,10.231052999999999,419.19999999999999,1781924125],[123.68371,10.231052999999999,419.19999999999999,1781924126],[123.683623,10.231093,419.60000000000002,1781924147],[123.68362,10.231073,419.19999999999999,1781924156],[123.68365,10.231047999999999,419.39999999999998,1781924165],[123.683618,10.231069,419.39999999999998,1781924166],[123.683606,10.231071,419.39999999999998,1781924167],[123.683583,10.231101000000001,419.30000000000001,1781924171],[123.683583,10.231126,418.89999999999998,1781924172],[123.683571,10.231145,418.5,1781924174],[123.683503,10.231183,417.39999999999998,1781924184],[123.683381,10.231268,414.19999999999999,1781924200],[123.683308,10.231301,414,1781924202],[123.683296,10.231304,413.69999999999999,1781924203],[123.683145,10.231398,409.89999999999998,1781924221],[123.683111,10.231448,408.10000000000002,1781924227],[123.683105,10.23146,407.89999999999998,1781924228],[123.68308,10.231486,406.39999999999998,1781924231],[123.683043,10.231560999999999,404.5,1781924239],[123.68305100000001,10.231626,402.19999999999999,1781924245],[123.68305100000001,10.231635000000001,401.89999999999998,1781924246],[123.682903,10.231802999999999,400.39999999999998,1781924288],[123.6829,10.231805,400.5,1781924289],[123.682833,10.231861,400.80000000000001,1781924304],[123.68271300000001,10.23193,403.5,1781924314],[123.682605,10.231954999999999,404.30000000000001,1781924323],[123.682551,10.231941000000001,403.39999999999998,1781924327],[123.68252,10.231920000000001,403,1781924330],[123.682508,10.231914,402.5,1781924331],[123.68245400000001,10.231892999999999,402.80000000000001,1781924336],[123.68241,10.23189,403.30000000000001,1781924339],[123.68234099999999,10.231823,403.5,1781924348],[123.682331,10.231816,403.5,1781924349],[123.682186,10.231719999999999,401.89999999999998,1781924363],[123.68217799999999,10.231711000000001,401.69999999999999,1781924364],[123.68209299999999,10.23166,400.19999999999999,1781924372],[123.682018,10.231593,399.10000000000002,1781924382],[123.682013,10.231590000000001,399,1781924383],[123.681928,10.231558,396.80000000000001,1781924411],[123.681906,10.23156,396.5,1781924413],[123.68182899999999,10.231596,395.5,1781924420],[123.681803,10.231621000000001,395.10000000000002,1781924423],[123.681791,10.231624999999999,394.89999999999998,1781924424],[123.681713,10.231685000000001,394.19999999999999,1781924436],[123.681636,10.231718000000001,393.60000000000002,1781924440],[123.68162599999999,10.231721,393.5,1781924441],[123.681476,10.231731,392.80000000000001,1781924453],[123.68146400000001,10.231733,392.80000000000001,1781924454],[123.681353,10.231716,392.60000000000002,1781924465],[123.681228,10.231721,392.39999999999998,1781924479],[123.68121600000001,10.231719999999999,392.39999999999998,1781924480],[123.681121,10.231730000000001,392.30000000000001,1781924488],[123.681076,10.231725000000001,392.10000000000002,1781924503],[123.68098500000001,10.23174,391.39999999999998,1781924504],[123.680881,10.231788,390.60000000000002,1781924524],[123.680869,10.23179,390.5,1781924525],[123.680791,10.231821,389.89999999999998,1781924533],[123.680761,10.231854999999999,389.89999999999998,1781924537],[123.680678,10.231895,390.30000000000001,1781924547],[123.68067000000001,10.2319,390.39999999999998,1781924548],[123.680638,10.231923,390.5,1781924551],[123.68058600000001,10.231935,390.60000000000002,1781924555],[123.680576,10.231953000000001,390.69999999999999,1781924566],[123.68050100000001,10.232004999999999,390.60000000000002,1781924567],[123.680471,10.232008,390.39999999999998,1781924570],[123.680463,10.232011,390.39999999999998,1781924571],[123.680325,10.232054,388,1781924584],[123.680235,10.232106,386.80000000000001,1781924591],[123.680223,10.232111,386.19999999999999,1781924592],[123.680156,10.232144999999999,384.5,1781924598],[123.68006800000001,10.232151,383.30000000000001,1781924605],[123.680053,10.232156,382.89999999999998,1781924606],[123.67992,10.232163,380.5,1781924618],[123.679844,10.232176000000001,378.80000000000001,1781924624],[123.679833,10.232175,378.69999999999999,1781924625],[123.679609,10.232181000000001,376.60000000000002,1781924657],[123.679489,10.232189999999999,373.60000000000002,1781924668],[123.679393,10.232222999999999,371.60000000000002,1781924678],[123.67938100000001,10.232227999999999,371.5,1781924679],[123.67921800000001,10.232281,369.30000000000001,1781924693],[123.679211,10.232281,369.10000000000002,1781924694],[123.67911599999999,10.232288,367,1781924709],[123.67905,10.232279999999999,365.39999999999998,1781924710],[123.67891899999999,10.232313,364.89999999999998,1781924727],[123.67890800000001,10.232315,365,1781924728],[123.678788,10.232313,365.69999999999999,1781924736],[123.67866600000001,10.232328000000001,365,1781924748],[123.678656,10.232329999999999,365.10000000000002,1781924749],[123.67853100000001,10.232333000000001,364.10000000000002,1781924759],[123.67850300000001,10.232341,364,1781924761],[123.678494,10.232341,363.5,1781924762],[123.678425,10.232366000000001,363,1781924783],[123.678355,10.232433,361.39999999999998,1781924784],[123.678291,10.232480000000001,360,1781924797],[123.67828,10.232480000000001,359.80000000000001,1781924798],[123.678276,10.232481,359.69999999999999,1781924799],[123.67822,10.232505,358.80000000000001,1781924806],[123.678163,10.232593,356.60000000000002,1781924816],[123.678123,10.23263,356.10000000000002,1781924821],[123.678106,10.232646000000001,355.5,1781924822],[123.67803000000001,10.232723,354.69999999999999,1781924829],[123.677983,10.23274,354.10000000000002,1781924832],[123.67796800000001,10.232748000000001,354,1781924833],[123.67794000000001,10.232761,352.89999999999998,1781924836],[123.677836,10.232846,350.5,1781924849],[123.67783300000001,10.232863,350.60000000000002,1781924850],[123.67776000000001,10.232961,350.60000000000002,1781924863],[123.677746,10.232965999999999,350.60000000000002,1781924864],[123.677693,10.233038000000001,349.69999999999999,1781924871],[123.67754600000001,10.233171,348.30000000000001,1781924891],[123.67754100000001,10.233181,348.30000000000001,1781924892],[123.67753999999999,10.233196,348,1781924901],[123.67742800000001,10.233256000000001,346.60000000000002,1781924913],[123.67735399999999,10.233335,346.5,1781924914],[123.67731499999999,10.233363000000001,346.69999999999999,1781924917],[123.67729799999999,10.233370000000001,347,1781924918],[123.677198,10.233423,347.5,1781924930],[123.677171,10.233459999999999,347.30000000000001,1781924933],[123.677131,10.233485999999999,347.5,1781924936],[123.67711799999999,10.233492999999999,347.60000000000002,1781924937],[123.676998,10.233515000000001,346.30000000000001,1781924947],[123.676858,10.233578,344.10000000000002,1781924970],[123.676846,10.233578,343.80000000000001,1781924971],[123.67673600000001,10.233584,345,1781924989],[123.676721,10.233555000000001,345.60000000000002,1781925000],[123.67668399999999,10.233571,345.80000000000001,1781925007],[123.676678,10.233568999999999,345.80000000000001,1781925008],[123.67665,10.233571,346.19999999999999,1781925011],[123.67662,10.233549999999999,346.39999999999998,1781925053],[123.676648,10.233765,347.69999999999999,1781925071],[123.676638,10.233768,347.69999999999999,1781925171],[123.67657,10.233701,348.80000000000001,1781925172],[123.676565,10.233703,348.69999999999999,1781925173],[123.67644900000001,10.233706,346.80000000000001,1781925188],[123.67626799999999,10.233738000000001,343,1781925206],[123.676265,10.233746,342.30000000000001,1781925207],[123.676261,10.23376,341.5,1781925208],[123.676241,10.233779999999999,340.5,1781925211],[123.67619000000001,10.233803999999999,339.10000000000002,1781925215],[123.67610999999999,10.233826000000001,336.69999999999999,1781925221],[123.67609400000001,10.233833000000001,336.19999999999999,1781925222],[123.676041,10.233860999999999,334.80000000000001,1781925226],[123.67589599999999,10.233884,333,1781925277],[123.675805,10.233924999999999,332.80000000000001,1781925297],[123.675815,10.233923000000001,332.80000000000001,1781925298],[123.675808,10.233923000000001,332.80000000000001,1781925299],[123.675815,10.233921,332.69999999999999,1781925300],[123.675741,10.233978,332.69999999999999,1781925362],[123.67571,10.233981,332,1781925369],[123.675625,10.234028,333.19999999999999,1781925375],[123.675588,10.234059999999999,333.10000000000002,1781925380],[123.675518,10.234102999999999,332.5,1781925400],[123.675388,10.234135999999999,332.60000000000002,1781925413],[123.675361,10.234151000000001,332.39999999999998,1781925415],[123.675355,10.234156,332.30000000000001,1781925416],[123.675303,10.234175,331.69999999999999,1781925420],[123.675258,10.234215000000001,329.5,1781925429],[123.675186,10.234233,328.30000000000001,1781925432],[123.67517100000001,10.234235,328.10000000000002,1781925433],[123.674961,10.234192999999999,323.69999999999999,1781925455],[123.674953,10.23419,323.39999999999998,1781925456],[123.67479,10.234147999999999,318.19999999999999,1781925474],[123.67470899999999,10.234102999999999,315.60000000000002,1781925483],[123.674649,10.234078,315.19999999999999,1781925489],[123.67465799999999,10.234071,313.60000000000002,1781925600],[123.674611,10.234068000000001,310.10000000000002,1781925607],[123.674581,10.234052999999999,309.19999999999999,1781925609],[123.674566,10.234040999999999,308.80000000000001,1781925610],[123.674483,10.23399,306.5,1781925660],[123.67441100000001,10.233973000000001,305.60000000000002,1781925665],[123.67439299999999,10.233968000000001,305.39999999999998,1781925666],[123.674361,10.233955999999999,304.80000000000001,1781925682],[123.674278,10.23401,303.30000000000001,1781925683],[123.674178,10.234102999999999,301.60000000000002,1781925713],[123.67415099999999,10.234196000000001,301.89999999999998,1781925714],[123.674155,10.234225,301.69999999999999,1781925718],[123.67413500000001,10.234221,301.39999999999998,1781925720],[123.674125,10.234235,301.39999999999998,1781925722],[123.67416,10.234484999999999,301.89999999999998,1781925787],[123.67416299999999,10.234486,301.89999999999998,1781925788],[123.674148,10.234501,301.89999999999998,1781925808],[123.674166,10.234475,302.10000000000002,1781925809],[123.674178,10.23448,302.39999999999998,1781925837],[123.674201,10.234572999999999,298.80000000000001,1781925838],[123.674178,10.234731,293.80000000000001,1781925856],[123.674193,10.234831,291.5,1781925862],[123.674226,10.234881,290.60000000000002,1781925879],[123.674245,10.23499,289.30000000000001,1781925883],[123.674246,10.235003000000001,289.19999999999999,1781925884],[123.674263,10.235123,289.69999999999999,1781925938],[123.674306,10.235156,288.80000000000001,1781925942],[123.674306,10.235199,288.69999999999999,1781925946],[123.674316,10.235215999999999,288.60000000000002,1781925948],[123.674361,10.235293,287.69999999999999,1781925955],[123.674361,10.235322999999999,287,1781925965],[123.67440499999999,10.235410999999999,289,1781925973],[123.674436,10.235455999999999,289.39999999999998,1781925978],[123.674441,10.235466000000001,289.60000000000002,1781925979],[123.674471,10.235474999999999,290.19999999999999,1781926011],[123.67440499999999,10.235526,291.69999999999999,1781926012],[123.674268,10.235541,291.89999999999998,1781926017],[123.674254,10.235535,291.69999999999999,1781926019],[123.67418600000001,10.235516000000001,291.19999999999999,1781926022],[123.674111,10.235526,290.30000000000001,1781926027],[123.674065,10.23551,290.10000000000002,1781926031],[123.67405100000001,10.235500999999999,290.10000000000002,1781926032],[123.67400600000001,10.235506000000001,289.80000000000001,1781926034],[123.67394299999999,10.235462999999999,289.39999999999998,1781926041],[123.67389300000001,10.235450999999999,289.69999999999999,1781926044],[123.673891,10.235445,289.80000000000001,1781926045],[123.67385299999999,10.235443,289.80000000000001,1781926048],[123.673751,10.235367999999999,289.69999999999999,1781926060],[123.673603,10.235308,291.69999999999999,1781926072],[123.673596,10.235306,291.89999999999998,1781926073],[123.673485,10.235291,290.30000000000001,1781926082],[123.673401,10.235258,288.5,1781926090],[123.67338599999999,10.235260999999999,288.39999999999998,1781926091],[123.673271,10.235250000000001,288.80000000000001,1781926102],[123.67318299999999,10.235251,289.5,1781926108],[123.673174,10.235255,289.5,1781926109],[123.67311599999999,10.235277999999999,289.5,1781926115],[123.673016,10.235338,289.39999999999998,1781926130],[123.67299800000001,10.235455,291.69999999999999,1781926146],[123.672994,10.235465,291.80000000000001,1781926147],[123.672921,10.235536,292.89999999999998,1781926167],[123.67288499999999,10.235605,291.89999999999998,1781926168],[123.672856,10.235726,291.80000000000001,1781926182],[123.672849,10.235735999999999,291.80000000000001,1781926183],[123.672808,10.235815000000001,292.10000000000002,1781926198],[123.672783,10.235905000000001,292.60000000000002,1781926199],[123.67275600000001,10.235954,292.89999999999998,1781926203],[123.67274999999999,10.235965999999999,293,1781926204],[123.672724,10.235982999999999,293.19999999999999,1781926206],[123.672646,10.236128000000001,293.19999999999999,1781926218],[123.672639,10.236140000000001,293.39999999999998,1781926219],[123.67265500000001,10.236328,293.10000000000002,1781926235],[123.672634,10.236375000000001,292.60000000000002,1781926239],[123.672633,10.236383,292.69999999999999,1781926240],[123.672601,10.236461,293.89999999999998,1781926247],[123.672603,10.236561,295.60000000000002,1781926255],[123.672608,10.236571,295.60000000000002,1781926256],[123.672641,10.236715,297.5,1781926268],[123.672639,10.236720999999999,297.69999999999999,1781926269],[123.672611,10.23681,299,1781926284],[123.672595,10.236916000000001,299.5,1781926295],[123.672571,10.236958,299.60000000000002,1781926300],[123.672543,10.23701,300.19999999999999,1781926305],[123.67247500000001,10.237085,301.30000000000001,1781926316],[123.67246799999999,10.23709,301.39999999999998,1781926317],[123.67245800000001,10.237111000000001,301.69999999999999,1781926321],[123.67247500000001,10.237193,301.5,1781926332],[123.67246299999999,10.237291000000001,301,1781926333],[123.67249099999999,10.237373,301.30000000000001,1781926342],[123.67248499999999,10.237385,301.30000000000001,1781926343],[123.672476,10.237448000000001,300.69999999999999,1781926357],[123.672426,10.237548,301.80000000000001,1781926369],[123.67238500000001,10.237606,302.39999999999998,1781926370],[123.67229500000001,10.237663,303.5,1781926381],[123.67228299999999,10.237666000000001,303.60000000000002,1781926382],[123.67223799999999,10.237724999999999,303.39999999999998,1781926394],[123.67214300000001,10.237769999999999,302.80000000000001,1781926395],[123.672051,10.237828,303.5,1781926405],[123.672045,10.237838,303.60000000000002,1781926406],[123.67201300000001,10.237881,303.69999999999999,1781926410],[123.671978,10.237909999999999,305.19999999999999,1781926426],[123.67195599999999,10.238014,305.80000000000001,1781926427],[123.671925,10.238078,305.69999999999999,1781926432],[123.67191800000001,10.23809,305.5,1781926433],[123.67186599999999,10.238116,305.19999999999999,1781926438],[123.67180999999999,10.238227999999999,306.10000000000002,1781926451],[123.67176499999999,10.238276000000001,306.10000000000002,1781926458],[123.671755,10.238284999999999,306.10000000000002,1781926459],[123.671673,10.238341,307.89999999999998,1781926480],[123.67160800000001,10.238360999999999,308.60000000000002,1781926487],[123.671541,10.238365,309,1781926494],[123.671526,10.238388,309.10000000000002,1781926498],[123.67146,10.238455,309.30000000000001,1781926505],[123.671415,10.238478000000001,309.69999999999999,1781926509],[123.671358,10.238486,310,1781926513],[123.671333,10.238493,309.89999999999998,1781926514],[123.671251,10.238498999999999,310,1781926527],[123.671156,10.238458,310.89999999999998,1781926535],[123.671116,10.238453,311,1781926548],[123.67107,10.23842,311.10000000000002,1781926549],[123.67106,10.238417999999999,311.19999999999999,1781926550],[123.670986,10.238424999999999,311.5,1781926556],[123.670941,10.238396,310.80000000000001,1781926564],[123.670838,10.238378000000001,310.30000000000001,1781926566],[123.67083100000001,10.238376000000001,310.19999999999999,1781926567],[123.670804,10.238371000000001,309.69999999999999,1781926758],[123.670711,10.238390000000001,310.30000000000001,1781926759],[123.670705,10.238403,310,1781926778],[123.67061,10.238396,309.10000000000002,1781926779],[123.670463,10.238428000000001,307.80000000000001,1781926801],[123.670444,10.238436,307.60000000000002,1781926802],[123.670405,10.23846,307.30000000000001,1781926816],[123.670373,10.238536,306.30000000000001,1781926817],[123.670373,10.23856,306.30000000000001,1781926824],[123.670343,10.238591,306.30000000000001,1781926825],[123.670331,10.238621,305.60000000000002,1781926839],[123.67023399999999,10.238675000000001,306.10000000000002,1781926841],[123.67022299999999,10.238683,306.10000000000002,1781926842],[123.670125,10.238723,306.39999999999998,1781926851],[123.670036,10.238733,306,1781926855],[123.67002599999999,10.238733,306,1781926856],[123.66983999999999,10.238765000000001,305.10000000000002,1781926869],[123.66980599999999,10.238780999999999,304.19999999999999,1781926872],[123.669798,10.238785999999999,304.10000000000002,1781926873],[123.669651,10.238845,303.19999999999999,1781926887],[123.66964,10.238842999999999,303.10000000000002,1781926888],[123.669466,10.238835999999999,303,1781926902],[123.669186,10.238766,302.60000000000002,1781926928],[123.66917599999999,10.238763000000001,302.60000000000002,1781926929],[123.66896800000001,10.238738,302,1781926954],[123.668873,10.238711,302.89999999999998,1781926959],[123.66885600000001,10.238702999999999,302.89999999999998,1781926960],[123.668835,10.238688,302.80000000000001,1781926968],[123.668763,10.238673,302.80000000000001,1781926969],[123.668471,10.238670000000001,304.5,1781926998],[123.668463,10.238671,304.60000000000002,1781926999],[123.668448,10.238676,304.80000000000001,1781927009],[123.668375,10.238661,304.80000000000001,1781927010],[123.668339,10.238645,304.69999999999999,1781927018],[123.66819099999999,10.238631,302.10000000000002,1781927022],[123.668178,10.238630000000001,301.89999999999998,1781927023],[123.66801,10.238493,300.89999999999998,1781927041],[123.66800499999999,10.238484,300.80000000000001,1781927042],[123.66796100000001,10.238474999999999,300.5,1781927045],[123.667818,10.238467999999999,298,1781927072],[123.667728,10.238519999999999,297.60000000000002,1781927088],[123.667725,10.238523000000001,297.30000000000001,1781927089],[123.667666,10.238605,294.19999999999999,1781927104],[123.66755999999999,10.238683,291.69999999999999,1781927122],[123.667446,10.238735999999999,291.19999999999999,1781927135],[123.667436,10.238745,291.19999999999999,1781927136],[123.667377,10.238775,290,1781927152],[123.66713799999999,10.238775,291.30000000000001,1781927179],[123.667081,10.238735999999999,291.39999999999998,1781927185],[123.66705399999999,10.23873,291,1781927196],[123.666999,10.238655,290,1781927220],[123.666946,10.23856,288.60000000000002,1781927237],[123.66693600000001,10.23855,288.39999999999998,1781927238],[123.666906,10.238511000000001,288.10000000000002,1781927241],[123.66691,10.238479999999999,287.5,1781927245],[123.666845,10.238410999999999,286.69999999999999,1781927249],[123.666833,10.2384,286.5,1781927250],[123.666808,10.23837,285.80000000000001,1781927257],[123.666743,10.238351,285,1781927260],[123.666636,10.238351,285.39999999999998,1781927268],[123.66653100000001,10.238395000000001,284.89999999999998,1781927288],[123.666425,10.23842,285.89999999999998,1781927294],[123.66641300000001,10.238422999999999,285.89999999999998,1781927295],[123.66631599999999,10.238433000000001,285.89999999999998,1781927312],[123.66619300000001,10.238460999999999,284.39999999999998,1781927316],[123.66618099999999,10.238465,284.30000000000001,1781927317],[123.666155,10.238478000000001,283.69999999999999,1781927322],[123.66600800000001,10.238481,282.80000000000001,1781927333],[123.66600099999999,10.238478000000001,282.80000000000001,1781927334],[123.66598999999999,10.23847,282.69999999999999,1781927335],[123.66593399999999,10.238471000000001,282.80000000000001,1781927339],[123.66587800000001,10.238488,282.5,1781927344],[123.66581600000001,10.238476,282.5,1781927347],[123.665801,10.238473000000001,282.39999999999998,1781927348],[123.66571500000001,10.23846,282.69999999999999,1781927361],[123.665581,10.238391,280,1781927370],[123.665565,10.238393,279.5,1781927371],[123.66532599999999,10.23841,277.89999999999998,1781927394],[123.665316,10.23841,277.60000000000002,1781927395],[123.66520300000001,10.238446,277.39999999999998,1781927407],[123.66511800000001,10.238503,277.5,1781927414],[123.665105,10.238512999999999,277.39999999999998,1781927415],[123.66507300000001,10.238531,277.5,1781927418],[123.664968,10.238524999999999,277.5,1781927425],[123.66495500000001,10.238524999999999,277.39999999999998,1781927426],[123.66482600000001,10.238535000000001,277.5,1781927434],[123.664798,10.238523000000001,276.80000000000001,1781927436],[123.66478499999999,10.238524999999999,276.80000000000001,1781927437],[123.66475800000001,10.238512999999999,276.30000000000001,1781927439],[123.664675,10.238507,275,1781927445],[123.664625,10.238493,275,1781927448],[123.664613,10.238493,274.80000000000001,1781927449],[123.664503,10.238448999999999,274,1781927517],[123.664423,10.238384999999999,274.69999999999999,1781927534],[123.66434599999999,10.238298,274.30000000000001,1781927549],[123.664333,10.238291,274.19999999999999,1781927550],[123.664303,10.238270999999999,273.80000000000001,1781927552],[123.664191,10.238144999999999,273.10000000000002,1781927566],[123.664181,10.238137999999999,273.10000000000002,1781927567],[123.66412,10.238078,272.60000000000002,1781927574],[123.664078,10.238001000000001,272.30000000000001,1781927581],[123.66407599999999,10.237990999999999,272.30000000000001,1781927582],[123.664023,10.237905,272.60000000000002,1781927590],[123.663971,10.23785,272.80000000000001,1781927598],[123.663963,10.23784,272.89999999999998,1781927599],[123.663861,10.237769999999999,274.5,1781927611],[123.663808,10.237750999999999,275,1781927615],[123.663698,10.237679999999999,275.5,1781927628],[123.66370000000001,10.237678000000001,275.60000000000002,1781927629],[123.66365399999999,10.237655,275.60000000000002,1781927653],[123.663588,10.237596,275.69999999999999,1781927654],[123.663495,10.237482999999999,274.80000000000001,1781927670],[123.66339600000001,10.237361,273.69999999999999,1781927685],[123.66332800000001,10.237295,272.69999999999999,1781927694],[123.663139,10.237109999999999,271.30000000000001,1781927718],[123.663133,10.237105,271.30000000000001,1781927719],[123.663045,10.237026,271.5,1781927729],[123.663028,10.236995,271.5,1781927770],[123.66301300000001,10.236905999999999,271.80000000000001,1781927771],[123.663008,10.236898,271.89999999999998,1781927772],[123.662961,10.236776000000001,272.5,1781927798],[123.662959,10.236565000000001,275,1781927814],[123.662976,10.236535999999999,275.5,1781927817],[123.66298999999999,10.236529000000001,275.69999999999999,1781927818],[123.663045,10.23643,277,1781927833],[123.663121,10.236336,277.19999999999999,1781927845],[123.663123,10.236319999999999,277.19999999999999,1781927846],[123.663128,10.236305,277.19999999999999,1781927847],[123.66321000000001,10.236113,276.89999999999998,1781927873],[123.663196,10.236050000000001,276.39999999999998,1781927875],[123.66319799999999,10.236041,276.30000000000001,1781927876],[123.663161,10.235935,275.60000000000002,1781927885],[123.66307999999999,10.235853000000001,275.69999999999999,1781927899],[123.66306,10.235811,274.80000000000001,1781927903],[123.663033,10.235796000000001,274.19999999999999,1781927906],[123.66302399999999,10.235791000000001,273.80000000000001,1781927907],[123.662964,10.235745,267.5,1781928047],[123.662886,10.235792999999999,266.30000000000001,1781928048],[123.662823,10.235849999999999,266.19999999999999,1781928055],[123.662818,10.235858,266.19999999999999,1781928056],[123.662808,10.235863,266.19999999999999,1781928057],[123.66280399999999,10.235906,266.30000000000001,1781928062],[123.66281600000001,10.235918,266.30000000000001,1781928064],[123.662819,10.235946,265,1781928073],[123.662763,10.236026000000001,264.5,1781928081],[123.662738,10.236079999999999,264.10000000000002,1781928088],[123.662733,10.236096,264,1781928089],[123.662716,10.236155999999999,263.89999999999998,1781928094],[123.662685,10.236178000000001,263.80000000000001,1781928097],[123.66267499999999,10.2362,263,1781928106],[123.662655,10.236293,264.5,1781928114],[123.662661,10.236305,264.60000000000002,1781928115],[123.662659,10.236311000000001,264.60000000000002,1781928116],[123.662666,10.236345999999999,264.89999999999998,1781928119],[123.662656,10.236376,265,1781928131],[123.662476,10.236513,266.89999999999998,1781928139],[123.662465,10.236526,267.10000000000002,1781928140],[123.66237099999999,10.236580999999999,269.10000000000002,1781928151],[123.66230299999999,10.236594999999999,270,1781928156],[123.662211,10.236649999999999,271.69999999999999,1781928170],[123.662201,10.236651,271.80000000000001,1781928171],[123.662149,10.236677999999999,272.19999999999999,1781928175],[123.662121,10.236718,272.30000000000001,1781928178],[123.662093,10.236727999999999,272.80000000000001,1781928180],[123.662086,10.236725,272.89999999999998,1781928181],[123.662008,10.236776000000001,277.60000000000002,1781928201],[123.661996,10.236798,277.5,1781928220],[123.66190899999999,10.236883000000001,277.89999999999998,1781928232],[123.66181899999999,10.236921000000001,278.19999999999999,1781928233],[123.66181,10.236943,278.10000000000002,1781928234],[123.661796,10.236958,278.30000000000001,1781928235],[123.661765,10.23701,278.5,1781928247],[123.661681,10.23706,279.5,1781928248],[123.661615,10.23714,280.60000000000002,1781928258],[123.661546,10.237208000000001,282.69999999999999,1781928267],[123.66148099999999,10.237238,284.10000000000002,1781928274],[123.661385,10.237325,287.5,1781928289],[123.66137500000001,10.237330999999999,287.60000000000002,1781928290],[123.661298,10.237378,289.80000000000001,1781928304],[123.66120600000001,10.237413,291.30000000000001,1781928310],[123.661193,10.237415,291.39999999999998,1781928311],[123.661098,10.237448000000001,292.69999999999999,1781928328],[123.661,10.237463,293.80000000000001,1781928329],[123.660903,10.237500000000001,294.69999999999999,1781928339],[123.660895,10.237501,294.80000000000001,1781928340],[123.660771,10.237527999999999,298.39999999999998,1781928367],[123.66069899999999,10.237565,300.39999999999998,1781928368],[123.66066600000001,10.237563,300.80000000000001,1781928379],[123.660551,10.237598999999999,300.60000000000002,1781928381],[123.660545,10.237605,300.69999999999999,1781928382],[123.660436,10.237608,303,1781928401],[123.660313,10.237660999999999,304.10000000000002,1781928413],[123.66022599999999,10.237685000000001,304.69999999999999,1781928422],[123.66021600000001,10.237689,304.69999999999999,1781928423],[123.660186,10.237691,305,1781928440],[123.66010300000001,10.237731,306.69999999999999,1781928441],[123.660011,10.237681,307.69999999999999,1781928473]]]}}]}
