{"type":"FeatureCollection","features":[{"type":"Feature","properties":[],"geometry":{"type":"MultiLineString","coordinates":[[[123.83775300000001,10.309131000000001,270.16000000000003,0],[123.83784199999999,10.309151,272.81999999999999,0],[123.838055,10.309101999999999,283.51999999999998,0],[123.838268,10.309054,285.10000000000002,0],[123.83867600000001,10.30898,278.79000000000002,0],[123.838928,10.308764,277.36000000000001,0],[123.839055,10.308628000000001,277.19,0],[123.839191,10.308513,275.10000000000002,0],[123.839264,10.308391,274.63999999999999,0],[123.839326,10.308145,274.64999999999998,0],[123.839479,10.3079,270.95999999999998,0],[123.839607,10.307734,267.56999999999999,0],[123.839776,10.307562000000001,264.64999999999998,0],[123.83998800000001,10.307475,262.57999999999998,0],[123.84027399999999,10.307344000000001,264.52999999999997,0],[123.84064100000001,10.307199000000001,267.38,0],[123.840903,10.307221,266.44,0],[123.841311,10.307312,264.61000000000001,0],[123.84174400000001,10.307460000000001,261.47000000000003,0],[123.84212599999999,10.307518,259.95999999999998,0],[123.84272900000001,10.307536000000001,258.87,0],[123.84325,10.307484000000001,261.5,0],[123.843541,10.307561,257.87,0],[123.84375799999999,10.307670999999999,255.13999999999999,0],[123.84394,10.307763,252.84999999999999,0],[123.84417999999999,10.307924999999999,248.80000000000001,0],[123.84466500000001,10.308161,238.83000000000001,0],[123.844966,10.308261,234.11000000000001,0],[123.845628,10.30838,227.44999999999999,0],[123.84586400000001,10.308484,222.28999999999999,0],[123.84620099999999,10.308743,211.15000000000001,0],[123.846476,10.309058,204.02000000000001,0],[123.846744,10.309487000000001,194.88,0],[123.846952,10.309915999999999,187.27000000000001,0],[123.847224,10.310463,179.63,0],[123.847341,10.310803999999999,173.81,0],[123.847399,10.311045999999999,170.68000000000001,0],[123.84745599999999,10.311289,169.84999999999999,0],[123.847559,10.311640000000001,168.63999999999999,0],[123.84762499999999,10.311806000000001,166.53,0],[123.847678,10.311912,164.91999999999999,0],[123.847756,10.311995,161.31,0],[123.847857,10.312015000000001,157.50999999999999,0],[123.847961,10.311989000000001,153.47,0],[123.848099,10.311908000000001,148.25999999999999,0],[123.848184,10.311811000000001,145.08000000000001,0],[123.848214,10.311669999999999,143.44,0],[123.848197,10.311461,141.63999999999999,0],[123.848221,10.311396,140.00999999999999,0],[123.848271,10.311377,138.03,0],[123.848326,10.311388000000001,136.24000000000001,0],[123.84835200000001,10.311451,136.06,0],[123.84842,10.311712999999999,135.68000000000001,0],[123.848517,10.311866999999999,131.56,0],[123.84860399999999,10.311957,126.20999999999999,0],[123.848657,10.311968,123.55,0],[123.848699,10.311952,121.90000000000001,0],[123.84872300000001,10.311916,121.39,0],[123.848722,10.311843,122.2,0],[123.848618,10.311693,127.63,0],[123.848624,10.31162,127.09,0],[123.848685,10.311529999999999,123.88,0],[123.84884,10.311396999999999,117.09,0],[123.84899,10.311199999999999,113.3,0],[123.84905500000001,10.311147999999999,112.27,0],[123.849113,10.311139000000001,111.03,0],[123.849171,10.311152,109.45999999999999,0],[123.849431,10.311245,101.83,0],[123.84950499999999,10.311249,100.34,0],[123.849637,10.311215000000001,98.379999999999995,0],[123.849699,10.311226,96.689999999999998,0],[123.84974,10.311264,94.829999999999998,0],[123.849733,10.311365,92.620000000000005,0],[123.84965200000001,10.311502000000001,91.25,0],[123.84960700000001,10.311605,89.829999999999998,0],[123.849604,10.311693,87.760000000000005,0],[123.849644,10.311754000000001,84.950000000000003,0],[123.84972,10.311781,82.189999999999998,0],[123.85000700000001,10.311699000000001,78.329999999999998,0],[123.850075,10.311662999999999,77.379999999999995,0],[123.850126,10.311617,77.349999999999994,0],[123.850191,10.311494,78.939999999999998,0],[123.850261,10.311294,82.879999999999995,0],[123.850354,10.311154999999999,85.890000000000001,0],[123.85046800000001,10.311069,87.609999999999999,0],[123.850706,10.310874999999999,87.950000000000003,0],[123.85075999999999,10.310819,87.340000000000003,0],[123.850802,10.310743,86.099999999999994,0],[123.850902,10.310396000000001,75.900000000000006,0],[123.85092899999999,10.310278,73.659999999999997,0],[123.850936,10.310150999999999,72.230000000000004,0],[123.850932,10.309901999999999,70.290000000000006,0],[123.850939,10.309854,70.060000000000002,0],[123.851041,10.309609,69.760000000000005,0],[123.851142,10.309466,69.379999999999995,0],[123.851226,10.309435000000001,68.980000000000004,0],[123.85129999999999,10.309442000000001,68.170000000000002,0],[123.851384,10.309492000000001,65.870000000000005,0],[123.851748,10.309782999999999,59.43,0],[123.851916,10.309889999999999,59.969999999999999,0],[123.851966,10.309908999999999,60.549999999999997,0],[123.85206700000001,10.309905000000001,62.740000000000002,0],[123.85209999999999,10.309882,63.210000000000001,0],[123.85214000000001,10.309841,63.359999999999999,0],[123.852172,10.309709,62.649999999999999,0],[123.85214000000001,10.309466,60.659999999999997,0],[123.852155,10.309397000000001,60.340000000000003,0],[123.852226,10.309277,60.68,0],[123.85235,10.309123,59.850000000000001,0],[123.85261,10.308881,59.079999999999998,0],[123.85286000000001,10.308709,58.68,0],[123.85305099999999,10.308634,60.259999999999998,0],[123.85319800000001,10.308553,62.130000000000003,0],[123.853295,10.308472,65.260000000000005,0],[123.85337699999999,10.308332999999999,66.560000000000002,0],[123.853416,10.30819,65.629999999999995,0],[123.85343899999999,10.307689999999999,61.630000000000003,0],[123.85347,10.307543000000001,61.390000000000001,0],[123.85350800000001,10.307473999999999,60.609999999999999,0],[123.853555,10.307428,60.25,0],[123.853633,10.307389000000001,60.240000000000002,0],[123.853719,10.307376,59.979999999999997,0],[123.853843,10.307375,59.57,0],[123.85405,10.307402,58.219999999999999,0],[123.85412100000001,10.307401,58.350000000000001,0],[123.8544,10.30734,58.060000000000002,0],[123.854708,10.307186,58.539999999999999,0],[123.854804,10.307172,58.240000000000002,0],[123.855617,10.307176,58.990000000000002,0],[123.855903,10.307119,59.109999999999999,0],[123.856143,10.307034,58.590000000000003,0],[123.856245,10.306989,57.75,0],[123.856729,10.306762000000001,53.890000000000001,0],[123.857079,10.306621,52.030000000000001,0],[123.85734100000001,10.306497,52.520000000000003,0],[123.857572,10.306362999999999,55.579999999999998,0],[123.857777,10.306202000000001,58.450000000000003,0],[123.857906,10.306072,59.899999999999999,0],[123.858164,10.305775000000001,58.979999999999997,0],[123.85829099999999,10.305574999999999,56.119999999999997,0],[123.858418,10.305311,52.32,0],[123.858532,10.305035999999999,48.829999999999998,0],[123.858644,10.304781999999999,47.289999999999999,0],[123.858868,10.304414,46.770000000000003,0],[123.859137,10.304055999999999,47.509999999999998,0],[123.859253,10.303922999999999,46.880000000000003,0],[123.859663,10.303585,45.869999999999997,0],[123.86012700000001,10.303175,43.990000000000002,0],[123.86035200000001,10.302962000000001,42.090000000000003,0],[123.860355,10.302490000000001,38.729999999999997,0],[123.86035699999999,10.302341999999999,38.380000000000003,0],[123.860375,10.302229000000001,38.280000000000001,0],[123.860452,10.301981,38.829999999999998,0],[123.86054300000001,10.30176,38.07,0],[123.860792,10.301219,38,0],[123.860904,10.301031999999999,38.25,0],[123.86114499999999,10.300675999999999,38,0],[123.861284,10.300485,38,0],[123.86154999999999,10.300196,38.549999999999997,0],[123.86171299999999,10.299996999999999,38.409999999999997,0],[123.861819,10.299882,38.140000000000001,0],[123.862066,10.299669,37.049999999999997,0],[123.86220400000001,10.299537000000001,36.640000000000001,0],[123.86274400000001,10.299051,36.270000000000003,0],[123.86302499999999,10.298776999999999,36.600000000000001,0],[123.863304,10.298555,35.020000000000003,0],[123.86339,10.298512000000001,34.710000000000001,0],[123.863798,10.298472,34.07,0],[123.863877,10.298455000000001,34.030000000000001,0],[123.864215,10.298325999999999,34.109999999999999,0],[123.864285,10.298309,34.310000000000002,0],[123.864504,10.298295,34.469999999999999,0],[123.864721,10.298247,35.049999999999997,0],[123.864994,10.298121999999999,32.100000000000001,0],[123.865098,10.298038,31.57,0],[123.865167,10.297965,31.420000000000002,0],[123.86537199999999,10.297658,31,0],[123.865498,10.297507,31.440000000000001,0],[123.865611,10.29743,31.18,0],[123.865769,10.297352,30.809999999999999,0],[123.865837,10.297305,31,0],[123.865968,10.297155,30.760000000000002,0],[123.866145,10.296968,29.920000000000002,0],[123.866198,10.296934,29.719999999999999,0],[123.86635200000001,10.296875999999999,29.370000000000001,0],[123.866388,10.296844999999999,29.190000000000001,0],[123.866581,10.296631,29,0],[123.86664,10.296590999999999,29,0],[123.86669500000001,10.296571999999999,29,0],[123.86674499999999,10.296567,29,0],[123.866837,10.296575000000001,28.82,0],[123.86692600000001,10.296611,28.34,0],[123.867341,10.296822000000001,27.949999999999999,0],[123.867452,10.296834,27.870000000000001,0],[123.86770199999999,10.296798000000001,28,0],[123.86804100000001,10.296794,27.739999999999998,0],[123.868331,10.296746000000001,27.399999999999999,0],[123.86841800000001,10.296723999999999,27.52,0],[123.868493,10.296692999999999,27.699999999999999,0],[123.86854700000001,10.296668,27.649999999999999,0],[123.868673,10.296587000000001,27.02,0],[123.868801,10.296467,26.289999999999999,0],[123.86888,10.296531,25.829999999999998,0],[123.868945,10.296670000000001,25.449999999999999,0],[123.869005,10.296697999999999,25.100000000000001,0],[123.869269,10.296734000000001,23.370000000000001,0],[123.869495,10.296775,22.379999999999999,0],[123.86984699999999,10.296839,23,0],[123.86983600000001,10.296123,22.02,0],[123.86982999999999,10.295624,23,0]]]}}]}
