{"type":"FeatureCollection","features":[{"type":"Feature","properties":[],"geometry":{"type":"MultiLineString","coordinates":[[[123.771221,10.321479999999999,420.98000000000002,0],[123.77121099999999,10.321607,425.76999999999998,0],[123.771253,10.321747,430.66000000000003,0],[123.771317,10.32192,436.81999999999999,0],[123.771424,10.322036000000001,438.44999999999999,0],[123.771575,10.322126000000001,435.88,0],[123.771844,10.322338999999999,435.23000000000002,0],[123.771963,10.322514999999999,437.66000000000003,0],[123.77203299999999,10.322656,441.04000000000002,0],[123.772081,10.322893000000001,448.30000000000001,0],[123.772097,10.323007,452.68000000000001,0],[123.772069,10.323292,463.37,0],[123.77202,10.323449,467.69999999999999,0],[123.77189199999999,10.323651,472.47000000000003,0],[123.7718,10.323774,474.18000000000001,0],[123.77166800000001,10.323836,475.32999999999998,0],[123.771348,10.323905999999999,477.76999999999998,0],[123.77106999999999,10.323994000000001,480.62,0],[123.770725,10.32394,484.47000000000003,0],[123.770664,10.323954000000001,485.38999999999999,0],[123.770528,10.323985,487.44,0],[123.770072,10.324294999999999,494.60000000000002,0],[123.76984400000001,10.324450000000001,495.98000000000002,0],[123.76969200000001,10.324510999999999,496.13999999999999,0],[123.769516,10.324502000000001,498.13999999999999,0],[123.769301,10.324395000000001,502.35000000000002,0],[123.769147,10.324358999999999,505.75999999999999,0],[123.768974,10.324389,509.20999999999998,0],[123.768918,10.324509000000001,512.01999999999998,0],[123.76894900000001,10.324659,512.96000000000004,0],[123.768914,10.324799000000001,514.08000000000004,0],[123.768749,10.324913,517.26999999999998,0],[123.768485,10.325015,523.36000000000001,0],[123.768118,10.325081000000001,528.92999999999995,0],[123.767864,10.325116,531.16999999999996,0],[123.767662,10.325151999999999,533.67999999999995,0],[123.767456,10.325163,536.13,0],[123.767246,10.325146999999999,537.04999999999995,0],[123.767096,10.325120999999999,537.63999999999999,0],[123.766858,10.325023,539.67999999999995,0],[123.76632600000001,10.324748,545.34000000000003,0],[123.766053,10.324678,548.34000000000003,0],[123.765817,10.324609000000001,552.35000000000002,0],[123.76573399999999,10.324598999999999,553.35000000000002,0],[123.76555399999999,10.324641,556.28999999999996,0],[123.76530200000001,10.324683,559.20000000000005,0],[123.765218,10.324683,560.64999999999998,0],[123.765146,10.324655999999999,561.44000000000005,0],[123.764709,10.324280999999999,565.10000000000002,0],[123.76432800000001,10.324107,568.19000000000005,0],[123.76397299999999,10.324016,572.38,0],[123.763718,10.323986,575.15999999999997,0],[123.763481,10.323997,576.45000000000005,0],[123.76315200000001,10.323982000000001,578.74000000000001,0],[123.762614,10.323746,582.36000000000001,0],[123.76216100000001,10.323445,584.47000000000003,0],[123.76208,10.323399999999999,584.85000000000002,0],[123.761914,10.323358000000001,585.21000000000004,0],[123.76159199999999,10.323309999999999,587.55999999999995,0],[123.761308,10.323306000000001,591,0],[123.760819,10.323290999999999,599.71000000000004,0],[123.760383,10.323169999999999,606.63,0],[123.75998800000001,10.323167,616.39999999999998,0],[123.75961700000001,10.323185,625.04999999999995,0],[123.75927799999999,10.323062999999999,626.88,0],[123.759157,10.323081999999999,627.47000000000003,0],[123.75906500000001,10.323176999999999,629.09000000000003,0],[123.75888999999999,10.324078,652.98000000000002,0],[123.758821,10.324241000000001,655.88,0],[123.75869400000001,10.324424,659.19000000000005,0],[123.758476,10.324506,659.45000000000005,0],[123.758287,10.3245,657.52999999999997,0],[123.75809099999999,10.324505,655.95000000000005,0],[123.757981,10.324583000000001,656.72000000000003,0],[123.757864,10.324612999999999,654.88,0],[123.757379,10.324787000000001,648.29999999999995,0],[123.75692100000001,10.324871,641.71000000000004,0],[123.756692,10.324911999999999,640.75,0],[123.756574,10.324923,639.96000000000004,0],[123.75651499999999,10.324939000000001,639.36000000000001,0],[123.756316,10.325023,636.76999999999998,0],[123.756051,10.325205,632.97000000000003,0],[123.75599200000001,10.325255,632.38999999999999,0],[123.75570999999999,10.325404000000001,629.83000000000004,0],[123.75552500000001,10.325498,630.23000000000002,0],[123.75546300000001,10.325519,630.80999999999995,0],[123.755168,10.325654,634.42999999999995,0],[123.75508499999999,10.325664,635.14999999999998,0],[123.754852,10.325666999999999,637.20000000000005,0],[123.75479300000001,10.325675,637.76999999999998,0],[123.75462400000001,10.325728,639.86000000000001,0],[123.754546,10.325767000000001,640.63,0],[123.754358,10.325904,642.51999999999998,0],[123.754283,10.325996999999999,642.52999999999997,0],[123.753916,10.326378999999999,640.63999999999999,0],[123.753484,10.326658999999999,642.88999999999999,0],[123.75334599999999,10.326729,642.82000000000005,0]]]}}]}
