{"type":"FeatureCollection","features":[{"type":"Feature","properties":[],"geometry":{"type":"MultiLineString","coordinates":[[[123.783604,10.28012,60.630000000000003,0],[123.78366699999999,10.280103,60.590000000000003,0],[123.783956,10.279788,60.25,0],[123.784217,10.279496,63.200000000000003,0],[123.7843,10.279458,63.939999999999998,0],[123.78438800000001,10.279464000000001,65.299999999999997,0],[123.784564,10.279464000000001,66.900000000000006,0],[123.784802,10.279415999999999,65.260000000000005,0],[123.78504,10.279299,59.100000000000001,0],[123.78515299999999,10.279138,55.840000000000003,0],[123.785256,10.278954000000001,53.939999999999998,0],[123.78550300000001,10.278634,51.82,0],[123.78563200000001,10.278339000000001,50.630000000000003,0],[123.785777,10.277972999999999,54.030000000000001,0],[123.785921,10.277424999999999,56.93,0],[123.78601500000001,10.27727,57.200000000000003,0],[123.78621699999999,10.277253999999999,57.68,0],[123.78641,10.277172,57.600000000000001,0],[123.786552,10.277129,57.899999999999999,0],[123.78679200000001,10.27717,60.630000000000003,0],[123.786866,10.277162000000001,61.299999999999997,0],[123.78704399999999,10.277004,60,0],[123.787289,10.276824,59.170000000000002,0],[123.787796,10.276706000000001,61.039999999999999,0],[123.788303,10.276589,60.719999999999999,0],[123.78885099999999,10.276370999999999,60.299999999999997,0],[123.788967,10.276293000000001,59.380000000000003,0],[123.789073,10.276135,56.219999999999999,0],[123.78917199999999,10.276052999999999,56.140000000000001,0],[123.78942499999999,10.276020000000001,61.32,0],[123.78959999999999,10.275888,63.100000000000001,0],[123.78992100000001,10.275380999999999,64.010000000000005,0],[123.790081,10.275126999999999,60.740000000000002,0],[123.790166,10.274976000000001,59.539999999999999,0],[123.790235,10.274881000000001,59.68,0],[123.79037599999999,10.274766,62.060000000000002,0],[123.79048299999999,10.274710000000001,64.329999999999998,0],[123.79067999999999,10.274461000000001,63.689999999999998,0],[123.79086100000001,10.274264000000001,65.459999999999994,0],[123.790915,10.274046999999999,62.729999999999997,0],[123.790969,10.27383,62.549999999999997,0],[123.790891,10.273388000000001,62.329999999999998,0],[123.79084,10.273073,65.230000000000004,0],[123.79090600000001,10.272805,71.609999999999999,0],[123.791055,10.272437999999999,72.049999999999997,0],[123.791218,10.272142000000001,69.950000000000003,0],[123.791786,10.271221000000001,53.049999999999997,0],[123.792112,10.271012000000001,53.68,0],[123.79237000000001,10.270802,53.789999999999999,0],[123.79262799999999,10.270591,51.079999999999998,0],[123.79288099999999,10.270348,54.57,0],[123.793004,10.270115000000001,55.259999999999998,0],[123.793239,10.269420999999999,57.409999999999997,0],[123.793317,10.269189000000001,53.710000000000001,0],[123.793487,10.268971000000001,51.109999999999999,0],[123.793897,10.268522000000001,45.159999999999997,0],[123.794346,10.268129,46.770000000000003,0],[123.794826,10.267728,42.130000000000003,0],[123.79553900000001,10.267245000000001,39.560000000000002,0],[123.79596100000001,10.266992999999999,41.189999999999998,0],[123.796154,10.266989000000001,43.509999999999998,0],[123.796299,10.266894000000001,44.340000000000003,0],[123.79662399999999,10.266385,41.210000000000001,0],[123.79678699999999,10.266131,41.799999999999997,0],[123.79700099999999,10.265734999999999,42.090000000000003,0],[123.79722099999999,10.265337000000001,36.039999999999999,0],[123.797332,10.265138,34.670000000000002,0],[123.797445,10.264979,32.899999999999999,0],[123.79750300000001,10.264923,32.920000000000002,0],[123.797618,10.264868999999999,32.939999999999998,0],[123.797794,10.264772000000001,32.990000000000002,0],[123.79809899999999,10.264555,32.789999999999999,0],[123.798168,10.264495999999999,32.810000000000002,0],[123.798485,10.264182,32.189999999999998,0],[123.798631,10.264025,33.479999999999997,0],[123.798704,10.263902,34.130000000000003,0],[123.798862,10.263579,33.469999999999999,0],[123.798917,10.263439,32.649999999999999,0],[123.798918,10.263242,31.850000000000001,0],[123.798913,10.263133,31.620000000000001,0],[123.79889799999999,10.263043,31.699999999999999,0],[123.798906,10.262995,31.66,0],[123.79892700000001,10.262947,31.539999999999999,0],[123.799031,10.262835000000001,31.02,0],[123.79928099999999,10.262631000000001,30.559999999999999,0],[123.799302,10.26257,30.649999999999999,0],[123.79931500000001,10.262494,30.719999999999999,0],[123.799412,10.262335,31.559999999999999,0],[123.799497,10.262242000000001,32.549999999999997,0],[123.79958600000001,10.262165,33.810000000000002,0],[123.799708,10.262002000000001,36.009999999999998,0],[123.799763,10.261813999999999,35.850000000000001,0],[123.79979400000001,10.261302000000001,33.579999999999998,0],[123.799796,10.260685,28.760000000000002,0],[123.799812,10.260446999999999,27.859999999999999,0],[123.79982099999999,10.260042,27.239999999999998,0],[123.799845,10.259686,27.57,0],[123.80007000000001,10.258877,28.300000000000001,0],[123.800155,10.258582000000001,30.66,0],[123.800239,10.258272,29.16,0],[123.80027200000001,10.258208,28.68,0],[123.800524,10.257986000000001,25.93,0],[123.800798,10.257764999999999,24.359999999999999,0],[123.801013,10.257538,23.93,0],[123.801149,10.257334999999999,23.379999999999999,0],[123.80134200000001,10.257016,24.350000000000001,0],[123.80187599999999,10.256425999999999,24.359999999999999,0],[123.802364,10.255768,23.920000000000002,0],[123.80240000000001,10.255734,23.93,0],[123.802583,10.255674000000001,24.640000000000001,0],[123.802886,10.255594,24.449999999999999,0],[123.80317100000001,10.255458000000001,23.550000000000001,0],[123.803478,10.255264,23.920000000000002,0],[123.80371,10.254932,24.809999999999999,0],[123.803991,10.254129000000001,22.98,0],[123.804119,10.253634999999999,20.870000000000001,0],[123.804188,10.253145999999999,22.02,0],[123.804214,10.253038999999999,22.649999999999999,0],[123.804306,10.252898999999999,23.129999999999999,0],[123.804529,10.252673,22.969999999999999,0],[123.804759,10.252367,20.239999999999998,0],[123.805038,10.252068,18.620000000000001,0],[123.80513500000001,10.251886000000001,18,0],[123.805227,10.251676,17.91,0],[123.80530400000001,10.251464,17.460000000000001,0],[123.80549999999999,10.25118,17.199999999999999,0]]]}}]}
