{"type":"FeatureCollection","features":[{"type":"Feature","properties":[],"geometry":{"type":"MultiLineString","coordinates":[[[123.710973,10.257536999999999,93.260000000000005,0],[123.710677,10.256548,90,0],[123.71061,10.255827999999999,91.150000000000006,0],[123.710652,10.255420000000001,92.560000000000002,0],[123.71082199999999,10.255094,93.540000000000006,0],[123.710981,10.254846000000001,96.390000000000001,0],[123.71105799999999,10.25459,98.980000000000004,0],[123.71104200000001,10.254030999999999,98.489999999999995,0],[123.711112,10.253804000000001,97.640000000000001,0],[123.711225,10.253571000000001,96.379999999999995,0],[123.711384,10.253292999999999,93.719999999999999,0],[123.711583,10.253131,92.819999999999993,0],[123.711795,10.253057999999999,94.760000000000005,0],[123.71230799999999,10.252882,94.340000000000003,0],[123.71290399999999,10.252672,90.640000000000001,0],[123.71312399999999,10.252666,89.209999999999994,0],[123.713341,10.252753999999999,89.019999999999996,0],[123.71356,10.252891,88.780000000000001,0],[123.713998,10.253166999999999,84.900000000000006,0],[123.714218,10.25325,84.079999999999998,0],[123.714433,10.253214,81.409999999999997,0],[123.71474000000001,10.253033,76.579999999999998,0],[123.71492600000001,10.253002,74.560000000000002,0],[123.71554399999999,10.253091,71.200000000000003,0],[123.715822,10.2531,68.920000000000002,0],[123.716382,10.25295,62.560000000000002,0],[123.716607,10.252901,60.159999999999997,0],[123.717128,10.252786,63.149999999999999,0],[123.717645,10.252681000000001,66.5,0],[123.718163,10.252577,67.629999999999995,0],[123.718327,10.252554,67.219999999999999,0],[123.71947900000001,10.252513,65.849999999999994,0],[123.719748,10.252439000000001,64.25,0],[123.720209,10.252179,61.359999999999999,0],[123.720629,10.251935,60.280000000000001,0],[123.721059,10.251702,60.5,0],[123.72149,10.251469999999999,58.359999999999999,0],[123.721757,10.251385000000001,57.009999999999998,0],[123.722103,10.251317999999999,57.299999999999997,0],[123.722381,10.251237,57.350000000000001,0],[123.72256299999999,10.251134,56.810000000000002,0],[123.722662,10.251056,57.100000000000001,0],[123.722809,10.25094,57.539999999999999,0],[123.723035,10.250838,56.670000000000002,0],[123.723415,10.250712999999999,54.359999999999999,0],[123.72377400000001,10.250613,53.439999999999998,0],[123.724014,10.250541,55.060000000000002,0],[123.724493,10.250328,56.700000000000003,0],[123.724886,10.250061000000001,56.780000000000001,0],[123.725211,10.249815999999999,55.530000000000001,0],[123.725398,10.249615,54.740000000000002,0],[123.72560900000001,10.249333999999999,54.25,0],[123.725717,10.249145,53.359999999999999,0],[123.72573300000001,10.249014000000001,53.140000000000001,0],[123.725718,10.248965,53.229999999999997,0],[123.725588,10.248734000000001,52.909999999999997,0],[123.725461,10.248657,53.439999999999998,0],[123.72509599999999,10.248519999999999,55.490000000000002,0],[123.724496,10.248225,58.259999999999998,0],[123.72393,10.247876,55.740000000000002,0],[123.72373399999999,10.247657,56.460000000000001,0],[123.72359400000001,10.247441,58.020000000000003,0],[123.723465,10.247156,58.75,0],[123.723336,10.246869999999999,55.850000000000001,0],[123.72322,10.246541000000001,54.140000000000001,0],[123.72319400000001,10.246327000000001,56.219999999999999,0],[123.72323,10.246077,58.43,0],[123.723297,10.245849,60.060000000000002,0],[123.723488,10.245517,61.369999999999997,0],[123.723586,10.245414999999999,59.920000000000002,0],[123.723727,10.245338,56.460000000000001,0],[123.72385199999999,10.24531,54.049999999999997,0],[123.723991,10.245317,52.479999999999997,0],[123.72420200000001,10.245350999999999,51.359999999999999,0],[123.72439,10.245357,50.939999999999998,0],[123.724576,10.245329999999999,49.43,0],[123.724751,10.245267,48.960000000000001,0],[123.724915,10.245177,49.100000000000001,0],[123.725047,10.245081000000001,49.670000000000002,0],[123.725109,10.244992999999999,49.810000000000002,0],[123.72512399999999,10.244897999999999,49.25,0],[123.725105,10.244809999999999,48.799999999999997,0],[123.725038,10.244702,48.229999999999997,0],[123.72494,10.244642000000001,48.520000000000003,0],[123.724805,10.244609000000001,48.539999999999999,0],[123.724214,10.244516000000001,48.979999999999997,0],[123.723844,10.244455,50.82,0],[123.723686,10.244358999999999,52.229999999999997,0],[123.72359299999999,10.244275999999999,54.460000000000001,0],[123.723502,10.244153000000001,56.079999999999998,0],[123.723448,10.244028999999999,57.079999999999998,0],[123.72343499999999,10.243886,56.75,0],[123.723433,10.243714000000001,56.229999999999997,0],[123.723524,10.243427000000001,51.310000000000002,0],[123.723669,10.243073000000001,48.5,0],[123.723821,10.242651,48.469999999999999,0],[123.723851,10.242398,48.140000000000001,0],[123.723834,10.242115,48.079999999999998,0],[123.723775,10.241895,47.710000000000001,0],[123.72372799999999,10.241771,47.969999999999999,0],[123.72356499999999,10.241604000000001,50.240000000000002,0],[123.723146,10.241339999999999,52.710000000000001,0],[123.723084,10.241294,52.869999999999997,0],[123.723015,10.24122,52.399999999999999,0],[123.722881,10.241011,51.82,0],[123.722539,10.240352,50.380000000000003,0],[123.72248399999999,10.240164999999999,50.93,0],[123.722471,10.239915999999999,50.229999999999997,0],[123.722497,10.239803999999999,49.710000000000001,0],[123.72259699999999,10.239582,49.490000000000002,0],[123.722887,10.239177,48.450000000000003,0],[123.722933,10.23907,47.950000000000003,0],[123.722955,10.238936000000001,47.939999999999998,0],[123.722926,10.238847,47.939999999999998,0],[123.722838,10.238740999999999,48.380000000000003,0],[123.722782,10.23869,48.75,0],[123.722515,10.238543999999999,49.509999999999998,0],[123.721971,10.238246999999999,44.920000000000002,0],[123.7218,10.238106,46.039999999999999,0],[123.721529,10.237861000000001,47.299999999999997,0],[123.72127399999999,10.237579999999999,46.100000000000001,0],[123.72117,10.237437999999999,46.32,0],[123.721118,10.237318,45.740000000000002,0],[123.72107200000001,10.236283,40.289999999999999,0],[123.72107099999999,10.236011,42.020000000000003,0],[123.72109,10.235875999999999,44.539999999999999,0],[123.72116200000001,10.235771,47.93,0],[123.72122,10.235718,48.909999999999997,0],[123.721301,10.235681,48.780000000000001,0],[123.72136999999999,10.235658000000001,47.82,0],[123.721727,10.235605,40.890000000000001,0],[123.721936,10.235571999999999,38.719999999999999,0],[123.72215799999999,10.235517,37.979999999999997,0],[123.72241200000001,10.235393,38.630000000000003,0],[123.722572,10.235309000000001,37.469999999999999,0],[123.723224,10.234939000000001,34.359999999999999,0],[123.723648,10.234672,35.240000000000002,0],[123.72399900000001,10.234424000000001,43.32,0],[123.72425200000001,10.234220000000001,43.18,0],[123.72441600000001,10.23399,39.369999999999997,0],[123.72474099999999,10.233661,36,0],[123.72513600000001,10.233419,35.609999999999999,0],[123.725463,10.233269,34.43,0],[123.72624500000001,10.233048999999999,34.030000000000001,0],[123.72653200000001,10.232926000000001,34.289999999999999,0],[123.727152,10.232564999999999,33,0],[123.727812,10.232275,31.670000000000002,0],[123.728273,10.232044999999999,32.210000000000001,0],[123.728739,10.231807999999999,29.609999999999999,0],[123.729009,10.231605999999999,28.309999999999999,0],[123.729384,10.231323,29.960000000000001,0],[123.729753,10.231055,30.129999999999999,0],[123.730272,10.230656,31.030000000000001,0],[123.730521,10.230543000000001,30.440000000000001,0],[123.731163,10.230461999999999,29.5,0],[123.731307,10.230416999999999,29,0],[123.731437,10.230352999999999,29.079999999999998,0],[123.731589,10.230268000000001,29.77,0],[123.732497,10.229772000000001,26.559999999999999,0],[123.732794,10.229599,24.859999999999999,0],[123.732962,10.229505,26.190000000000001,0],[123.7334,10.22925,25.41,0],[123.733591,10.22906,25,0],[123.73369599999999,10.228865000000001,25,0],[123.733769,10.228638,25.510000000000002,0],[123.733936,10.227796,25.690000000000001,0],[123.734104,10.226998,25,0],[123.734224,10.226284,26.719999999999999,0],[123.73424,10.226018,26.699999999999999,0],[123.734208,10.225709,25.699999999999999,0],[123.73414200000001,10.225288000000001,24.079999999999998,0],[123.733717,10.222708000000001,24.949999999999999,0],[123.733701,10.222572,25.199999999999999,0],[123.733698,10.222454000000001,25.440000000000001,0],[123.733704,10.222321000000001,25.379999999999999,0],[123.733735,10.222121,24.870000000000001,0],[123.733836,10.221697000000001,25.039999999999999,0],[123.733864,10.221555,25.370000000000001,0],[123.733864,10.221408,25.890000000000001,0],[123.73373100000001,10.220769000000001,25.52,0],[123.733717,10.220606,24.390000000000001,0],[123.733717,10.220514,23.859999999999999,0],[123.733735,10.220276999999999,22.57,0],[123.733814,10.220052000000001,21.41,0],[123.73394399999999,10.219803000000001,21.649999999999999,0],[123.734131,10.219562,23.039999999999999,0],[123.73445100000001,10.219205000000001,24,0],[123.734758,10.218824,25.079999999999998,0],[123.73519,10.218207,20.969999999999999,0],[123.735477,10.217796,19.91,0],[123.73554900000001,10.217731000000001,19.48,0],[123.735651,10.217675,19.899999999999999,0],[123.735783,10.21762,20.120000000000001,0],[123.73615100000001,10.217573,23.940000000000001,0],[123.736509,10.217516,25.129999999999999,0],[123.736806,10.217447,24.09,0],[123.73698899999999,10.217347999999999,23.82,0],[123.737099,10.217257999999999,22.940000000000001,0],[123.737219,10.217103,23.5,0],[123.737386,10.216808,23.010000000000002,0],[123.737504,10.216519,22.030000000000001,0],[123.73765,10.215954,18.48,0],[123.73772599999999,10.215536999999999,19.559999999999999,0],[123.737728,10.215341,19.600000000000001,0],[123.73757500000001,10.214568999999999,20.98,0],[123.73756899999999,10.214314999999999,20.91,0],[123.737612,10.214138,21.440000000000001,0],[123.73771600000001,10.213955,22.43,0],[123.737921,10.21367,22.699999999999999,0],[123.738196,10.213336999999999,21.449999999999999,0],[123.73835800000001,10.213177,21.260000000000002,0],[123.738631,10.213075,21.469999999999999,0],[123.738799,10.213053,21.32,0],[123.738934,10.213067000000001,21.460000000000001,0],[123.73904400000001,10.213091,21.57,0],[123.73993299999999,10.213392000000001,18.629999999999999,0],[123.74016399999999,10.213456000000001,18.66,0],[123.74027599999999,10.213469999999999,18.670000000000002,0],[123.74040100000001,10.213457999999999,18.32,0],[123.74055300000001,10.213397000000001,17.879999999999999,0],[123.740707,10.213253999999999,16.809999999999999,0],[123.741412,10.212509000000001,18.149999999999999,0],[123.74157599999999,10.212316,19.920000000000002,0],[123.74163900000001,10.212182,21.760000000000002,0],[123.74165499999999,10.212001000000001,23.550000000000001,0],[123.74157700000001,10.211798,21.539999999999999,0],[123.741184,10.210864000000001,16.300000000000001,0],[123.741139,10.210663,16.440000000000001,0],[123.741128,10.210528999999999,16.25,0],[123.74114899999999,10.210378,16.25,0],[123.741218,10.210236,16.879999999999999,0],[123.741337,10.210106,17.329999999999998,0],[123.74155,10.209992,17.059999999999999,0],[123.741929,10.209858000000001,16.93,0],[123.74248,10.209580000000001,15.460000000000001,0],[123.743256,10.209156,16.719999999999999,0],[123.743467,10.20904,18.59,0],[123.74400900000001,10.208743999999999,15.66,0],[123.74438600000001,10.208517000000001,16.030000000000001,0],[123.744501,10.208413,16.75,0],[123.744703,10.208171,17,0],[123.744917,10.207954000000001,15.31,0],[123.745149,10.207806,14.449999999999999,0],[123.745632,10.207646,13.359999999999999,0],[123.746201,10.207485999999999,15.35,0],[123.74634399999999,10.207459,15.92,0],[123.746439,10.207449,16.02,0],[123.746539,10.207451000000001,16.079999999999998,0],[123.746771,10.207485999999999,16.670000000000002,0],[123.747784,10.207822,12.880000000000001,0],[123.74825800000001,10.207967,12,0],[123.748582,10.208000999999999,13.02,0],[123.74874699999999,10.207958,13.02,0],[123.749405,10.207753,11.890000000000001,0],[123.749927,10.20758,10.33,0],[123.750483,10.207399000000001,11.710000000000001,0],[123.750857,10.207250999999999,11,0],[123.751032,10.207153999999999,11,0],[123.751255,10.20701,10.59,0],[123.751631,10.206704999999999,10.609999999999999,0],[123.75254200000001,10.205996000000001,10.42,0],[123.754149,10.204719000000001,8,0],[123.754272,10.204583,8,0],[123.754537,10.204373,8.9399999999999995,0]]]}}]}
