{"type":"FeatureCollection","features":[{"type":"Feature","properties":[],"geometry":{"type":"MultiLineString","coordinates":[[[123.71095099999999,10.257463,93.019999999999996,0],[123.710677,10.256548,90,0],[123.71054100000001,10.256563,89.879999999999995,0],[123.71036599999999,10.256567,89.739999999999995,0],[123.710195,10.256587,89.599999999999994,0],[123.710058,10.256563,89.489999999999995,0],[123.70953299999999,10.256256,88.989999999999995,0],[123.709298,10.256131,88.530000000000001,0],[123.707441,10.255077999999999,92.340000000000003,0],[123.706968,10.254847,93.269999999999996,0],[123.706823,10.254714999999999,94.090000000000003,0],[123.706748,10.254562,95.069999999999993,0],[123.706732,10.254403999999999,95.260000000000005,0],[123.706699,10.25423,96.620000000000005,0],[123.70665700000001,10.254071,98,0],[123.70656,10.253982000000001,100.20999999999999,0],[123.70641500000001,10.253982000000001,103.09999999999999,0],[123.706283,10.254039000000001,105.78,0],[123.70621,10.254028,106.98999999999999,0],[123.706125,10.25395,107.73,0],[123.705986,10.253728000000001,107.55,0],[123.705929,10.253655999999999,107.52,0],[123.705895,10.253612,107.5,0],[123.705793,10.253538000000001,107.97,0],[123.705596,10.253484,110.45,0],[123.705381,10.253380999999999,111.53,0],[123.70522200000001,10.253221999999999,109.64,0],[123.705173,10.253163000000001,108.88,0],[123.704795,10.25287,105.53,0],[123.704716,10.252781000000001,105.56999999999999,0],[123.704672,10.252723,106.08,0],[123.704621,10.25263,106.78,0],[123.704533,10.252359,110.27,0],[123.70447900000001,10.252029,112.28,0],[123.704385,10.251757,115.58,0],[123.70428800000001,10.251633,116.56999999999999,0],[123.703879,10.251541,124.45,0],[123.703738,10.251479,126.90000000000001,0],[123.703636,10.251369,128.97,0],[123.703642,10.251205000000001,129.86000000000001,0],[123.70366799999999,10.251099,129.97999999999999,0],[123.703574,10.250890999999999,133.59999999999999,0],[123.703462,10.250529,139.5,0],[123.70337600000001,10.250287999999999,144.34999999999999,0],[123.70329,10.250045999999999,147,0],[123.703121,10.249679,150.94,0],[123.703046,10.249525999999999,151.56999999999999,0],[123.702893,10.249413000000001,154.36000000000001,0],[123.702718,10.249261000000001,157.56999999999999,0],[123.70251500000001,10.249053999999999,160.03,0],[123.702397,10.248975,161.13,0],[123.70198000000001,10.248718999999999,166.87,0],[123.70177,10.248602999999999,170.03,0],[123.70174799999999,10.248583999999999,170.12,0],[123.701701,10.248514,171.00999999999999,0],[123.701688,10.248419,171.72,0],[123.701705,10.248353,172.25,0],[123.701784,10.248224,172.88999999999999,0],[123.70189999999999,10.248009,174.05000000000001,0],[123.701975,10.24776,175.28,0],[123.70195099999999,10.247596,176.02000000000001,0],[123.701633,10.247396,179.43000000000001,0],[123.70154700000001,10.247384,180.12,0],[123.70143,10.247389999999999,181.27000000000001,0],[123.701173,10.24747,185.55000000000001,0],[123.701128,10.247475,186.41999999999999,0],[123.701088,10.247463,186.99000000000001,0],[123.70088,10.247274000000001,186.80000000000001,0],[123.70067400000001,10.247116999999999,186.46000000000001,0],[123.700585,10.247102999999999,186.96000000000001,0],[123.700495,10.247101000000001,187.44,0],[123.700205,10.247223,189.91,0],[123.69986,10.247441,196.18000000000001,0],[123.69964899999999,10.247412000000001,197.87,0],[123.69956500000001,10.247351,197.84,0],[123.699523,10.247285,197,0],[123.699282,10.247066,195.06,0],[123.699158,10.247066,195.91999999999999,0],[123.698497,10.247242,204.94,0],[123.698453,10.24723,204.84,0],[123.69840499999999,10.247184000000001,204.24000000000001,0],[123.69832700000001,10.246988,203.47999999999999,0],[123.698291,10.246772999999999,203.53,0],[123.698216,10.246562000000001,203.55000000000001,0],[123.697892,10.246288,207.63,0],[123.69751599999999,10.245884,213.75,0],[123.69743,10.245768999999999,214.19999999999999,0],[123.697349,10.245742,214.97999999999999,0],[123.697056,10.245775,218.56,0],[123.696901,10.245774000000001,219.74000000000001,0],[123.696631,10.245729000000001,221.52000000000001,0],[123.696405,10.245725999999999,225.46000000000001,0],[123.696219,10.245625,225.09,0],[123.69577700000001,10.245666999999999,229.24000000000001,0],[123.69541,10.245666999999999,231.18000000000001,0],[123.695296,10.245735,232.97,0],[123.69515,10.245900000000001,238.03999999999999,0],[123.695071,10.245934999999999,239.41,0],[123.69496700000001,10.245939,239.81,0],[123.694883,10.245905,239.41,0],[123.69476899999999,10.245846,238.58000000000001,0],[123.694613,10.245799999999999,239.52000000000001,0],[123.69421,10.245756,241.59999999999999,0],[123.694008,10.245777,243.94,0],[123.693814,10.245725999999999,244.18000000000001,0],[123.693337,10.245483,248.59999999999999,0],[123.692993,10.245388,252.90000000000001,0],[123.69289000000001,10.245276,252.11000000000001,0],[123.69281100000001,10.245167,251.5,0],[123.692761,10.245051,250.62,0],[123.69272100000001,10.24499,250.47999999999999,0],[123.69257399999999,10.244916,252.90000000000001,0],[123.69246099999999,10.244842999999999,254.44999999999999,0],[123.692452,10.244775000000001,253.53,0],[123.692448,10.244652,251.53,0],[123.69241100000001,10.244555999999999,250.94999999999999,0],[123.69234299999999,10.244457000000001,251.31999999999999,0],[123.69207400000001,10.244104999999999,252.93000000000001,0],[123.69193799999999,10.243990999999999,254.55000000000001,0],[123.69171799999999,10.243854000000001,255.87,0],[123.691671,10.243843999999999,256.30000000000001,0],[123.69162300000001,10.24385,256.95999999999998,0],[123.69150399999999,10.243900999999999,259.44999999999999,0],[123.691335,10.243947,264.57999999999998,0],[123.691219,10.243948,267.97000000000003,0],[123.691112,10.243897,269.94,0],[123.691006,10.243783000000001,270.62,0],[123.69082400000001,10.243512000000001,272.61000000000001,0],[123.690746,10.243384000000001,273.60000000000002,0],[123.690645,10.243261,274.44999999999999,0],[123.690513,10.243181999999999,276.06,0],[123.690192,10.243039,280.69999999999999,0],[123.689995,10.242938000000001,284.49000000000001,0],[123.68987799999999,10.24286,286.56999999999999,0],[123.68962399999999,10.242671,288.69,0],[123.68946099999999,10.242577000000001,290.07999999999998,0],[123.689267,10.242501000000001,291.86000000000001,0],[123.688934,10.242402999999999,297.19999999999999,0],[123.68876299999999,10.242343999999999,299.77999999999997,0],[123.688626,10.242272,301.32999999999998,0],[123.68846600000001,10.242125,301.76999999999998,0],[123.68819000000001,10.241813,303.02999999999997,0],[123.68798200000001,10.241925999999999,303.81,0],[123.687971,10.241949,303.93000000000001,0],[123.687907,10.242088000000001,304.62,0],[123.68794800000001,10.242402,308.23000000000002,0],[123.68798099999999,10.242580999999999,310.31,0],[123.688036,10.242718999999999,311.75999999999999,0],[123.68824600000001,10.242960999999999,314.62,0],[123.688402,10.243109,314.13999999999999,0],[123.68859399999999,10.243224,313.27999999999997,0],[123.68875199999999,10.243273,313.29000000000002,0],[123.68889900000001,10.243333,313.75,0],[123.689009,10.243414,314.5,0],[123.689134,10.243522,316.37,0],[123.689241,10.243652000000001,318.24000000000001,0],[123.68935500000001,10.243911000000001,319.22000000000003,0],[123.689425,10.244021,318.60000000000002,0],[123.68951,10.244109,317.35000000000002,0],[123.689599,10.244171,316.16000000000003,0],[123.689809,10.24428,314.20999999999998,0],[123.68990100000001,10.244348,313.57999999999998,0],[123.68994600000001,10.244389999999999,313.81,0],[123.68998499999999,10.244483000000001,314.04000000000002,0],[123.689987,10.244567999999999,314.70999999999998,0],[123.68996,10.244680000000001,315.69999999999999,0],[123.689583,10.245182,316.02999999999997,0],[123.689301,10.245468000000001,314.81,0],[123.68919699999999,10.245555,314.42000000000002,0],[123.68914599999999,10.245574,314.13999999999999,0],[123.68902799999999,10.245575000000001,314,0],[123.688891,10.245547,313.73000000000002,0],[123.688727,10.245476,312.17000000000002,0],[123.688423,10.245286999999999,310.43000000000001,0],[123.688202,10.245196,309.67000000000002,0],[123.68808300000001,10.245175,309.00999999999999,0],[123.68787399999999,10.245172999999999,307.76999999999998,0],[123.687589,10.24521,305.94999999999999,0],[123.68720999999999,10.245293,304.38,0],[123.686842,10.245412999999999,302.88999999999999,0],[123.68648899999999,10.245552999999999,301.81,0],[123.686172,10.245654,301.61000000000001,0],[123.686025,10.245678,301.97000000000003,0],[123.685598,10.245706999999999,302.07999999999998,0],[123.685316,10.245711999999999,299.80000000000001,0],[123.68494800000001,10.245706,297.92000000000002,0],[123.684707,10.245723,297.32999999999998,0],[123.68455899999999,10.245829000000001,297.36000000000001,0],[123.68441300000001,10.245920999999999,297.89999999999998,0],[123.684307,10.245962,298.47000000000003,0],[123.68418800000001,10.245975,298.37,0],[123.683987,10.245972999999999,297.72000000000003,0],[123.68381599999999,10.245958999999999,296.31,0],[123.68300600000001,10.245835,287.08999999999997,0],[123.682818,10.245813999999999,284.81,0],[123.68228499999999,10.245849,280.30000000000001,0],[123.682019,10.245865999999999,279.73000000000002,0],[123.68169399999999,10.245900000000001,279.17000000000002,0],[123.681603,10.245984,279.67000000000002,0],[123.681532,10.246067999999999,280.42000000000002,0],[123.681456,10.246231999999999,283.37,0],[123.68142899999999,10.246556,289.11000000000001,0],[123.681382,10.24685,292.67000000000002,0],[123.681314,10.24709,293.48000000000002,0],[123.681201,10.247328,294,0],[123.68115299999999,10.247464000000001,293.44,0],[123.68113,10.247629,293.56,0],[123.681124,10.24779,294.58999999999997,0],[123.681057,10.247949,295.49000000000001,0],[123.680986,10.247998000000001,295.06999999999999,0],[123.68090599999999,10.248018999999999,294.25999999999999,0],[123.68062399999999,10.247956,291.85000000000002,0],[123.680392,10.247935999999999,289.58999999999997,0],[123.680153,10.247939000000001,287.77999999999997,0],[123.680053,10.247964,287.63999999999999,0],[123.679886,10.24804,286.66000000000003,0],[123.67977500000001,10.248063999999999,285.81,0],[123.67941,10.248034000000001,283.51999999999998,0],[123.679219,10.248106,280.23000000000002,0],[123.679104,10.248123,278.75,0],[123.67894800000001,10.248196,277.23000000000002,0],[123.678695,10.248352000000001,276.80000000000001,0],[123.678589,10.248403,276.77999999999997,0],[123.678426,10.248449000000001,276.23000000000002,0],[123.67764,10.248559,281.67000000000002,0],[123.677588,10.248554,282.00999999999999,0],[123.677526,10.248524,282.37,0],[123.677305,10.248391,284.25999999999999,0],[123.677221,10.24837,285.29000000000002,0],[123.67703,10.24836,287.43000000000001,0],[123.67683599999999,10.248379999999999,289.82999999999998,0],[123.67665599999999,10.248434,293.19,0],[123.676509,10.248427,295.12,0],[123.676408,10.248434,296.92000000000002,0],[123.67621800000001,10.248419999999999,298.04000000000002,0],[123.67611599999999,10.248381,298.25,0],[123.67603099999999,10.248336,298.56999999999999,0],[123.6759,10.248279999999999,298.23000000000002,0],[123.67576200000001,10.248277,298.20999999999998,0],[123.675679,10.248298999999999,298.17000000000002,0],[123.675558,10.248376,297.82999999999998,0],[123.675425,10.248495,298.29000000000002,0],[123.675279,10.248593,298.99000000000001,0],[123.67512000000001,10.248624,299.51999999999998,0],[123.674977,10.248593,299.63,0],[123.67484,10.248488999999999,298.01999999999998,0],[123.674723,10.248341,297.19999999999999,0],[123.674663,10.248165999999999,297.43000000000001,0],[123.67458499999999,10.247805,299.73000000000002,0],[123.674415,10.247593999999999,301.29000000000002,0],[123.674359,10.247482,302.16000000000003,0],[123.674291,10.247216,303.00999999999999,0],[123.674149,10.247044000000001,303.93000000000001,0],[123.673838,10.246907,303.01999999999998,0],[123.673554,10.246822,301.32999999999998,0],[123.673259,10.246696,300.06999999999999,0],[123.67271700000001,10.246574000000001,306.06999999999999,0],[123.67254,10.246632,306.5,0],[123.672352,10.246727,306.36000000000001,0],[123.672132,10.246817,307.56,0],[123.671499,10.246767999999999,318.75999999999999,0],[123.671268,10.246748,321.20999999999998,0],[123.670935,10.246760999999999,324.06999999999999,0],[123.670698,10.246784,327.57999999999998,0],[123.67056599999999,10.246767,329.63,0],[123.670708,10.246402,323.06,0],[123.670659,10.246169,324.38,0],[123.670557,10.245787,326.56,0],[123.67053,10.245673,325.63,0],[123.670461,10.245632000000001,327.25999999999999,0],[123.67016,10.245599,338.31999999999999,0],[123.67008800000001,10.245502999999999,339.05000000000001,0],[123.67011100000001,10.245314,337.24000000000001,0],[123.670162,10.245187,335.73000000000002,0],[123.670242,10.245048000000001,332.93000000000001,0],[123.67027400000001,10.24484,332.30000000000001,0],[123.67026799999999,10.244590000000001,331.77999999999997,0],[123.670168,10.244413,333.56999999999999,0],[123.67003699999999,10.244213999999999,335.87,0],[123.669799,10.243945999999999,340.20999999999998,0],[123.669629,10.243797000000001,341.88999999999999,0],[123.66954200000001,10.243478,347.51999999999998,0],[123.669523,10.243216,350.99000000000001,0],[123.669504,10.242953999999999,352.19,0],[123.669543,10.242639,353.31999999999999,0],[123.669449,10.242571999999999,352.5,0],[123.66926599999999,10.242626,352.38,0],[123.669027,10.242749,348.38,0],[123.66885600000001,10.242682,348.66000000000003,0],[123.668713,10.242528,351.10000000000002,0],[123.668525,10.242338,351.60000000000002,0],[123.66840000000001,10.242179999999999,352.05000000000001,0],[123.668229,10.241828,352.16000000000003,0],[123.668223,10.241685,350.62,0],[123.668176,10.241581999999999,349.10000000000002,0],[123.668093,10.241529999999999,348.56,0],[123.667963,10.241580000000001,349.61000000000001,0],[123.66774700000001,10.241690999999999,351,0],[123.66735,10.241835999999999,348.63,0],[123.667068,10.241839000000001,345.66000000000003,0],[123.666977,10.241832,344.60000000000002,0],[123.66697000000001,10.241849999999999,344.52999999999997,0],[123.66691400000001,10.241994999999999,343.92000000000002,0],[123.66679600000001,10.242217,341.75,0],[123.66658200000001,10.242512,337.00999999999999,0],[123.666228,10.242912,333.45999999999998,0],[123.665362,10.243499,331.79000000000002,0],[123.66521299999999,10.243644,331.83999999999997,0],[123.6651,10.243862999999999,332.31999999999999,0],[123.665012,10.244097999999999,330.43000000000001,0],[123.664958,10.244532,326.27999999999997,0],[123.66493800000001,10.244755,324.31,0],[123.664942,10.24492,323.5,0],[123.66494299999999,10.244975,323.23000000000002,0],[123.665008,10.245188000000001,322.35000000000002,0],[123.665233,10.245528,323.10000000000002,0],[123.665364,10.245780999999999,324.42000000000002,0],[123.665494,10.246034,320.55000000000001,0],[123.665532,10.246171,318.73000000000002,0],[123.665531,10.246366,318.67000000000002,0],[123.665505,10.246499,319.69999999999999,0],[123.665449,10.246644999999999,321.23000000000002,0],[123.66533200000001,10.246786999999999,321.97000000000003,0],[123.665183,10.246981999999999,318.62,0],[123.665008,10.247266,310.94,0],[123.664941,10.247517,306.31,0],[123.66495,10.247627,304.58999999999997,0],[123.66501,10.247826,299.81,0],[123.66506,10.248004,293.05000000000001,0],[123.66509000000001,10.248184999999999,286.31,0],[123.665099,10.248400999999999,279.63999999999999,0],[123.665063,10.248647,273.88,0],[123.66500000000001,10.248896999999999,269.08999999999997,0],[123.664969,10.249065999999999,265.99000000000001,0],[123.665002,10.249226999999999,264.31999999999999,0],[123.665055,10.249354,263.64999999999998,0],[123.66524800000001,10.249696,261.89999999999998,0],[123.66534,10.249919,262.22000000000003,0],[123.665423,10.250102,264.13,0],[123.665437,10.250232,263.51999999999998,0],[123.665425,10.250382,261.38999999999999,0],[123.665372,10.250538000000001,257.19,0],[123.665317,10.250648999999999,254.22,0],[123.66524,10.250742000000001,251.69,0],[123.66513399999999,10.250829,249.56999999999999,0],[123.66468999999999,10.251073999999999,244.72,0],[123.664609,10.251153,243.22,0],[123.664558,10.251272,243.16999999999999,0],[123.664558,10.251405999999999,241.84999999999999,0],[123.66463299999999,10.251530000000001,240.90000000000001,0],[123.66484800000001,10.251753000000001,237.63999999999999,0],[123.665269,10.252055,230.81999999999999,0],[123.665549,10.252198999999999,228.05000000000001,0],[123.665667,10.252281,228.19,0],[123.665724,10.252368000000001,228.75,0],[123.66574199999999,10.252468,229.12,0],[123.665612,10.252872,221.66,0],[123.665482,10.253296000000001,215.47999999999999,0],[123.665434,10.253431000000001,212.75,0],[123.665418,10.253515,211.72,0],[123.665426,10.253841,210.53999999999999,0],[123.665329,10.254305,203.94,0],[123.665272,10.25464,196.66999999999999,0],[123.665249,10.254902,192.06,0],[123.665182,10.255390999999999,184.81,0],[123.665048,10.255765999999999,177,0],[123.66498300000001,10.255863,174.84,0],[123.664888,10.255932,172.63,0],[123.66455000000001,10.256138,167.22,0],[123.66421699999999,10.256387,160.56,0],[123.663882,10.256792000000001,153.74000000000001,0],[123.663798,10.256902999999999,151.56,0],[123.66359,10.257184000000001,142.81,0],[123.663549,10.257308999999999,140.05000000000001,0],[123.66352999999999,10.257543999999999,138.28999999999999,0],[123.663335,10.257787,133.16,0],[123.66327800000001,10.257898000000001,131.71000000000001,0],[123.6632,10.258153999999999,126.91,0],[123.663185,10.258284,124.84,0],[123.663196,10.258395,123.91,0],[123.663259,10.258594,123.06,0],[123.66326100000001,10.258732999999999,121.48,0],[123.663236,10.25892,119.20999999999999,0],[123.663211,10.259029,118.62,0],[123.663175,10.259138999999999,118.56,0],[123.662942,10.259618,119.84999999999999,0],[123.66270400000001,10.26005,114.92,0],[123.66256,10.260277,111.90000000000001,0],[123.662313,10.260574,108.5,0],[123.662294,10.260629,107.77,0],[123.662301,10.260775000000001,106.22,0],[123.66233800000001,10.260840999999999,105.93000000000001,0],[123.66240999999999,10.260935999999999,105.48,0],[123.662443,10.261006999999999,105.43000000000001,0],[123.662415,10.261255999999999,104.13,0],[123.662413,10.261459,106.26000000000001,0],[123.662435,10.261628,108.67,0],[123.662515,10.261855000000001,111.28,0],[123.662595,10.262081,110.28,0],[123.662791,10.262357,109.12,0],[123.662801,10.262701,106.15000000000001,0],[123.662775,10.2628,104.84999999999999,0],[123.662646,10.263123,102.08,0],[123.662564,10.263500000000001,100.3,0],[123.662508,10.263869,99.209999999999994,0],[123.66247199999999,10.263987999999999,98.950000000000003,0],[123.66213999999999,10.264818999999999,93.049999999999997,0],[123.66207799999999,10.264859,90.230000000000004,0],[123.661891,10.264901,87.030000000000001,0],[123.66175800000001,10.264984999999999,83.129999999999995,0],[123.66161,10.265292000000001,76.569999999999993,0],[123.661575,10.265319,75.780000000000001,0]]]}}]}
