{"type":"FeatureCollection","features":[{"type":"Feature","properties":[],"geometry":{"type":"MultiLineString","coordinates":[[[123.774536,10.236508000000001,14,0],[123.774492,10.236573,14,0],[123.774412,10.237328,12.93,0],[123.773938,10.237261999999999,11.91,0],[123.773922,10.237259999999999,11.880000000000001,0],[123.77390800000001,10.237527,11,0],[123.773831,10.23804,12.41,0],[123.773781,10.238175,12.65,0],[123.77374500000001,10.238467,14.26,0],[123.77372099999999,10.238550999999999,14.67,0],[123.77364,10.238661,14.66,0],[123.773383,10.238899999999999,14.050000000000001,0],[123.773291,10.239003,14.58,0],[123.773051,10.239406000000001,16.16,0],[123.773028,10.239489000000001,16.530000000000001,0],[123.773031,10.239553000000001,16.420000000000002,0],[123.77323800000001,10.239858,13.949999999999999,0],[123.773428,10.240138999999999,15.27,0],[123.77356399999999,10.240356,17.829999999999998,0],[123.77357000000001,10.240387,18.170000000000002,0],[123.773563,10.240417000000001,18.550000000000001,0],[123.773415,10.240577999999999,19.5,0],[123.77340700000001,10.240683000000001,20.670000000000002,0],[123.773432,10.240795,21.789999999999999,0],[123.773492,10.240912,22.41,0],[123.77315400000001,10.241237999999999,29.25,0],[123.773045,10.241315999999999,31.210000000000001,0],[123.77294500000001,10.241363,33.140000000000001,0],[123.772729,10.241536,37.960000000000001,0],[123.77265199999999,10.241614,40.060000000000002,0],[123.772603,10.241735,42.630000000000003,0],[123.772559,10.241875,45.189999999999998,0],[123.77252,10.241941000000001,46.75,0],[123.772357,10.242158999999999,51.030000000000001,0],[123.772171,10.242305,53.189999999999998,0],[123.77185900000001,10.242414,57.590000000000003,0],[123.77143100000001,10.242511,61.990000000000002,0],[123.77142000000001,10.242544000000001,62.840000000000003,0],[123.77140799999999,10.24258,63.759999999999998,0],[123.771388,10.242775999999999,68.75,0],[123.77134,10.242957000000001,73.870000000000005,0],[123.771317,10.243086,77.799999999999997,0],[123.771299,10.243314,83.739999999999995,0],[123.771316,10.243384000000001,85.299999999999997,0],[123.771433,10.243613,90.280000000000001,0],[123.771456,10.243691999999999,91.890000000000001,0],[123.77149,10.243967,96.400000000000006,0],[123.771514,10.244216,98.859999999999999,0],[123.771507,10.244317000000001,99.620000000000005,0],[123.77140799999999,10.244440000000001,102.13,0],[123.77127400000001,10.244536999999999,105.03,0],[123.77112,10.244598,107.41,0],[123.77101399999999,10.244673000000001,108.65000000000001,0],[123.77094200000001,10.244745999999999,109.79000000000001,0],[123.770849,10.24488,112.37,0],[123.770786,10.245058,116.5,0],[123.770713,10.245326,121.53,0],[123.770668,10.245471,123.2,0],[123.770568,10.245616,125.05,0],[123.770312,10.245953,135.21000000000001,0],[123.77014699999999,10.246235,142.58000000000001,0],[123.770062,10.246327000000001,145.38999999999999,0],[123.76993400000001,10.246418,149.31,0],[123.769509,10.246592,156.34999999999999,0],[123.769227,10.246731,160.13999999999999,0],[123.768822,10.246861000000001,166.11000000000001,0],[123.768224,10.247107,177.56,0],[123.76809,10.247185,180.19999999999999,0],[123.76783,10.247418,185.59,0],[123.76758599999999,10.247612999999999,189.21000000000001,0],[123.767287,10.247828,194.62,0],[123.76700700000001,10.247973,202.86000000000001,0],[123.76682700000001,10.248044999999999,208.84,0],[123.766656,10.248106999999999,212.53999999999999,0],[123.766524,10.248117000000001,216.02000000000001,0],[123.76638199999999,10.248089,220.49000000000001,0],[123.76622,10.248016,226.16999999999999,0],[123.766103,10.247897,230.59999999999999,0],[123.766031,10.247726999999999,232.19999999999999,0],[123.76597599999999,10.247687000000001,233.59999999999999,0],[123.765925,10.247697000000001,235.61000000000001,0],[123.765888,10.247745,237.88,0],[123.765822,10.247939000000001,241.83000000000001,0],[123.76572899999999,10.248157000000001,243.12,0],[123.76554899999999,10.248298999999999,248.13,0],[123.76521,10.248587000000001,256.80000000000001,0],[123.765017,10.248718999999999,262.57999999999998,0],[123.76493000000001,10.248844,264.69,0],[123.76492399999999,10.249136,262.75999999999999,0],[123.76495199999999,10.249281,263.47000000000003,0],[123.765021,10.249470000000001,264.13,0],[123.76502499999999,10.249568999999999,265.82999999999998,0],[123.76501500000001,10.249622,266.87,0],[123.764977,10.249624000000001,267.23000000000002,0],[123.764928,10.249597,266.19,0],[123.764889,10.249472000000001,264.75,0],[123.76479999999999,10.249231,265.99000000000001,0],[123.76472800000001,10.249084999999999,267.02999999999997,0],[123.764607,10.248900000000001,271.19,0],[123.764492,10.248652999999999,275.06,0],[123.764467,10.248523,276.69999999999999,0],[123.76445699999999,10.248379,277.38999999999999,0],[123.764285,10.248155000000001,274.36000000000001,0],[123.76394000000001,10.247707999999999,273.37,0],[123.76357,10.247496999999999,270.51999999999998,0],[123.76335400000001,10.24747,270.14999999999998,0],[123.763007,10.247519,267.20999999999998,0],[123.76275099999999,10.247528000000001,264.33999999999997,0],[123.762553,10.247577,260.25,0],[123.762106,10.247669999999999,249.94999999999999,0],[123.761802,10.247842,244.43000000000001,0],[123.76164300000001,10.247947999999999,243.15000000000001,0],[123.76141200000001,10.248082999999999,244.13999999999999,0],[123.760947,10.24831,246.50999999999999,0],[123.760829,10.248377,248.06,0],[123.76066299999999,10.248507,250.56,0],[123.760194,10.248733,247.71000000000001,0],[123.760018,10.248825999999999,246.31,0],[123.75962,10.249012,241.06999999999999,0],[123.759247,10.249172,235.59,0],[123.75892399999999,10.249271,231.59999999999999,0],[123.75859800000001,10.249321,230.06999999999999,0],[123.758363,10.249320000000001,230.34999999999999,0],[123.758273,10.249302999999999,230.69,0],[123.75822599999999,10.249274,230.97,0],[123.758212,10.249237000000001,231.21000000000001,0],[123.75823699999999,10.249192000000001,230.94,0],[123.75867700000001,10.248632000000001,222.06999999999999,0],[123.758763,10.248441,218.38,0],[123.758822,10.248165,216.83000000000001,0],[123.75889100000001,10.248061,215.88,0],[123.758965,10.248011999999999,215.65000000000001,0],[123.759107,10.247949999999999,215.19,0],[123.759316,10.247833999999999,214.38,0],[123.75952599999999,10.24762,214.88,0],[123.75964999999999,10.247401,214.15000000000001,0],[123.75969499999999,10.247035,214.72,0],[123.759715,10.246831,213.74000000000001,0],[123.75973399999999,10.246606,214.68000000000001,0],[123.75980800000001,10.246482,213.97,0],[123.75994799999999,10.246349,213.47999999999999,0],[123.75998800000001,10.246264999999999,214.31999999999999,0],[123.75998199999999,10.246166000000001,215.50999999999999,0],[123.75977399999999,10.245727,219.5,0]]]}}]}
