{"type":"FeatureCollection","features":[{"type":"Feature","properties":[],"geometry":{"type":"MultiLineString","coordinates":[[[123.753051,10.244664,178.09999999999999,0],[123.753058,10.244706000000001,178.93000000000001,0],[123.753,10.244831,180.91999999999999,0],[123.75287299999999,10.245063999999999,184.33000000000001,0],[123.752844,10.245238000000001,186.47,0],[123.75285599999999,10.245354000000001,187.72999999999999,0],[123.752876,10.245444000000001,188.28999999999999,0],[123.75302499999999,10.245754,189.13999999999999,0],[123.75314899999999,10.246185000000001,184.40000000000001,0],[123.753182,10.246510000000001,181.21000000000001,0],[123.75318,10.246791999999999,179.99000000000001,0],[123.753137,10.246930000000001,178.00999999999999,0],[123.75295800000001,10.247126,170.75999999999999,0],[123.75277800000001,10.247322,165.59999999999999,0],[123.752698,10.247469000000001,163.44,0],[123.752628,10.247638999999999,161.58000000000001,0],[123.752585,10.24783,160.52000000000001,0],[123.752576,10.247954,159.62,0],[123.752619,10.248108,159.03,0],[123.752797,10.248419999999999,156.19999999999999,0],[123.75281099999999,10.248506000000001,155.78,0],[123.75278900000001,10.24859,155.28999999999999,0],[123.752728,10.248658000000001,155.19,0],[123.752589,10.248761,154.41999999999999,0],[123.75250200000001,10.248860000000001,154.96000000000001,0],[123.752422,10.248996999999999,156.21000000000001,0],[123.752371,10.249164,158.31,0],[123.75235000000001,10.249287000000001,159.72999999999999,0],[123.75235000000001,10.249413000000001,161.47999999999999,0],[123.75239500000001,10.249552,162.69,0],[123.75246199999999,10.249642,163.61000000000001,0],[123.75267599999999,10.249855999999999,163.5,0],[123.75317800000001,10.25034,158.56,0],[123.753274,10.250401,157.94,0],[123.753426,10.250454,156.69,0],[123.753564,10.250468,154.91,0],[123.753753,10.250425999999999,153.65000000000001,0],[123.75406,10.250309,151.94999999999999,0],[123.754368,10.250192999999999,153.56999999999999,0],[123.754535,10.250166999999999,155.21000000000001,0],[123.754639,10.250181,156.06999999999999,0],[123.754733,10.250228,156.72999999999999,0],[123.754907,10.250422,154.63,0],[123.755045,10.250709000000001,151.56999999999999,0],[123.755251,10.251526999999999,146.34,0],[123.75525,10.251689000000001,144.78999999999999,0],[123.755223,10.251783,143.25999999999999,0],[123.75511400000001,10.25196,140.19,0],[123.754891,10.25224,136.87,0],[123.754723,10.252585,133.61000000000001,0],[123.754706,10.252821000000001,131.91,0],[123.75473700000001,10.252958,130.66,0],[123.75485399999999,10.253213000000001,125.64,0],[123.755315,10.253931,112.55,0],[123.755379,10.254142999999999,108.65000000000001,0],[123.755398,10.254337,105.56999999999999,0],[123.75537799999999,10.254953,96.209999999999994,0],[123.755397,10.255261000000001,90.609999999999999,0],[123.75543399999999,10.255877,82.739999999999995,0],[123.755602,10.256478,78.040000000000006,0],[123.75573900000001,10.256985999999999,67.489999999999995,0],[123.75615000000001,10.257982,51.890000000000001,0],[123.756356,10.25848,47.030000000000001,0],[123.75659400000001,10.258986999999999,44.829999999999998,0],[123.756764,10.259373999999999,43.75,0],[123.756799,10.259487999999999,43.469999999999999,0],[123.756803,10.25958,43.450000000000003,0],[123.75678600000001,10.259715,44.350000000000001,0],[123.75664399999999,10.260009,46.079999999999998,0],[123.756863,10.260139000000001,45.399999999999999,0],[123.75711699999999,10.260327999999999,44.880000000000003,0],[123.75747699999999,10.260650999999999,43.170000000000002,0],[123.757768,10.260979000000001,42.219999999999999,0],[123.758043,10.261354000000001,41.240000000000002,0],[123.758427,10.261937,42,0],[123.758574,10.262157,40.719999999999999,0]]]}},{"type":"Feature","properties":[],"geometry":{"type":"MultiLineString","coordinates":[[[123.772244,10.233931,11.210000000000001,0],[123.77167799999999,10.234394999999999,11.800000000000001,0],[123.771433,10.234681,12.390000000000001,0],[123.771351,10.234795,12.789999999999999,0],[123.771253,10.235037,14.859999999999999,0],[123.771224,10.235251,17.010000000000002,0],[123.77122199999999,10.23545,19.260000000000002,0],[123.771203,10.235568000000001,20.98,0],[123.77115499999999,10.235683,22.609999999999999,0],[123.77109,10.235776,23.109999999999999,0],[123.771002,10.235855000000001,23.670000000000002,0],[123.770708,10.236084,25.68,0],[123.770618,10.236164,26.289999999999999,0],[123.77043399999999,10.236345999999999,28.5,0],[123.770239,10.236579000000001,29,0],[123.769966,10.236995,29,0],[123.769898,10.237067,29,0],[123.76977599999999,10.237176,30.25,0],[123.769498,10.237306999999999,31.800000000000001,0],[123.7694,10.237363999999999,32.469999999999999,0],[123.76927999999999,10.237449,33.479999999999997,0],[123.768641,10.238023,40.270000000000003,0],[123.767905,10.238655,45.329999999999998,0],[123.767792,10.238733,46.289999999999999,0],[123.767669,10.238796000000001,46.979999999999997,0],[123.767585,10.238827000000001,46.920000000000002,0],[123.7672,10.238885,45.18,0],[123.76699000000001,10.238917000000001,42.689999999999998,0],[123.766835,10.238981000000001,40.939999999999998,0],[123.766614,10.239238,43.32,0],[123.766479,10.239297000000001,42.710000000000001,0],[123.765947,10.239473,42.049999999999997,0],[123.765773,10.239519,42.310000000000002,0],[123.76561599999999,10.239525,41.350000000000001,0],[123.76529600000001,10.239516999999999,38.799999999999997,0],[123.765007,10.239468,38.390000000000001,0],[123.76479999999999,10.239439000000001,40.840000000000003,0],[123.764453,10.239432000000001,44.799999999999997,0],[123.764117,10.239520000000001,48.409999999999997,0],[123.763627,10.239665,52.159999999999997,0],[123.76345499999999,10.23969,51.439999999999998,0],[123.76325199999999,10.239625,47.539999999999999,0],[123.762551,10.239363000000001,56.07,0],[123.762317,10.239276,56.43,0],[123.76101300000001,10.23879,72.400000000000006,0],[123.760774,10.238716,74.700000000000003,0],[123.760549,10.238676,75.409999999999997,0],[123.760062,10.238666,74.069999999999993,0],[123.75957200000001,10.238652999999999,75.890000000000001,0],[123.759326,10.238645,78.099999999999994,0],[123.75908099999999,10.238638,86.079999999999998,0],[123.75882799999999,10.238573000000001,95.120000000000005,0],[123.75857600000001,10.238507999999999,98.819999999999993,0],[123.758246,10.238561000000001,105.09,0],[123.758015,10.238630000000001,107.84,0],[123.75760699999999,10.238784000000001,110.72,0],[123.757268,10.238910000000001,115.42,0],[123.75707199999999,10.239008,119.29000000000001,0],[123.756952,10.239081000000001,120.7,0],[123.756798,10.239228000000001,123.65000000000001,0],[123.756674,10.239375000000001,124.79000000000001,0],[123.756569,10.239538,124.08,0],[123.756433,10.239839999999999,122.48,0],[123.756355,10.240012,121.56999999999999,0],[123.756381,10.240379000000001,130.24000000000001,0],[123.75624500000001,10.240712,136.31,0],[123.756136,10.240957999999999,138.61000000000001,0],[123.75602600000001,10.241205000000001,138.62,0],[123.755916,10.241451,136.27000000000001,0],[123.755796,10.241697,134.53,0],[123.755675,10.241942,135.58000000000001,0],[123.755471,10.242274,147.21000000000001,0],[123.755309,10.242474,158.53,0],[123.755099,10.242721,163.19999999999999,0],[123.754319,10.24358,166.88,0],[123.753901,10.244037000000001,175.88999999999999,0],[123.753692,10.244265,177.25,0],[123.753505,10.244429999999999,178.16999999999999,0],[123.753288,10.244540000000001,178.38,0],[123.75318799999999,10.244579,177.97999999999999,0],[123.752938,10.244643,176.40000000000001,0],[123.75263699999999,10.244637000000001,177.46000000000001,0],[123.752565,10.244628000000001,178.25999999999999,0],[123.75238899999999,10.244574999999999,181.08000000000001,0],[123.75226600000001,10.244512,183.25,0],[123.751983,10.244329,185.19,0],[123.750761,10.243511,181.97,0],[123.750117,10.243079,185.16,0],[123.749753,10.242839999999999,189.34999999999999,0],[123.749083,10.242945000000001,192.62,0],[123.748769,10.242708,192.90000000000001,0],[123.748344,10.242333,190.81999999999999,0],[123.747795,10.241966,187.55000000000001,0],[123.747759,10.241895,186.88,0],[123.747759,10.241766999999999,186.88,0],[123.74782999999999,10.241535000000001,188.53,0],[123.747635,10.241407000000001,184.75,0],[123.74744,10.241279,184.65000000000001,0],[123.74722800000001,10.241066999999999,188.25,0],[123.747016,10.240856000000001,187.65000000000001,0],[123.746804,10.240644,183.41999999999999,0],[123.746537,10.240133,180.34999999999999,0],[123.74638,10.2399,177.09,0],[123.74618,10.239689,173.06999999999999,0],[123.745662,10.23929,165.41,0],[123.74538,10.239036,163.99000000000001,0],[123.745364,10.238873,165.06,0],[123.745158,10.238716999999999,162.16999999999999,0],[123.744747,10.238407,152.78999999999999,0],[123.74433500000001,10.238213999999999,145.41999999999999,0],[123.743843,10.238080999999999,139.38999999999999,0],[123.743596,10.238015000000001,134.66,0],[123.74326600000001,10.238053000000001,128.02000000000001,0],[123.742997,10.238246999999999,124.98999999999999,0],[123.742869,10.23826,122.72,0],[123.742462,10.23826,116.61,0],[123.74226899999999,10.238298,114.63,0],[123.741956,10.238329,110.7,0],[123.74173500000001,10.238435000000001,106.65000000000001,0],[123.74167,10.238422,105.29000000000001,0],[123.741562,10.238337,103.84,0],[123.741142,10.237859,99.659999999999997,0],[123.74109300000001,10.237781999999999,98.640000000000001,0],[123.741078,10.237696,97.650000000000006,0],[123.741097,10.237634999999999,97.150000000000006,0],[123.741292,10.237418999999999,95.930000000000007,0],[123.741297,10.23733,95.060000000000002,0],[123.741271,10.237268,94.040000000000006,0],[123.741103,10.237064,90.540000000000006,0],[123.74109199999999,10.236962999999999,90.420000000000002,0],[123.740978,10.236879,88.519999999999996,0],[123.740655,10.236463000000001,81.010000000000005,0],[123.740363,10.236121000000001,76.480000000000004,0],[123.740013,10.235880999999999,70.849999999999994,0],[123.73983800000001,10.235806999999999,68.719999999999999,0],[123.739676,10.23579,66.700000000000003,0],[123.739474,10.235842999999999,66.200000000000003,0],[123.739227,10.236029,62.600000000000001,0],[123.73910100000001,10.236098999999999,59.68,0],[123.738843,10.236171000000001,53.640000000000001,0],[123.73859299999999,10.236159000000001,50.490000000000002,0],[123.73845799999999,10.236136999999999,49.479999999999997,0],[123.737286,10.236005,42.100000000000001,0],[123.73714200000001,10.235981000000001,41.240000000000002,0],[123.736887,10.235996,41.899999999999999,0],[123.73677000000001,10.235965,42.399999999999999,0],[123.736655,10.235875999999999,41.920000000000002,0],[123.73648799999999,10.235671,40.590000000000003,0],[123.73645399999999,10.235507,39.060000000000002,0],[123.736288,10.235290000000001,38.140000000000001,0],[123.735957,10.234857,40.880000000000003,0],[123.735626,10.234423,36,0],[123.73532400000001,10.234028,37.009999999999998,0],[123.735153,10.233803,35.380000000000003,0],[123.73501,10.233575999999999,34.100000000000001,0],[123.734723,10.233121000000001,35.310000000000002,0],[123.73441200000001,10.232574,32.880000000000003,0],[123.734275,10.232372,31.350000000000001,0],[123.734121,10.232188000000001,31.59,0],[123.733912,10.232006999999999,32.090000000000003,0],[123.73349399999999,10.231743,30.550000000000001,0],[123.733345,10.231627,30.550000000000001,0],[123.733208,10.231483000000001,29.629999999999999,0],[123.733109,10.231349,29.449999999999999,0],[123.733024,10.231192999999999,28.98,0],[123.73277899999999,10.230658999999999,28.370000000000001,0],[123.732715,10.230454,27.5,0],[123.73268899999999,10.230285,27.649999999999999,0],[123.732681,10.230112999999999,27.629999999999999,0],[123.732704,10.229951,26.940000000000001,0],[123.73275099999999,10.229767000000001,25.850000000000001,0]]]}}]}
