{"type":"FeatureCollection","features":[{"type":"Feature","geometry":{"type":"Point","coordinates":[123.83868,10.249135000000001]},"properties":{"category":"service","signal_dbm":-97,"preserve":false,"sequence":7,"survey_group":"1e40914ebea01d51"}},{"type":"Feature","geometry":{"type":"Point","coordinates":[123.837925,10.2493517]},"properties":{"category":"service","signal_dbm":-97,"preserve":false,"sequence":6,"survey_group":"1e40914ebea01d51"}},{"type":"Feature","geometry":{"type":"Point","coordinates":[123.83731830000001,10.249475]},"properties":{"category":"service","signal_dbm":-89,"preserve":false,"sequence":5,"survey_group":"1e40914ebea01d51"}},{"type":"Feature","geometry":{"type":"Point","coordinates":[123.83678500000001,10.2496033]},"properties":{"category":"service","signal_dbm":-87,"preserve":false,"sequence":4,"survey_group":"1e40914ebea01d51"}},{"type":"Feature","geometry":{"type":"Point","coordinates":[123.83907670000001,10.249790000000001]},"properties":{"category":"service","signal_dbm":-104,"preserve":false,"sequence":8,"survey_group":"1e40914ebea01d51"}},{"type":"Feature","geometry":{"type":"Point","coordinates":[123.8361883,10.249818299999999]},"properties":{"category":"service","signal_dbm":-89,"preserve":false,"sequence":3,"survey_group":"1e40914ebea01d51"}},{"type":"Feature","geometry":{"type":"Point","coordinates":[123.8355433,10.2500217]},"properties":{"category":"service","signal_dbm":-84,"preserve":false,"sequence":2,"survey_group":"1e40914ebea01d51"}},{"type":"Feature","geometry":{"type":"Point","coordinates":[123.834895,10.2502833]},"properties":{"category":"service","signal_dbm":-96,"preserve":false,"sequence":1,"survey_group":"1e40914ebea01d51"}},{"type":"Feature","geometry":{"type":"Point","coordinates":[123.83909,10.250411700000001]},"properties":{"category":"service","signal_dbm":-104,"preserve":false,"sequence":9,"survey_group":"1e40914ebea01d51"}},{"type":"Feature","geometry":{"type":"Point","coordinates":[123.83400829999999,10.250763299999999]},"properties":{"category":"service","signal_dbm":-91,"preserve":true,"sequence":0,"survey_group":"1e40914ebea01d51"}},{"type":"Feature","geometry":{"type":"Point","coordinates":[123.8391633,10.2510867]},"properties":{"category":"service","signal_dbm":-104,"preserve":false,"sequence":10,"survey_group":"1e40914ebea01d51"}},{"type":"Feature","geometry":{"type":"Point","coordinates":[123.839215,10.2516567]},"properties":{"category":"service","signal_dbm":-104,"preserve":false,"sequence":11,"survey_group":"1e40914ebea01d51"}},{"type":"Feature","geometry":{"type":"Point","coordinates":[123.8392717,10.2523233]},"properties":{"category":"service","signal_dbm":-104,"preserve":false,"sequence":12,"survey_group":"1e40914ebea01d51"}},{"type":"Feature","geometry":{"type":"Point","coordinates":[123.8393117,10.2530383]},"properties":{"category":"service","signal_dbm":-104,"preserve":false,"sequence":13,"survey_group":"1e40914ebea01d51"}},{"type":"Feature","geometry":{"type":"Point","coordinates":[123.839355,10.253551699999999]},"properties":{"category":"service","signal_dbm":-104,"preserve":false,"sequence":14,"survey_group":"1e40914ebea01d51"}},{"type":"Feature","geometry":{"type":"Point","coordinates":[123.8393817,10.2540867]},"properties":{"category":"service","signal_dbm":-104,"preserve":false,"sequence":15,"survey_group":"1e40914ebea01d51"}},{"type":"Feature","geometry":{"type":"Point","coordinates":[123.83942500000001,10.25456]},"properties":{"category":"service","signal_dbm":-104,"preserve":false,"sequence":16,"survey_group":"1e40914ebea01d51"}},{"type":"Feature","geometry":{"type":"Point","coordinates":[123.8395233,10.255073299999999]},"properties":{"category":"service","signal_dbm":-104,"preserve":false,"sequence":17,"survey_group":"1e40914ebea01d51"}},{"type":"Feature","geometry":{"type":"Point","coordinates":[123.8396967,10.2558433]},"properties":{"category":"service","signal_dbm":-104,"preserve":false,"sequence":18,"survey_group":"1e40914ebea01d51"}},{"type":"Feature","geometry":{"type":"Point","coordinates":[123.8398117,10.256511700000001]},"properties":{"category":"service","signal_dbm":-104,"preserve":false,"sequence":19,"survey_group":"1e40914ebea01d51"}},{"type":"Feature","geometry":{"type":"Point","coordinates":[123.8399333,10.257206699999999]},"properties":{"category":"service","signal_dbm":-104,"preserve":false,"sequence":20,"survey_group":"1e40914ebea01d51"}},{"type":"Feature","geometry":{"type":"Point","coordinates":[123.8400317,10.25773]},"properties":{"category":"service","signal_dbm":-104,"preserve":false,"sequence":21,"survey_group":"1e40914ebea01d51"}},{"type":"Feature","geometry":{"type":"Point","coordinates":[123.84017830000001,10.2584117]},"properties":{"category":"service","signal_dbm":-104,"preserve":false,"sequence":22,"survey_group":"1e40914ebea01d51"}},{"type":"Feature","geometry":{"type":"Point","coordinates":[123.84031,10.2590267]},"properties":{"category":"service","signal_dbm":-104,"preserve":false,"sequence":23,"survey_group":"1e40914ebea01d51"}},{"type":"Feature","geometry":{"type":"Point","coordinates":[123.84045500000001,10.25985]},"properties":{"category":"service","signal_dbm":-101,"preserve":false,"sequence":24,"survey_group":"1e40914ebea01d51"}},{"type":"Feature","geometry":{"type":"Point","coordinates":[123.84056169999999,10.260351699999999]},"properties":{"category":"service","signal_dbm":-87,"preserve":false,"sequence":25,"survey_group":"1e40914ebea01d51"}},{"type":"Feature","geometry":{"type":"Point","coordinates":[123.84068499999999,10.261006699999999]},"properties":{"category":"service","signal_dbm":-92,"preserve":false,"sequence":26,"survey_group":"1e40914ebea01d51"}},{"type":"Feature","geometry":{"type":"Point","coordinates":[123.8408383,10.261749999999999]},"properties":{"category":"service","signal_dbm":-96,"preserve":false,"sequence":27,"survey_group":"1e40914ebea01d51"}},{"type":"Feature","geometry":{"type":"Point","coordinates":[123.84096220000001,10.2623228]},"properties":{"category":"service","signal_dbm":-100,"preserve":false,"sequence":28,"survey_group":"1e40914ebea01d51"}},{"type":"Feature","geometry":{"type":"Point","coordinates":[123.8410583,10.26291]},"properties":{"category":"service","signal_dbm":-101,"preserve":false,"sequence":31,"survey_group":"1e40914ebea01d51"}},{"type":"Feature","geometry":{"type":"Point","coordinates":[123.841165,10.2634433]},"properties":{"category":"service","signal_dbm":-101,"preserve":false,"sequence":32,"survey_group":"1e40914ebea01d51"}},{"type":"Feature","geometry":{"type":"Point","coordinates":[123.8413583,10.264408299999999]},"properties":{"category":"service","signal_dbm":-101,"preserve":false,"sequence":33,"survey_group":"1e40914ebea01d51"}},{"type":"Feature","geometry":{"type":"Point","coordinates":[123.8414717,10.265015]},"properties":{"category":"service","signal_dbm":-101,"preserve":false,"sequence":34,"survey_group":"1e40914ebea01d51"}},{"type":"Feature","geometry":{"type":"Point","coordinates":[123.8415992,10.2656717]},"properties":{"category":"service","signal_dbm":-99,"preserve":false,"sequence":35,"survey_group":"1e40914ebea01d51"}},{"type":"Feature","geometry":{"type":"Point","coordinates":[123.84193329999999,10.266185]},"properties":{"category":"service","signal_dbm":-98,"preserve":false,"sequence":37,"survey_group":"1e40914ebea01d51"}},{"type":"Feature","geometry":{"type":"Point","coordinates":[123.84234499999999,10.2666833]},"properties":{"category":"service","signal_dbm":-98,"preserve":false,"sequence":38,"survey_group":"1e40914ebea01d51"}},{"type":"Feature","geometry":{"type":"Point","coordinates":[123.8427033,10.2670783]},"properties":{"category":"service","signal_dbm":-98,"preserve":false,"sequence":39,"survey_group":"1e40914ebea01d51"}},{"type":"Feature","geometry":{"type":"Point","coordinates":[123.8431867,10.2675983]},"properties":{"category":"service","signal_dbm":-98,"preserve":false,"sequence":40,"survey_group":"1e40914ebea01d51"}},{"type":"Feature","geometry":{"type":"Point","coordinates":[123.843745,10.268224999999999]},"properties":{"category":"service","signal_dbm":-98,"preserve":false,"sequence":41,"survey_group":"1e40914ebea01d51"}},{"type":"Feature","geometry":{"type":"Point","coordinates":[123.8442867,10.2688133]},"properties":{"category":"service","signal_dbm":-98,"preserve":false,"sequence":42,"survey_group":"1e40914ebea01d51"}},{"type":"Feature","geometry":{"type":"Point","coordinates":[123.8447783,10.269316699999999]},"properties":{"category":"service","signal_dbm":-98,"preserve":false,"sequence":43,"survey_group":"1e40914ebea01d51"}},{"type":"Feature","geometry":{"type":"Point","coordinates":[123.84510330000001,10.2696667]},"properties":{"category":"service","signal_dbm":-98,"preserve":false,"sequence":44,"survey_group":"1e40914ebea01d51"}},{"type":"Feature","geometry":{"type":"Point","coordinates":[123.84569,10.2702867]},"properties":{"category":"service","signal_dbm":-98,"preserve":false,"sequence":45,"survey_group":"1e40914ebea01d51"}},{"type":"Feature","geometry":{"type":"Point","coordinates":[123.846655,10.2713067]},"properties":{"category":"service","signal_dbm":-98,"preserve":false,"sequence":46,"survey_group":"1e40914ebea01d51"}},{"type":"Feature","geometry":{"type":"Point","coordinates":[123.84726329999999,10.271688299999999]},"properties":{"category":"service","signal_dbm":-98,"preserve":false,"sequence":47,"survey_group":"1e40914ebea01d51"}},{"type":"Feature","geometry":{"type":"Point","coordinates":[123.8478083,10.2720717]},"properties":{"category":"service","signal_dbm":-98,"preserve":false,"sequence":48,"survey_group":"1e40914ebea01d51"}},{"type":"Feature","geometry":{"type":"Point","coordinates":[123.8484417,10.272634999999999]},"properties":{"category":"service","signal_dbm":-98,"preserve":false,"sequence":49,"survey_group":"1e40914ebea01d51"}},{"type":"Feature","geometry":{"type":"Point","coordinates":[123.8487933,10.2729683]},"properties":{"category":"service","signal_dbm":-98,"preserve":false,"sequence":50,"survey_group":"1e40914ebea01d51"}},{"type":"Feature","geometry":{"type":"Point","coordinates":[123.84914499999999,10.273333299999999]},"properties":{"category":"service","signal_dbm":-98,"preserve":false,"sequence":51,"survey_group":"1e40914ebea01d51"}},{"type":"Feature","geometry":{"type":"Point","coordinates":[123.8497883,10.2739633]},"properties":{"category":"service","signal_dbm":-98,"preserve":false,"sequence":52,"survey_group":"1e40914ebea01d51"}},{"type":"Feature","geometry":{"type":"Point","coordinates":[123.85024,10.2744067]},"properties":{"category":"service","signal_dbm":-98,"preserve":false,"sequence":53,"survey_group":"1e40914ebea01d51"}},{"type":"Feature","geometry":{"type":"Point","coordinates":[123.8506417,10.274789999999999]},"properties":{"category":"service","signal_dbm":-98,"preserve":false,"sequence":54,"survey_group":"1e40914ebea01d51"}},{"type":"Feature","geometry":{"type":"Point","coordinates":[123.8512983,10.275449999999999]},"properties":{"category":"service","signal_dbm":-98,"preserve":false,"sequence":55,"survey_group":"1e40914ebea01d51"}},{"type":"Feature","geometry":{"type":"Point","coordinates":[123.85169329999999,10.2758533]},"properties":{"category":"service","signal_dbm":-98,"preserve":false,"sequence":56,"survey_group":"1e40914ebea01d51"}},{"type":"Feature","geometry":{"type":"Point","coordinates":[123.85215169999999,10.2762733]},"properties":{"category":"service","signal_dbm":-98,"preserve":false,"sequence":57,"survey_group":"1e40914ebea01d51"}},{"type":"Feature","geometry":{"type":"Point","coordinates":[123.8526617,10.2767783]},"properties":{"category":"service","signal_dbm":-98,"preserve":false,"sequence":58,"survey_group":"1e40914ebea01d51"}},{"type":"Feature","geometry":{"type":"Point","coordinates":[123.85312999999999,10.2772433]},"properties":{"category":"service","signal_dbm":-98,"preserve":false,"sequence":59,"survey_group":"1e40914ebea01d51"}},{"type":"Feature","geometry":{"type":"Point","coordinates":[123.8534733,10.277620000000001]},"properties":{"category":"service","signal_dbm":-98,"preserve":false,"sequence":60,"survey_group":"1e40914ebea01d51"}},{"type":"Feature","geometry":{"type":"Point","coordinates":[123.8538483,10.2779683]},"properties":{"category":"service","signal_dbm":-98,"preserve":false,"sequence":61,"survey_group":"1e40914ebea01d51"}},{"type":"Feature","geometry":{"type":"Point","coordinates":[123.85433329999999,10.2784283]},"properties":{"category":"service","signal_dbm":-98,"preserve":false,"sequence":62,"survey_group":"1e40914ebea01d51"}},{"type":"Feature","geometry":{"type":"Point","coordinates":[123.85493169999999,10.278975000000001]},"properties":{"category":"service","signal_dbm":-98,"preserve":false,"sequence":63,"survey_group":"1e40914ebea01d51"}},{"type":"Feature","geometry":{"type":"Point","coordinates":[123.8553533,10.2794183]},"properties":{"category":"service","signal_dbm":-98,"preserve":false,"sequence":64,"survey_group":"1e40914ebea01d51"}},{"type":"Feature","geometry":{"type":"Point","coordinates":[123.8557067,10.2797617]},"properties":{"category":"service","signal_dbm":-98,"preserve":false,"sequence":65,"survey_group":"1e40914ebea01d51"}},{"type":"Feature","geometry":{"type":"Point","coordinates":[123.8561983,10.28035]},"properties":{"category":"service","signal_dbm":-98,"preserve":false,"sequence":66,"survey_group":"1e40914ebea01d51"}},{"type":"Feature","geometry":{"type":"Point","coordinates":[123.85668,10.280900000000001]},"properties":{"category":"service","signal_dbm":-98,"preserve":false,"sequence":67,"survey_group":"1e40914ebea01d51"}},{"type":"Feature","geometry":{"type":"Point","coordinates":[123.8570917,10.28139]},"properties":{"category":"service","signal_dbm":-98,"preserve":false,"sequence":68,"survey_group":"1e40914ebea01d51"}},{"type":"Feature","geometry":{"type":"Point","coordinates":[123.857585,10.28192]},"properties":{"category":"service","signal_dbm":-98,"preserve":false,"sequence":69,"survey_group":"1e40914ebea01d51"}},{"type":"Feature","geometry":{"type":"Point","coordinates":[123.85796670000001,10.282365]},"properties":{"category":"service","signal_dbm":-98,"preserve":false,"sequence":70,"survey_group":"1e40914ebea01d51"}},{"type":"Feature","geometry":{"type":"Point","coordinates":[123.85832499999999,10.2827783]},"properties":{"category":"service","signal_dbm":-98,"preserve":false,"sequence":71,"survey_group":"1e40914ebea01d51"}},{"type":"Feature","geometry":{"type":"Point","coordinates":[123.85872500000001,10.2832417]},"properties":{"category":"service","signal_dbm":-98,"preserve":false,"sequence":72,"survey_group":"1e40914ebea01d51"}},{"type":"Feature","geometry":{"type":"Point","coordinates":[123.8593233,10.283898300000001]},"properties":{"category":"service","signal_dbm":-98,"preserve":false,"sequence":73,"survey_group":"1e40914ebea01d51"}},{"type":"Feature","geometry":{"type":"Point","coordinates":[123.86011670000001,10.2847683]},"properties":{"category":"service","signal_dbm":-98,"preserve":false,"sequence":74,"survey_group":"1e40914ebea01d51"}},{"type":"Feature","geometry":{"type":"Point","coordinates":[123.8604383,10.2851417]},"properties":{"category":"service","signal_dbm":-98,"preserve":false,"sequence":75,"survey_group":"1e40914ebea01d51"}},{"type":"Feature","geometry":{"type":"Point","coordinates":[123.8611133,10.2859417]},"properties":{"category":"service","signal_dbm":-98,"preserve":false,"sequence":76,"survey_group":"1e40914ebea01d51"}},{"type":"Feature","geometry":{"type":"Point","coordinates":[123.86154000000001,10.2864217]},"properties":{"category":"service","signal_dbm":-98,"preserve":false,"sequence":77,"survey_group":"1e40914ebea01d51"}},{"type":"Feature","geometry":{"type":"Point","coordinates":[123.86205169999999,10.286876700000001]},"properties":{"category":"service","signal_dbm":-98,"preserve":false,"sequence":78,"survey_group":"1e40914ebea01d51"}},{"type":"Feature","geometry":{"type":"Point","coordinates":[123.8625983,10.2872433]},"properties":{"category":"service","signal_dbm":-98,"preserve":false,"sequence":79,"survey_group":"1e40914ebea01d51"}},{"type":"Feature","geometry":{"type":"Point","coordinates":[123.86352170000001,10.2876517]},"properties":{"category":"service","signal_dbm":-98,"preserve":false,"sequence":80,"survey_group":"1e40914ebea01d51"}},{"type":"Feature","geometry":{"type":"Point","coordinates":[123.86408,10.287896699999999]},"properties":{"category":"service","signal_dbm":-98,"preserve":false,"sequence":81,"survey_group":"1e40914ebea01d51"}},{"type":"Feature","geometry":{"type":"Point","coordinates":[123.8646383,10.288126699999999]},"properties":{"category":"service","signal_dbm":-98,"preserve":false,"sequence":82,"survey_group":"1e40914ebea01d51"}},{"type":"Feature","geometry":{"type":"Point","coordinates":[123.8651217,10.2883417]},"properties":{"category":"service","signal_dbm":-98,"preserve":false,"sequence":83,"survey_group":"1e40914ebea01d51"}},{"type":"Feature","geometry":{"type":"Point","coordinates":[123.86585169999999,10.288578299999999]},"properties":{"category":"service","signal_dbm":-98,"preserve":false,"sequence":84,"survey_group":"1e40914ebea01d51"}},{"type":"Feature","geometry":{"type":"Point","coordinates":[123.8663433,10.288746700000001]},"properties":{"category":"service","signal_dbm":-98,"preserve":false,"sequence":85,"survey_group":"1e40914ebea01d51"}},{"type":"Feature","geometry":{"type":"Point","coordinates":[123.8669033,10.288931699999999]},"properties":{"category":"service","signal_dbm":-98,"preserve":false,"sequence":86,"survey_group":"1e40914ebea01d51"}},{"type":"Feature","geometry":{"type":"Point","coordinates":[123.8678283,10.289166700000001]},"properties":{"category":"service","signal_dbm":-98,"preserve":false,"sequence":87,"survey_group":"1e40914ebea01d51"}},{"type":"Feature","geometry":{"type":"Point","coordinates":[123.8689033,10.289423299999999]},"properties":{"category":"service","signal_dbm":-98,"preserve":false,"sequence":88,"survey_group":"1e40914ebea01d51"}},{"type":"Feature","geometry":{"type":"Point","coordinates":[123.8694667,10.2895667]},"properties":{"category":"service","signal_dbm":-98,"preserve":false,"sequence":89,"survey_group":"1e40914ebea01d51"}},{"type":"Feature","geometry":{"type":"Point","coordinates":[123.8708383,10.2898]},"properties":{"category":"service","signal_dbm":-98,"preserve":false,"sequence":90,"survey_group":"1e40914ebea01d51"}},{"type":"Feature","geometry":{"type":"Point","coordinates":[123.8716933,10.2898]},"properties":{"category":"service","signal_dbm":-98,"preserve":false,"sequence":91,"survey_group":"1e40914ebea01d51"}},{"type":"Feature","geometry":{"type":"Point","coordinates":[123.8723167,10.2898283]},"properties":{"category":"service","signal_dbm":-98,"preserve":false,"sequence":92,"survey_group":"1e40914ebea01d51"}},{"type":"Feature","geometry":{"type":"Point","coordinates":[123.872855,10.289858300000001]},"properties":{"category":"service","signal_dbm":-98,"preserve":false,"sequence":93,"survey_group":"1e40914ebea01d51"}},{"type":"Feature","geometry":{"type":"Point","coordinates":[123.87358999999999,10.289944999999999]},"properties":{"category":"service","signal_dbm":-98,"preserve":false,"sequence":94,"survey_group":"1e40914ebea01d51"}},{"type":"Feature","geometry":{"type":"Point","coordinates":[123.87420830000001,10.2900533]},"properties":{"category":"service","signal_dbm":-98,"preserve":false,"sequence":95,"survey_group":"1e40914ebea01d51"}},{"type":"Feature","geometry":{"type":"Point","coordinates":[123.8749,10.290188300000001]},"properties":{"category":"service","signal_dbm":-98,"preserve":false,"sequence":96,"survey_group":"1e40914ebea01d51"}},{"type":"Feature","geometry":{"type":"Point","coordinates":[123.87552169999999,10.2903033]},"properties":{"category":"service","signal_dbm":-98,"preserve":false,"sequence":97,"survey_group":"1e40914ebea01d51"}},{"type":"Feature","geometry":{"type":"Point","coordinates":[123.87626830000001,10.290480000000001]},"properties":{"category":"service","signal_dbm":-98,"preserve":false,"sequence":98,"survey_group":"1e40914ebea01d51"}},{"type":"Feature","geometry":{"type":"Point","coordinates":[123.8768383,10.290794999999999]},"properties":{"category":"service","signal_dbm":-98,"preserve":false,"sequence":99,"survey_group":"1e40914ebea01d51"}},{"type":"Feature","geometry":{"type":"Point","coordinates":[123.8773267,10.2911433]},"properties":{"category":"service","signal_dbm":-98,"preserve":false,"sequence":100,"survey_group":"1e40914ebea01d51"}},{"type":"Feature","geometry":{"type":"Point","coordinates":[123.87797500000001,10.291593300000001]},"properties":{"category":"service","signal_dbm":-98,"preserve":false,"sequence":101,"survey_group":"1e40914ebea01d51"}},{"type":"Feature","geometry":{"type":"Point","coordinates":[123.87860000000001,10.2920433]},"properties":{"category":"service","signal_dbm":-98,"preserve":false,"sequence":102,"survey_group":"1e40914ebea01d51"}},{"type":"Feature","geometry":{"type":"Point","coordinates":[123.87923000000001,10.292484999999999]},"properties":{"category":"service","signal_dbm":-98,"preserve":false,"sequence":103,"survey_group":"1e40914ebea01d51"}},{"type":"Feature","geometry":{"type":"Point","coordinates":[123.8799817,10.2929967]},"properties":{"category":"service","signal_dbm":-98,"preserve":false,"sequence":104,"survey_group":"1e40914ebea01d51"}},{"type":"Feature","geometry":{"type":"Point","coordinates":[123.88071170000001,10.293536700000001]},"properties":{"category":"service","signal_dbm":-98,"preserve":false,"sequence":105,"survey_group":"1e40914ebea01d51"}},{"type":"Feature","geometry":{"type":"Point","coordinates":[123.8814533,10.294018299999999]},"properties":{"category":"service","signal_dbm":-98,"preserve":false,"sequence":106,"survey_group":"1e40914ebea01d51"}},{"type":"Feature","geometry":{"type":"Point","coordinates":[123.88423,10.2942167]},"properties":{"category":"service","signal_dbm":-105,"preserve":true,"sequence":112,"survey_group":"1e40914ebea01d51"}},{"type":"Feature","geometry":{"type":"Point","coordinates":[123.8820333,10.2944833]},"properties":{"category":"service","signal_dbm":-98,"preserve":false,"sequence":107,"survey_group":"1e40914ebea01d51"}},{"type":"Feature","geometry":{"type":"Point","coordinates":[123.8838117,10.2946483]},"properties":{"category":"service","signal_dbm":-108,"preserve":false,"sequence":111,"survey_group":"1e40914ebea01d51"}},{"type":"Feature","geometry":{"type":"Point","coordinates":[123.88254499999999,10.2948167]},"properties":{"category":"service","signal_dbm":-98,"preserve":false,"sequence":108,"survey_group":"1e40914ebea01d51"}},{"type":"Feature","geometry":{"type":"Point","coordinates":[123.88383,10.295166699999999]},"properties":{"category":"service","signal_dbm":-97,"preserve":false,"sequence":110,"survey_group":"1e40914ebea01d51"}},{"type":"Feature","geometry":{"type":"Point","coordinates":[123.88328,10.295288299999999]},"properties":{"category":"service","signal_dbm":-98,"preserve":false,"sequence":109,"survey_group":"1e40914ebea01d51"}}]}
