{"type":"FeatureCollection","features":[{"type":"Feature","properties":[],"geometry":{"type":"MultiLineString","coordinates":[[[123.8078361,10.347844500000001,233.59,1789166708],[123.8078414,10.3478499,230.53999999999999,1789166715],[123.8078421,10.3478595,229.77000000000001,1789166723],[123.8078477,10.347856500000001,230.65000000000001,1789166731],[123.8078532,10.3478546,228.03,1789166739],[123.80785349999999,10.3478589,229.19,1789166747],[123.80786139999999,10.3478642,228.96000000000001,1789166755],[123.8078694,10.347873099999999,227.22,1789166763],[123.8078678,10.347875200000001,225.96000000000001,1789166771],[123.8078702,10.347879499999999,225.66999999999999,1789166779],[123.8078691,10.3478817,225.59,1789166787],[123.8078699,10.3478844,225.21000000000001,1789166795],[123.807874,10.3478826,225.80000000000001,1789166803],[123.8078754,10.347885099999999,225.43000000000001,1789166811],[123.8078737,10.3478879,225.19,1789166819],[123.8078773,10.3478873,224.81999999999999,1789166827],[123.80787530000001,10.3478884,224.91999999999999,1789166835],[123.8078754,10.3478887,224.38,1789166843],[123.8078752,10.347883899999999,223.59999999999999,1789166852],[123.8078737,10.3478855,223.15000000000001,1789166859],[123.80787580000001,10.347887500000001,223.15000000000001,1789166868],[123.8078749,10.3478853,223.36000000000001,1789166876],[123.80787170000001,10.347876100000001,221.63,1789166890],[123.80786759999999,10.3478618,220.91999999999999,1789166898],[123.8078701,10.3478473,219.84999999999999,1789166906],[123.8078768,10.3478309,219.19999999999999,1789166914],[123.80788680000001,10.3478069,218.28999999999999,1789166922],[123.8079573,10.347674,216.11000000000001,1789166930],[123.8079742,10.3476438,217.63,1789166938],[123.8080095,10.347619699999999,218.49000000000001,1789166946],[123.8080119,10.347575900000001,215.19,1789166954],[123.80801580000001,10.347573000000001,215.34999999999999,1789166962],[123.8080683,10.347508700000001,217.55000000000001,1789166970],[123.8081253,10.3474532,216.16,1789166978],[123.80817380000001,10.347421199999999,214.33000000000001,1789166986],[123.8082144,10.3473843,216.22999999999999,1789166994],[123.808244,10.347352600000001,222.31999999999999,1789167002],[123.8082418,10.3473328,212.91999999999999,1789167010],[123.8082526,10.3472413,218.49000000000001,1789167018],[123.80827429999999,10.347179499999999,220.02000000000001,1789167026],[123.80829079999999,10.347152700000001,227.83000000000001,1789167034],[123.8082531,10.347122300000001,224.74000000000001,1789167040],[123.80821349999999,10.3470616,224.68000000000001,1789167050],[123.8081961,10.3470415,221.96000000000001,1789167058],[123.8081778,10.347027000000001,224.94,1789167066],[123.8081502,10.3470286,222.37,1789167071.4219999],[123.8080664,10.3470338,227.94,1789167076],[123.8079978,10.3470259,231.21000000000001,1789167081],[123.8079568,10.347013499999999,231.38999999999999,1789167086],[123.80793180000001,10.3469976,231.41,1789167091],[123.80791139999999,10.3469648,230.18000000000001,1789167096],[123.8078872,10.346936299999999,232.11000000000001,1789167101],[123.80786139999999,10.346917299999999,233.21000000000001,1789167106],[123.8078328,10.3468962,233.49000000000001,1789167111],[123.80779990000001,10.3468909,234.53999999999999,1789167116],[123.8077737,10.346870300000001,235.38999999999999,1789167121],[123.8077412,10.3468593,237.47,1789167126],[123.8077225,10.346853100000001,237.66,1789167131],[123.8077263,10.3468508,237.02000000000001,1789167136],[123.8076966,10.346844000000001,237.66999999999999,1789167141],[123.8076657,10.346847500000001,238.25,1789167146],[123.8076389,10.3468237,239.28,1789167151],[123.8076126,10.3468094,240.37,1789167156],[123.8075891,10.3467857,240.49000000000001,1789167161],[123.80756,10.3467696,241.41,1789167166],[123.80753420000001,10.3467553,241.19,1789167171],[123.8075156,10.3467339,242.90000000000001,1789167176],[123.80748560000001,10.3467228,242.99000000000001,1789167181],[123.8074735,10.3467108,242.71000000000001,1789167186],[123.8074797,10.3467091,242.19999999999999,1789167191],[123.8074799,10.3467091,242.19999999999999,1789167196],[123.8074824,10.346710699999999,242.43000000000001,1789167201],[123.8074833,10.346709799999999,242.19999999999999,1789167206],[123.8074838,10.346707500000001,242.18000000000001,1789167211],[123.80748920000001,10.346705200000001,242.13999999999999,1789167216],[123.8074895,10.3467056,242.12,1789167221],[123.8074854,10.3466977,241.84999999999999,1789167226],[123.8074617,10.3466947,240.46000000000001,1789167231],[123.80743560000001,10.346686699999999,240.03999999999999,1789167236],[123.8074051,10.346674399999999,240.58000000000001,1789167241],[123.8073867,10.3466635,241.41,1789167246],[123.80735869999999,10.3466521,242.61000000000001,1789167251],[123.80734270000001,10.3466402,242.11000000000001,1789167256],[123.8073223,10.3466314,243.16,1789167261],[123.8072959,10.346618299999999,244.02000000000001,1789167266],[123.80726850000001,10.3466041,245.78,1789167271],[123.8072363,10.346596999999999,246.96000000000001,1789167276],[123.80721610000001,10.3465924,247.09,1789167281],[123.80718760000001,10.346584500000001,248.71000000000001,1789167286],[123.8071612,10.346580899999999,249.86000000000001,1789167291],[123.8071351,10.3465828,249.97999999999999,1789167296],[123.8071128,10.3465772,250.5,1789167301],[123.8070862,10.3465802,251.69,1789167306],[123.8070534,10.346585599999999,253.55000000000001,1789167311],[123.80702770000001,10.346591200000001,255.09999999999999,1789167316],[123.8069986,10.3465965,256.24000000000001,1789167321],[123.80696519999999,10.346607199999999,256.68000000000001,1789167326],[123.8069531,10.3466223,257.25,1789167331],[123.80695350000001,10.3466223,257.24000000000001,1789167341],[123.80695369999999,10.346622200000001,257.25,1789167351],[123.8069555,10.346618400000001,257.45999999999998,1789167356],[123.8069465,10.346580299999999,255.81,1789167361],[123.8069258,10.3465521,254.91999999999999,1789167366],[123.8068797,10.346508500000001,254.88,1789167380],[123.8068863,10.3464969,254.74000000000001,1789167388],[123.80687690000001,10.346493600000001,254.66,1789167396],[123.8068691,10.3464826,255.44999999999999,1789167405],[123.80686,10.3464686,255.87,1789167413],[123.806861,10.346451,256.22000000000003,1789167420],[123.8068955,10.346313,261.68000000000001,1789167428],[123.80691400000001,10.346300599999999,263.75999999999999,1789167436],[123.8069145,10.346306,263.95999999999998,1789167444],[123.8069292,10.3462899,264.55000000000001,1789167452],[123.80695,10.3462733,264.32999999999998,1789167460],[123.8069653,10.3462599,266.49000000000001,1789167469],[123.8069825,10.3462485,270.17000000000002,1789167476],[123.8069902,10.3462476,272.69,1789167484],[123.80699300000001,10.3462464,273.31999999999999,1789167492],[123.8069936,10.3462406,274.05000000000001,1789167500],[123.80699509999999,10.346239499999999,273.58999999999997,1789167508],[123.8069981,10.346234300000001,273.73000000000002,1789167516],[123.80700589999999,10.346229599999999,274.43000000000001,1789167524],[123.8070118,10.346229900000001,274.88,1789167532],[123.8070146,10.3462245,274.10000000000002,1789167541],[123.8070096,10.346220199999999,274.16000000000003,1789167548],[123.8070123,10.3462231,273.33999999999997,1789167556],[123.80702049999999,10.346221999999999,272.29000000000002,1789167565],[123.80703080000001,10.346219100000001,271.18000000000001,1789167572],[123.8070441,10.3462149,269.81999999999999,1789167580],[123.8070697,10.3461973,267.88,1789167589],[123.80707839999999,10.346196600000001,267.66000000000003,1789167596],[123.80708989999999,10.346192500000001,267.06999999999999,1789167604],[123.8072549,10.346194199999999,273.26999999999998,1789167613],[123.8073138,10.346185800000001,275.95999999999998,1789167620],[123.8073864,10.3461626,280.10000000000002,1789167628],[123.8073912,10.346146600000001,279.55000000000001,1789167636],[123.80737499999999,10.3461515,284.16000000000003,1789167644],[123.807418,10.346114399999999,283.29000000000002,1789167652],[123.8076014,10.345922699999999,291.99000000000001,1789167661],[123.8075968,10.345927,289.30000000000001,1789167668],[123.80761,10.345904300000001,289.23000000000002,1789167676],[123.807568,10.345881200000001,285.41000000000003,1789167684],[123.80748819999999,10.3458968,288.5,1789167689],[123.80746809999999,10.345888800000001,287.19999999999999,1789167694],[123.8074136,10.345879099999999,284.70999999999998,1789167705],[123.8073323,10.345876799999999,288.39999999999998,1789167713],[123.8073129,10.3458573,288.91000000000003,1789167721],[123.80728209999999,10.345836500000001,289.97000000000003,1789167729],[123.8072384,10.3457715,299.13999999999999,1789167738],[123.8072489,10.3457556,295.93000000000001,1789167743],[123.8072622,10.345830299999999,293.48000000000002,1789167754],[123.8072648,10.3457913,293.56,1789167761],[123.80727349999999,10.3457209,289.73000000000002,1789167769],[123.80728929999999,10.345682699999999,285.94,1789167777],[123.80732829999999,10.345666899999999,285.30000000000001,1789167786],[123.807326,10.3456384,289.93000000000001,1789167793],[123.80734409999999,10.3456188,292.85000000000002,1789167801],[123.8074022,10.3456016,297.18000000000001,1789167809],[123.8074563,10.345606,300.76999999999998,1789167817],[123.80750020000001,10.3456093,301.63999999999999,1789167825],[123.8075418,10.345613800000001,302.14999999999998,1789167833],[123.80759449999999,10.3456116,304.48000000000002,1789167841],[123.8076354,10.345589500000001,302.56,1789167849],[123.80767609999999,10.345550899999999,305.44,1789167857],[123.8077335,10.3455466,304.12,1789167865],[123.8077725,10.345539499999999,304.04000000000002,1789167873],[123.80781519999999,10.345524899999999,301.31,1789167881],[123.80781210000001,10.3454724,295.88,1789167889],[123.8077404,10.3454009,310.19999999999999,1789167897],[123.8077139,10.3453745,312.25999999999999,1789167905],[123.8076811,10.3453731,313.11000000000001,1789167913],[123.80768449999999,10.345368000000001,307.93000000000001,1789167921],[123.8076593,10.3453114,314.00999999999999,1789167929],[123.807616,10.3452679,310.38,1789167937],[123.80759810000001,10.345281,309.35000000000002,1789167945],[123.8075559,10.3452568,312.26999999999998,1789167953],[123.80754159999999,10.3452085,311.94,1789167961],[123.8075254,10.3451582,308.68000000000001,1789167969],[123.80752099999999,10.3451047,308.95999999999998,1789167977],[123.80745330000001,10.345053999999999,310.29000000000002,1789167985],[123.8073819,10.345035299999999,307.22000000000003,1789167993],[123.80734150000001,10.3450378,306.94,1789168001],[123.8072775,10.3450252,313.38999999999999,1789168009],[123.8072189,10.345072500000001,320.24000000000001,1789168017],[123.8072123,10.3451488,321.44,1789168025],[123.807213,10.3451568,322.10000000000002,1789168033],[123.80716270000001,10.345143,317.12,1789168041],[123.80710089999999,10.345104299999999,317,1789168049],[123.80704919999999,10.345080899999999,319.56999999999999,1789168057],[123.8070175,10.345027099999999,320.88,1789168066],[123.8070183,10.3450086,318.67000000000002,1789168073],[123.80703800000001,10.345005499999999,313.17000000000002,1789168082],[123.80700469999999,10.344991200000001,319.80000000000001,1789168089],[123.8069299,10.344946,322.54000000000002,1789168097],[123.8068777,10.344925099999999,319.45999999999998,1789168105],[123.80679600000001,10.3449074,320.94,1789168113],[123.80672989999999,10.3449302,320.80000000000001,1789168121],[123.8067221,10.344919000000001,320.73000000000002,1789168129],[123.8066781,10.3448756,321.63,1789168137],[123.80667800000001,10.344879600000001,317.69,1789168145],[123.80667029999999,10.3448715,318.19,1789168153],[123.8066566,10.344857299999999,319.81999999999999,1789168161],[123.8066381,10.344825,318.49000000000001,1789168169],[123.8066645,10.3448064,321.98000000000002,1789168177],[123.8066871,10.3447604,318.50999999999999,1789168185],[123.80673520000001,10.3447292,322.81999999999999,1789168193],[123.80678690000001,10.3447408,328.75,1789168201],[123.80682899999999,10.344669700000001,328.70999999999998,1789168209],[123.80683879999999,10.3446219,328.81999999999999,1789168217],[123.8068286,10.3446506,336.88999999999999,1789168225],[123.806894,10.344681,338.25999999999999,1789168233],[123.80691779999999,10.344701799999999,330.63999999999999,1789168241],[123.80697360000001,10.344682300000001,333.06,1789168249],[123.80699799999999,10.3446389,334.10000000000002,1789168257],[123.8070457,10.3446319,336.13999999999999,1789168265],[123.8070445,10.3446487,334.5,1789168273],[123.80702479999999,10.344637000000001,333.64999999999998,1789168281],[123.80701329999999,10.344670499999999,338.67000000000002,1789168289],[123.8070149,10.3446672,336.41000000000003,1789168297],[123.80700760000001,10.344649499999999,332.95999999999998,1789168305],[123.807034,10.344644000000001,335.91000000000003,1789168313],[123.80712320000001,10.344645099999999,340.91000000000003,1789168321],[123.8071948,10.3446239,341.44,1789168329],[123.8072497,10.344599499999999,337.80000000000001,1789168337],[123.8072713,10.344671699999999,336.57999999999998,1789168345],[123.807265,10.3446783,338.02999999999997,1789168353],[123.80727160000001,10.3446696,339.49000000000001,1789168361],[123.807265,10.3446646,338.48000000000002,1789168369],[123.8072633,10.344652,333.05000000000001,1789168377],[123.8072647,10.344656000000001,334.73000000000002,1789168385],[123.8072665,10.344659699999999,335.67000000000002,1789168393],[123.8072712,10.344661800000001,335.47000000000003,1789168401],[123.80727160000001,10.3446549,334.20999999999998,1789168409],[123.80726439999999,10.344652999999999,334.32999999999998,1789168417],[123.80726799999999,10.344673800000001,334.60000000000002,1789168425],[123.8072702,10.3446376,337.17000000000002,1789168433],[123.8072712,10.344557399999999,333.44,1789168441],[123.8072636,10.344549900000001,331.51999999999998,1789168449],[123.8072927,10.344513900000001,332.11000000000001,1789168457],[123.8073691,10.3444854,339.52999999999997,1789168465],[123.8074347,10.344481500000001,342.10000000000002,1789168473],[123.8074288,10.3444968,340.68000000000001,1789168481],[123.8074167,10.344504799999999,339.63999999999999,1789168489],[123.8073811,10.344518799999999,343.72000000000003,1789168497],[123.8073713,10.344514500000001,342.02999999999997,1789168505],[123.80738359999999,10.3445176,342.37,1789168513],[123.807434,10.344550699999999,341.98000000000002,1789168521],[123.80746480000001,10.344516799999999,344.05000000000001,1789168529],[123.8074864,10.3445228,344.39999999999998,1789168537],[123.80748610000001,10.3444409,346.10000000000002,1789168545],[123.8074419,10.3443738,343.99000000000001,1789168553],[123.80738789999999,10.344351400000001,348.16000000000003,1789168561],[123.8073954,10.3442928,343.47000000000003,1789168569],[123.8074136,10.344327699999999,346.13999999999999,1789168577],[123.8074737,10.3444273,343.04000000000002,1789168585],[123.80753540000001,10.344422399999999,337.81,1789168593],[123.8075477,10.344376799999999,346.16000000000003,1789168601],[123.80759810000001,10.344328300000001,353.75999999999999,1789168609],[123.80768,10.344319499999999,355.64999999999998,1789168617],[123.8077153,10.344220099999999,355.07999999999998,1789168625],[123.8077244,10.3441227,349.75999999999999,1789168633],[123.8077565,10.344064299999999,347.26999999999998,1789168641],[123.8078308,10.3440318,350.39999999999998,1789168649],[123.8078721,10.343999200000001,356.39999999999998,1789168657],[123.8079547,10.3439701,355.14999999999998,1789168665],[123.8080221,10.3439169,364.44999999999999,1789168673],[123.8080994,10.343956199999999,364.36000000000001,1789168682],[123.8080812,10.3439771,363.75,1789168689],[123.80811009999999,10.343958000000001,362.38999999999999,1789168697],[123.8082023,10.343912,362.44,1789168705],[123.8082601,10.3439215,356.54000000000002,1789168713],[123.80830210000001,10.343958000000001,357.56999999999999,1789168721],[123.808296,10.3440172,359.20999999999998,1789168729],[123.80832700000001,10.344061399999999,359.75999999999999,1789168737],[123.8083582,10.344059700000001,358.75,1789168745],[123.8083721,10.3440616,357.68000000000001,1789168753],[123.8083764,10.3440964,364.75,1789168761],[123.808374,10.344186799999999,367.75999999999999,1789168769],[123.80837080000001,10.3441727,361.16000000000003,1789168777],[123.8083721,10.3441507,360.74000000000001,1789168785],[123.8083788,10.3441423,362.67000000000002,1789168793],[123.8083768,10.344174000000001,363.38999999999999,1789168801],[123.80838679999999,10.3441949,357.93000000000001,1789168809],[123.8084175,10.3442449,364.01999999999998,1789168817],[123.8084341,10.3443167,364.19999999999999,1789168825],[123.8084516,10.3443693,369.19999999999999,1789168833],[123.8084392,10.344379699999999,368.88999999999999,1789168841],[123.8084284,10.344356899999999,366.51999999999998,1789168849],[123.8084259,10.3443513,367.00999999999999,1789168857],[123.8084284,10.344346,366.31,1789168865],[123.80842610000001,10.3443497,366.75999999999999,1789168873],[123.8084295,10.3443513,366.77999999999997,1789168881],[123.8084264,10.3443503,366.76999999999998,1789168889],[123.8084307,10.344347900000001,366.80000000000001,1789168897],[123.8084353,10.3443468,366.82999999999998,1789168905],[123.80844399999999,10.3443518,366.60000000000002,1789168913],[123.8085209,10.344397499999999,369.25999999999999,1789168921],[123.80853620000001,10.3444205,370.22000000000003,1789168929],[123.80855320000001,10.3444214,370.57999999999998,1789168937],[123.8085718,10.3444307,371.44,1789168945],[123.80859460000001,10.344436999999999,372.38,1789168953],[123.8086121,10.344443399999999,373.19,1789168961],[123.80862519999999,10.3444453,372.12,1789168969],[123.80864029999999,10.3444515,372.10000000000002,1789168977],[123.8086624,10.3444574,371.02999999999997,1789168985],[123.80867480000001,10.3444638,371.58999999999997,1789168993],[123.80869490000001,10.3444828,372.56999999999999,1789169001],[123.80869970000001,10.3444918,373.32999999999998,1789169009],[123.80871260000001,10.3445026,373.97000000000003,1789169017],[123.8087276,10.3445052,373.62,1789169025],[123.80874489999999,10.3445062,373.19999999999999,1789169033],[123.80876069999999,10.344507,372.38999999999999,1789169041],[123.8087697,10.344511900000001,371.98000000000002,1789169049],[123.8087834,10.3445185,371.62,1789169057],[123.8087968,10.344522700000001,371.31,1789169065],[123.80881239999999,10.3445254,371.55000000000001,1789169073],[123.8088297,10.3445353,372.31999999999999,1789169081],[123.80884020000001,10.3445438,372.38999999999999,1789169089],[123.8088516,10.3445509,372.10000000000002,1789169097],[123.80886820000001,10.3445555,371.91000000000003,1789169105],[123.8090162,10.344616500000001,382.79000000000002,1789169113],[123.80908890000001,10.3446453,386.08999999999997,1789169121],[123.8091252,10.3446509,387.5,1789169129],[123.8091435,10.3446558,385.94999999999999,1789169137],[123.80916089999999,10.344659500000001,386.89999999999998,1789169145],[123.8091785,10.3446613,388.16000000000003,1789169153],[123.8091905,10.344662100000001,389.08999999999997,1789169161],[123.809202,10.3446617,389.81,1789169169],[123.8092096,10.344664399999999,390.10000000000002,1789169177],[123.8092171,10.3446663,390.50999999999999,1789169185],[123.80922579999999,10.3446663,390.23000000000002,1789169193],[123.8092324,10.344661199999999,390.97000000000003,1789169201],[123.8092413,10.3446658,392.06,1789169209],[123.8092499,10.3446693,393.17000000000002,1789169217],[123.809264,10.3446719,395.02999999999997,1789169226],[123.809268,10.3446733,395.41000000000003,1789169233],[123.8092723,10.344675199999999,395.62,1789169241],[123.8092753,10.3446774,395.81,1789169249],[123.80927939999999,10.344676700000001,395.81999999999999,1789169257],[123.8092943,10.3446715,395.75999999999999,1789169266],[123.8093013,10.3446684,395.75999999999999,1789169273],[123.809313,10.3446604,395.80000000000001,1789169281],[123.8093247,10.344652999999999,395.5,1789169289],[123.8093365,10.344644600000001,395.04000000000002,1789169297],[123.80934739999999,10.3446382,394.43000000000001,1789169305],[123.80936250000001,10.3446263,393.45999999999998,1789169313],[123.80937950000001,10.344614699999999,393.07999999999998,1789169321],[123.8093915,10.344605700000001,392.75999999999999,1789169329],[123.80940699999999,10.344598700000001,392.16000000000003,1789169337],[123.80941489999999,10.344583999999999,392.79000000000002,1789169345],[123.8094232,10.3445661,393.27999999999997,1789169354],[123.8094296,10.3445483,394.06999999999999,1789169362],[123.809431,10.344535199999999,394.10000000000002,1789169370],[123.8094332,10.344519500000001,394.81,1789169378],[123.8094351,10.3445071,395.66000000000003,1789169385],[123.8094368,10.3444836,397.45999999999998,1789169394],[123.8094346,10.3444638,397.72000000000003,1789169402],[123.80943550000001,10.3444565,398.19,1789169409],[123.80943310000001,10.3444454,398.35000000000002,1789169418],[123.80942899999999,10.3444226,399.04000000000002,1789169426],[123.80942570000001,10.3444108,399.04000000000002,1789169433],[123.80942020000001,10.3444001,398.94999999999999,1789169441],[123.80941489999999,10.3443877,399.45999999999998,1789169449],[123.8094122,10.3443746,399.70999999999998,1789169457],[123.80940699999999,10.3443594,400.06,1789169465],[123.8093992,10.3443445,399.95999999999998,1789169473],[123.8093939,10.344327399999999,400.31,1789169481],[123.80938740000001,10.344309900000001,400.19999999999999,1789169489],[123.80937950000001,10.3442911,400.92000000000002,1789169497],[123.8093671,10.344273899999999,400.69999999999999,1789169505],[123.8093552,10.344255199999999,401.13,1789169513],[123.8093465,10.344235299999999,400.50999999999999,1789169521],[123.80933469999999,10.3442226,400.92000000000002,1789169529],[123.8093233,10.344212300000001,401.20999999999998,1789169537],[123.80931510000001,10.344202299999999,401.47000000000003,1789169545],[123.8093045,10.3441878,400.93000000000001,1789169553],[123.8092972,10.344172199999999,401.04000000000002,1789169561],[123.80928,10.344144399999999,400.19,1789169570],[123.8092714,10.3441302,400.05000000000001,1789169577],[123.8091366,10.343901300000001,411.24000000000001,1789169586],[123.8091127,10.343852,414.04000000000002,1789169593],[123.8091117,10.3437874,418.41000000000003,1789169601],[123.80912720000001,10.3437213,421.69,1789169609],[123.8091424,10.343723799999999,425.55000000000001,1789169617],[123.8091404,10.343715899999999,427.02999999999997,1789169625],[123.8091324,10.3437061,427.37,1789169633],[123.80912960000001,10.3437056,425.79000000000002,1789169641],[123.8091251,10.3437068,426.36000000000001,1789169649],[123.80911829999999,10.343706900000001,427.5,1789169657],[123.8091168,10.3437071,428.64999999999998,1789169665],[123.8091192,10.343707999999999,428.81999999999999,1789169673],[123.80912069999999,10.343710700000001,429.75999999999999,1789169681],[123.80912170000001,10.3437111,430.06,1789169689],[123.8091268,10.3437126,429.76999999999998,1789169697],[123.80913339999999,10.3437176,429.38999999999999,1789169705],[123.8091429,10.3437228,429.17000000000002,1789169713],[123.8091526,10.3437304,428.51999999999998,1789169721],[123.8091654,10.3437365,427.70999999999998,1789169729],[123.80917580000001,10.3437397,426.79000000000002,1789169737],[123.8091854,10.343742900000001,426.25999999999999,1789169745],[123.809195,10.343749300000001,425.42000000000002,1789169753],[123.80920399999999,10.343765599999999,427.08999999999997,1789169761],[123.8092134,10.343776099999999,427.23000000000002,1789169769],[123.8092247,10.3437851,426.26999999999998,1789169777],[123.8092374,10.343793099999999,425.74000000000001,1789169785],[123.8092503,10.3437985,425.91000000000003,1789169793],[123.8093523,10.3438993,432.47000000000003,1789169801],[123.8093901,10.343956500000001,435.10000000000002,1789169809],[123.8094217,10.343986900000001,437.92000000000002,1789169817],[123.8094451,10.343999800000001,437,1789169825],[123.8094648,10.344003300000001,437.05000000000001,1789169833],[123.8094813,10.3440113,437.30000000000001,1789169841],[123.8095027,10.3440086,437.44999999999999,1789169849],[123.8095246,10.3440067,437.31,1789169857],[123.8095379,10.3440087,438.06,1789169865],[123.8095531,10.3440099,439,1789169873],[123.80956810000001,10.344010000000001,438.44999999999999,1789169881],[123.80959129999999,10.3440067,440.19999999999999,1789169889],[123.8096101,10.344003000000001,441.50999999999999,1789169897],[123.80962529999999,10.3439972,441.74000000000001,1789169905],[123.809708,10.3439593,443.88999999999999,1789169914],[123.8098024,10.3439146,447.77999999999997,1789169921],[123.80988790000001,10.3438993,447.97000000000003,1789169929],[123.8099266,10.343913199999999,449.75999999999999,1789169937],[123.8099924,10.3438815,452.66000000000003,1789169945],[123.80996159999999,10.343867899999999,452.11000000000001,1789169953],[123.80995710000001,10.343867299999999,453.18000000000001,1789169961],[123.8099926,10.343844499999999,455.19,1789169969],[123.81000400000001,10.3438228,453.35000000000002,1789169977],[123.8100298,10.3437831,454.36000000000001,1789169985],[123.81004419999999,10.343767,456.58999999999997,1789169993],[123.8100906,10.3437363,458.87,1789170001],[123.8101106,10.343699600000001,463.27999999999997,1789170009],[123.8101151,10.343657200000001,452.55000000000001,1789170017],[123.8101561,10.343626199999999,457.92000000000002,1789170025],[123.81019089999999,10.3436094,459.26999999999998,1789170033],[123.8102062,10.343566900000001,454.5,1789170041],[123.8102631,10.343535599999999,458.24000000000001,1789170050],[123.81026919999999,10.3435264,458.89999999999998,1789170055],[123.810275,10.3434948,461.33999999999997,1789170066],[123.8102835,10.3434373,471.18000000000001,1789170073],[123.8103187,10.3434177,469.77999999999997,1789170081],[123.81034560000001,10.3434054,470.88999999999999,1789170090],[123.8103741,10.343385700000001,470.54000000000002,1789170097],[123.8103854,10.343367499999999,473.07999999999998,1789170105],[123.8104125,10.3433426,478.89999999999998,1789170113],[123.810439,10.3433493,479.80000000000001,1789170121],[123.810456,10.3433084,478.07999999999998,1789170129],[123.8104768,10.3432668,479.83999999999997,1789170137],[123.8105386,10.3432332,486.93000000000001,1789170145],[123.8105499,10.3432098,478.74000000000001,1789170153],[123.8105609,10.3431844,479.88,1789170161],[123.81060979999999,10.3431391,486.38999999999999,1789170169],[123.810604,10.3431084,486.5,1789170177],[123.8106011,10.3431011,484.62,1789170185],[123.8106057,10.343094900000001,484.75,1789170193],[123.8105923,10.3430784,476.68000000000001,1789170201],[123.8105544,10.3430784,475.41000000000003,1789170209],[123.81053110000001,10.343102,479.60000000000002,1789170217],[123.8105068,10.3430886,480.45999999999998,1789170225],[123.81048440000001,10.343064699999999,482.44,1789170233],[123.8104855,10.343087799999999,480.98000000000002,1789170241],[123.810439,10.343124400000001,482.81,1789170249],[123.81038340000001,10.343074100000001,484.75,1789170257],[123.8103931,10.3430772,483.63999999999999,1789170265],[123.8104081,10.343088,480.22000000000003,1789170273],[123.8103962,10.343123,481.36000000000001,1789170281],[123.8103572,10.343140200000001,483.81999999999999,1789170289],[123.810354,10.3431468,486.06,1789170297],[123.810363,10.343148100000001,490.77999999999997,1789170305],[123.81032159999999,10.3431236,488.04000000000002,1789170313],[123.81025889999999,10.3431561,490.56999999999999,1789170321],[123.81022609999999,10.343191600000001,487.52999999999997,1789170329],[123.810196,10.343208000000001,488.06,1789170337],[123.8101994,10.343190099999999,491.48000000000002,1789170345],[123.8101772,10.3432508,492.57999999999998,1789170353],[123.8101774,10.3432665,492.56,1789170361],[123.8101626,10.343270499999999,490.88,1789170369],[123.81014140000001,10.343282800000001,490.56,1789170377],[123.81008129999999,10.3432999,487.52999999999997,1789170385],[123.81002530000001,10.343322499999999,493.80000000000001,1789170393],[123.81000400000001,10.343363200000001,494.02999999999997,1789170401],[123.8099572,10.343364899999999,493.72000000000003,1789170409],[123.80991090000001,10.343367499999999,495.86000000000001,1789170417],[123.8099041,10.343339,485.06999999999999,1789170425],[123.8098562,10.343307899999999,492.56,1789170433],[123.8098426,10.3432534,497.19999999999999,1789170441],[123.80984890000001,10.3432224,493.24000000000001,1789170449],[123.8098564,10.343188100000001,493.31999999999999,1789170457],[123.8098742,10.3432174,492.54000000000002,1789170465],[123.80987570000001,10.343227600000001,493.04000000000002,1789170473],[123.8098682,10.3432294,491.97000000000003,1789170481],[123.8098645,10.343230399999999,491.48000000000002,1789170489],[123.8098593,10.3432291,491.70999999999998,1789170497],[123.8098552,10.343230399999999,492.75999999999999,1789170505],[123.80986679999999,10.3432449,493,1789170513],[123.8098621,10.343257899999999,493.88999999999999,1789170521],[123.8098617,10.3432636,494.94,1789170529],[123.8098608,10.3432633,495.69999999999999,1789170537],[123.8098583,10.3432605,495.62,1789170545],[123.80985870000001,10.3432566,494.95999999999998,1789170553],[123.8098334,10.343255299999999,493.41000000000003,1789170561],[123.80983000000001,10.343260799999999,493.73000000000002,1789170569],[123.8098311,10.343264,494.43000000000001,1789170577],[123.8098323,10.3432592,494.17000000000002,1789170585],[123.8098359,10.3432549,495.12,1789170593],[123.8098397,10.343257700000001,495.5,1789170601],[123.8098478,10.3432639,495.44,1789170609],[123.8098531,10.343261999999999,495.64999999999998,1789170617],[123.8098541,10.343259400000001,496.36000000000001,1789170625],[123.8098545,10.343260300000001,496.81,1789170633],[123.8098646,10.343224899999999,492.50999999999999,1789170641],[123.80986350000001,10.3432271,495.31,1789170649],[123.8098548,10.343238299999999,495.88999999999999,1789170657],[123.8098571,10.343241300000001,495.83999999999997,1789170665],[123.8098533,10.3432522,496.87,1789170673],[123.8098505,10.3432563,497.14999999999998,1789170681],[123.8098521,10.343256,497.63,1789170689],[123.80985029999999,10.3432543,497.51999999999998,1789170697],[123.8098504,10.343254099999999,497.64999999999998,1789170705],[123.8098509,10.343253199999999,497.99000000000001,1789170713],[123.8098494,10.343251199999999,498.12,1789170721],[123.8098521,10.3432491,497.61000000000001,1789170729],[123.80985149999999,10.343249800000001,497.56,1789170737],[123.8098502,10.3432479,497.32999999999998,1789170745],[123.8098519,10.3432473,497.5,1789170753],[123.8098538,10.3432406,497.13,1789170761],[123.80985680000001,10.343231400000001,496.91000000000003,1789170769],[123.80985990000001,10.3432257,496.57999999999998,1789170777],[123.8098694,10.3432148,496.06999999999999,1789170785],[123.8098729,10.343203000000001,495.42000000000002,1789170793],[123.809884,10.3431959,494.69,1789170801],[123.8098947,10.343181400000001,494.29000000000002,1789170809],[123.80998,10.3431014,499.62,1789170817],[123.8100773,10.3430155,505.63,1789170825],[123.81013179999999,10.3429603,504.76999999999998,1789170833],[123.8101633,10.3429129,504.67000000000002,1789170841],[123.81018280000001,10.3428529,511.29000000000002,1789170849],[123.8101935,10.342836800000001,512.29999999999995,1789170857],[123.8102172,10.342808099999999,514.37,1789170865],[123.8102179,10.342796699999999,512.20000000000005,1789170873],[123.8102447,10.3428202,510.73000000000002,1789170879.4219999],[123.8102674,10.3427642,511.19,1789170884],[123.8102872,10.3427013,512.88999999999999,1789170898],[123.8102739,10.342701099999999,513.03999999999996,1789170906],[123.8102781,10.3426904,512.76999999999998,1789170914],[123.8102746,10.3426519,512.5,1789170922],[123.8102914,10.342591000000001,514.08000000000004,1789170930],[123.8103378,10.3425335,515.38,1789170938],[123.8103691,10.342481100000001,522.50999999999999,1789170946],[123.81038169999999,10.3424329,525.91999999999996,1789170954],[123.8103971,10.3423879,526.75999999999999,1789170962],[123.8104481,10.3424023,522.82000000000005,1789170970],[123.8104999,10.342420300000001,523.97000000000003,1789170978],[123.81050500000001,10.342378500000001,529.95000000000005,1789170986],[123.81045570000001,10.3423619,527.67999999999995,1789170994],[123.8104544,10.3423669,528.83000000000004,1789171002],[123.810464,10.342373200000001,526.79999999999995,1789171010],[123.8104716,10.342378699999999,526.51999999999998,1789171018],[123.81046499999999,10.3424003,528.16999999999996,1789171026],[123.8104597,10.342399800000001,526.10000000000002,1789171034],[123.81046600000001,10.342400700000001,522.63999999999999,1789171042],[123.8104688,10.3424055,521.35000000000002,1789171050],[123.8104647,10.342409200000001,522.22000000000003,1789171058],[123.8104678,10.3424075,523.15999999999997,1789171066],[123.81047119999999,10.342405299999999,521.49000000000001,1789171074],[123.8104751,10.342401300000001,521.41999999999996,1789171082],[123.8104781,10.3423976,522.44000000000005,1789171090],[123.8104778,10.3423946,523.16999999999996,1789171098],[123.8104797,10.342391900000001,523.23000000000002,1789171106],[123.8104852,10.3423915,523.77999999999997,1789171114],[123.8104902,10.3423982,524.04999999999995,1789171122],[123.8104924,10.342401300000001,523.75999999999999,1789171130],[123.8104938,10.342417899999999,523.57000000000005,1789171138],[123.810456,10.342415300000001,522.61000000000001,1789171146],[123.8104567,10.342389300000001,520.33000000000004,1789171154],[123.8104718,10.3423874,520.90999999999997,1789171162],[123.81047909999999,10.3423842,519.98000000000002,1789171170],[123.8105035,10.342362,515.92999999999995,1789171178],[123.81051549999999,10.342305,521.99000000000001,1789171186],[123.810548,10.3422888,523.04999999999995,1789171194],[123.81057970000001,10.342289900000001,521.70000000000005,1789171202],[123.8105846,10.342241899999999,516.05999999999995,1789171210],[123.8105618,10.3422044,520.74000000000001,1789171218],[123.8105575,10.3421793,521.72000000000003,1789171226],[123.81057149999999,10.3421255,513.11000000000001,1789171234],[123.8105853,10.342101,529.19000000000005,1789171242],[123.8105963,10.3420568,536.57000000000005,1789171250],[123.8105577,10.3420296,532.86000000000001,1789171258],[123.8104999,10.3420118,531.65999999999997,1789171266],[123.8104933,10.342020399999999,532.59000000000003,1789171274],[123.8105017,10.342011299999999,532.24000000000001,1789171282],[123.8104494,10.3419933,534.95000000000005,1789171290],[123.8104209,10.3419399,538.64999999999998,1789171298],[123.81038700000001,10.3419109,539.35000000000002,1789171306],[123.81038700000001,10.3418884,541.25,1789171314],[123.81032980000001,10.341878100000001,536.38999999999999,1789171322],[123.810278,10.341865200000001,541.75999999999999,1789171330],[123.8102639,10.341836000000001,534.59000000000003,1789171338],[123.8102349,10.341814100000001,540.54999999999995,1789171346],[123.8101989,10.341783599999999,538.80999999999995,1789171354],[123.8101679,10.3417823,540.80999999999995,1789171362],[123.8101262,10.341782200000001,547.90999999999997,1789171370],[123.8100843,10.3417694,548.01999999999998,1789171378],[123.81006259999999,10.341743299999999,548.75999999999999,1789171386],[123.81001689999999,10.3417504,556.36000000000001,1789171394],[123.80996399999999,10.3417484,555.42999999999995,1789171402],[123.80993410000001,10.341734799999999,557.29999999999995,1789171410],[123.8099131,10.341729000000001,549.94000000000005,1789171418],[123.80990389999999,10.341696300000001,547.37,1789171426],[123.8098634,10.3416932,548.65999999999997,1789171434],[123.80981,10.341693299999999,550.72000000000003,1789171442],[123.8097775,10.3416598,549.60000000000002,1789171450],[123.80979960000001,10.341611800000001,556.97000000000003,1789171459],[123.8098487,10.3416069,559.79999999999995,1789171466],[123.8099058,10.341594799999999,553.30999999999995,1789171474],[123.8099624,10.3415684,547.70000000000005,1789171482],[123.810018,10.341530000000001,555.11000000000001,1789171490],[123.8100767,10.341543700000001,567.39999999999998,1789171498],[123.8101387,10.3415512,567.95000000000005,1789171506],[123.8101863,10.3415166,560.88,1789171514],[123.8102049,10.341457500000001,557.38,1789171522],[123.8102564,10.3414492,561.19000000000005,1789171530],[123.8103481,10.341506600000001,562.12,1789171538],[123.8104184,10.3414681,563.09000000000003,1789171546],[123.8104807,10.3414546,563.60000000000002,1789171554],[123.8105599,10.341474699999999,564.37,1789171562],[123.810602,10.3414447,564.57000000000005,1789171570],[123.81061680000001,10.341449900000001,557.71000000000004,1789171578],[123.8107138,10.341447499999999,560.11000000000001,1789171586],[123.8107883,10.3414401,562.70000000000005,1789171592],[123.8108434,10.341431,561.90999999999997,1789171603],[123.81085880000001,10.341428199999999,562.20000000000005,1789171609],[123.8109197,10.341395800000001,563.54999999999995,1789171619],[123.8109453,10.3413764,565.60000000000002,1789171625],[123.8110066,10.3413842,581.62,1789171635],[123.8110195,10.341369,583.10000000000002,1789171641],[123.8110642,10.341334700000001,572.16999999999996,1789171651],[123.8110679,10.341336500000001,570.29999999999995,1789171658],[123.81107710000001,10.341343800000001,571.04999999999995,1789171666],[123.8110733,10.3413428,571.15999999999997,1789171674],[123.81107710000001,10.3413536,572.35000000000002,1789171682],[123.8110844,10.341353399999999,572.46000000000004,1789171690],[123.811086,10.3413512,574.67999999999995,1789171698],[123.811071,10.3413401,575.69000000000005,1789171706],[123.8110642,10.3413358,575.55999999999995,1789171714],[123.81106509999999,10.341332899999999,575.42999999999995,1789171722],[123.81106610000001,10.341327700000001,576.80999999999995,1789171730],[123.81111559999999,10.341312800000001,577.64999999999998,1789171738],[123.8112411,10.3413059,573.27999999999997,1789171747],[123.811173,10.341302900000001,581.07000000000005,1789171755],[123.8111639,10.341272399999999,578.92999999999995,1789171762],[123.8111972,10.341268100000001,572.03999999999996,1789171770],[123.8112417,10.3412883,569.11000000000001,1789171778],[123.8112854,10.3412693,584.08000000000004,1789171786],[123.8113319,10.341272999999999,589.99000000000001,1789171794],[123.81136909999999,10.341259900000001,584.27999999999997,1789171802],[123.8114238,10.3412527,590.38999999999999,1789171810],[123.81141270000001,10.341255500000001,582.79999999999995,1789171818],[123.8113862,10.3412544,585.33000000000004,1789171826],[123.8113805,10.341263700000001,586.90999999999997,1789171834],[123.81137510000001,10.341264199999999,583.25,1789171842],[123.81141959999999,10.3412729,581.09000000000003,1789171850],[123.8114614,10.3412829,580.62,1789171859],[123.8114748,10.3413018,587.63999999999999,1789171866],[123.8115493,10.34135,584,1789171875],[123.81157399999999,10.341334099999999,583.89999999999998,1789171882],[123.81160920000001,10.341300199999999,589.90999999999997,1789171890],[123.8116431,10.341294299999999,595.94000000000005,1789171898],[123.81163189999999,10.3412901,595.30999999999995,1789171906],[123.8116417,10.341295799999999,591.53999999999996,1789171914],[123.81167170000001,10.341306899999999,590,1789171922],[123.8117135,10.341279800000001,590.37,1789171930],[123.8117359,10.3412513,591.76999999999998,1789171938],[123.8117673,10.3413342,603.66999999999996,1789171946],[123.8118187,10.341333199999999,600.5,1789171954],[123.81183129999999,10.3413188,607.17999999999995,1789171962],[123.81180329999999,10.3413138,601.19000000000005,1789171970],[123.81182099999999,10.3413235,597.26999999999998,1789171978],[123.81181979999999,10.341348999999999,592.33000000000004,1789171987],[123.8118123,10.341348999999999,592.27999999999997,1789171992],[123.8118164,10.3413485,594.45000000000005,1789172002],[123.8118712,10.341333499999999,592.64999999999998,1789172011],[123.81189689999999,10.341329399999999,597.78999999999996,1789172018],[123.81192,10.3413138,601.38999999999999,1789172026],[123.8119389,10.3413267,603.44000000000005,1789172034],[123.8119765,10.3413713,591.67999999999995,1789172042],[123.8120535,10.3413773,602.00999999999999,1789172050],[123.8120406,10.341360099999999,604.08000000000004,1789172058],[123.8120237,10.3413462,611.94000000000005,1789172066],[123.8120672,10.341324999999999,615.44000000000005,1789172074],[123.8120552,10.341321300000001,613.86000000000001,1789172083],[123.8120644,10.341339,609.84000000000003,1789172090],[123.8120998,10.341358700000001,619.82000000000005,1789172098],[123.8121179,10.3413585,617.26999999999998,1789172106],[123.8121132,10.3413574,616.14999999999998,1789172114],[123.8121074,10.3413637,613.41999999999996,1789172122],[123.8121129,10.341366900000001,613.38999999999999,1789172130],[123.81211740000001,10.341354300000001,612.32000000000005,1789172138],[123.8121187,10.3413494,612.70000000000005,1789172146],[123.8121154,10.341356599999999,614.51999999999998,1789172154],[123.81211879999999,10.3413579,614.36000000000001,1789172162],[123.8121202,10.341350200000001,614.09000000000003,1789172170],[123.8121246,10.341326199999999,616.20000000000005,1789172178],[123.8121781,10.341341699999999,618.63999999999999,1789172186],[123.81221050000001,10.3413684,616.15999999999997,1789172194],[123.81222699999999,10.341418900000001,613.23000000000002,1789172202],[123.81220740000001,10.3414178,618.83000000000004,1789172211],[123.812225,10.3414486,622.44000000000005,1789172218],[123.81226959999999,10.3414622,613.60000000000002,1789172226],[123.81231560000001,10.3414375,608.83000000000004,1789172235],[123.8123411,10.3414503,615.11000000000001,1789172242],[123.81243190000001,10.341478800000001,617,1789172251],[123.8124553,10.3414901,617.09000000000003,1789172258],[123.81249649999999,10.341506900000001,616.54999999999995,1789172267],[123.8125335,10.341519099999999,621.86000000000001,1789172275],[123.81250559999999,10.3415993,627.64999999999998,1789172283],[123.812538,10.341587499999999,620.54999999999995,1789172291],[123.8125728,10.341596600000001,631.59000000000003,1789172299],[123.8126046,10.3416374,631.44000000000005,1789172306],[123.812652,10.3416309,622.25999999999999,1789172314],[123.8126832,10.3416608,629.33000000000004,1789172323],[123.8126553,10.341775999999999,632.12,1789172330],[123.81265999999999,10.3417896,636.34000000000003,1789172338],[123.8126972,10.341765499999999,639.40999999999997,1789172346],[123.8126905,10.3417727,643.12,1789172354],[123.81268420000001,10.3417782,640.84000000000003,1789172362],[123.8127217,10.3418017,647.14999999999998,1789172370],[123.8127678,10.34177,640.48000000000002,1789172378],[123.8127353,10.341825500000001,641.51999999999998,1789172387],[123.81272800000001,10.341833599999999,642.04999999999995,1789172394],[123.81273179999999,10.341837699999999,643.40999999999997,1789172402],[123.8127396,10.3418446,643.66999999999996,1789172410],[123.8127408,10.341844999999999,645.59000000000003,1789172418],[123.8127458,10.341848199999999,645.76999999999998,1789172426],[123.8128013,10.341916700000001,642.40999999999997,1789172434],[123.8127843,10.3419683,641.24000000000001,1789172443],[123.8128018,10.341979,641.40999999999997,1789172450],[123.81281679999999,10.3419933,638.88999999999999,1789172459],[123.81283000000001,10.342005800000001,635.98000000000002,1789172466],[123.8128286,10.342019799999999,635.10000000000002,1789172474],[123.8128128,10.3421786,639.39999999999998,1789172482],[123.8127886,10.342245699999999,641.38999999999999,1789172490],[123.8127497,10.342318300000001,641.49000000000001,1789172498],[123.8127449,10.3423973,645.42999999999995,1789172506],[123.8127657,10.3424783,644.02999999999997,1789172514],[123.8128115,10.342542999999999,644.05999999999995,1789172522],[123.81286009999999,10.3425662,642.53999999999996,1789172530],[123.81289599999999,10.3425397,644.90999999999997,1789172538],[123.8129208,10.342508,640.65999999999997,1789172546],[123.8129727,10.3424815,645.27999999999997,1789172554],[123.8129679,10.3424812,644.53999999999996,1789172562],[123.8129521,10.3424879,642.85000000000002,1789172570],[123.8129382,10.3425008,642.42999999999995,1789172578],[123.81296279999999,10.3424987,641.24000000000001,1789172586],[123.8129465,10.342473500000001,636.98000000000002,1789172594],[123.8130074,10.3425715,647.63999999999999,1789172602],[123.81305450000001,10.342644699999999,648.27999999999997,1789172610],[123.8130579,10.342635599999999,649.85000000000002,1789172618],[123.8130848,10.3425704,646.96000000000004,1789172626],[123.8131387,10.3425253,648.80999999999995,1789172634],[123.8131648,10.3424814,652.78999999999996,1789172642],[123.81320909999999,10.342465300000001,655.37,1789172650],[123.81325820000001,10.342450400000001,654.13,1789172658],[123.8133261,10.342434000000001,655.35000000000002,1789172666],[123.8133867,10.342417899999999,657.61000000000001,1789172674],[123.8134039,10.342387,657.85000000000002,1789172682],[123.81340059999999,10.342382300000001,657.5,1789172690],[123.813424,10.342393,657.73000000000002,1789172698],[123.8134388,10.342404,659.57000000000005,1789172706],[123.8135004,10.3424288,659.58000000000004,1789172714],[123.8135765,10.342470499999999,660.10000000000002,1789172722],[123.813604,10.3424721,659.89999999999998,1789172730],[123.8136016,10.342459099999999,659.96000000000004,1789172738],[123.8135925,10.342434799999999,660.07000000000005,1789172745],[123.81347409999999,10.3423845,653.59000000000003,1789172755],[123.8134196,10.3423493,654.25999999999999,1789172761],[123.81329909999999,10.342318300000001,655.22000000000003,1789172770],[123.81327159999999,10.342394199999999,656.54999999999995,1789172778],[123.81321199999999,10.3424444,664.07000000000005,1789172785],[123.8131941,10.342437800000001,653.48000000000002,1789172795],[123.8132784,10.3424356,654.22000000000003,1789172802],[123.81329150000001,10.342438899999999,653.25999999999999,1789172810],[123.8132966,10.342454999999999,655.65999999999997,1789172818],[123.8132971,10.342462899999999,655.72000000000003,1789172826],[123.81329770000001,10.3424625,656.41999999999996,1789172834],[123.8132987,10.342463,656.47000000000003,1789172842],[123.8132937,10.3424592,655.88,1789172850],[123.8132873,10.3424531,655.21000000000004,1789172858],[123.813273,10.3424639,655.08000000000004,1789172866],[123.813176,10.3424674,654.28999999999996,1789172873],[123.813073,10.3424814,651.38999999999999,1789172883],[123.8130834,10.342538599999999,647.48000000000002,1789172890],[123.81306669999999,10.342577,653.16999999999996,1789172898],[123.8130151,10.342627800000001,655.92999999999995,1789172905],[123.8129386,10.3426943,659.44000000000005,1789172914],[123.81298320000001,10.342768,646.5,1789172922],[123.8130424,10.3428325,647.01999999999998,1789172929],[123.813153,10.3429327,650.42999999999995,1789172939],[123.8131964,10.3429851,652.19000000000005,1789172945],[123.8132446,10.3430181,652.58000000000004,1789172955],[123.8132725,10.3430471,652.21000000000004,1789172961],[123.8133196,10.3431181,651.64999999999998,1789172970],[123.8133677,10.343170499999999,659.62,1789172978],[123.8134025,10.3432318,660.25999999999999,1789172985],[123.8134455,10.3433245,660.98000000000002,1789172993],[123.813514,10.343408,661.71000000000004,1789173001],[123.8135901,10.3434913,662.51999999999998,1789173010],[123.8134728,10.343278700000001,639.35000000000002,1789173018],[123.81355019999999,10.3433426,638.09000000000003,1789173025],[123.81362679999999,10.343391499999999,636.52999999999997,1789173034],[123.8137009,10.343394099999999,646.49000000000001,1789173042],[123.8137694,10.343393600000001,647.41999999999996,1789173049],[123.8138934,10.34341,620.16999999999996,1789173059],[123.81386070000001,10.343426900000001,628.69000000000005,1789173066],[123.81396909999999,10.3434767,642.21000000000004,1789173074],[123.81403109999999,10.3435062,645.01999999999998,1789173082],[123.814125,10.343468,647.63999999999999,1789173089],[123.814042,10.343447100000001,650.62,1789173099],[123.8140562,10.3434676,643.29999999999995,1789173106],[123.8140921,10.3435258,639.04999999999995,1789173114],[123.8141061,10.343507300000001,639.10000000000002,1789173122],[123.81411420000001,10.343507300000001,632.75999999999999,1789173130],[123.81410510000001,10.3435205,631.75,1789173138],[123.8141413,10.3435843,628.88999999999999,1789173145],[123.8141694,10.3436404,640.25,1789173155],[123.81418360000001,10.3436694,643.19000000000005,1789173161],[123.8142284,10.3436678,630.76999999999998,1789173171],[123.8142538,10.343677899999999,631.51999999999998,1789173177],[123.8142931,10.3437363,632.51999999999998,1789173185],[123.81434729999999,10.3438134,633.63999999999999,1789173194],[123.8144459,10.3438061,632.14999999999998,1789173202],[123.81452350000001,10.3437938,636.94000000000005,1789173210],[123.8145792,10.343821999999999,636.25999999999999,1789173217],[123.81463530000001,10.3438809,635.49000000000001,1789173225],[123.8146948,10.3439692,634.63,1789173234],[123.81475589999999,10.343939900000001,628.75,1789173242],[123.81482219999999,10.3439177,630.44000000000005,1789173249],[123.8148752,10.343864200000001,630.21000000000004,1789173259],[123.8149159,10.3438246,631.21000000000004,1789173265],[123.8149856,10.3438131,629.30999999999995,1789173275],[123.8150004,10.343861499999999,628.13,1789173281],[123.81507089999999,10.3439326,623.35000000000002,1789173291],[123.81514610000001,10.343918199999999,627.11000000000001,1789173298],[123.8152115,10.343906199999999,626.72000000000003,1789173306],[123.81525600000001,10.343901600000001,632.36000000000001,1789173314],[123.8153415,10.3438909,634.33000000000004,1789173322],[123.8153861,10.343897200000001,630.47000000000003,1789173330],[123.8154342,10.3438766,620.96000000000004,1789173338],[123.81549459999999,10.3438561,632.28999999999996,1789173346],[123.81557100000001,10.3439234,626.03999999999996,1789173355],[123.8156013,10.3439462,616.89999999999998,1789173362],[123.81564830000001,10.3439584,617.89999999999998,1789173370],[123.8156852,10.343989000000001,618.22000000000003,1789173378],[123.815735,10.344011699999999,632.20000000000005,1789173386],[123.8157753,10.344036900000001,632.41999999999996,1789173394],[123.8158531,10.344013199999999,630.00999999999999,1789173402],[123.8159187,10.343990700000001,628.70000000000005,1789173410],[123.8160515,10.343948299999999,625.02999999999997,1789173419],[123.8160541,10.3439557,625.72000000000003,1789173426],[123.8160634,10.343978699999999,634.49000000000001,1789173435],[123.816113,10.344056999999999,639.33000000000004,1789173443],[123.8161698,10.3440546,638.51999999999998,1789173451],[123.8162375,10.344066400000001,634.69000000000005,1789173459],[123.8163035,10.344097100000001,631.84000000000003,1789173467],[123.8163467,10.344101200000001,629.38999999999999,1789173474],[123.8164379,10.344113999999999,626.62,1789173483],[123.8164755,10.344163,629.85000000000002,1789173491],[123.8165138,10.344197899999999,627.87,1789173498],[123.8165547,10.3442439,624.58000000000004,1789173506],[123.8165315,10.3442481,634.37,1789173514],[123.8165494,10.344306400000001,626.85000000000002,1789173523],[123.8165618,10.3442834,623.60000000000002,1789173530],[123.8166319,10.3443457,632.45000000000005,1789173539],[123.8166641,10.344378600000001,631.62,1789173546],[123.81669170000001,10.344421199999999,627.40999999999997,1789173554],[123.8166985,10.3444325,630.09000000000003,1789173562],[123.8167143,10.344428199999999,628.38,1789173570],[123.81674219999999,10.3444913,624.05999999999995,1789173578],[123.81679440000001,10.3445313,631.38,1789173586],[123.81682429999999,10.3445658,626.37,1789173594],[123.8168319,10.3446494,631.32000000000005,1789173602],[123.8168909,10.344704500000001,627.19000000000005,1789173610],[123.8169331,10.344758000000001,624.20000000000005,1789173618],[123.8169678,10.344828,628.37,1789173626],[123.81699159999999,10.344824900000001,624.13999999999999,1789173635],[123.8170381,10.3448198,627.66999999999996,1789173643],[123.8170619,10.3447949,627.85000000000002,1789173650],[123.81707780000001,10.3449486,628.03999999999996,1789173658],[123.81712,10.3449141,615.33000000000004,1789173667],[123.81709979999999,10.344909700000001,619.40999999999997,1789173674],[123.8170641,10.3449654,625.12,1789173682],[123.817064,10.3450843,627.37,1789173690],[123.81707710000001,10.345141699999999,626.84000000000003,1789173698],[123.8171067,10.345175299999999,625.46000000000004,1789173706],[123.8171917,10.3452176,623.57000000000005,1789173715],[123.8172235,10.3452298,626.12,1789173722],[123.8172371,10.3452254,618.07000000000005,1789173730],[123.8172678,10.3452754,618.35000000000002,1789173737],[123.81731379999999,10.345357399999999,618.71000000000004,1789173746],[123.8173551,10.3453804,626.29999999999995,1789173754],[123.8173268,10.3453085,624.77999999999997,1789173762],[123.8173494,10.345363900000001,620.25999999999999,1789173770],[123.81741599999999,10.3454294,617.08000000000004,1789173778],[123.8174571,10.345497200000001,621.88,1789173786],[123.81751319999999,10.345555600000001,619.48000000000002,1789173794],[123.8175662,10.345606200000001,617.60000000000002,1789173802],[123.81761229999999,10.345651699999999,622.08000000000004,1789173810],[123.8176457,10.3456975,621.76999999999998,1789173817],[123.81773939999999,10.3457533,630.24000000000001,1789173827],[123.8177779,10.3457866,630.72000000000003,1789173833],[123.8178619,10.3458208,622.02999999999997,1789173843],[123.8179095,10.3458501,624.19000000000005,1789173849],[123.81795579999999,10.3458661,618.23000000000002,1789173859],[123.8179918,10.345866900000001,620.57000000000005,1789173865],[123.81801729999999,10.345852900000001,616.91999999999996,1789173875],[123.8180328,10.345827,617.92999999999995,1789173882],[123.8180272,10.345817500000001,618.80999999999995,1789173890],[123.81802759999999,10.345815,617.80999999999995,1789173899],[123.8180236,10.3458117,617.64999999999998,1789173906],[123.8180246,10.3458103,617.76999999999998,1789173914],[123.818034,10.3458103,617.98000000000002,1789173923],[123.81803600000001,10.3458088,618.37,1789173931],[123.8180327,10.345807000000001,618.38,1789173939],[123.8180363,10.345804100000001,617.58000000000004,1789173947],[123.81803499999999,10.345803800000001,618.00999999999999,1789173955],[123.8180326,10.345805800000001,618.59000000000003,1789173963],[123.8180299,10.3458048,618.70000000000005,1789173970],[123.8180235,10.345808,619.15999999999997,1789173979],[123.8180243,10.3458082,618.83000000000004,1789173986],[123.8180249,10.345806899999999,619.29999999999995,1789173994],[123.8180184,10.345796699999999,618.67999999999995,1789174002],[123.8180152,10.345802900000001,619.78999999999996,1789174011],[123.81803979999999,10.345818100000001,620.05999999999995,1789174019],[123.8180562,10.3458215,620.45000000000005,1789174027],[123.8180313,10.345815699999999,624.33000000000004,1789174035],[123.8180328,10.345812199999999,622.22000000000003,1789174043],[123.818029,10.3458077,620.82000000000005,1789174051],[123.8180342,10.3458068,618.99000000000001,1789174056.4219999],[123.8180302,10.345804299999999,616.58000000000004,1789174061],[123.81803189999999,10.345800199999999,618.76999999999998,1789174066],[123.8180272,10.345796200000001,619.44000000000005,1789174071],[123.818033,10.3457919,619,1789174076],[123.8180235,10.3457913,618.26999999999998,1789174081],[123.8180595,10.3457875,616.63999999999999,1789174092],[123.81804889999999,10.3457916,617.01999999999998,1789174100],[123.8180464,10.345796,616.70000000000005,1789174108],[123.81805079999999,10.3457952,616.44000000000005,1789174116],[123.8180488,10.3457939,616.23000000000002,1789174124],[123.8180425,10.345795000000001,616.87,1789174132],[123.8180419,10.3458001,617.34000000000003,1789174140],[123.81804820000001,10.3457984,616.74000000000001,1789174148],[123.818061,10.345805199999999,616.65999999999997,1789174156],[123.8181939,10.3458904,621.25,1789174164],[123.8182534,10.345937899999999,622.27999999999997,1789174172],[123.81831409999999,10.3459427,622.63,1789174180],[123.8183621,10.345946,628.14999999999998,1789174188],[123.8183962,10.345922699999999,625.57000000000005,1789174196],[123.8183954,10.345921199999999,624.87,1789174204],[123.81840459999999,10.345924699999999,624.21000000000004,1789174212],[123.8184746,10.3459121,622.99000000000001,1789174220],[123.8185387,10.3458877,625.26999999999998,1789174228],[123.8186049,10.345890799999999,629.34000000000003,1789174235.4219999],[123.8186853,10.3459349,618.82000000000005,1789174247],[123.81869709999999,10.345950500000001,621.83000000000004,1789174255],[123.8187425,10.3459871,622.96000000000004,1789174263],[123.8188202,10.346023000000001,620.66999999999996,1789174271],[123.81888600000001,10.3460596,618.79999999999995,1789174279],[123.81892910000001,10.346070299999999,621.19000000000005,1789174287],[123.81899009999999,10.346082300000001,618.50999999999999,1789174295],[123.8190637,10.3461173,614.75,1789174303],[123.81911839999999,10.3461731,617.10000000000002,1789174311],[123.81916699999999,10.3462183,618.23000000000002,1789174319],[123.8192191,10.346257700000001,622.89999999999998,1789174327],[123.8192428,10.3462882,616.32000000000005,1789174335],[123.8192262,10.3462716,618.28999999999996,1789174343],[123.8192226,10.346268,621.69000000000005,1789174351],[123.8192197,10.346278399999999,619.54999999999995,1789174359],[123.81923639999999,10.3462979,619.26999999999998,1789174367],[123.8192552,10.346311800000001,618.59000000000003,1789174375],[123.8193447,10.3463788,622.38999999999999,1789174383],[123.8193674,10.3463969,615.45000000000005,1789174391],[123.81943939999999,10.346454,615.44000000000005,1789174399],[123.81949830000001,10.346520699999999,613.97000000000003,1789174407],[123.81954930000001,10.346571900000001,611.67999999999995,1789174415],[123.8195855,10.3465998,610.26999999999998,1789174421],[123.8196683,10.346653399999999,617.29999999999995,1789174432],[123.8196962,10.346685600000001,617.59000000000003,1789174437],[123.8197164,10.346725599999999,631.16999999999996,1789174448],[123.81973290000001,10.346734700000001,616.94000000000005,1789174455],[123.81977430000001,10.3467433,617.20000000000005,1789174462],[123.81982859999999,10.3468313,619.54999999999995,1789174472],[123.8198723,10.3468666,619.77999999999997,1789174477],[123.8199766,10.3468895,620.22000000000003,1789174487],[123.82000720000001,10.346977499999999,618.96000000000004,1789174495],[123.8200368,10.3470602,619.53999999999996,1789174502],[123.8199662,10.3471107,620.64999999999998,1789174512],[123.81994659999999,10.3471174,618.72000000000003,1789174519],[123.8199599,10.3471361,616.02999999999997,1789174527],[123.8199742,10.347168999999999,613.5,1789174535],[123.82002629999999,10.3472651,609.03999999999996,1789174543],[123.8200956,10.347351,606.99000000000001,1789174551],[123.82015629999999,10.347420400000001,609.5,1789174559],[123.8202209,10.3474716,609.79999999999995,1789174567],[123.82028630000001,10.347498399999999,609.79999999999995,1789174574],[123.82037130000001,10.3475267,608.64999999999998,1789174584],[123.82041529999999,10.347540499999999,608.40999999999997,1789174589],[123.82050719999999,10.347566199999999,607.95000000000005,1789174599],[123.8205782,10.347597800000001,607.88,1789174607],[123.8206399,10.3476239,607.22000000000003,1789174614],[123.8207371,10.3476444,599.91999999999996,1789174624],[123.8207793,10.3476625,599.87,1789174629],[123.8208739,10.347704500000001,601.32000000000005,1789174640],[123.82091269999999,10.3477253,600.94000000000005,1789174645],[123.8209876,10.347774299999999,600.21000000000004,1789174655],[123.82103499999999,10.347806800000001,589.89999999999998,1789174663],[123.8210864,10.347862299999999,602.16999999999996,1789174671],[123.8211261,10.3479429,602.62,1789174679],[123.8211683,10.347981799999999,601.67999999999995,1789174685],[123.8212432,10.348050499999999,600.22000000000003,1789174695],[123.82144270000001,10.3479127,596.46000000000004,1789174704],[123.8214917,10.347932999999999,595.84000000000003,1789174710],[123.8215742,10.348073299999999,603.29999999999995,1789174720],[123.82163989999999,10.348102900000001,603.79999999999995,1789174726],[123.82178829999999,10.3481158,603.72000000000003,1789174735],[123.8217497,10.348330499999999,612.95000000000005,1789174743],[123.8218256,10.348277,591.05999999999995,1789174751],[123.82183449999999,10.348282299999999,597.97000000000003,1789174759],[123.8218735,10.3483228,602.19000000000005,1789174766],[123.8219259,10.348400699999999,607.00999999999999,1789174776],[123.8219527,10.348421999999999,608.92999999999995,1789174781],[123.8219883,10.348438700000001,592.58000000000004,1789174792],[123.8220235,10.348432799999999,594.05999999999995,1789174797],[123.8221106,10.348414999999999,596.89999999999998,1789174807],[123.8221915,10.348449199999999,591.90999999999997,1789174815],[123.82224359999999,10.3484573,599.26999999999998,1789174823],[123.8222997,10.3484436,600.63,1789174830],[123.8223727,10.348440500000001,593,1789174840],[123.8224179,10.3484374,594.78999999999996,1789174845],[123.82250070000001,10.348651500000001,591.84000000000003,1789174856],[123.8225391,10.3486744,587.91999999999996,1789174861],[123.82262969999999,10.348714899999999,581.36000000000001,1789174871],[123.8226768,10.3487521,578.99000000000001,1789174879],[123.8227066,10.348804700000001,581.88,1789174887],[123.82275199999999,10.348802900000001,581.50999999999999,1789174893],[123.82280110000001,10.3488902,593.11000000000001,1789174904],[123.82283579999999,10.3489241,592.29999999999995,1789174909],[123.8229096,10.3489916,592.45000000000005,1789174919],[123.82296669999999,10.3489936,592.54999999999995,1789174926],[123.82301200000001,10.349077100000001,588.14999999999998,1789174935],[123.8230494,10.3491129,587.92999999999995,1789174942],[123.8231006,10.349185800000001,594.37,1789174952],[123.8231315,10.3491962,600.24000000000001,1789174957],[123.823205,10.3492622,591.88,1789174968],[123.8232007,10.349256799999999,588.88999999999999,1789174974],[123.82324819999999,10.3492788,591.74000000000001,1789174984],[123.8232891,10.3492645,590.20000000000005,1789174989],[123.8233683,10.349235999999999,587.28999999999996,1789174999],[123.82340809999999,10.3491958,585.25999999999999,1789175006],[123.82357639999999,10.3494739,597.95000000000005,1789175015],[123.823629,10.3494312,595.85000000000002,1789175022],[123.8237156,10.349383599999999,603.44000000000005,1789175032],[123.82376050000001,10.349392699999999,597.44000000000005,1789175039],[123.82381530000001,10.3493455,597.63999999999999,1789175045],[123.8239106,10.3492313,597.63999999999999,1789175054],[123.8240332,10.3493668,583.63,1789175064],[123.8240854,10.349343899999999,586.84000000000003,1789175070],[123.8241338,10.3493099,591.02999999999997,1789175078],[123.82408409999999,10.3495214,599.70000000000005,1789175088],[123.824107,10.3495738,601.64999999999998,1789175094],[123.82409389999999,10.3496334,594.92999999999995,1789175104],[123.8240916,10.349671600000001,596.35000000000002,1789175109],[123.82411070000001,10.349728199999999,599.05999999999995,1789175119],[123.8241434,10.3497383,592.66999999999996,1789175127],[123.8241721,10.3497764,595.75,1789175133],[123.82423970000001,10.3498252,600.22000000000003,1789175142],[123.8240804,10.3499246,588.09000000000003,1789175152],[123.8240948,10.3499873,596.27999999999997,1789175159],[123.82409869999999,10.350000700000001,595.86000000000001,1789175165],[123.82420190000001,10.3499759,595.86000000000001,1789175175],[123.8241076,10.3500169,587.85000000000002,1789175183],[123.8241702,10.3500935,586.79999999999995,1789175189],[123.82406640000001,10.350137500000001,571.58000000000004,1789175200],[123.8240923,10.3501858,569.82000000000005,1789175205],[123.82410640000001,10.3502729,578.09000000000003,1789175216],[123.8241092,10.3503124,578.92999999999995,1789175221],[123.82414199999999,10.350455999999999,578.92999999999995,1789175231],[123.8240892,10.350383300000001,583.38999999999999,1789175239],[123.82412189999999,10.3504402,582.74000000000001,1789175246],[123.8242296,10.3505202,582.17999999999995,1789175254],[123.824038,10.3505027,572.75,1789175264],[123.82412720000001,10.3505412,562.94000000000005,1789175271],[123.8240349,10.350471499999999,579.98000000000002,1789175279],[123.8240775,10.350505200000001,578.77999999999997,1789175287],[123.8240885,10.3505228,572.75,1789175295],[123.8240694,10.3506181,576.64999999999998,1789175303],[123.82396199999999,10.3507555,583.89999999999998,1789175311],[123.8239992,10.350739000000001,582.03999999999996,1789175319],[123.8239785,10.350802699999999,571.32000000000005,1789175327],[123.8240138,10.3506605,561.47000000000003,1789175335],[123.8240156,10.350698599999999,563.33000000000004,1789175343],[123.82400730000001,10.3507093,550.11000000000001,1789175351],[123.8240126,10.350781599999999,546.37,1789175359],[123.82399239999999,10.3508835,565.54999999999995,1789175367],[123.8239636,10.350954700000001,572.01999999999998,1789175375],[123.8239851,10.350893299999999,557.73000000000002,1789175383],[123.82388659999999,10.3510806,557.42999999999995,1789175390],[123.8238614,10.3508985,551.65999999999997,1789175400],[123.823836,10.350902100000001,543.69000000000005,1789175407],[123.8239023,10.350888100000001,540.36000000000001,1789175415],[123.8239093,10.350903300000001,551.24000000000001,1789175424],[123.8239166,10.3509283,547.09000000000003,1789175431],[123.82390169999999,10.350926299999999,546.07000000000005,1789175440],[123.8238906,10.350932500000001,544.11000000000001,1789175447],[123.8238827,10.350933700000001,540.74000000000001,1789175455],[123.8238576,10.350950599999999,544.74000000000001,1789175463],[123.8238628,10.350969900000001,545.83000000000004,1789175472],[123.82383969999999,10.350970500000001,545.40999999999997,1789175479],[123.82383179999999,10.3509636,541.90999999999997,1789175488],[123.8238293,10.3509694,540.23000000000002,1789175495],[123.823813,10.3509685,541.21000000000004,1789175504],[123.8237943,10.3510084,538.24000000000001,1789175511],[123.82381460000001,10.3510103,539.21000000000004,1789175519],[123.82382440000001,10.351037399999999,535.00999999999999,1789175527],[123.8238152,10.3510946,543.98000000000002,1789175535],[123.82377339999999,10.3511202,544.67999999999995,1789175543],[123.8237623,10.3510946,537.99000000000001,1789175551],[123.82378370000001,10.3510592,532.47000000000003,1789175559],[123.8238468,10.3510104,529.5,1789175568],[123.823849,10.351028700000001,531.58000000000004,1789175575],[123.8238439,10.351043900000001,530.07000000000005,1789175583],[123.82379039999999,10.3510986,530.54999999999995,1789175591],[123.8237742,10.351099,531.70000000000005,1789175599],[123.8237744,10.3511176,528.45000000000005,1789175607],[123.8237512,10.3511398,534.21000000000004,1789175615],[123.8237196,10.3511658,528.88,1789175623],[123.8237305,10.351138199999999,526.91999999999996,1789175631],[123.82372839999999,10.3511332,527.30999999999995,1789175639],[123.8237429,10.3511655,529.94000000000005,1789175647],[123.8237409,10.351171300000001,530.10000000000002,1789175655],[123.8237039,10.3511173,529.12,1789175663],[123.823696,10.351096699999999,531.21000000000004,1789175671],[123.82369679999999,10.3511142,528.44000000000005,1789175679],[123.82371310000001,10.351188,526.29999999999995,1789175687],[123.8237271,10.3512074,527.60000000000002,1789175695],[123.82375709999999,10.3512269,526.78999999999996,1789175703],[123.8237651,10.351248699999999,520.21000000000004,1789175711],[123.8237319,10.351316600000001,519.53999999999996,1789175720],[123.8237451,10.3513281,518.29999999999995,1789175727],[123.8237542,10.351338800000001,530.02999999999997,1789175735],[123.8237906,10.3513342,526.91999999999996,1789175743],[123.8238046,10.351323300000001,524.90999999999997,1789175751],[123.82385170000001,10.3513404,524.82000000000005,1789175759],[123.8238638,10.351326800000001,524.73000000000002,1789175767],[123.82388829999999,10.3512757,518.32000000000005,1789175776],[123.82388,10.351277400000001,518.04999999999995,1789175781],[123.8238819,10.351349000000001,521.98000000000002,1789175793],[123.8238964,10.351373199999999,523.66999999999996,1789175799],[123.8239454,10.351335300000001,518.07000000000005,1789175807],[123.82398689999999,10.351295800000001,512.00999999999999,1789175815],[123.823978,10.351333500000001,514.32000000000005,1789175823],[123.8239883,10.3513704,519.32000000000005,1789175831],[123.82399599999999,10.3513658,517.54999999999995,1789175839],[123.8239963,10.3513658,519.29999999999995,1789175847],[123.824001,10.351373000000001,517.87,1789175855],[123.8240539,10.3513918,519.39999999999998,1789175864],[123.8239641,10.3512632,526.16999999999996,1789175871],[123.82396489999999,10.351347799999999,525.33000000000004,1789175880],[123.8239849,10.35139,517.60000000000002,1789175887],[123.82399289999999,10.351329,523.11000000000001,1789175895],[123.8240297,10.351349000000001,520.94000000000005,1789175903],[123.82409149999999,10.351372,511.00999999999999,1789175911],[123.82410659999999,10.351404799999999,515.46000000000004,1789175919],[123.82409800000001,10.3514021,514.58000000000004,1789175927],[123.8241439,10.3514328,518.57000000000005,1789175935],[123.824179,10.351444499999999,515.77999999999997,1789175944],[123.82416189999999,10.351364200000001,518.76999999999998,1789175951],[123.8241755,10.351293099999999,519.61000000000001,1789175959],[123.8242164,10.351365100000001,513.40999999999997,1789175968],[123.8242199,10.351371500000001,513.13999999999999,1789175973],[123.82427130000001,10.351396100000001,507.77999999999997,1789175985],[123.82432919999999,10.3513717,507.79000000000002,1789175991],[123.8243191,10.351332599999999,508.49000000000001,1789175999],[123.824314,10.3512705,501.45999999999998,1789176007],[123.824409,10.3513167,506.02999999999997,1789176016],[123.8244026,10.351353599999999,506.10000000000002,1789176023],[123.8243933,10.351353899999999,507.95999999999998,1789176031],[123.82446040000001,10.3513571,501.43000000000001,1789176040],[123.8244954,10.3513629,506.41000000000003,1789176048],[123.824512,10.351369699999999,506.07999999999998,1789176055],[123.82450249999999,10.3514055,510.57999999999998,1789176063],[123.8245032,10.351409,508.45999999999998,1789176071],[123.8245038,10.3514254,507.18000000000001,1789176079],[123.82450489999999,10.3514365,506.48000000000002,1789176087],[123.8244974,10.3514987,509.75999999999999,1789176095],[123.8244969,10.3515262,507.16000000000003,1789176103],[123.8244978,10.3515368,506.74000000000001,1789176111],[123.8244926,10.351546300000001,506.06999999999999,1789176119],[123.82449339999999,10.3515526,504.45999999999998,1789176127],[123.8244935,10.3515669,503.73000000000002,1789176135],[123.824493,10.351576400000001,503.69999999999999,1789176143],[123.8244911,10.351584799999999,502.88,1789176151],[123.8244899,10.351590699999999,502.25999999999999,1789176159],[123.8244914,10.3515959,501.88,1789176167],[123.824496,10.351596799999999,501.13,1789176175],[123.82450009999999,10.351599,500.51999999999998,1789176183],[123.82450849999999,10.3516029,499.74000000000001,1789176191],[123.824567,10.351680999999999,493.54000000000002,1789176200],[123.82462529999999,10.351705600000001,493.01999999999998,1789176207],[123.8246846,10.351777,494.77999999999997,1789176215],[123.8246994,10.3518639,495.77999999999997,1789176223],[123.8246997,10.3519086,495.51999999999998,1789176231],[123.82470240000001,10.3518898,493.19,1789176239],[123.8246989,10.3519007,495.20999999999998,1789176247],[123.8246865,10.351916299999999,498.97000000000003,1789176255],[123.8246843,10.351914000000001,497.56999999999999,1789176263],[123.82468280000001,10.351907000000001,496.83999999999997,1789176271],[123.8246946,10.3519215,498.75,1789176279],[123.8247393,10.3519735,498.17000000000002,1789176287],[123.82477369999999,10.3520372,499.38999999999999,1789176295],[123.8247944,10.352081200000001,502.25999999999999,1789176303],[123.8248198,10.352119500000001,507.57999999999998,1789176311],[123.8248533,10.3521389,490.42000000000002,1789176319],[123.8248554,10.3521889,490.70999999999998,1789176327],[123.8249149,10.3522281,492.67000000000002,1789176335],[123.82494,10.3522848,492.38,1789176343],[123.8249412,10.352300700000001,490.93000000000001,1789176351],[123.8249568,10.352344499999999,495.85000000000002,1789176359],[123.8249043,10.352379900000001,495.80000000000001,1789176367],[123.82491349999999,10.3523634,491.31999999999999,1789176375],[123.82486900000001,10.352416099999999,492.62,1789176383],[123.82487690000001,10.3524198,497.36000000000001,1789176391],[123.8249021,10.352392699999999,491.35000000000002,1789176399],[123.82488290000001,10.352424900000001,488.50999999999999,1789176407],[123.8248629,10.3524881,486.52999999999997,1789176415],[123.82486780000001,10.3525466,486.97000000000003,1789176423],[123.8248924,10.352582,484.35000000000002,1789176431],[123.8249057,10.3526264,484.77999999999997,1789176439],[123.8249345,10.352670399999999,479.89999999999998,1789176447],[123.82494199999999,10.352705,482.07999999999998,1789176455],[123.82494629999999,10.3526889,481.82999999999998,1789176463],[123.8249464,10.3527038,480.74000000000001,1789176471],[123.8249366,10.3527673,480.26999999999998,1789176479],[123.82491109999999,10.352822099999999,478.42000000000002,1789176487],[123.82491090000001,10.3528555,477.38,1789176495],[123.8248674,10.3528231,472.43000000000001,1789176503],[123.824876,10.352843500000001,470.69999999999999,1789176511],[123.8248509,10.3529029,474.81999999999999,1789176519],[123.8248384,10.352952999999999,477.31999999999999,1789176527],[123.8248541,10.353030499999999,472.79000000000002,1789176535],[123.8248372,10.353083,472.29000000000002,1789176543],[123.8248308,10.3531136,469.70999999999998,1789176551],[123.8248279,10.3531432,468.04000000000002,1789176559],[123.8248267,10.3531841,469.69999999999999,1789176567],[123.8248292,10.353199800000001,471.00999999999999,1789176575],[123.8248344,10.353217600000001,462.31999999999999,1789176583],[123.82484770000001,10.3532069,464.24000000000001,1789176591],[123.82483379999999,10.353188400000001,462.47000000000003,1789176599],[123.8248299,10.3531659,465.01999999999998,1789176607],[123.8248359,10.3531622,467.20999999999998,1789176615],[123.8248311,10.3531724,466.79000000000002,1789176623],[123.8248439,10.353182500000001,465.19999999999999,1789176631],[123.82483809999999,10.353176100000001,465.57999999999998,1789176639],[123.824827,10.353166099999999,463.77999999999997,1789176647],[123.8248212,10.353166999999999,463.06999999999999,1789176655],[123.8248162,10.353168699999999,460.72000000000003,1789176663],[123.82480769999999,10.353175,457.54000000000002,1789176671],[123.8248816,10.3532349,470.70999999999998,1789176679],[123.824882,10.3532393,468.49000000000001,1789176687],[123.8248327,10.353205900000001,460.99000000000001,1789176695],[123.8248248,10.353199200000001,466.06999999999999,1789176703],[123.82481900000001,10.3532191,463.27999999999997,1789176711],[123.8248148,10.3531972,458.68000000000001,1789176719],[123.8248231,10.353195700000001,461.86000000000001,1789176727],[123.82483879999999,10.3532087,464.63,1789176735],[123.8248305,10.3532025,464.32999999999998,1789176743],[123.8248232,10.3531923,463.87,1789176751],[123.82482539999999,10.353194500000001,465.05000000000001,1789176759],[123.8248506,10.353217000000001,465.75999999999999,1789176767],[123.82485990000001,10.353225399999999,467.93000000000001,1789176775],[123.82486849999999,10.353229199999999,468.48000000000002,1789176783],[123.8248589,10.3532151,464.58999999999997,1789176791],[123.82484289999999,10.353211099999999,463.89999999999998,1789176799],[123.82486489999999,10.353199,460.98000000000002,1789176807],[123.82486179999999,10.3532008,462.07999999999998,1789176815],[123.8248638,10.353232,466.18000000000001,1789176823],[123.8248543,10.353225999999999,468.51999999999998,1789176831],[123.8248497,10.3532139,470.49000000000001,1789176839],[123.82483449999999,10.353234499999999,470.75,1789176847],[123.8248337,10.353248300000001,471.04000000000002,1789176855],[123.82483360000001,10.3532472,469.63,1789176863],[123.8248334,10.353244,469.49000000000001,1789176871],[123.82483879999999,10.3532403,468.98000000000002,1789176879],[123.8248407,10.3532393,468.76999999999998,1789176887],[123.8248395,10.3532367,468.89999999999998,1789176895],[123.8248402,10.353235,468.45999999999998,1789176903],[123.8248421,10.3532688,472.20999999999998,1789176911],[123.82485699999999,10.3532756,472.25999999999999,1789176919],[123.82486059999999,10.3532689,471,1789176927],[123.8248577,10.353249699999999,467.62,1789176935],[123.82485990000001,10.353234199999999,466.80000000000001,1789176943],[123.82485610000001,10.353232500000001,467.38999999999999,1789176951],[123.824855,10.353229799999999,468.29000000000002,1789176959],[123.8248346,10.353218,464.97000000000003,1789176967],[123.82483360000001,10.3532229,466.07999999999998,1789176975],[123.82482760000001,10.353226100000001,463.38999999999999,1789176983],[123.82483089999999,10.353222799999999,462.42000000000002,1789176991],[123.8248361,10.3532197,461.07999999999998,1789176999],[123.8248445,10.353216099999999,461.60000000000002,1789177007],[123.8248506,10.353221400000001,460.93000000000001,1789177015],[123.8248487,10.353235400000001,461.60000000000002,1789177023],[123.82485200000001,10.353252100000001,461.41000000000003,1789177031],[123.8248507,10.353263500000001,459.62,1789177039],[123.8248371,10.3532981,464.47000000000003,1789177047],[123.8248363,10.3533062,462.14999999999998,1789177055],[123.8248427,10.353342400000001,457.76999999999998,1789177063],[123.8248571,10.353366599999999,462.35000000000002,1789177071],[123.82484530000001,10.3533943,456.37,1789177079],[123.8248339,10.3534173,455.75999999999999,1789177087],[123.82483499999999,10.3534047,455.72000000000003,1789177095],[123.82481869999999,10.3534221,449.58999999999997,1789177103],[123.8248158,10.3534436,448.95999999999998,1789177111],[123.8248263,10.3534924,454.25,1789177119],[123.8248208,10.353532400000001,455.80000000000001,1789177127],[123.8248432,10.353560099999999,454.16000000000003,1789177135],[123.824859,10.3536062,450.60000000000002,1789177143],[123.8248621,10.353621800000001,447.62,1789177151],[123.82487639999999,10.353683200000001,446.98000000000002,1789177159],[123.8249004,10.353740800000001,451.89999999999998,1789177167],[123.8249546,10.353682299999999,447.24000000000001,1789177175],[123.8250171,10.353732300000001,443.68000000000001,1789177183],[123.8250007,10.3537458,438.81,1789177191],[123.8250285,10.353793400000001,445.01999999999998,1789177199],[123.82500229999999,10.353821099999999,441.72000000000003,1789177207],[123.8249933,10.353869700000001,442.38999999999999,1789177215],[123.8250372,10.353929300000001,440.16000000000003,1789177223],[123.82507150000001,10.353972600000001,441.76999999999998,1789177231],[123.82507459999999,10.3540267,440.05000000000001,1789177239],[123.8250737,10.3540642,439.51999999999998,1789177247],[123.8250537,10.354096999999999,438.37,1789177255],[123.8250713,10.3541405,439.97000000000003,1789177263],[123.8250795,10.354178599999999,432.63,1789177271],[123.825091,10.354207799999999,432.06,1789177279],[123.8250688,10.354253,432.50999999999999,1789177287],[123.825084,10.3542551,431.29000000000002,1789177295],[123.8250879,10.3542971,429.20999999999998,1789177303],[123.8250682,10.3542963,426.63,1789177311],[123.825063,10.354336099999999,429.16000000000003,1789177319],[123.8250625,10.3543731,430.55000000000001,1789177327],[123.825031,10.354343,424.30000000000001,1789177335],[123.8250281,10.354343500000001,420.88999999999999,1789177343],[123.8250434,10.354483099999999,422.92000000000002,1789177351],[123.8250651,10.354574,424.81999999999999,1789177359],[123.82507699999999,10.35464,427.67000000000002,1789177367],[123.8250913,10.354700299999999,424.38999999999999,1789177375],[123.825075,10.354745100000001,422,1789177383],[123.82510670000001,10.3547987,420.41000000000003,1789177391],[123.8251368,10.3548347,420.44,1789177399],[123.82515739999999,10.354907799999999,426.69999999999999,1789177407],[123.8252198,10.3549319,429.97000000000003,1789177415],[123.8252203,10.354888000000001,425.06999999999999,1789177423],[123.8252294,10.3549019,417.93000000000001,1789177431],[123.8252524,10.3549504,415.48000000000002,1789177439],[123.8252337,10.354975,415.44999999999999,1789177447],[123.82523209999999,10.354977699999999,410.25,1789177455],[123.82527589999999,10.355014000000001,419.91000000000003,1789177463],[123.82526850000001,10.3550111,417.77999999999997,1789177471],[123.8252574,10.355011599999999,412.01999999999998,1789177479],[123.82525889999999,10.3550085,404.51999999999998,1789177487],[123.8252976,10.355010500000001,409.63,1789177495],[123.8253198,10.35505,409.73000000000002,1789177503],[123.8253211,10.3550638,410.58999999999997,1789177511],[123.8253138,10.3550798,407.35000000000002,1789177519],[123.8253512,10.3550798,412.06,1789177527],[123.8253371,10.3550854,409.44999999999999,1789177535],[123.8253144,10.355078600000001,408.87,1789177543],[123.8253081,10.3550716,407.92000000000002,1789177551],[123.8253187,10.355074500000001,406.66000000000003,1789177559],[123.8253134,10.355084099999999,407.08999999999997,1789177567],[123.82530420000001,10.3550792,408.31999999999999,1789177575],[123.8253259,10.355068899999999,411.39999999999998,1789177583],[123.8252846,10.3551176,403.14999999999998,1789177591],[123.82530079999999,10.355118300000001,404.68000000000001,1789177599],[123.8253011,10.3551246,405.83999999999997,1789177607],[123.82523430000001,10.355167,408.31999999999999,1789177615],[123.82518690000001,10.355211799999999,412.39999999999998,1789177623],[123.825152,10.355223799999999,408.31,1789177631],[123.82516409999999,10.3552687,410.41000000000003,1789177639],[123.825186,10.355338,416.13,1789177647],[123.825176,10.355420499999999,416.52999999999997,1789177655],[123.8251467,10.3554567,412.74000000000001,1789177663],[123.8251509,10.355484799999999,408.24000000000001,1789177671],[123.82515309999999,10.355524300000001,406.75999999999999,1789177679],[123.8251671,10.355540599999999,404.22000000000003,1789177687],[123.8251956,10.355549999999999,399.93000000000001,1789177695],[123.8252124,10.355590299999999,405.51999999999998,1789177703],[123.8252602,10.3556107,400.32999999999998,1789177711],[123.8252317,10.3556455,404.19,1789177719],[123.8252188,10.355646800000001,399.16000000000003,1789177727],[123.8252232,10.3556577,402.95999999999998,1789177735],[123.8253303,10.355703800000001,403.14999999999998,1789177743],[123.82541449999999,10.355705,402.94,1789177751],[123.8254542,10.355722699999999,401.51999999999998,1789177759],[123.8255147,10.3557624,407.87,1789177767],[123.8255305,10.355765399999999,406.05000000000001,1789177775],[123.82563,10.355803999999999,403.31999999999999,1789177783],[123.82561459999999,10.355766900000001,399.64999999999998,1789177791],[123.8256348,10.3557384,392.58999999999997,1789177799],[123.8257055,10.355690600000001,390.60000000000002,1789177807],[123.8257333,10.3557208,386.66000000000003,1789177815],[123.8257588,10.3557419,386.12,1789177823],[123.8257942,10.3558094,391.31,1789177831],[123.8258245,10.3558205,391.20999999999998,1789177836],[123.825862,10.355900699999999,391.76999999999998,1789177847],[123.82586619999999,10.3559278,391.95999999999998,1789177855],[123.8258733,10.355961499999999,391.5,1789177863],[123.82587820000001,10.3559897,393.43000000000001,1789177871],[123.8258914,10.3560037,391.75,1789177879],[123.8259606,10.356128399999999,392.70999999999998,1789177887],[123.8259855,10.3561443,389.10000000000002,1789177895],[123.8260142,10.3561675,385.24000000000001,1789177903],[123.8260276,10.3561844,387.72000000000003,1789177911],[123.8260253,10.3561952,387.25,1789177919],[123.8260281,10.356208000000001,386.61000000000001,1789177927],[123.8260322,10.3562192,384.56,1789177935],[123.8260368,10.3562285,383.70999999999998,1789177943],[123.82603589999999,10.356237500000001,381.02999999999997,1789177951],[123.8260365,10.3562405,379.63999999999999,1789177959],[123.82604310000001,10.3562467,379.93000000000001,1789177967],[123.8260497,10.356251,379.67000000000002,1789177975],[123.82605940000001,10.356254,380.19,1789177983],[123.82606579999999,10.356256999999999,380.45999999999998,1789177991],[123.82607179999999,10.3562639,379.41000000000003,1789177999],[123.8260755,10.356272199999999,377.88,1789178007],[123.82607969999999,10.3562751,378.01999999999998,1789178015],[123.82608500000001,10.356278100000001,378.36000000000001,1789178023],[123.82609189999999,10.3562823,377.83999999999997,1789178032],[123.826099,10.356284499999999,377.49000000000001,1789178039],[123.8261124,10.3562884,375.81,1789178048],[123.82611609999999,10.3562894,375.42000000000002,1789178055],[123.8261189,10.356296499999999,375.81,1789178064],[123.8261255,10.356297400000001,375.56999999999999,1789178071],[123.8261368,10.356299699999999,374.76999999999998,1789178079],[123.82614169999999,10.3563037,374.36000000000001,1789178087],[123.82614890000001,10.3563057,373.89999999999998,1789178095],[123.82615389999999,10.3563031,373.87,1789178103],[123.8261625,10.356289,374.56999999999999,1789178112],[123.8261712,10.356278700000001,374.22000000000003,1789178119],[123.8261773,10.3562633,373.60000000000002,1789178128],[123.8261804,10.356255600000001,373.31,1789178135],[123.8261852,10.3562476,373.82999999999998,1789178143],[123.8261938,10.3562362,374.27999999999997,1789178151],[123.8262039,10.356229799999999,374.19999999999999,1789178159],[123.8262192,10.356218200000001,374.33999999999997,1789178168],[123.82622600000001,10.356212899999999,374.58999999999997,1789178176],[123.8262338,10.356209700000001,374.73000000000002,1789178183],[123.82624029999999,10.356213199999999,374.79000000000002,1789178191],[123.8262409,10.3562183,374.70999999999998,1789178199],[123.8262398,10.3562259,374.5,1789178207],[123.82624,10.356236300000001,374.20999999999998,1789178215],[123.8262414,10.356247400000001,373.87,1789178223],[123.8262417,10.3562575,373.24000000000001,1789178231],[123.8262419,10.3562672,372.74000000000001,1789178239],[123.8262459,10.3562783,372.16000000000003,1789178247],[123.82625640000001,10.356370500000001,367.69999999999999,1789178255],[123.82626550000001,10.356455499999999,367.23000000000002,1789178263],[123.8262613,10.356464000000001,365.81,1789178271],[123.82625640000001,10.3564829,363.43000000000001,1789178279],[123.82623460000001,10.3565927,362.47000000000003,1789178287],[123.8262541,10.356669399999999,363.82999999999998,1789178295],[123.8262387,10.3567328,360.68000000000001,1789178303],[123.826273,10.3567809,362.19999999999999,1789178311],[123.8263176,10.3567482,364.02999999999997,1789178319],[123.8263275,10.3567196,352.17000000000002,1789178327],[123.8263499,10.356703,353.26999999999998,1789178335],[123.8264107,10.3567555,354.81,1789178343],[123.82645580000001,10.356804199999999,350.13,1789178351],[123.82645909999999,10.3567734,348.79000000000002,1789178359],[123.8264465,10.356802999999999,348.06999999999999,1789178367],[123.8264386,10.3568465,350.39999999999998,1789178375],[123.8264092,10.3568938,353.56999999999999,1789178383],[123.8264757,10.3569405,347.16000000000003,1789178391],[123.8264712,10.3569724,350.01999999999998,1789178399],[123.8264678,10.356958499999999,349.75,1789178407],[123.8264858,10.3569622,346.17000000000002,1789178415],[123.8265543,10.3570215,348.13,1789178423],[123.8265856,10.3570101,344.86000000000001,1789178431],[123.8265664,10.357036000000001,339.50999999999999,1789178439],[123.8265103,10.3570896,340.72000000000003,1789178447],[123.8265009,10.3571416,347.60000000000002,1789178455],[123.82650580000001,10.3571692,338.13999999999999,1789178463],[123.82655370000001,10.3571221,337.20999999999998,1789178471],[123.8265693,10.357149100000001,339.25999999999999,1789178479],[123.8265803,10.357158999999999,332.52999999999997,1789178487],[123.8266022,10.357174000000001,331.00999999999999,1789178495],[123.82658859999999,10.357217800000001,330.70999999999998,1789178503],[123.82657469999999,10.357239999999999,332.39999999999998,1789178511],[123.8265487,10.3573039,335.81,1789178519],[123.82651850000001,10.3573369,330.19,1789178527],[123.82651,10.357353399999999,332.91000000000003,1789178535],[123.82650649999999,10.3573629,332.10000000000002,1789178543],[123.8265136,10.3573825,331.75999999999999,1789178551],[123.82650839999999,10.357417099999999,323.20999999999998,1789178559],[123.8264755,10.357449900000001,327.04000000000002,1789178567],[123.8263941,10.357450699999999,325.81999999999999,1789178575],[123.826379,10.3574164,320.87,1789178583],[123.82639090000001,10.357433,325.07999999999998,1789178591],[123.8263383,10.357469500000001,317.36000000000001,1789178599],[123.826292,10.3575015,317.30000000000001,1789178607],[123.82631189999999,10.357527599999999,315.81999999999999,1789178615],[123.82633629999999,10.357492499999999,315.06,1789178623],[123.8263407,10.3575746,319.52999999999997,1789178631],[123.8262998,10.357681100000001,320.42000000000002,1789178639],[123.82634659999999,10.357763200000001,326.02999999999997,1789178647],[123.8263597,10.3577733,324.77999999999997,1789178655],[123.826356,10.3578028,321.38,1789178663],[123.82636479999999,10.3578142,316.62,1789178671],[123.82637889999999,10.3578904,318.36000000000001,1789178679],[123.82636669999999,10.357958200000001,313.73000000000002,1789178687],[123.826328,10.357988199999999,318.17000000000002,1789178695],[123.82629129999999,10.3579749,317.13,1789178703],[123.82632150000001,10.358031,314.74000000000001,1789178711],[123.8263087,10.358033300000001,315.35000000000002,1789178719],[123.8263089,10.358046099999999,317.42000000000002,1789178727],[123.8263097,10.358059900000001,316.56999999999999,1789178735],[123.8263287,10.3580632,316.45999999999998,1789178743],[123.826331,10.3580617,316.01999999999998,1789178751],[123.82631069999999,10.3580705,316,1789178760],[123.8262998,10.358038499999999,318.99000000000001,1789178767],[123.8262878,10.3580618,320.61000000000001,1789178775],[123.82628459999999,10.3580781,320.38,1789178783],[123.8262847,10.358076199999999,317.42000000000002,1789178791],[123.8262769,10.358064000000001,316.50999999999999,1789178799],[123.8263512,10.358008999999999,312.19,1789178807],[123.8263575,10.358095799999999,320.32999999999998,1789178815],[123.8263615,10.358140000000001,315.5,1789178823],[123.8263486,10.358123000000001,323.75999999999999,1789178831],[123.8263433,10.358112500000001,323.19999999999999,1789178839],[123.8263403,10.3581077,322.95999999999998,1789178847],[123.82633370000001,10.358062,319.31,1789178855],[123.8263249,10.3580481,322.31,1789178863],[123.8263209,10.3580442,321.76999999999998,1789178871],[123.8263303,10.358037599999999,319.11000000000001,1789178879],[123.8263243,10.358021900000001,318.31999999999999,1789178887],[123.8262651,10.3580465,314.93000000000001,1789178895],[123.8261802,10.3581272,319.12,1789178903],[123.8261918,10.3581874,307.5,1789178911],[123.8261382,10.358203100000001,304.37,1789178919],[123.8260626,10.358204300000001,309.06,1789178927],[123.82602060000001,10.358221800000001,308.99000000000001,1789178935],[123.826003,10.358275799999999,305.11000000000001,1789178943],[123.82602970000001,10.3583333,305.44,1789178951],[123.8259894,10.3583432,309.73000000000002,1789178959],[123.8259575,10.358391900000001,307.11000000000001,1789178967],[123.8259688,10.3584438,304.80000000000001,1789178975],[123.8259695,10.3584841,305.24000000000001,1789178983],[123.825985,10.3585589,304.83999999999997,1789178991],[123.8260214,10.3586312,306.14999999999998,1789178999],[123.8260362,10.358679800000001,305.24000000000001,1789179005],[123.82606579999999,10.3587744,303.74000000000001,1789179015],[123.8260662,10.3588357,307.81999999999999,1789179023],[123.8260472,10.358908,310.52999999999997,1789179030],[123.8260325,10.358968300000001,303.52999999999997,1789179040],[123.82603779999999,10.3590006,303.74000000000001,1789179047],[123.8260477,10.3590521,303.07999999999998,1789179053],[123.82607539999999,10.3590862,294.29000000000002,1789179063],[123.8261064,10.3591564,298.39999999999998,1789179070],[123.8261691,10.3592458,298.76999999999998,1789179080],[123.8261467,10.3592815,297.95999999999998,1789179085],[123.8260763,10.3593932,296.37,1789179095],[123.8260858,10.3594574,290.76999999999998,1789179103],[123.8260855,10.359522,290.44999999999999,1789179110],[123.8260556,10.359544400000001,301.89999999999998,1789179120],[123.82605220000001,10.3595395,301.89999999999998,1789179125],[123.8260397,10.359496399999999,296.51999999999998,1789179135],[123.8260339,10.3594857,294.5,1789179143],[123.8261177,10.3594475,288.61000000000001,1789179151],[123.8261145,10.359484,282.83999999999997,1789179159],[123.8260954,10.3594761,288.99000000000001,1789179167],[123.82607729999999,10.3594665,289.02999999999997,1789179175],[123.8260745,10.3594659,289.72000000000003,1789179183],[123.8260717,10.359534500000001,287.10000000000002,1789179192],[123.8260638,10.359525100000001,288.64999999999998,1789179199],[123.82597800000001,10.359504899999999,301.88,1789179208],[123.8259812,10.3595811,301.81999999999999,1789179215],[123.8259844,10.359568100000001,300.12,1789179223],[123.82600909999999,10.359524,295.82999999999998,1789179231],[123.8260262,10.359480700000001,303.81,1789179239],[123.82597850000001,10.3594779,289.08999999999997,1789179248],[123.8259427,10.3594521,290.37,1789179255],[123.82595019999999,10.3594469,303.62,1789179264],[123.8259592,10.3594633,306.05000000000001,1789179271],[123.8259972,10.359475099999999,305.52999999999997,1789179280],[123.8260093,10.359476799999999,293.75999999999999,1789179287],[123.8260401,10.3594499,286.24000000000001,1789179295],[123.82605359999999,10.3594074,292.80000000000001,1789179303],[123.8260562,10.35941,303.14999999999998,1789179311],[123.8260403,10.3594215,301.63999999999999,1789179319],[123.8260245,10.3594361,302.48000000000002,1789179327],[123.82602610000001,10.359449400000001,302.69999999999999,1789179335],[123.8260277,10.3594568,301.11000000000001,1789179343],[123.8260245,10.359505499999999,300.95999999999998,1789179350],[123.82601219999999,10.3596229,291.80000000000001,1789179360],[123.8259997,10.3596734,291.5,1789179365],[123.8259791,10.359774699999999,290.92000000000002,1789179375],[123.8259726,10.3598362,293.72000000000003,1789179383],[123.8259599,10.3598917,293.73000000000002,1789179390],[123.8259381,10.3599669,288.56999999999999,1789179400],[123.82593660000001,10.360010300000001,288.77999999999997,1789179405],[123.8259383,10.360098900000001,289.20999999999998,1789179415],[123.82595329999999,10.360184500000001,295.79000000000002,1789179423],[123.825979,10.360251699999999,297.27999999999997,1789179430],[123.8260444,10.3603273,296.94,1789179440],[123.8260702,10.360363400000001,296.51999999999998,1789179445],[123.8261126,10.360438800000001,295.69999999999999,1789179455],[123.8260789,10.360504199999999,289.48000000000002,1789179463],[123.8260375,10.360563000000001,289.97000000000003,1789179470],[123.8260269,10.3606406,290.50999999999999,1789179478],[123.8259793,10.360689300000001,277.97000000000003,1789179488],[123.82595809999999,10.3607224,278.12,1789179494],[123.8259576,10.360802100000001,278.35000000000002,1789179503],[123.8259431,10.3609087,289.06,1789179511],[123.8259358,10.360976000000001,287.56,1789179517],[123.82592889999999,10.3610875,285.29000000000002,1789179527],[123.8259211,10.3610995,271.70999999999998,1789179535],[123.8258797,10.361122399999999,270.87,1789179542],[123.8258058,10.361105800000001,271.70999999999998,1789179552],[123.82574940000001,10.361098399999999,271.23000000000002,1789179559],[123.8256866,10.3610916,263.22000000000003,1789179567],[123.82561010000001,10.361130299999999,253.28999999999999,1789179576],[123.8255686,10.3611451,266.04000000000002,1789179583],[123.825472,10.361168299999999,273.82999999999998,1789179592],[123.82537360000001,10.3612249,268.88,1789179601],[123.8253601,10.361287600000001,268.44,1789179607],[123.82534750000001,10.361328500000001,266.29000000000002,1789179615],[123.82531899999999,10.3614228,264.85000000000002,1789179623],[123.8253169,10.3614672,259.83999999999997,1789179631],[123.8252971,10.361514100000001,261.14999999999998,1789179636],[123.82528189999999,10.3614944,255.34999999999999,1789179647],[123.82523639999999,10.3615551,254.91999999999999,1789179656],[123.8252263,10.361615799999999,254.49000000000001,1789179663],[123.8252128,10.3616473,256.13999999999999,1789179671],[123.8251882,10.361585699999999,253.80000000000001,1789179679],[123.82515189999999,10.361522300000001,253.12,1789179687],[123.8251422,10.3614607,261.36000000000001,1789179695]]]}}]}
