{"type":"FeatureCollection","features":[{"type":"Feature","properties":[],"geometry":{"type":"MultiLineString","coordinates":[[[123.77755000000001,10.322348,494,1774044342],[123.77745,10.322312,492,1774044355],[123.77741,10.322214000000001,492,1774044367],[123.77735,10.322122,494,1774044378],[123.7773,10.32203,495,1774044390],[123.77725,10.321932,495,1774044402],[123.77721,10.321840999999999,496,1774044414],[123.77718,10.321754,497,1774044428],[123.77710999999999,10.321674,498,1774044468],[123.77710999999999,10.321156,505,1774044531],[123.77712,10.321052,507,1774044543],[123.7771,10.320957,509,1774044554],[123.77710999999999,10.320864,511,1774044566],[123.77712,10.320767999999999,516,1774044582],[123.77717,10.320675,518,1774044595],[123.77724000000001,10.320603999999999,522,1774044606],[123.77732,10.320549,526,1774044621],[123.77737999999999,10.320468999999999,530,1774044637],[123.77742000000001,10.320372000000001,534,1774044653],[123.77746999999999,10.320283,537,1774044667],[123.77746,10.320182000000001,537,1774044681],[123.77742000000001,10.320088999999999,537,1774044691],[123.77743,10.319984,539,1774044702],[123.77745,10.319872,542,1774044714],[123.77749,10.319784,543,1774044723],[123.77753,10.319697,545,1774044737],[123.77754,10.319564,547,1774044753],[123.77758,10.319478,550,1774044768],[123.77748,10.319425000000001,548,1774044832],[123.77741,10.319354000000001,549,1774044851],[123.77732,10.319330000000001,551,1774044882],[123.77721,10.319285000000001,550,1774044906],[123.77712,10.319224999999999,549,1774044918],[123.77705,10.319171000000001,550,1774044930],[123.77697000000001,10.319102000000001,551,1774044944],[123.7769,10.319039,554,1774044961],[123.77682,10.318959,556,1774044974],[123.77675000000001,10.318885999999999,558,1774044987],[123.77664,10.31884,558,1774045005],[123.7766,10.318963999999999,555,1774045038],[123.77657000000001,10.319051999999999,552,1774045054],[123.7765,10.319143,548,1774045067],[123.7764,10.319196,545,1774045113],[123.77632,10.319215,546,1774045123],[123.77621000000001,10.319231,548,1774045135],[123.77611,10.319269,549,1774045146],[123.77602,10.319276,548,1774045156],[123.77592,10.319297000000001,549,1774045167],[123.77584,10.31935,550,1774045177],[123.77579,10.319438,549,1774045190],[123.77573,10.319526,550,1774045203],[123.77562,10.319540999999999,553,1774045215],[123.77555,10.319474,554,1774045225],[123.77548,10.31941,557,1774045238],[123.77540999999999,10.319329,555,1774045247],[123.77533,10.319243999999999,556,1774045259],[123.77525,10.319175,558,1774045270],[123.77516,10.319115,557,1774045283],[123.77506,10.319086,557,1774045295],[123.77500000000001,10.319004,554,1774045304],[123.77493,10.318939,554,1774045315],[123.77485,10.318865000000001,556,1774045329],[123.77476,10.318915000000001,557,1774045346],[123.77466,10.318972,556,1774045359],[123.77458,10.318915000000001,554,1774045370],[123.77457,10.318814,551,1774045376],[123.77460000000001,10.318721999999999,551,1774045384],[123.77464000000001,10.318637000000001,554,1774045396],[123.77472,10.318562999999999,554,1774045408],[123.77481,10.318533,555,1774045418],[123.7749,10.318462,557,1774045432],[123.77497,10.318391999999999,558,1774045445],[123.77500000000001,10.318282999999999,560,1774045462],[123.77499,10.318178,563,1774045479],[123.77500000000001,10.318082,563,1774045492],[123.77495999999999,10.317990999999999,563,1774045509],[123.77495999999999,10.317883,559,1774045521],[123.77500000000001,10.317797000000001,556,1774045531],[123.77506,10.31771,558,1774045545],[123.77509999999999,10.317607000000001,560,1774045560],[123.77509999999999,10.317496999999999,562,1774045573],[123.77513,10.317394999999999,562,1774045589],[123.77516,10.317311,562,1774045601],[123.77521,10.317209,563,1774045614],[123.77527000000001,10.317121,563,1774045626],[123.77534,10.317043,565,1774045641],[123.77538,10.316948999999999,565,1774045662],[123.77537,10.316858,565,1774045678],[123.77537,10.316732999999999,564,1774045696],[123.77540999999999,10.31664,564,1774045708],[123.77549999999999,10.316604999999999,563,1774045719],[123.77558000000001,10.316561999999999,564,1774045731],[123.77566,10.3165,565,1774045746],[123.77576999999999,10.316466,570,1774045761],[123.77585999999999,10.316541000000001,573,1774045775],[123.77592,10.316629000000001,575,1774045788],[123.77601,10.316681000000001,579,1774045804],[123.77607,10.316784,581,1774045820],[123.77607999999999,10.316893,585,1774045842],[123.77612000000001,10.31697,586,1774045862],[123.77616999999999,10.317079,585,1774045888],[123.77623,10.317170000000001,586,1774045907],[123.77629,10.317263000000001,587,1774045926],[123.77634,10.317354999999999,589,1774045939],[123.77641,10.317432,592,1774045953],[123.77652,10.31748,596,1774046000],[123.77655,10.317382,596,1774046015],[123.77661000000001,10.317311,595,1774046025],[123.77669,10.317245,596,1774046034],[123.77670999999999,10.317137000000001,595,1774046049],[123.77667,10.317045,594,1774046062],[123.77669,10.316954000000001,593,1774046073],[123.77675000000001,10.316876000000001,593,1774046081],[123.77682,10.316808,593,1774046089],[123.7769,10.316751999999999,594,1774046097],[123.77697999999999,10.316698000000001,595,1774046107],[123.777,10.316597,595,1774046123],[123.77694,10.316519,594,1774046139],[123.77685,10.316459999999999,593,1774046151],[123.77675000000001,10.316381,592,1774046161],[123.77667,10.316321,589,1774046174],[123.77661999999999,10.316241,586,1774046184],[123.77658,10.316153999999999,583,1774046192],[123.77659,10.316049,580,1774046203],[123.77658,10.315956,581,1774046212],[123.77654,10.315868999999999,581,1774046220],[123.7765,10.315766999999999,580,1774046230],[123.77656,10.315685,581,1774046240],[123.77665,10.315600999999999,585,1774046253],[123.77670000000001,10.315523000000001,589,1774046263],[123.77670999999999,10.315422999999999,588,1774046275],[123.77675000000001,10.315332,586,1774046285],[123.77681,10.315265,583,1774046292],[123.77686,10.315185,582,1774046300],[123.77692,10.315089,582,1774046315],[123.77697000000001,10.315006,583,1774046330],[123.77703,10.314920000000001,583,1774046340],[123.77706999999999,10.314833999999999,584,1774046350],[123.77710999999999,10.314727,584,1774046361],[123.77710999999999,10.314629999999999,584,1774046373],[123.77709,10.314527,584,1774046384],[123.77709,10.314434,584,1774046394],[123.7771,10.314323999999999,582,1774046404],[123.7771,10.314228,580,1774046413],[123.77715000000001,10.314078,577,1774046429],[123.77718,10.313980000000001,573,1774046439],[123.77723,10.313891,571,1774046450],[123.7773,10.31382,568,1774046463],[123.77737999999999,10.313753,566,1774046476],[123.77748,10.313691,564,1774046486],[123.77754,10.313623,564,1774046494],[123.77760000000001,10.313554,564,1774046505],[123.77768,10.313475,564,1774046518],[123.77773000000001,10.313401000000001,565,1774046528],[123.77778000000001,10.313319,566,1774046539],[123.77784,10.313226999999999,567,1774046550],[123.77789,10.313154000000001,567,1774046560],[123.77794,10.313065999999999,566,1774046570],[123.77800999999999,10.312989,563,1774046584],[123.77811,10.312956,562,1774046595],[123.7782,10.312967,563,1774046606],[123.77831,10.312965,563,1774046619],[123.7784,10.312951,564,1774046629],[123.77851,10.312924000000001,565,1774046643],[123.77863000000001,10.312856,566,1774046659],[123.7787,10.312785999999999,566,1774046687],[123.77878,10.312730999999999,567,1774046704],[123.77887,10.312676,569,1774046718],[123.77894999999999,10.312628,571,1774046733],[123.77903000000001,10.312573,572,1774046745],[123.77912999999999,10.312552,573,1774046757],[123.77923,10.312512999999999,575,1774046769],[123.77930000000001,10.312442000000001,576,1774046779],[123.77938,10.312393,578,1774046789],[123.77946,10.312334,577,1774046801],[123.77954,10.312267,579,1774046813],[123.77961000000001,10.312194,579,1774046824],[123.77964,10.312106,578,1774046836],[123.77966000000001,10.312014,578,1774046847],[123.77963,10.311912,576,1774046859],[123.77957000000001,10.31183,575,1774046869],[123.7795,10.311769999999999,575,1774046876],[123.77941,10.311705999999999,574,1774046889],[123.77937,10.31162,573,1774046900],[123.77932,10.311534999999999,571,1774046911],[123.77928,10.311446999999999,571,1774046933],[123.77918,10.311362000000001,572,1774047057],[123.77911,10.31129,573,1774047069],[123.77906,10.311199999999999,576,1774047091],[123.77905,10.311092,578,1774047116],[123.77903999999999,10.31099,581,1774047130],[123.77903000000001,10.310888,583,1774047146],[123.77901,10.310794,586,1774047159],[123.77898999999999,10.310695000000001,588,1774047174],[123.77897,10.310599,586,1774047186],[123.77894999999999,10.310503000000001,587,1774047197],[123.77889,10.310418,587,1774047207],[123.77884,10.31033,586,1774047217],[123.77878,10.310245999999999,585,1774047227],[123.77873,10.310166000000001,583,1774047237],[123.7787,10.310067999999999,582,1774047248],[123.77865,10.309984,581,1774047263],[123.77861,10.309899,579,1774047278],[123.77856,10.309813999999999,575,1774047293],[123.77849000000001,10.309744,574,1774047307],[123.77840999999999,10.309696000000001,572,1774047321],[123.77831999999999,10.309670000000001,569,1774047335],[123.77822,10.309638,568,1774047350],[123.77813999999999,10.309583999999999,566,1774047361],[123.77804999999999,10.309558000000001,563,1774047373],[123.77795999999999,10.309519,561,1774047385],[123.77791999999999,10.309381999999999,559,1774047401],[123.77794,10.309291,557,1774047413],[123.77795999999999,10.309198,557,1774047423],[123.77793,10.309103,557,1774047439],[123.77795,10.309195000000001,557,1774047473],[123.77791999999999,10.309286,558,1774047486],[123.77789,10.309371000000001,559,1774047499],[123.77779,10.309388999999999,559,1774047513],[123.77772,10.309457999999999,559,1774047544],[123.77769000000001,10.309545999999999,559,1774047586],[123.77772,10.309455,558,1774047688],[123.77779,10.309388,557,1774047716],[123.77789,10.309374999999999,556,1774047727],[123.77793,10.309283000000001,557,1774047740],[123.77795,10.309182,556,1774047750],[123.77793,10.309091,557,1774047760],[123.77789,10.308982,557,1774047770],[123.77784,10.308894,558,1774047783],[123.77782000000001,10.30879,560,1774047793],[123.77782999999999,10.308686,561,1774047804],[123.77782999999999,10.308585000000001,562,1774047816],[123.77786999999999,10.308484999999999,563,1774047828],[123.77788,10.308388000000001,564,1774047838],[123.7779,10.308298000000001,564,1774047848],[123.77791999999999,10.308195,565,1774047858],[123.77793,10.308085999999999,565,1774047870],[123.77793,10.307669000000001,564,1774047912],[123.77786999999999,10.307589999999999,564,1774047922],[123.77773000000001,10.307575999999999,564,1774047942],[123.77763,10.307556999999999,565,1774047952],[123.77754,10.307518,566,1774047962],[123.77745,10.307478,567,1774047973],[123.77736,10.307445,570,1774047983],[123.77725,10.30742,570,1774047993],[123.77715999999999,10.307399,572,1774048003],[123.77706000000001,10.307446000000001,572,1774048015],[123.77703,10.307537999999999,572,1774048026],[123.77697999999999,10.30763,572,1774048037],[123.77692999999999,10.307714000000001,572,1774048048],[123.77684000000001,10.307765,572,1774048058],[123.77675000000001,10.307786999999999,572,1774048073],[123.77666000000001,10.307731,572,1774048100],[123.77658,10.30767,573,1774048109],[123.7765,10.307615,573,1774048119],[123.77642,10.307549,572,1774048129],[123.77639000000001,10.307461,571,1774048139],[123.77639000000001,10.307361,571,1774048149],[123.77634,10.307259,572,1774048161],[123.77631,10.307172,571,1774048169],[123.77625999999999,10.307089,570,1774048183],[123.77616999999999,10.307046,569,1774048193],[123.77607,10.307005999999999,567,1774048202],[123.77598,10.306953999999999,566,1774048213],[123.77589,10.306908,565,1774048223],[123.77581000000001,10.306846999999999,564,1774048233],[123.77572000000001,10.306801,564,1774048243],[123.77564,10.306742,562,1774048257],[123.77558999999999,10.306658000000001,562,1774048268],[123.77555,10.306568,560,1774048282],[123.77552,10.306476999999999,558,1774048296],[123.77549,10.306383,557,1774048308],[123.77540999999999,10.306319,557,1774048319],[123.77531999999999,10.306277,555,1774048329],[123.77524,10.306222,557,1774048338],[123.77517,10.306162,557,1774048346],[123.77508,10.306092,556,1774048357],[123.77500000000001,10.306037,557,1774048366],[123.77491000000001,10.305989,555,1774048376],[123.77482000000001,10.305951,555,1774048386],[123.77472,10.305921,555,1774048397],[123.77462,10.305895,554,1774048408],[123.77452,10.305875,553,1774048420],[123.77442000000001,10.305866999999999,552,1774048432],[123.77432,10.305866,551,1774048442],[123.77422,10.305871,550,1774048452],[123.77412,10.305885999999999,550,1774048462],[123.77401999999999,10.305901,549,1774048472],[123.77392,10.305909,550,1774048480],[123.77383,10.305941000000001,548,1774048490],[123.77374,10.30598,548,1774048499],[123.77365,10.306032999999999,548,1774048508],[123.77357000000001,10.306093000000001,548,1774048518],[123.77348000000001,10.306157000000001,548,1774048528],[123.77342,10.306222,548,1774048537],[123.77336,10.3063,549,1774048546],[123.77332,10.306392000000001,549,1774048555],[123.77329,10.306483999999999,549,1774048566],[123.77325,10.306585,548,1774048577],[123.77316999999999,10.306652,550,1774048587],[123.77307999999999,10.306671,550,1774048596],[123.77297,10.306656,551,1774048605],[123.77288,10.306626,551,1774048613],[123.77278,10.306625,550,1774048623],[123.77267999999999,10.306635999999999,549,1774048634],[123.77256,10.306716,548,1774048665],[123.77249,10.306778,544,1774048680],[123.77239,10.306786000000001,542,1774048698],[123.77229,10.306759,542,1774048714],[123.77218000000001,10.306741000000001,542,1774048727],[123.77209000000001,10.306762000000001,541,1774048740],[123.77208,10.306857000000001,540,1774048750],[123.77204,10.306950000000001,537,1774048766],[123.77196000000001,10.307015,537,1774048777],[123.77189,10.307078000000001,536,1774048790],[123.77182999999999,10.307150999999999,535,1774048802],[123.77176,10.307226999999999,534,1774048814],[123.77168,10.307271999999999,534,1774048824],[123.77161,10.307342999999999,534,1774048837],[123.77173000000001,10.307380999999999,536,1774048853],[123.77182999999999,10.307373999999999,533,1774048865],[123.77194,10.307385,533,1774048877],[123.77203,10.307396000000001,533,1774048888],[123.77213,10.307404,531,1774048899],[123.77227000000001,10.307421,529,1774048919],[123.77233,10.307487,529,1774048934],[123.77240999999999,10.307546,526,1774048955],[123.77248,10.307613,526,1774048966],[123.77256,10.307669000000001,527,1774048976],[123.77265,10.307722,526,1774048988],[123.77273,10.307766000000001,523,1774049000],[123.7728,10.307843999999999,522,1774049013],[123.77285999999999,10.307907999999999,521,1774049025],[123.77294000000001,10.307973,521,1774049037],[123.77297,10.308062,520,1774049050],[123.773,10.308153000000001,520,1774049062],[123.77305,10.308234000000001,520,1774049076],[123.77314,10.308271,519,1774049092],[123.77321999999999,10.308315,518,1774049104],[123.77325999999999,10.308401,518,1774049133],[123.77328,10.308505,516,1774049147],[123.77332,10.308604000000001,518,1774049161],[123.77331,10.308699000000001,518,1774049173],[123.77332,10.3088,517,1774049183],[123.77332,10.308896000000001,517,1774049196],[123.77331,10.309002,516,1774049211],[123.77331,10.309094999999999,515,1774049222],[123.77330000000001,10.309191999999999,515,1774049237],[123.77331,10.309282,514,1774049248],[123.77333,10.309373000000001,514,1774049258],[123.77334999999999,10.309472,513,1774049269],[123.77338,10.309566,514,1774049279],[123.77339000000001,10.309668,513,1774049302],[123.77342,10.309756,514,1774049313],[123.77346,10.309847,514,1774049323],[123.77349,10.309945000000001,513,1774049334],[123.77352999999999,10.310047000000001,512,1774049347],[123.77361000000001,10.310110999999999,512,1774049360],[123.77368,10.310187000000001,511,1774049370],[123.77377,10.310231,509,1774049384],[123.77387,10.310245999999999,507,1774049397],[123.77395,10.310309,504,1774049419],[123.77403,10.310361,502,1774049431],[123.77408,10.310446000000001,500,1774049443],[123.77406000000001,10.310572000000001,499,1774049531],[123.77401999999999,10.310662000000001,499,1774049548],[123.77392,10.310706,499,1774049558],[123.77384000000001,10.310748999999999,501,1774049571],[123.77375000000001,10.3108,500,1774049585],[123.77369,10.310874,501,1774049604],[123.77364,10.310955,500,1774049628],[123.77359,10.311048,499,1774049653],[123.77354,10.311137,499,1774049665],[123.77346,10.311194,500,1774049677],[123.77341,10.311280999999999,496,1774049685],[123.77334999999999,10.311356999999999,494,1774049696],[123.77329,10.311424000000001,492,1774049708],[123.7732,10.311465999999999,492,1774049719],[123.7731,10.311468,492,1774049730],[123.773,10.31146,494,1774049743],[123.77290000000001,10.311419000000001,494,1774049754],[123.77281000000001,10.311427,494,1774049764],[123.77272000000001,10.311450000000001,495,1774049793],[123.77263000000001,10.311484999999999,496,1774049805],[123.77254000000001,10.311529,497,1774049816],[123.77248,10.311605,497,1774049828],[123.77251,10.311711000000001,494,1774049842],[123.7726,10.311893,491,1774049890],[123.77264,10.311980999999999,489,1774049902],[123.77269,10.312075,487,1774049916],[123.77276000000001,10.312151999999999,485,1774049930],[123.77282,10.312231000000001,484,1774049950],[123.77285000000001,10.312317999999999,483,1774049982],[123.77291,10.312398,482,1774049994],[123.77293,10.312487000000001,480,1774050004],[123.77294000000001,10.312586,479,1774050018],[123.77294999999999,10.312681,478,1774050034],[123.77296,10.312775,477,1774050054],[123.77298,10.312868999999999,475,1774050070],[123.77293,10.312951,475,1774050085],[123.77285000000001,10.313015,475,1774050097],[123.77279,10.313094,475,1774050108],[123.77272000000001,10.313173000000001,474,1774050122],[123.77265,10.31324,470,1774050160],[123.77258,10.313312,471,1774050171],[123.77251,10.313383,471,1774050182],[123.77242,10.313487,469,1774050199],[123.77234,10.313535,468,1774050214],[123.77225,10.313578,467,1774050229],[123.77215,10.313611,467,1774050241],[123.77212,10.313700000000001,466,1774050252],[123.77208,10.313805,464,1774050267],[123.77207,10.313908,462,1774050280],[123.77203,10.313993999999999,460,1774050298],[123.77206,10.314081,456,1774050313],[123.77207,10.314176,454,1774050331],[123.77206,10.31427,454,1774050362],[123.77203,10.314365,457,1774050424],[123.77195,10.314451999999999,456,1774050470],[123.77202,10.314387,454,1774050502],[123.77206,10.314258000000001,454,1774050535],[123.77218000000001,10.314260000000001,455,1774050574],[123.77226,10.314323999999999,457,1774050595],[123.7722,10.314253000000001,456,1774050652],[123.77209000000001,10.314237,456,1774050672],[123.77202,10.314310000000001,456,1774050688],[123.77197,10.314403,457,1774050707],[123.77193,10.314492,455,1774050730],[123.77186,10.314546,457,1774050743],[123.77176,10.314541999999999,458,1774050760],[123.77166,10.314572999999999,458,1774050773],[123.77157,10.314591,458,1774050784],[123.77146999999999,10.31461,458,1774050796],[123.77137,10.314602000000001,458,1774050806],[123.77127,10.314581,459,1774050819],[123.77117,10.314565999999999,458,1774050830],[123.77106999999999,10.31456,458,1774050844],[123.77097999999999,10.314653,457,1774050896],[123.77099,10.314743,457,1774050935],[123.77093000000001,10.314821999999999,458,1774051022],[123.7709,10.314914,457,1774051037],[123.77088000000001,10.315009999999999,457,1774051053],[123.77084000000001,10.315096,458,1774051065],[123.77079000000001,10.315179000000001,457,1774051084],[123.77074,10.315258,458,1774051096],[123.77072,10.315356,458,1774051283],[123.77074,10.315461000000001,456,1774051298],[123.77079999999999,10.315547,457,1774051312],[123.77088000000001,10.315613000000001,456,1774051326],[123.77095,10.315668000000001,457,1774051342],[123.77101,10.315746000000001,457,1774051360],[123.77109,10.315913999999999,456,1774051385],[123.77112,10.316005000000001,456,1774051398],[123.77113,10.3161,453,1774051415],[123.77119,10.316172999999999,453,1774051439],[123.77110999999999,10.316217,452,1774051460],[123.77099,10.316212999999999,453,1774051488],[123.77088000000001,10.316274999999999,453,1774051518],[123.77082,10.316357999999999,452,1774051533],[123.77077,10.316492999999999,450,1774051551],[123.77076,10.31659,448,1774051564],[123.77074,10.316694999999999,446,1774051575],[123.77063,10.316774000000001,450,1774051595],[123.77052999999999,10.316812000000001,452,1774051605],[123.7705,10.316902000000001,456,1774051617],[123.77045,10.316986,459,1774051631],[123.7705,10.317114999999999,458,1774051645],[123.77059,10.317161,456,1774051658],[123.77065,10.317231,458,1774051670],[123.77061,10.317346000000001,463,1774051692],[123.77059,10.31744,463,1774051707],[123.77054,10.317544,466,1774051720],[123.77043,10.317617,466,1774051732],[123.77038,10.317712,467,1774051743],[123.7702,10.317776,467,1774051767],[123.77005,10.317786,466,1774051783],[123.76994999999999,10.317805999999999,464,1774051792],[123.76985000000001,10.317845,462,1774051802],[123.76979,10.317976,460,1774051814],[123.76975,10.318061999999999,459,1774051855],[123.76976999999999,10.318159,459,1774051866],[123.76981000000001,10.318243000000001,459,1774051875],[123.76979,10.318345000000001,461,1774051889],[123.76983,10.318436,460,1774051900],[123.76994999999999,10.318511000000001,464,1774051919],[123.77003000000001,10.318574999999999,468,1774051930],[123.77007,10.318667,468,1774051938],[123.77012000000001,10.318751000000001,468,1774051947],[123.76994999999999,10.318823999999999,466,1774051956],[123.76982,10.318861999999999,462,1774051972],[123.76973,10.318916,459,1774051984],[123.76963000000001,10.318960000000001,457,1774051997],[123.76953,10.318963,456,1774052006],[123.76945000000001,10.319039999999999,454,1774052016],[123.76942,10.319129,457,1774052030],[123.76934,10.319188,456,1774052040],[123.76939,10.319285000000001,456,1774052053],[123.76945000000001,10.319362999999999,457,1774052064],[123.76952,10.319435,456,1774052074],[123.76966,10.319459999999999,456,1774052092],[123.76976000000001,10.319461,457,1774052100],[123.76983,10.319525000000001,458,1774052112],[123.76993,10.319595,457,1774052119],[123.76999000000001,10.31968,454,1774052138],[123.77009,10.319708,454,1774052146],[123.77007,10.319813999999999,453,1774052155],[123.77012999999999,10.319879,449,1774052166],[123.77019,10.319974999999999,448,1774052178],[123.77027,10.320027,447,1774052188],[123.77037,10.320038,448,1774052201],[123.77047,10.320081,448,1774052209],[123.77055,10.320138,447,1774052220],[123.77063,10.320197,442,1774052232],[123.77073,10.320243,444,1774052241],[123.77082,10.320311,446,1774052250],[123.77091,10.320349,444,1774052263],[123.77093000000001,10.320475,442,1774052280],[123.77093000000001,10.320577,439,1774052287],[123.77097999999999,10.320658,434,1774052300],[123.77101,10.320758,430,1774052317],[123.77099,10.320849000000001,424,1774052331],[123.77101,10.320954,422,1774052347],[123.77105,10.321051000000001,420,1774052359],[123.77103,10.321156999999999,418,1774052372],[123.77097999999999,10.321236000000001,419,1774052385],[123.77101,10.321320999999999,419,1774052398]]]}}]}
