{"type":"FeatureCollection","features":[{"type":"Feature","properties":[],"geometry":{"type":"MultiLineString","coordinates":[[[123.83743,10.308824,257,1775944894],[123.83736,10.308735,256,1775944902],[123.83727,10.308692000000001,258,1775944910],[123.83722,10.308609000000001,256,1775944918],[123.83714999999999,10.308545000000001,257,1775944925],[123.83707,10.308463,259,1775944934],[123.83705,10.308369000000001,259,1775944943],[123.83707,10.308280999999999,259,1775944950],[123.83705999999999,10.308187999999999,260,1775944958],[123.83704,10.308083999999999,258,1775944966],[123.837,10.307957999999999,257,1775944976],[123.83696999999999,10.307865,258,1775944984],[123.83694,10.307765,257,1775944992],[123.83687999999999,10.307677999999999,256,1775945000],[123.83683000000001,10.307598,258,1775945007],[123.83678,10.307513,257,1775945015],[123.83673,10.307429000000001,256,1775945023],[123.83664,10.307359999999999,255,1775945032],[123.83656000000001,10.3073,256,1775945040],[123.83647999999999,10.307231,256,1775945048],[123.83641,10.307164999999999,255,1775945056],[123.83635,10.307091,255,1775945064],[123.83632,10.306984999999999,253,1775945074],[123.83632,10.306874000000001,253,1775945084],[123.83636,10.306772,252,1775945095],[123.8364,10.306661,252,1775945105],[123.83636,10.306568,253,1775945191],[123.83627,10.306506000000001,250,1775945202],[123.83618,10.306443,250,1775945212],[123.8361,10.306367,249,1775945222],[123.83607000000001,10.306277,250,1775945230],[123.83605,10.306171000000001,250,1775945240],[123.83602999999999,10.306077,249,1775945248],[123.83598000000001,10.305961999999999,248,1775945259],[123.83593,10.305872000000001,248,1775945267],[123.83587,10.305774,247,1775945276],[123.83582,10.305687000000001,247,1775945284],[123.83575999999999,10.305602,247,1775945292],[123.83569,10.305531999999999,247,1775945300],[123.83565,10.305455,246,1775945308],[123.83561,10.305365,247,1775945316],[123.83557,10.305277999999999,248,1775945324],[123.83553000000001,10.305182,248,1775945332],[123.83548999999999,10.305080999999999,249,1775945359],[123.83548,10.304976999999999,249,1775945369],[123.83548,10.304881,249,1775945378],[123.83548999999999,10.304769,247,1775945388],[123.83548999999999,10.304664000000001,247,1775945398],[123.83551,10.304563999999999,247,1775945406],[123.83552,10.304475,247,1775945414],[123.83556,10.304385999999999,248,1775945423],[123.83562000000001,10.304289000000001,246,1775945433],[123.83568,10.304214,245,1775945441],[123.83577,10.30415,246,1775945451],[123.83587,10.304131,246,1775945460],[123.83598000000001,10.304137000000001,245,1775945470],[123.83606,10.304185,245,1775945478],[123.83614,10.304239000000001,245,1775945486],[123.83620999999999,10.304302,245,1775945494],[123.83629999999999,10.304361,245,1775945504],[123.8364,10.304373,246,1775945513],[123.83649,10.304366999999999,246,1775945521],[123.83659,10.304306,245,1775945532],[123.83665000000001,10.304226,243,1775945540],[123.83664,10.304117,242,1775945548],[123.83664,10.303925,242,1775945564],[123.83662,10.30383,242,1775945572],[123.83663,10.303732999999999,241,1775945581],[123.83671,10.303692,244,1775945596],[123.83682,10.303697,248,1775945611],[123.83692000000001,10.303705000000001,249,1775945624],[123.837,10.303611,250,1775945663],[123.83705999999999,10.303506,257,1775945765],[123.83714999999999,10.303558000000001,259,1775945788],[123.83713,10.30367,259,1775945819],[123.83719000000001,10.303758999999999,261,1775945830],[123.83729,10.303735,264,1775945928],[123.83732000000001,10.303646000000001,266,1775945978],[123.83734,10.303539000000001,268,1775945990],[123.83745,10.303492,272,1775946009],[123.83754999999999,10.303554999999999,279,1775946100],[123.83765,10.303552,281,1775946113],[123.83768000000001,10.303642999999999,284,1775946130],[123.83777000000001,10.303710000000001,284,1775946264],[123.83784,10.303799,290,1775946281],[123.83785,10.303907000000001,292,1775946297],[123.83778,10.303990000000001,292,1775946312],[123.8379,10.304041,295,1775946707],[123.83799999999999,10.304008,300,1775946725],[123.8381,10.303969,305,1775946742],[123.83817999999999,10.303848,309,1775946867],[123.83826000000001,10.303772,314,1775946890],[123.83834,10.303701999999999,318,1775946939],[123.83844000000001,10.303687999999999,323,1775946977],[123.83857,10.303689,326,1775946992],[123.83866999999999,10.303699,326,1775947004],[123.83877,10.303671,328,1775947017],[123.83884999999999,10.303616,333,1775947030],[123.8389,10.303705000000001,331,1775947051],[123.83896,10.303801999999999,333,1775947147],[123.839,10.303884999999999,335,1775947159],[123.83902,10.303990000000001,337,1775947171],[123.83909,10.304062,338,1775947181],[123.83913,10.304169999999999,342,1775947216],[123.83919,10.304245,344,1775947244],[123.83927,10.304314,346,1775947255],[123.83936,10.304363,349,1775947349],[123.83944,10.304413,352,1775947365],[123.83946,10.304519000000001,356,1775947386],[123.83956000000001,10.304587,355,1775947400],[123.83951999999999,10.304695000000001,354,1775947415],[123.8395,10.304786999999999,352,1775947427],[123.83949,10.304888999999999,351,1775947439],[123.83953,10.304983999999999,351,1775947453],[123.8396,10.305073,356,1775947470],[123.83965999999999,10.305152,361,1775947489],[123.83974000000001,10.305217000000001,363,1775947508],[123.83989,10.305282,366,1775947626],[123.83998,10.305336,371,1775947702],[123.84007,10.305405,374,1775947718],[123.84016,10.305460999999999,375,1775947732],[123.84023000000001,10.305540000000001,374,1775947745],[123.84034,10.305576,374,1775947805],[123.84043,10.305605,371,1775947881],[123.84053,10.305619999999999,369,1775947961],[123.84063,10.305655,366,1775947975],[123.84072999999999,10.305654000000001,365,1775948013],[123.84084,10.305656000000001,363,1775948030],[123.8409,10.305572,363,1775948043],[123.84084,10.30566,360,1775948078],[123.84081,10.305569,358,1775948106],[123.84086000000001,10.305491,359,1775948118],[123.84087,10.305387,360,1775948132],[123.84095000000001,10.305324000000001,361,1775948154],[123.84097,10.305213999999999,364,1775948172],[123.84101,10.305104,367,1775948203],[123.84102,10.305014,367,1775948216],[123.84104000000001,10.304905,368,1775948313],[123.84113000000001,10.304809000000001,374,1775948383],[123.84119,10.304622,379,1775948439],[123.84121,10.304527,379,1775948589],[123.84126000000001,10.304423999999999,383,1775948605],[123.84128,10.304334000000001,383,1775948623],[123.84133,10.304240999999999,384,1775948636],[123.84143,10.304154,392,1775948829],[123.84144000000001,10.304052,395,1775948872],[123.84142,10.30395,395,1775948882],[123.84144000000001,10.304055,395,1775948986],[123.84144999999999,10.304164,395,1775949016],[123.84146,10.304364,394,1775949040],[123.84147,10.304472000000001,396,1775949052],[123.84147,10.304573,395,1775949062],[123.84155,10.304650000000001,393,1775949075],[123.84164,10.304729999999999,394,1775949153],[123.84166999999999,10.304819,393,1775949183],[123.84174,10.304912,393,1775949196],[123.84181,10.304976,395,1775949209],[123.84188,10.30504,391,1775949220],[123.84196,10.305115000000001,390,1775949231],[123.84206,10.305177,389,1775949243],[123.84211999999999,10.305242,389,1775949254],[123.84220999999999,10.305282,391,1775949264],[123.84229000000001,10.305351999999999,387,1775949278],[123.84238000000001,10.305412,384,1775949288],[123.84247000000001,10.305459000000001,384,1775949299],[123.84256999999999,10.305498,384,1775949378],[123.84268,10.305531,384,1775949390],[123.84276,10.305583,382,1775949403],[123.84287,10.30561,378,1775949415],[123.84294,10.305539,378,1775949426],[123.84296000000001,10.305441999999999,378,1775949435],[123.84298,10.305341,380,1775949447],[123.843,10.305243000000001,381,1775949565],[123.84301000000001,10.305135,382,1775949577],[123.84305999999999,10.305059,385,1775949588],[123.84312,10.304982000000001,385,1775949599],[123.84314999999999,10.304888999999999,386,1775949610],[123.84319000000001,10.304786999999999,383,1775949623],[123.84322,10.304691,384,1775949640],[123.84329,10.304603999999999,383,1775949730],[123.84334,10.304517000000001,384,1775949740],[123.84336,10.304414,383,1775949751],[123.84341999999999,10.304344,383,1775949763],[123.84349,10.304262,382,1775949775],[123.84354,10.304174,383,1775949786],[123.84354999999999,10.304074999999999,383,1775949796],[123.84361,10.303991,383,1775949811],[123.8436,10.303900000000001,382,1775949942],[123.84363,10.303808999999999,382,1775949954],[123.84366,10.30372,379,1775949965],[123.84366,10.303516999999999,373,1775950000],[123.84367,10.303423,371,1775950011],[123.84368000000001,10.303318000000001,367,1775950023],[123.84379,10.303331999999999,369,1775950039],[123.84388,10.303368000000001,367,1775950051],[123.84398,10.303395,365,1775950061],[123.84408999999999,10.303397,365,1775950071],[123.84419,10.303433999999999,364,1775950081],[123.8443,10.30348,364,1775950091],[123.84439,10.303501000000001,363,1775950101],[123.84448999999999,10.303487000000001,362,1775950110],[123.84459,10.303476,361,1775950120],[123.84469,10.303481,362,1775950128],[123.84479,10.303506,361,1775950164],[123.8449,10.303497999999999,361,1775950173],[123.845,10.303497999999999,360,1775950183],[123.84513,10.303521,362,1775950195],[123.84524,10.303545,362,1775950206],[123.84533999999999,10.303526,362,1775950220],[123.8454,10.303449000000001,361,1775950229],[123.84547999999999,10.303378,359,1775950239],[123.84556000000001,10.303302,357,1775950250],[123.84564,10.303254000000001,355,1775950259],[123.84573,10.303207,352,1775950269],[123.84581,10.303129,351,1775950279],[123.84589,10.303077999999999,351,1775950287],[123.84596999999999,10.303001,351,1775950296],[123.84603,10.302913,353,1775950308],[123.84607,10.302828,352,1775950316],[123.84614999999999,10.302799,351,1775950325],[123.84623999999999,10.302742,349,1775950335],[123.84632999999999,10.302676999999999,350,1775950344],[123.84641000000001,10.302619999999999,349,1775950354],[123.84634,10.302697,349,1775950366],[123.84641999999999,10.302626999999999,351,1775950433],[123.84650999999999,10.302585000000001,350,1775950445],[123.8466,10.302535000000001,349,1775950458],[123.84669,10.302483000000001,348,1775950470],[123.84678,10.302424999999999,344,1775950483],[123.84686000000001,10.302375,344,1775950494],[123.84696,10.302334999999999,343,1775950506],[123.84707,10.30231,341,1775950516],[123.84717999999999,10.30228,341,1775950527],[123.84728,10.302211,342,1775950538],[123.84735999999999,10.302167000000001,341,1775950547],[123.84744999999999,10.302121,340,1775950556],[123.84754,10.302073999999999,340,1775950563],[123.84762000000001,10.302006,341,1775950574],[123.84771000000001,10.301944000000001,340,1775950583],[123.84778,10.301876999999999,342,1775950591],[123.84784999999999,10.301803,340,1775950600],[123.84793000000001,10.301748999999999,339,1775950609],[123.84802000000001,10.301683000000001,338,1775950620],[123.84808,10.301608999999999,336,1775950628],[123.84815999999999,10.301534999999999,332,1775950640],[123.84824,10.301469000000001,330,1775950650],[123.84829999999999,10.301399,329,1775950660],[123.84836,10.301330999999999,326,1775950671],[123.84842999999999,10.301269,324,1775950680],[123.8485,10.301202,327,1775950740],[123.84856000000001,10.301113000000001,327,1775950752],[123.84862,10.301030000000001,323,1775950768],[123.84869,10.300962,319,1775950780],[123.84875,10.300884999999999,316,1775950790],[123.84878999999999,10.300799,316,1775950798],[123.84886,10.300734,316,1775950809],[123.84894,10.300668,315,1775950818],[123.84902,10.300615000000001,315,1775950828],[123.84914000000001,10.300613,314,1775950840],[123.84926,10.300542999999999,316,1775950854],[123.84934,10.300484000000001,314,1775950864],[123.84944,10.300504,313,1775950875],[123.84951,10.300427000000001,310,1775950886],[123.84958,10.30035,309,1775950896],[123.84965,10.300287000000001,310,1775950905],[123.84976,10.300204000000001,308,1775950918],[123.84985,10.300171000000001,305,1775950926],[123.84994,10.300122,304,1775950934],[123.85004000000001,10.300094,302,1775950945],[123.85012999999999,10.300096,300,1775950959],[123.85023,10.300064000000001,295,1775950986],[123.85033,10.299992,289,1775951008],[123.85041,10.300051,279,1775951035],[123.85042,10.299775,292,1775951062],[123.85079,10.299833,276,1775951125],[123.85059,10.299363,261,1775951212],[123.85066,10.299281000000001,260,1775951281],[123.85072,10.299102,260,1775951287],[123.85059,10.299239999999999,254,1775951321],[123.85057999999999,10.299086000000001,244,1775951429],[123.85047,10.299004999999999,241,1775951449],[123.85046,10.298908000000001,229,1775951480],[123.85062000000001,10.298946000000001,235,1775951522],[123.85068,10.299023,232,1775951534],[123.85078,10.299061,229,1775951605],[123.85086,10.299116,224,1775951619],[123.85097,10.299153,221,1775951632],[123.85109,10.299253,220,1775951662],[123.85117,10.299341,218,1775951677],[123.85124999999999,10.299395000000001,215,1775951687],[123.85132,10.299469,210,1775951697],[123.85138999999999,10.299526999999999,207,1775951707],[123.85148,10.299586,202,1775951741],[123.85149,10.299738,198,1775951760],[123.85149,10.299829000000001,198,1775951767],[123.85151999999999,10.299956,195,1775951781],[123.85154,10.300077,194,1775951788],[123.85154,10.300174999999999,193,1775951798],[123.85156000000001,10.300267,191,1775951804],[123.85154,10.300369,191,1775951813],[123.85153,10.300478999999999,187,1775951826],[123.85151,10.300576,187,1775951834],[123.85146,10.300663999999999,186,1775951842],[123.85147000000001,10.300794,181,1775951859],[123.85144,10.300881,180,1775951867],[123.85148,10.300972,175,1775951885],[123.85146,10.301062999999999,173,1775951895],[123.85148,10.301164,169,1775951909],[123.85148,10.301361999999999,167,1775951932],[123.85155,10.301444999999999,167,1775951945],[123.85146,10.301506,170,1775951966],[123.85142,10.301607000000001,166,1775952090],[123.85133999999999,10.301664000000001,164,1775952098],[123.85129000000001,10.301752,169,1775952113],[123.85131,10.301864999999999,175,1775952180],[123.85138999999999,10.301987,178,1775952212],[123.85151,10.301924,183,1775952370],[123.8516,10.301894000000001,185,1775952518],[123.85176,10.301875000000001,191,1775952585],[123.85184,10.301821,195,1775952608],[123.85194,10.301793999999999,196,1775952682],[123.85204,10.301769,197,1775952704],[123.85213,10.301741,199,1775952716],[123.85223999999999,10.301726,201,1775952734],[123.85229,10.301639,207,1775952888],[123.8524,10.301639,206,1775952904],[123.85249,10.30158,207,1775952916],[123.85257,10.301529,208,1775952928],[123.85266,10.301492,210,1775952936],[123.85275,10.301444999999999,211,1775952948],[123.85284,10.301379000000001,213,1775952961],[123.85290999999999,10.301318,216,1775953609],[123.85301,10.301266999999999,217,1775953620],[123.85308999999999,10.301193,220,1775953629],[123.85317000000001,10.301133999999999,221,1775953639],[123.85326999999999,10.301106000000001,223,1775953650],[123.85326999999999,10.301235999999999,229,1775953737],[123.85325,10.301332,232,1775953749],[123.85330999999999,10.301427,236,1775953771],[123.85335000000001,10.301519000000001,238,1775953783],[123.85337,10.301615999999999,240,1775953875],[123.85330999999999,10.301696,243,1775953898],[123.85326000000001,10.301774999999999,245,1775953915],[123.85321,10.301850999999999,247,1775954019],[123.85316,10.301933999999999,250,1775954033],[123.85308000000001,10.301982000000001,255,1775954050],[123.85303999999999,10.302070000000001,259,1775954135],[123.85297,10.302155000000001,260,1775954150],[123.85290000000001,10.302220999999999,263,1775954160],[123.85283,10.302326000000001,269,1775954228],[123.85277000000001,10.302415999999999,270,1775954240],[123.85268000000001,10.302467,275,1775954289],[123.85262,10.302535000000001,276,1775954510],[123.85258,10.302633999999999,275,1775954523],[123.85254,10.302721999999999,276,1775954532],[123.85251,10.302837999999999,277,1775954541],[123.85247,10.302923,277,1775954553],[123.85242,10.303013,278,1775954562],[123.85234,10.303093000000001,280,1775954573],[123.8523,10.303193,281,1775954583],[123.85234,10.303279,281,1775954593],[123.85239,10.303367,282,1775954603],[123.8524,10.30348,282,1775954611],[123.85244,10.303577000000001,281,1775954623],[123.85245,10.303687,280,1775954633],[123.85245999999999,10.303791,282,1775954641],[123.85254,10.303858,286,1775954650],[123.85261,10.303921000000001,287,1775954662],[123.85266,10.303998999999999,287,1775954671],[123.85271,10.304084,289,1775954681],[123.85274,10.304173,287,1775954712],[123.85247,10.304221999999999,271,1775954758],[123.85236999999999,10.304259999999999,269,1775954768],[123.85223000000001,10.3043,266,1775954786],[123.85211,10.3043,265,1775954802],[123.85202,10.304283,263,1775954816],[123.85169,10.304379000000001,251,1775954878],[123.85151999999999,10.304406,245,1775954898],[123.85122,10.304249,222,1775954926],[123.85118,10.304556,238,1775954941],[123.85109,10.304579,238,1775954948],[123.85101,10.304646,236,1775954960],[123.85091,10.3047,234,1775954972],[123.85084000000001,10.304762,232,1775954981],[123.85077,10.304821,231,1775954988],[123.85069,10.304887000000001,230,1775955002],[123.85055,10.305118,226,1775955023],[123.85057999999999,10.305236000000001,220,1775955045],[123.85055,10.305334,218,1775955054],[123.8506,10.305429,218,1775955062],[123.85064,10.305515,219,1775955070],[123.85072,10.305578000000001,220,1775955079],[123.85077,10.305656000000001,220,1775955088],[123.85077,10.305749,219,1775955094],[123.85072,10.305831,216,1775955104],[123.85066999999999,10.305910000000001,215,1775955114],[123.85061,10.305993000000001,215,1775955124],[123.85057,10.306079,211,1775955134],[123.85054,10.306174,210,1775955144],[123.85045,10.306213,205,1775955155],[123.85034,10.306291999999999,201,1775955169],[123.85028,10.30636,200,1775955182],[123.85021,10.306421,199,1775955192],[123.85012999999999,10.306480000000001,197,1775955202],[123.85008000000001,10.306565000000001,195,1775955210],[123.84999999999999,10.306635,194,1775955222],[123.84995000000001,10.306716,193,1775955231],[123.84986000000001,10.306768,191,1775955242],[123.84978,10.306836000000001,188,1775955253],[123.84971,10.306915,185,1775955264],[123.84954999999999,10.307001,181,1775955284],[123.84945999999999,10.307073000000001,182,1775955291],[123.84939,10.307138,180,1775955302],[123.84932999999999,10.30721,179,1775955312],[123.84934,10.307311,177,1775955320],[123.84934,10.307411999999999,174,1775955332],[123.84943,10.307501999999999,174,1775955344],[123.84950000000001,10.307620999999999,170,1775955364],[123.84944,10.307733000000001,169,1775955379],[123.84936999999999,10.307798,170,1775955387],[123.84931,10.307886,170,1775955396],[123.84925,10.307956000000001,169,1775955403],[123.84917,10.308036,169,1775955412],[123.84908,10.308109999999999,169,1775955421],[123.84896999999999,10.308161999999999,170,1775955431],[123.8489,10.308233,171,1775955439],[123.84885,10.308317000000001,172,1775955446],[123.8488,10.308408999999999,171,1775955453],[123.84875,10.308496,173,1775955463],[123.84868,10.308612999999999,174,1775955474],[123.8486,10.308673000000001,174,1775955482],[123.84851,10.308699000000001,173,1775955490],[123.84841,10.308719,172,1775955497],[123.84831,10.308756000000001,172,1775955506],[123.84815,10.308731999999999,180,1775955573],[123.84805,10.308755,180,1775955579],[123.8479,10.308790999999999,180,1775955590],[123.84775999999999,10.309028,185,1775955612],[123.84775999999999,10.309257000000001,186,1775955634],[123.84764,10.309533999999999,187,1775955657],[123.84753000000001,10.309585,188,1775955663],[123.84747,10.309647,187,1775955675],[123.84728,10.309654,187,1775955694],[123.84714,10.309540999999999,189,1775955713],[123.84695000000001,10.309459,190,1775955726],[123.84672999999999,10.309493,191,1775955744],[123.84652,10.309193,191,1775955858],[123.84645,10.309087999999999,193,1775955918],[123.84645,10.308979000000001,196,1775955926],[123.84639,10.308906,196,1775955938],[123.8463,10.308852999999999,199,1775955956],[123.84625,10.308752,199,1775955994],[123.84616,10.308664,200,1775956006],[123.84608,10.308616000000001,201,1775956015],[123.84599,10.308555,203,1775956098],[123.84592000000001,10.308498,204,1775956107],[123.84582,10.308441999999999,208,1775956118],[123.84573,10.308394,210,1775956127],[123.84562,10.308376000000001,209,1775956152],[123.84551,10.308346999999999,210,1775956162],[123.84542,10.308320999999999,213,1775956170],[123.84529999999999,10.308316,214,1775956182],[123.84520000000001,10.308303,216,1775956192],[123.8451,10.30828,217,1775956201],[123.84499,10.308274000000001,220,1775956284],[123.84489000000001,10.308249999999999,220,1775956292],[123.84479,10.308208,222,1775956300],[123.84466999999999,10.308125,223,1775956311],[123.84455,10.308106,227,1775956324],[123.84444000000001,10.308107,225,1775956363],[123.84438,10.308026,226,1775956371],[123.84428,10.307992,229,1775956383],[123.84419,10.307938999999999,232,1775956393],[123.84408000000001,10.307898,235,1775956403],[123.84398,10.307833,238,1775956428],[123.84387,10.307747000000001,236,1775956511],[123.84378,10.307696999999999,237,1775956520],[123.84369,10.307634,237,1775956530],[123.84361,10.307574000000001,238,1775956542],[123.84352,10.307531000000001,240,1775956550],[123.8434,10.307513999999999,242,1775956579],[123.8433,10.307498000000001,245,1775956586],[123.84319000000001,10.307468999999999,246,1775956615],[123.84309,10.307468999999999,246,1775956624],[123.84299,10.307504,247,1775956634],[123.84287,10.307504,247,1775956643],[123.84278,10.307532,246,1775956651],[123.84263,10.307541000000001,247,1775956663],[123.84253,10.307537,249,1775956671],[123.84242999999999,10.307536000000001,250,1775956680],[123.84232,10.307509,249,1775956690],[123.84223,10.307503000000001,249,1775956697],[123.84211999999999,10.307503000000001,249,1775956705],[123.84202000000001,10.307494999999999,249,1775956712],[123.84193999999999,10.307464,251,1775956720],[123.84183,10.307447,251,1775956728],[123.84171000000001,10.307435999999999,251,1775956738],[123.84162000000001,10.307411,250,1775956746],[123.84152,10.307413,249,1775956762],[123.84137,10.307373999999999,249,1775956781],[123.84126000000001,10.307347,249,1775956790],[123.84116,10.307323,251,1775956797],[123.84107,10.307276999999999,253,1775956806],[123.84097,10.307262,255,1775956819],[123.84086000000001,10.307243,258,1775956842],[123.84077000000001,10.307211000000001,258,1775956849],[123.84067,10.307216,256,1775956858],[123.84056,10.307242,257,1775956867],[123.84045999999999,10.307273,258,1775956873],[123.84035,10.307286,259,1775956880],[123.84027,10.307328999999999,260,1775956887],[123.84018,10.307384000000001,261,1775956896],[123.84009,10.30742,262,1775956902],[123.83999,10.307434000000001,261,1775956912],[123.83982,10.307508,259,1775956929],[123.83975,10.307568,257,1775956936],[123.83965999999999,10.307606,259,1775956943],[123.83963,10.307695000000001,257,1775956958],[123.83955,10.307741,257,1775956966],[123.83947999999999,10.307821000000001,259,1775956974],[123.83953,10.307926,260,1775956995],[123.83958,10.308012,261,1775957005],[123.83953,10.307918000000001,260,1775957030],[123.83944,10.30796,258,1775957050],[123.83936,10.308031,258,1775957059],[123.83931,10.308107,261,1775957067],[123.83929000000001,10.308194,260,1775957072],[123.83924,10.308301999999999,257,1775957083],[123.83923,10.30842,260,1775957093],[123.83918,10.308512,261,1775957102],[123.8391,10.308571000000001,260,1775957109],[123.83905,10.308649000000001,261,1775957116],[123.83898000000001,10.308714,259,1775957123],[123.8389,10.30879,258,1775957130],[123.83884,10.308876,256,1775957140],[123.83877,10.308949,257,1775957149],[123.83869,10.309011999999999,259,1775957156],[123.83879,10.309024000000001,265,1775957200],[123.83865,10.309009,265,1775957214],[123.83853999999999,10.309037,264,1775957220],[123.83844999999999,10.309053,265,1775957226],[123.83834,10.309063,269,1775957233],[123.83824,10.309097,272,1775957243],[123.83817000000001,10.309111,272,1775957295]]]}}]}
