{"type":"FeatureCollection","features":[{"type":"Feature","properties":{"category":"no_service","preserve":true,"survey_group":"11e8f19f50b68a79","sequence":24},"geometry":{"type":"Point","coordinates":[123.7544125,10.289639599999999]}},{"type":"Feature","properties":{"category":"no_service","preserve":false,"survey_group":"11e8f19f50b68a79","sequence":23},"geometry":{"type":"Point","coordinates":[123.75403350000001,10.290286699999999]}},{"type":"Feature","properties":{"category":"no_service","preserve":false,"survey_group":"11e8f19f50b68a79","sequence":22},"geometry":{"type":"Point","coordinates":[123.7536377,10.291072]}},{"type":"Feature","properties":{"category":"no_service","preserve":false,"survey_group":"11e8f19f50b68a79","sequence":21},"geometry":{"type":"Point","coordinates":[123.75291439999999,10.291391600000001]}},{"type":"Feature","properties":{"category":"no_service","preserve":false,"survey_group":"11e8f19f50b68a79","sequence":20},"geometry":{"type":"Point","coordinates":[123.7526974,10.2920716]}},{"type":"Feature","properties":{"category":"no_service","preserve":true,"survey_group":"11e8f19f50b68a79","sequence":19},"geometry":{"type":"Point","coordinates":[123.7526005,10.2931601]}},{"type":"Feature","properties":{"category":"service","preserve":true,"survey_group":"11e8f19f50b68a79","sequence":18},"geometry":{"type":"Point","coordinates":[123.7519142,10.2937198]}},{"type":"Feature","properties":{"category":"no_service","preserve":true,"survey_group":"11e8f19f50b68a79","sequence":17},"geometry":{"type":"Point","coordinates":[123.7508708,10.2939434]}},{"type":"Feature","properties":{"category":"service","preserve":true,"survey_group":"11e8f19f50b68a79","sequence":16},"geometry":{"type":"Point","coordinates":[123.7511234,10.295159]}},{"type":"Feature","properties":{"category":"service","preserve":false,"survey_group":"11e8f19f50b68a79","sequence":15},"geometry":{"type":"Point","coordinates":[123.7510017,10.295977600000001]}},{"type":"Feature","properties":{"category":"service","preserve":false,"survey_group":"11e8f19f50b68a79","sequence":14},"geometry":{"type":"Point","coordinates":[123.752168,10.2972226]}},{"type":"Feature","properties":{"category":"service","preserve":false,"survey_group":"11e8f19f50b68a79","sequence":12},"geometry":{"type":"Point","coordinates":[123.7499361,10.298017700000001]}},{"type":"Feature","properties":{"category":"service","preserve":false,"survey_group":"11e8f19f50b68a79","sequence":13},"geometry":{"type":"Point","coordinates":[123.7512756,10.2980334]}},{"type":"Feature","properties":{"category":"service","preserve":false,"survey_group":"11e8f19f50b68a79","sequence":11},"geometry":{"type":"Point","coordinates":[123.7485039,10.298118799999999]}},{"type":"Feature","properties":{"category":"service","preserve":false,"survey_group":"11e8f19f50b68a79","sequence":10},"geometry":{"type":"Point","coordinates":[123.74666240000001,10.2988097]}},{"type":"Feature","properties":{"category":"service","preserve":false,"survey_group":"11e8f19f50b68a79","sequence":9},"geometry":{"type":"Point","coordinates":[123.7457263,10.2996689]}},{"type":"Feature","properties":{"category":"service","preserve":false,"survey_group":"11e8f19f50b68a79","sequence":8},"geometry":{"type":"Point","coordinates":[123.7451871,10.301157999999999]}},{"type":"Feature","properties":{"category":"service","preserve":false,"survey_group":"11e8f19f50b68a79","sequence":7},"geometry":{"type":"Point","coordinates":[123.7460198,10.3014501]}},{"type":"Feature","properties":{"category":"service","preserve":false,"survey_group":"11e8f19f50b68a79","sequence":6},"geometry":{"type":"Point","coordinates":[123.7463156,10.3025433]}},{"type":"Feature","properties":{"category":"service","preserve":false,"survey_group":"11e8f19f50b68a79","sequence":5},"geometry":{"type":"Point","coordinates":[123.7468068,10.3039796]}},{"type":"Feature","properties":{"category":"service","preserve":false,"survey_group":"11e8f19f50b68a79","sequence":4},"geometry":{"type":"Point","coordinates":[123.74626019999999,10.3043183]}},{"type":"Feature","properties":{"category":"service","preserve":false,"survey_group":"11e8f19f50b68a79","sequence":3},"geometry":{"type":"Point","coordinates":[123.7460244,10.304845500000001]}},{"type":"Feature","properties":{"category":"service","preserve":false,"survey_group":"11e8f19f50b68a79","sequence":2},"geometry":{"type":"Point","coordinates":[123.7459611,10.3054396]}},{"type":"Feature","properties":{"category":"service","preserve":false,"survey_group":"11e8f19f50b68a79","sequence":1},"geometry":{"type":"Point","coordinates":[123.74541809999999,10.3056655]}},{"type":"Feature","properties":{"category":"service","preserve":true,"survey_group":"11e8f19f50b68a79","sequence":0},"geometry":{"type":"Point","coordinates":[123.7449938,10.305843899999999]}},{"type":"Feature","properties":{"category":"service","preserve":true,"survey_group":"54f305bb156e3779","sequence":22},"geometry":{"type":"Point","coordinates":[123.77984789999999,10.240278500000001]}},{"type":"Feature","properties":{"category":"service","preserve":false,"survey_group":"54f305bb156e3779","sequence":21},"geometry":{"type":"Point","coordinates":[123.7677735,10.2541925]}},{"type":"Feature","properties":{"category":"service","preserve":false,"survey_group":"54f305bb156e3779","sequence":20},"geometry":{"type":"Point","coordinates":[123.7580485,10.262430500000001]}},{"type":"Feature","properties":{"category":"service","preserve":false,"survey_group":"54f305bb156e3779","sequence":19},"geometry":{"type":"Point","coordinates":[123.753798,10.275138]}},{"type":"Feature","properties":{"category":"service","preserve":false,"survey_group":"54f305bb156e3779","sequence":18},"geometry":{"type":"Point","coordinates":[123.7527764,10.2770355]}},{"type":"Feature","properties":{"category":"service","preserve":true,"survey_group":"54f305bb156e3779","sequence":17},"geometry":{"type":"Point","coordinates":[123.7511356,10.278858]}},{"type":"Feature","properties":{"category":"no_service","preserve":true,"survey_group":"54f305bb156e3779","sequence":16},"geometry":{"type":"Point","coordinates":[123.75098560000001,10.279615]}},{"type":"Feature","properties":{"category":"no_service","preserve":false,"survey_group":"54f305bb156e3779","sequence":15},"geometry":{"type":"Point","coordinates":[123.75067009999999,10.2809384]}},{"type":"Feature","properties":{"category":"no_service","preserve":false,"survey_group":"54f305bb156e3779","sequence":14},"geometry":{"type":"Point","coordinates":[123.75132739999999,10.282120300000001]}},{"type":"Feature","properties":{"category":"no_service","preserve":false,"survey_group":"54f305bb156e3779","sequence":13},"geometry":{"type":"Point","coordinates":[123.7521224,10.283372399999999]}},{"type":"Feature","properties":{"category":"no_service","preserve":false,"survey_group":"54f305bb156e3779","sequence":12},"geometry":{"type":"Point","coordinates":[123.75275739999999,10.284345200000001]}},{"type":"Feature","properties":{"category":"no_service","preserve":false,"survey_group":"54f305bb156e3779","sequence":11},"geometry":{"type":"Point","coordinates":[123.7534702,10.2852879]}},{"type":"Feature","properties":{"category":"no_service","preserve":false,"survey_group":"54f305bb156e3779","sequence":10},"geometry":{"type":"Point","coordinates":[123.75349110000001,10.286484]}},{"type":"Feature","properties":{"category":"no_service","preserve":false,"survey_group":"54f305bb156e3779","sequence":9},"geometry":{"type":"Point","coordinates":[123.7534569,10.286987699999999]}},{"type":"Feature","properties":{"category":"no_service","preserve":false,"survey_group":"54f305bb156e3779","sequence":8},"geometry":{"type":"Point","coordinates":[123.75464239999999,10.288242]}},{"type":"Feature","properties":{"category":"no_service","preserve":true,"survey_group":"54f305bb156e3779","sequence":0},"geometry":{"type":"Point","coordinates":[123.7553434,10.2888766]}},{"type":"Feature","properties":{"category":"no_service","preserve":false,"survey_group":"54f305bb156e3779","sequence":1},"geometry":{"type":"Point","coordinates":[123.7564957,10.289022299999999]}},{"type":"Feature","properties":{"category":"no_service","preserve":false,"survey_group":"54f305bb156e3779","sequence":7},"geometry":{"type":"Point","coordinates":[123.7560771,10.2890479]}},{"type":"Feature","properties":{"category":"no_service","preserve":false,"survey_group":"54f305bb156e3779","sequence":3},"geometry":{"type":"Point","coordinates":[123.7576906,10.2892815]}},{"type":"Feature","properties":{"category":"no_service","preserve":false,"survey_group":"54f305bb156e3779","sequence":6},"geometry":{"type":"Point","coordinates":[123.75652770000001,10.289517099999999]}},{"type":"Feature","properties":{"category":"no_service","preserve":false,"survey_group":"54f305bb156e3779","sequence":2},"geometry":{"type":"Point","coordinates":[123.7568048,10.289830200000001]}},{"type":"Feature","properties":{"category":"no_service","preserve":false,"survey_group":"54f305bb156e3779","sequence":4},"geometry":{"type":"Point","coordinates":[123.75806489999999,10.2898446]}},{"type":"Feature","properties":{"category":"service","preserve":true,"survey_group":"f1c4e0958e306e55","sequence":0},"geometry":{"type":"Point","coordinates":[123.7744532,10.236730100000001]}},{"type":"Feature","properties":{"category":"no_service","preserve":true,"survey_group":"f1c4e0958e306e55","sequence":21},"geometry":{"type":"Point","coordinates":[123.7593916,10.238141499999999]}},{"type":"Feature","properties":{"category":"service","preserve":true,"survey_group":"f1c4e0958e306e55","sequence":20},"geometry":{"type":"Point","coordinates":[123.76056060000001,10.2386762]}},{"type":"Feature","properties":{"category":"service","preserve":true,"survey_group":"f1c4e0958e306e55","sequence":22},"geometry":{"type":"Point","coordinates":[123.75782529999999,10.238708900000001]}},{"type":"Feature","properties":{"category":"service","preserve":false,"survey_group":"f1c4e0958e306e55","sequence":16},"geometry":{"type":"Point","coordinates":[123.7666102,10.239326]}},{"type":"Feature","properties":{"category":"service","preserve":false,"survey_group":"f1c4e0958e306e55","sequence":19},"geometry":{"type":"Point","coordinates":[123.7630121,10.2396054]}},{"type":"Feature","properties":{"category":"service","preserve":false,"survey_group":"f1c4e0958e306e55","sequence":17},"geometry":{"type":"Point","coordinates":[123.7656418,10.2396169]}},{"type":"Feature","properties":{"category":"service","preserve":false,"survey_group":"f1c4e0958e306e55","sequence":18},"geometry":{"type":"Point","coordinates":[123.7637718,10.239708500000001]}},{"type":"Feature","properties":{"category":"service","preserve":false,"survey_group":"f1c4e0958e306e55","sequence":15},"geometry":{"type":"Point","coordinates":[123.7672457,10.2399173]}},{"type":"Feature","properties":{"category":"service","preserve":false,"survey_group":"f1c4e0958e306e55","sequence":23},"geometry":{"type":"Point","coordinates":[123.7562799,10.240151300000001]}},{"type":"Feature","properties":{"category":"service","preserve":false,"survey_group":"f1c4e0958e306e55","sequence":14},"geometry":{"type":"Point","coordinates":[123.7675066,10.240445599999999]}},{"type":"Feature","properties":{"category":"service","preserve":false,"survey_group":"f1c4e0958e306e55","sequence":24},"geometry":{"type":"Point","coordinates":[123.7561386,10.241085699999999]}},{"type":"Feature","properties":{"category":"service","preserve":false,"survey_group":"f1c4e0958e306e55","sequence":13},"geometry":{"type":"Point","coordinates":[123.76655529999999,10.2413629]}},{"type":"Feature","properties":{"category":"service","preserve":false,"survey_group":"f1c4e0958e306e55","sequence":25},"geometry":{"type":"Point","coordinates":[123.7557413,10.2419093]}},{"type":"Feature","properties":{"category":"service","preserve":false,"survey_group":"f1c4e0958e306e55","sequence":12},"geometry":{"type":"Point","coordinates":[123.7651733,10.242325599999999]}},{"type":"Feature","properties":{"category":"service","preserve":false,"survey_group":"f1c4e0958e306e55","sequence":11},"geometry":{"type":"Point","coordinates":[123.7649229,10.243180799999999]}},{"type":"Feature","properties":{"category":"service","preserve":false,"survey_group":"f1c4e0958e306e55","sequence":26},"geometry":{"type":"Point","coordinates":[123.75418070000001,10.243762]}},{"type":"Feature","properties":{"category":"service","preserve":false,"survey_group":"f1c4e0958e306e55","sequence":10},"geometry":{"type":"Point","coordinates":[123.7646787,10.243917700000001]}},{"type":"Feature","properties":{"category":"service","preserve":false,"survey_group":"f1c4e0958e306e55","sequence":27},"geometry":{"type":"Point","coordinates":[123.7538708,10.2447614]}},{"type":"Feature","properties":{"category":"service","preserve":false,"survey_group":"f1c4e0958e306e55","sequence":28},"geometry":{"type":"Point","coordinates":[123.75515350000001,10.244897099999999]}},{"type":"Feature","properties":{"category":"service","preserve":false,"survey_group":"f1c4e0958e306e55","sequence":9},"geometry":{"type":"Point","coordinates":[123.7646173,10.244909099999999]}},{"type":"Feature","properties":{"category":"service","preserve":false,"survey_group":"f1c4e0958e306e55","sequence":31},"geometry":{"type":"Point","coordinates":[123.7569917,10.244929900000001]}},{"type":"Feature","properties":{"category":"service","preserve":false,"survey_group":"f1c4e0958e306e55","sequence":30},"geometry":{"type":"Point","coordinates":[123.7561367,10.245002400000001]}},{"type":"Feature","properties":{"category":"service","preserve":false,"survey_group":"f1c4e0958e306e55","sequence":29},"geometry":{"type":"Point","coordinates":[123.75577730000001,10.245337900000001]}},{"type":"Feature","properties":{"category":"service","preserve":false,"survey_group":"f1c4e0958e306e55","sequence":8},"geometry":{"type":"Point","coordinates":[123.7642626,10.245422899999999]}},{"type":"Feature","properties":{"category":"service","preserve":false,"survey_group":"f1c4e0958e306e55","sequence":7},"geometry":{"type":"Point","coordinates":[123.76392439999999,10.245836000000001]}},{"type":"Feature","properties":{"category":"service","preserve":false,"survey_group":"f1c4e0958e306e55","sequence":6},"geometry":{"type":"Point","coordinates":[123.763424,10.246425800000001]}},{"type":"Feature","properties":{"category":"service","preserve":false,"survey_group":"f1c4e0958e306e55","sequence":32},"geometry":{"type":"Point","coordinates":[123.7561106,10.2464809]}},{"type":"Feature","properties":{"category":"service","preserve":false,"survey_group":"f1c4e0958e306e55","sequence":1},"geometry":{"type":"Point","coordinates":[123.769702,10.2465104]}},{"type":"Feature","properties":{"category":"service","preserve":false,"survey_group":"f1c4e0958e306e55","sequence":5},"geometry":{"type":"Point","coordinates":[123.76335210000001,10.2473902]}},{"type":"Feature","properties":{"category":"service","preserve":false,"survey_group":"f1c4e0958e306e55","sequence":4},"geometry":{"type":"Point","coordinates":[123.76229619999999,10.2476284]}},{"type":"Feature","properties":{"category":"service","preserve":false,"survey_group":"f1c4e0958e306e55","sequence":33},"geometry":{"type":"Point","coordinates":[123.7564698,10.247779]}},{"type":"Feature","properties":{"category":"service","preserve":false,"survey_group":"f1c4e0958e306e55","sequence":3},"geometry":{"type":"Point","coordinates":[123.7610883,10.248371499999999]}},{"type":"Feature","properties":{"category":"service","preserve":false,"survey_group":"f1c4e0958e306e55","sequence":2},"geometry":{"type":"Point","coordinates":[123.76455900000001,10.2488514]}},{"type":"Feature","properties":{"category":"service","preserve":true,"survey_group":"f1c4e0958e306e55","sequence":39},"geometry":{"type":"Point","coordinates":[123.7607675,10.2488736]}},{"type":"Feature","properties":{"category":"service","preserve":false,"survey_group":"f1c4e0958e306e55","sequence":34},"geometry":{"type":"Point","coordinates":[123.7570382,10.249176800000001]}},{"type":"Feature","properties":{"category":"service","preserve":false,"survey_group":"f1c4e0958e306e55","sequence":38},"geometry":{"type":"Point","coordinates":[123.76023530000001,10.249690599999999]}},{"type":"Feature","properties":{"category":"service","preserve":false,"survey_group":"f1c4e0958e306e55","sequence":35},"geometry":{"type":"Point","coordinates":[123.7570991,10.249776199999999]}},{"type":"Feature","properties":{"category":"service","preserve":false,"survey_group":"f1c4e0958e306e55","sequence":36},"geometry":{"type":"Point","coordinates":[123.7573019,10.2502412]}},{"type":"Feature","properties":{"category":"service","preserve":false,"survey_group":"f1c4e0958e306e55","sequence":37},"geometry":{"type":"Point","coordinates":[123.7587429,10.2504629]}},{"type":"Feature","properties":{"category":"service","preserve":false,"survey_group":"770e7e3c63867daf","sequence":45},"geometry":{"type":"Point","coordinates":[123.8144848,10.3377839]}},{"type":"Feature","properties":{"category":"service","preserve":false,"survey_group":"770e7e3c63867daf","sequence":44},"geometry":{"type":"Point","coordinates":[123.8153938,10.3380896]}},{"type":"Feature","properties":{"category":"service","preserve":false,"survey_group":"770e7e3c63867daf","sequence":43},"geometry":{"type":"Point","coordinates":[123.8161425,10.3381127]}},{"type":"Feature","properties":{"category":"service","preserve":true,"survey_group":"770e7e3c63867daf","sequence":42},"geometry":{"type":"Point","coordinates":[123.8175205,10.3389376]}},{"type":"Feature","properties":{"category":"no_service","preserve":true,"survey_group":"770e7e3c63867daf","sequence":41},"geometry":{"type":"Point","coordinates":[123.81652800000001,10.3391786]}},{"type":"Feature","properties":{"category":"service","preserve":false,"survey_group":"770e7e3c63867daf","sequence":46},"geometry":{"type":"Point","coordinates":[123.8141322,10.3395888]}},{"type":"Feature","properties":{"category":"no_service","preserve":true,"survey_group":"770e7e3c63867daf","sequence":40},"geometry":{"type":"Point","coordinates":[123.8168436,10.340051000000001]}},{"type":"Feature","properties":{"category":"service","preserve":true,"survey_group":"770e7e3c63867daf","sequence":39},"geometry":{"type":"Point","coordinates":[123.81925219999999,10.340064999999999]}},{"type":"Feature","properties":{"category":"service","preserve":false,"survey_group":"770e7e3c63867daf","sequence":47},"geometry":{"type":"Point","coordinates":[123.81324239999999,10.340388900000001]}},{"type":"Feature","properties":{"category":"no_service","preserve":true,"survey_group":"770e7e3c63867daf","sequence":38},"geometry":{"type":"Point","coordinates":[123.82068049999999,10.340809699999999]}},{"type":"Feature","properties":{"category":"service","preserve":false,"survey_group":"770e7e3c63867daf","sequence":48},"geometry":{"type":"Point","coordinates":[123.81136600000001,10.341271300000001]}},{"type":"Feature","properties":{"category":"no_service","preserve":false,"survey_group":"770e7e3c63867daf","sequence":35},"geometry":{"type":"Point","coordinates":[123.8262395,10.3413925]}},{"type":"Feature","properties":{"category":"service","preserve":false,"survey_group":"770e7e3c63867daf","sequence":49},"geometry":{"type":"Point","coordinates":[123.8103954,10.3414743]}},{"type":"Feature","properties":{"category":"no_service","preserve":false,"survey_group":"770e7e3c63867daf","sequence":34},"geometry":{"type":"Point","coordinates":[123.8281808,10.341507699999999]}},{"type":"Feature","properties":{"category":"no_service","preserve":false,"survey_group":"770e7e3c63867daf","sequence":36},"geometry":{"type":"Point","coordinates":[123.8244941,10.341562400000001]}},{"type":"Feature","properties":{"category":"no_service","preserve":false,"survey_group":"770e7e3c63867daf","sequence":37},"geometry":{"type":"Point","coordinates":[123.8230756,10.342550599999999]}},{"type":"Feature","properties":{"category":"service","preserve":true,"survey_group":"770e7e3c63867daf","sequence":50},"geometry":{"type":"Point","coordinates":[123.8101781,10.342882700000001]}},{"type":"Feature","properties":{"category":"no_service","preserve":false,"survey_group":"770e7e3c63867daf","sequence":33},"geometry":{"type":"Point","coordinates":[123.83043979999999,10.343207100000001]}},{"type":"Feature","properties":{"category":"no_service","preserve":true,"survey_group":"770e7e3c63867daf","sequence":51},"geometry":{"type":"Point","coordinates":[123.8103146,10.3434697]}},{"type":"Feature","properties":{"category":"service","preserve":false,"survey_group":"770e7e3c63867daf","sequence":54},"geometry":{"type":"Point","coordinates":[123.8080416,10.3439286]}},{"type":"Feature","properties":{"category":"service","preserve":true,"survey_group":"770e7e3c63867daf","sequence":52},"geometry":{"type":"Point","coordinates":[123.8091204,10.343936100000001]}},{"type":"Feature","properties":{"category":"service","preserve":false,"survey_group":"770e7e3c63867daf","sequence":53},"geometry":{"type":"Point","coordinates":[123.8087805,10.3444805]}},{"type":"Feature","properties":{"category":"no_service","preserve":true,"survey_group":"770e7e3c63867daf","sequence":32},"geometry":{"type":"Point","coordinates":[123.83262209999999,10.34503]}},{"type":"Feature","properties":{"category":"service","preserve":false,"survey_group":"770e7e3c63867daf","sequence":55},"geometry":{"type":"Point","coordinates":[123.80708749999999,10.345059900000001]}},{"type":"Feature","properties":{"category":"service","preserve":false,"survey_group":"770e7e3c63867daf","sequence":29},"geometry":{"type":"Point","coordinates":[123.8308684,10.3461161]}},{"type":"Feature","properties":{"category":"service","preserve":false,"survey_group":"770e7e3c63867daf","sequence":56},"geometry":{"type":"Point","coordinates":[123.8074129,10.346126099999999]}},{"type":"Feature","properties":{"category":"service","preserve":true,"survey_group":"770e7e3c63867daf","sequence":31},"geometry":{"type":"Point","coordinates":[123.83495069999999,10.3462011]}},{"type":"Feature","properties":{"category":"service","preserve":false,"survey_group":"770e7e3c63867daf","sequence":30},"geometry":{"type":"Point","coordinates":[123.8326318,10.3463888]}},{"type":"Feature","properties":{"category":"service","preserve":true,"survey_group":"770e7e3c63867daf","sequence":57},"geometry":{"type":"Point","coordinates":[123.8077684,10.3468316]}},{"type":"Feature","properties":{"category":"service","preserve":true,"survey_group":"770e7e3c63867daf","sequence":28},"geometry":{"type":"Point","coordinates":[123.8298987,10.3476531]}},{"type":"Feature","properties":{"category":"service","preserve":true,"survey_group":"770e7e3c63867daf","sequence":26},"geometry":{"type":"Point","coordinates":[123.8270929,10.347720900000001]}},{"type":"Feature","properties":{"category":"service","preserve":false,"survey_group":"770e7e3c63867daf","sequence":25},"geometry":{"type":"Point","coordinates":[123.8257395,10.347833899999999]}},{"type":"Feature","properties":{"category":"no_service","preserve":true,"survey_group":"770e7e3c63867daf","sequence":27},"geometry":{"type":"Point","coordinates":[123.8285522,10.3479952]}},{"type":"Feature","properties":{"category":"service","preserve":false,"survey_group":"770e7e3c63867daf","sequence":24},"geometry":{"type":"Point","coordinates":[123.8251613,10.3482088]}},{"type":"Feature","properties":{"category":"service","preserve":true,"survey_group":"770e7e3c63867daf","sequence":0},"geometry":{"type":"Point","coordinates":[123.8091498,10.3486142]}},{"type":"Feature","properties":{"category":"service","preserve":false,"survey_group":"770e7e3c63867daf","sequence":23},"geometry":{"type":"Point","coordinates":[123.82452960000001,10.3489247]}},{"type":"Feature","properties":{"category":"service","preserve":false,"survey_group":"770e7e3c63867daf","sequence":22},"geometry":{"type":"Point","coordinates":[123.824018,10.349255299999999]}},{"type":"Feature","properties":{"category":"no_service","preserve":true,"survey_group":"770e7e3c63867daf","sequence":1},"geometry":{"type":"Point","coordinates":[123.8103213,10.349345700000001]}},{"type":"Feature","properties":{"category":"service","preserve":false,"survey_group":"770e7e3c63867daf","sequence":21},"geometry":{"type":"Point","coordinates":[123.8240392,10.349993]}},{"type":"Feature","properties":{"category":"service","preserve":true,"survey_group":"770e7e3c63867daf","sequence":2},"geometry":{"type":"Point","coordinates":[123.8128636,10.3502326]}},{"type":"Feature","properties":{"category":"service","preserve":false,"survey_group":"770e7e3c63867daf","sequence":20},"geometry":{"type":"Point","coordinates":[123.82374280000001,10.351191500000001]}},{"type":"Feature","properties":{"category":"service","preserve":false,"survey_group":"770e7e3c63867daf","sequence":19},"geometry":{"type":"Point","coordinates":[123.8245168,10.3513947]}},{"type":"Feature","properties":{"category":"no_service","preserve":true,"survey_group":"770e7e3c63867daf","sequence":3},"geometry":{"type":"Point","coordinates":[123.8133401,10.3515842]}},{"type":"Feature","properties":{"category":"service","preserve":false,"survey_group":"770e7e3c63867daf","sequence":18},"geometry":{"type":"Point","coordinates":[123.8248756,10.352460799999999]}},{"type":"Feature","properties":{"category":"service","preserve":false,"survey_group":"770e7e3c63867daf","sequence":17},"geometry":{"type":"Point","coordinates":[123.8248365,10.353359899999999]}},{"type":"Feature","properties":{"category":"service","preserve":true,"survey_group":"770e7e3c63867daf","sequence":4},"geometry":{"type":"Point","coordinates":[123.81487509999999,10.3533828]}},{"type":"Feature","properties":{"category":"service","preserve":false,"survey_group":"770e7e3c63867daf","sequence":16},"geometry":{"type":"Point","coordinates":[123.8250177,10.353839300000001]}},{"type":"Feature","properties":{"category":"service","preserve":false,"survey_group":"770e7e3c63867daf","sequence":15},"geometry":{"type":"Point","coordinates":[123.8250695,10.3547052]}},{"type":"Feature","properties":{"category":"service","preserve":false,"survey_group":"770e7e3c63867daf","sequence":5},"geometry":{"type":"Point","coordinates":[123.8172948,10.3549785]}},{"type":"Feature","properties":{"category":"service","preserve":false,"survey_group":"770e7e3c63867daf","sequence":14},"geometry":{"type":"Point","coordinates":[123.8252569,10.355662000000001]}},{"type":"Feature","properties":{"category":"service","preserve":false,"survey_group":"770e7e3c63867daf","sequence":13},"geometry":{"type":"Point","coordinates":[123.825987,10.356170499999999]}},{"type":"Feature","properties":{"category":"service","preserve":true,"survey_group":"770e7e3c63867daf","sequence":6},"geometry":{"type":"Point","coordinates":[123.82067360000001,10.356313]}},{"type":"Feature","properties":{"category":"service","preserve":false,"survey_group":"770e7e3c63867daf","sequence":12},"geometry":{"type":"Point","coordinates":[123.8263929,10.356619999999999]}},{"type":"Feature","properties":{"category":"service","preserve":false,"survey_group":"770e7e3c63867daf","sequence":11},"geometry":{"type":"Point","coordinates":[123.826528,10.357382299999999]}},{"type":"Feature","properties":{"category":"no_service","preserve":true,"survey_group":"770e7e3c63867daf","sequence":7},"geometry":{"type":"Point","coordinates":[123.82052899999999,10.358503300000001]}},{"type":"Feature","properties":{"category":"service","preserve":true,"survey_group":"770e7e3c63867daf","sequence":8},"geometry":{"type":"Point","coordinates":[123.8235651,10.3592341]}},{"type":"Feature","properties":{"category":"service","preserve":false,"survey_group":"770e7e3c63867daf","sequence":10},"geometry":{"type":"Point","coordinates":[123.8260466,10.3593794]}},{"type":"Feature","properties":{"category":"service","preserve":false,"survey_group":"770e7e3c63867daf","sequence":9},"geometry":{"type":"Point","coordinates":[123.82521819999999,10.3613131]}},{"type":"Feature","properties":{"category":"service","preserve":true,"survey_group":"4b777fb5594721bc","sequence":0},"geometry":{"type":"Point","coordinates":[123.8120998,10.341358700000001]}},{"type":"Feature","properties":{"category":"service","preserve":false,"survey_group":"4b777fb5594721bc","sequence":1},"geometry":{"type":"Point","coordinates":[123.81273179999999,10.341837699999999]}},{"type":"Feature","properties":{"category":"service","preserve":false,"survey_group":"4b777fb5594721bc","sequence":2},"geometry":{"type":"Point","coordinates":[123.8134388,10.342404]}},{"type":"Feature","properties":{"category":"service","preserve":false,"survey_group":"4b777fb5594721bc","sequence":3},"geometry":{"type":"Point","coordinates":[123.8134728,10.343278700000001]}},{"type":"Feature","properties":{"category":"service","preserve":false,"survey_group":"4b777fb5594721bc","sequence":4},"geometry":{"type":"Point","coordinates":[123.81525600000001,10.343901600000001]}},{"type":"Feature","properties":{"category":"service","preserve":false,"survey_group":"4b777fb5594721bc","sequence":5},"geometry":{"type":"Point","coordinates":[123.8169331,10.344758000000001]}},{"type":"Feature","properties":{"category":"service","preserve":false,"survey_group":"4b777fb5594721bc","sequence":6},"geometry":{"type":"Point","coordinates":[123.818034,10.3458103]}},{"type":"Feature","properties":{"category":"service","preserve":false,"survey_group":"4b777fb5594721bc","sequence":7},"geometry":{"type":"Point","coordinates":[123.8199599,10.3471361]}},{"type":"Feature","properties":{"category":"service","preserve":true,"survey_group":"4b777fb5594721bc","sequence":8},"geometry":{"type":"Point","coordinates":[123.8222997,10.3484436]}},{"type":"Feature","properties":{"category":"service","preserve":true,"survey_group":"e7bc3c8555c9263d","sequence":2},"geometry":{"type":"Point","coordinates":[123.8622311,10.330611899999999]}},{"type":"Feature","properties":{"category":"service","preserve":false,"survey_group":"e7bc3c8555c9263d","sequence":1},"geometry":{"type":"Point","coordinates":[123.8536199,10.336165299999999]}},{"type":"Feature","properties":{"category":"service","preserve":true,"survey_group":"e7bc3c8555c9263d","sequence":0},"geometry":{"type":"Point","coordinates":[123.84502639999999,10.3378131]}},{"type":"Feature","properties":{"category":"service","preserve":true,"survey_group":"557456a1fddd06ec","sequence":0},"geometry":{"type":"Point","coordinates":[123.8255066,10.2757404]}},{"type":"Feature","properties":{"category":"service","preserve":false,"survey_group":"557456a1fddd06ec","sequence":1},"geometry":{"type":"Point","coordinates":[123.82548920000001,10.275747900000001]}},{"type":"Feature","properties":{"category":"service","preserve":false,"survey_group":"557456a1fddd06ec","sequence":3},"geometry":{"type":"Point","coordinates":[123.8260315,10.2764863]}},{"type":"Feature","properties":{"category":"service","preserve":false,"survey_group":"557456a1fddd06ec","sequence":4},"geometry":{"type":"Point","coordinates":[123.8266326,10.277169499999999]}},{"type":"Feature","properties":{"category":"service","preserve":false,"survey_group":"557456a1fddd06ec","sequence":5},"geometry":{"type":"Point","coordinates":[123.8270401,10.2780725]}},{"type":"Feature","properties":{"category":"service","preserve":false,"survey_group":"557456a1fddd06ec","sequence":6},"geometry":{"type":"Point","coordinates":[123.82725000000001,10.2790344]}},{"type":"Feature","properties":{"category":"service","preserve":false,"survey_group":"557456a1fddd06ec","sequence":7},"geometry":{"type":"Point","coordinates":[123.8270218,10.279964100000001]}},{"type":"Feature","properties":{"category":"service","preserve":false,"survey_group":"557456a1fddd06ec","sequence":8},"geometry":{"type":"Point","coordinates":[123.8263275,10.2805725]}},{"type":"Feature","properties":{"category":"service","preserve":false,"survey_group":"557456a1fddd06ec","sequence":10},"geometry":{"type":"Point","coordinates":[123.8246398,10.281135900000001]}},{"type":"Feature","properties":{"category":"service","preserve":false,"survey_group":"557456a1fddd06ec","sequence":9},"geometry":{"type":"Point","coordinates":[123.8255798,10.2811889]}},{"type":"Feature","properties":{"category":"service","preserve":false,"survey_group":"557456a1fddd06ec","sequence":11},"geometry":{"type":"Point","coordinates":[123.8240788,10.2817226]}},{"type":"Feature","properties":{"category":"service","preserve":false,"survey_group":"557456a1fddd06ec","sequence":12},"geometry":{"type":"Point","coordinates":[123.8236089,10.282575100000001]}},{"type":"Feature","properties":{"category":"no_service","preserve":true,"survey_group":"557456a1fddd06ec","sequence":14},"geometry":{"type":"Point","coordinates":[123.822689,10.282867700000001]}},{"type":"Feature","properties":{"category":"service","preserve":true,"survey_group":"557456a1fddd06ec","sequence":13},"geometry":{"type":"Point","coordinates":[123.822689,10.282867700000001]}},{"type":"Feature","properties":{"category":"no_service","preserve":false,"survey_group":"557456a1fddd06ec","sequence":15},"geometry":{"type":"Point","coordinates":[123.8217083,10.2830534]}},{"type":"Feature","properties":{"category":"no_service","preserve":false,"survey_group":"557456a1fddd06ec","sequence":16},"geometry":{"type":"Point","coordinates":[123.82093620000001,10.283604]}},{"type":"Feature","properties":{"category":"no_service","preserve":true,"survey_group":"557456a1fddd06ec","sequence":17},"geometry":{"type":"Point","coordinates":[123.8202039,10.2842324]}},{"type":"Feature","properties":{"category":"service","preserve":false,"survey_group":"557456a1fddd06ec","sequence":19},"geometry":{"type":"Point","coordinates":[123.82002199999999,10.2845829]}},{"type":"Feature","properties":{"category":"service","preserve":true,"survey_group":"557456a1fddd06ec","sequence":18},"geometry":{"type":"Point","coordinates":[123.82002199999999,10.2845829]}},{"type":"Feature","properties":{"category":"service","preserve":false,"survey_group":"557456a1fddd06ec","sequence":20},"geometry":{"type":"Point","coordinates":[123.8199106,10.2855706]}},{"type":"Feature","properties":{"category":"service","preserve":true,"survey_group":"557456a1fddd06ec","sequence":21},"geometry":{"type":"Point","coordinates":[123.819773,10.2864898]}},{"type":"Feature","properties":{"category":"no_service","preserve":true,"survey_group":"557456a1fddd06ec","sequence":22},"geometry":{"type":"Point","coordinates":[123.81968209999999,10.286858000000001]}},{"type":"Feature","properties":{"category":"service","preserve":false,"survey_group":"557456a1fddd06ec","sequence":24},"geometry":{"type":"Point","coordinates":[123.8195602,10.287520000000001]}},{"type":"Feature","properties":{"category":"service","preserve":true,"survey_group":"557456a1fddd06ec","sequence":23},"geometry":{"type":"Point","coordinates":[123.8195602,10.287520000000001]}},{"type":"Feature","properties":{"category":"service","preserve":false,"survey_group":"557456a1fddd06ec","sequence":25},"geometry":{"type":"Point","coordinates":[123.81953970000001,10.2884625]}},{"type":"Feature","properties":{"category":"service","preserve":false,"survey_group":"557456a1fddd06ec","sequence":26},"geometry":{"type":"Point","coordinates":[123.81938719999999,10.289351099999999]}},{"type":"Feature","properties":{"category":"service","preserve":false,"survey_group":"557456a1fddd06ec","sequence":27},"geometry":{"type":"Point","coordinates":[123.8192107,10.2902404]}},{"type":"Feature","properties":{"category":"service","preserve":false,"survey_group":"557456a1fddd06ec","sequence":28},"geometry":{"type":"Point","coordinates":[123.81895419999999,10.2911473]}},{"type":"Feature","properties":{"category":"service","preserve":false,"survey_group":"557456a1fddd06ec","sequence":29},"geometry":{"type":"Point","coordinates":[123.8186992,10.292084900000001]}},{"type":"Feature","properties":{"category":"service","preserve":false,"survey_group":"557456a1fddd06ec","sequence":30},"geometry":{"type":"Point","coordinates":[123.81851519999999,10.2929601]}},{"type":"Feature","properties":{"category":"service","preserve":false,"survey_group":"557456a1fddd06ec","sequence":31},"geometry":{"type":"Point","coordinates":[123.8187923,10.293900499999999]}},{"type":"Feature","properties":{"category":"service","preserve":false,"survey_group":"557456a1fddd06ec","sequence":32},"geometry":{"type":"Point","coordinates":[123.81862080000001,10.294874]}},{"type":"Feature","properties":{"category":"service","preserve":false,"survey_group":"557456a1fddd06ec","sequence":33},"geometry":{"type":"Point","coordinates":[123.81853769999999,10.295834299999999]}},{"type":"Feature","properties":{"category":"service","preserve":false,"survey_group":"557456a1fddd06ec","sequence":34},"geometry":{"type":"Point","coordinates":[123.8186247,10.2967516]}},{"type":"Feature","properties":{"category":"service","preserve":false,"survey_group":"557456a1fddd06ec","sequence":35},"geometry":{"type":"Point","coordinates":[123.8184584,10.2976642]}},{"type":"Feature","properties":{"category":"service","preserve":false,"survey_group":"557456a1fddd06ec","sequence":36},"geometry":{"type":"Point","coordinates":[123.8182296,10.2985791]}},{"type":"Feature","properties":{"category":"service","preserve":false,"survey_group":"557456a1fddd06ec","sequence":37},"geometry":{"type":"Point","coordinates":[123.8182104,10.2995321]}},{"type":"Feature","properties":{"category":"service","preserve":false,"survey_group":"557456a1fddd06ec","sequence":38},"geometry":{"type":"Point","coordinates":[123.8178691,10.3003816]}},{"type":"Feature","properties":{"category":"service","preserve":false,"survey_group":"557456a1fddd06ec","sequence":39},"geometry":{"type":"Point","coordinates":[123.8173571,10.301136899999999]}},{"type":"Feature","properties":{"category":"service","preserve":false,"survey_group":"557456a1fddd06ec","sequence":40},"geometry":{"type":"Point","coordinates":[123.8168204,10.3019003]}},{"type":"Feature","properties":{"category":"service","preserve":false,"survey_group":"557456a1fddd06ec","sequence":41},"geometry":{"type":"Point","coordinates":[123.8165176,10.3027611]}},{"type":"Feature","properties":{"category":"service","preserve":false,"survey_group":"557456a1fddd06ec","sequence":42},"geometry":{"type":"Point","coordinates":[123.8162775,10.303659100000001]}},{"type":"Feature","properties":{"category":"service","preserve":false,"survey_group":"557456a1fddd06ec","sequence":43},"geometry":{"type":"Point","coordinates":[123.8157727,10.304415199999999]}},{"type":"Feature","properties":{"category":"service","preserve":false,"survey_group":"557456a1fddd06ec","sequence":44},"geometry":{"type":"Point","coordinates":[123.8152075,10.3051963]}},{"type":"Feature","properties":{"category":"service","preserve":false,"survey_group":"557456a1fddd06ec","sequence":46},"geometry":{"type":"Point","coordinates":[123.8151417,10.3061712]}},{"type":"Feature","properties":{"category":"service","preserve":false,"survey_group":"557456a1fddd06ec","sequence":47},"geometry":{"type":"Point","coordinates":[123.81535460000001,10.307074999999999]}},{"type":"Feature","properties":{"category":"service","preserve":false,"survey_group":"557456a1fddd06ec","sequence":48},"geometry":{"type":"Point","coordinates":[123.81563370000001,10.3080073]}},{"type":"Feature","properties":{"category":"service","preserve":false,"survey_group":"557456a1fddd06ec","sequence":49},"geometry":{"type":"Point","coordinates":[123.81586369999999,10.3089595]}},{"type":"Feature","properties":{"category":"service","preserve":false,"survey_group":"557456a1fddd06ec","sequence":50},"geometry":{"type":"Point","coordinates":[123.81607390000001,10.3099355]}},{"type":"Feature","properties":{"category":"service","preserve":false,"survey_group":"557456a1fddd06ec","sequence":51},"geometry":{"type":"Point","coordinates":[123.8163012,10.3108728]}},{"type":"Feature","properties":{"category":"service","preserve":false,"survey_group":"557456a1fddd06ec","sequence":52},"geometry":{"type":"Point","coordinates":[123.8168028,10.311680300000001]}},{"type":"Feature","properties":{"category":"service","preserve":false,"survey_group":"557456a1fddd06ec","sequence":53},"geometry":{"type":"Point","coordinates":[123.8173597,10.3124565]}},{"type":"Feature","properties":{"category":"service","preserve":false,"survey_group":"557456a1fddd06ec","sequence":54},"geometry":{"type":"Point","coordinates":[123.8177433,10.3133772]}},{"type":"Feature","properties":{"category":"service","preserve":false,"survey_group":"557456a1fddd06ec","sequence":55},"geometry":{"type":"Point","coordinates":[123.81793759999999,10.3143317]}},{"type":"Feature","properties":{"category":"service","preserve":true,"survey_group":"557456a1fddd06ec","sequence":56},"geometry":{"type":"Point","coordinates":[123.8182055,10.31521]}},{"type":"Feature","properties":{"category":"service","preserve":true,"survey_group":"b85a676b5cdd4744","sequence":214},"geometry":{"type":"Point","coordinates":[123.8179887,10.2578595]}},{"type":"Feature","properties":{"category":"service","preserve":false,"survey_group":"b85a676b5cdd4744","sequence":213},"geometry":{"type":"Point","coordinates":[123.8180928,10.257960499999999]}},{"type":"Feature","properties":{"category":"service","preserve":false,"survey_group":"b85a676b5cdd4744","sequence":212},"geometry":{"type":"Point","coordinates":[123.8178644,10.258852600000001]}},{"type":"Feature","properties":{"category":"service","preserve":false,"survey_group":"b85a676b5cdd4744","sequence":211},"geometry":{"type":"Point","coordinates":[123.81751010000001,10.263272000000001]}},{"type":"Feature","properties":{"category":"service","preserve":false,"survey_group":"b85a676b5cdd4744","sequence":210},"geometry":{"type":"Point","coordinates":[123.8169084,10.263980800000001]}},{"type":"Feature","properties":{"category":"service","preserve":false,"survey_group":"b85a676b5cdd4744","sequence":209},"geometry":{"type":"Point","coordinates":[123.8163311,10.264686899999999]}},{"type":"Feature","properties":{"category":"service","preserve":false,"survey_group":"b85a676b5cdd4744","sequence":208},"geometry":{"type":"Point","coordinates":[123.8156884,10.2654078]}},{"type":"Feature","properties":{"category":"service","preserve":false,"survey_group":"b85a676b5cdd4744","sequence":207},"geometry":{"type":"Point","coordinates":[123.8154244,10.266324300000001]}},{"type":"Feature","properties":{"category":"service","preserve":false,"survey_group":"b85a676b5cdd4744","sequence":206},"geometry":{"type":"Point","coordinates":[123.8148186,10.267038400000001]}},{"type":"Feature","properties":{"category":"service","preserve":false,"survey_group":"b85a676b5cdd4744","sequence":205},"geometry":{"type":"Point","coordinates":[123.8140144,10.2674237]}},{"type":"Feature","properties":{"category":"service","preserve":false,"survey_group":"b85a676b5cdd4744","sequence":204},"geometry":{"type":"Point","coordinates":[123.8134917,10.268127099999999]}},{"type":"Feature","properties":{"category":"service","preserve":false,"survey_group":"b85a676b5cdd4744","sequence":203},"geometry":{"type":"Point","coordinates":[123.81272180000001,10.268583400000001]}},{"type":"Feature","properties":{"category":"service","preserve":false,"survey_group":"b85a676b5cdd4744","sequence":202},"geometry":{"type":"Point","coordinates":[123.8123444,10.2694375]}},{"type":"Feature","properties":{"category":"service","preserve":false,"survey_group":"b85a676b5cdd4744","sequence":201},"geometry":{"type":"Point","coordinates":[123.81221069999999,10.2703457]}},{"type":"Feature","properties":{"category":"service","preserve":false,"survey_group":"b85a676b5cdd4744","sequence":200},"geometry":{"type":"Point","coordinates":[123.8123207,10.271246700000001]}},{"type":"Feature","properties":{"category":"service","preserve":false,"survey_group":"b85a676b5cdd4744","sequence":199},"geometry":{"type":"Point","coordinates":[123.81204409999999,10.272061799999999]}},{"type":"Feature","properties":{"category":"service","preserve":false,"survey_group":"b85a676b5cdd4744","sequence":198},"geometry":{"type":"Point","coordinates":[123.8125428,10.2728264]}},{"type":"Feature","properties":{"category":"service","preserve":false,"survey_group":"b85a676b5cdd4744","sequence":197},"geometry":{"type":"Point","coordinates":[123.8129053,10.273655400000001]}},{"type":"Feature","properties":{"category":"service","preserve":false,"survey_group":"b85a676b5cdd4744","sequence":196},"geometry":{"type":"Point","coordinates":[123.81308300000001,10.2743237]}},{"type":"Feature","properties":{"category":"service","preserve":false,"survey_group":"b85a676b5cdd4744","sequence":195},"geometry":{"type":"Point","coordinates":[123.81435449999999,10.2746131]}},{"type":"Feature","properties":{"category":"service","preserve":false,"survey_group":"b85a676b5cdd4744","sequence":194},"geometry":{"type":"Point","coordinates":[123.8151294,10.274903699999999]}},{"type":"Feature","properties":{"category":"service","preserve":false,"survey_group":"b85a676b5cdd4744","sequence":193},"geometry":{"type":"Point","coordinates":[123.81602700000001,10.275184899999999]}},{"type":"Feature","properties":{"category":"service","preserve":false,"survey_group":"b85a676b5cdd4744","sequence":192},"geometry":{"type":"Point","coordinates":[123.81620599999999,10.275738]}},{"type":"Feature","properties":{"category":"service","preserve":false,"survey_group":"b85a676b5cdd4744","sequence":191},"geometry":{"type":"Point","coordinates":[123.8161666,10.276620400000001]}},{"type":"Feature","properties":{"category":"service","preserve":false,"survey_group":"b85a676b5cdd4744","sequence":190},"geometry":{"type":"Point","coordinates":[123.8163831,10.277203]}},{"type":"Feature","properties":{"category":"service","preserve":false,"survey_group":"b85a676b5cdd4744","sequence":189},"geometry":{"type":"Point","coordinates":[123.8161994,10.277907600000001]}},{"type":"Feature","properties":{"category":"service","preserve":false,"survey_group":"b85a676b5cdd4744","sequence":188},"geometry":{"type":"Point","coordinates":[123.8164347,10.278651399999999]}},{"type":"Feature","properties":{"category":"service","preserve":false,"survey_group":"b85a676b5cdd4744","sequence":187},"geometry":{"type":"Point","coordinates":[123.8172088,10.279128399999999]}},{"type":"Feature","properties":{"category":"service","preserve":false,"survey_group":"b85a676b5cdd4744","sequence":186},"geometry":{"type":"Point","coordinates":[123.817699,10.279888700000001]}},{"type":"Feature","properties":{"category":"service","preserve":false,"survey_group":"b85a676b5cdd4744","sequence":185},"geometry":{"type":"Point","coordinates":[123.8179569,10.2807605]}},{"type":"Feature","properties":{"category":"service","preserve":false,"survey_group":"b85a676b5cdd4744","sequence":184},"geometry":{"type":"Point","coordinates":[123.8179119,10.2816697]}},{"type":"Feature","properties":{"category":"service","preserve":false,"survey_group":"b85a676b5cdd4744","sequence":183},"geometry":{"type":"Point","coordinates":[123.8178661,10.282338899999999]}},{"type":"Feature","properties":{"category":"service","preserve":false,"survey_group":"b85a676b5cdd4744","sequence":182},"geometry":{"type":"Point","coordinates":[123.8172982,10.2825548]}},{"type":"Feature","properties":{"category":"service","preserve":false,"survey_group":"b85a676b5cdd4744","sequence":181},"geometry":{"type":"Point","coordinates":[123.8167385,10.2832472]}},{"type":"Feature","properties":{"category":"service","preserve":false,"survey_group":"b85a676b5cdd4744","sequence":180},"geometry":{"type":"Point","coordinates":[123.81680969999999,10.284164499999999]}},{"type":"Feature","properties":{"category":"service","preserve":false,"survey_group":"b85a676b5cdd4744","sequence":179},"geometry":{"type":"Point","coordinates":[123.8165621,10.284865699999999]}},{"type":"Feature","properties":{"category":"service","preserve":false,"survey_group":"b85a676b5cdd4744","sequence":171},"geometry":{"type":"Point","coordinates":[123.81417879999999,10.285678900000001]}},{"type":"Feature","properties":{"category":"service","preserve":true,"survey_group":"b85a676b5cdd4744","sequence":178},"geometry":{"type":"Point","coordinates":[123.81618709999999,10.285722]}},{"type":"Feature","properties":{"category":"service","preserve":false,"survey_group":"b85a676b5cdd4744","sequence":172},"geometry":{"type":"Point","coordinates":[123.8148422,10.2857865]}},{"type":"Feature","properties":{"category":"service","preserve":false,"survey_group":"b85a676b5cdd4744","sequence":169},"geometry":{"type":"Point","coordinates":[123.8133383,10.285876399999999]}},{"type":"Feature","properties":{"category":"service","preserve":false,"survey_group":"b85a676b5cdd4744","sequence":168},"geometry":{"type":"Point","coordinates":[123.813332,10.2858821]}},{"type":"Feature","properties":{"category":"service","preserve":false,"survey_group":"b85a676b5cdd4744","sequence":167},"geometry":{"type":"Point","coordinates":[123.812594,10.2861072]}},{"type":"Feature","properties":{"category":"service","preserve":false,"survey_group":"b85a676b5cdd4744","sequence":173},"geometry":{"type":"Point","coordinates":[123.81452849999999,10.286626200000001]}},{"type":"Feature","properties":{"category":"no_service","preserve":true,"survey_group":"b85a676b5cdd4744","sequence":177},"geometry":{"type":"Point","coordinates":[123.8156632,10.2867388]}},{"type":"Feature","properties":{"category":"service","preserve":false,"survey_group":"b85a676b5cdd4744","sequence":166},"geometry":{"type":"Point","coordinates":[123.8126274,10.286881899999999]}},{"type":"Feature","properties":{"category":"service","preserve":false,"survey_group":"b85a676b5cdd4744","sequence":174},"geometry":{"type":"Point","coordinates":[123.8137213,10.287020500000001]}},{"type":"Feature","properties":{"category":"service","preserve":false,"survey_group":"b85a676b5cdd4744","sequence":165},"geometry":{"type":"Point","coordinates":[123.8119475,10.2871971]}},{"type":"Feature","properties":{"category":"service","preserve":false,"survey_group":"b85a676b5cdd4744","sequence":175},"geometry":{"type":"Point","coordinates":[123.8144258,10.287253700000001]}},{"type":"Feature","properties":{"category":"service","preserve":true,"survey_group":"b85a676b5cdd4744","sequence":176},"geometry":{"type":"Point","coordinates":[123.81533229999999,10.2872816]}},{"type":"Feature","properties":{"category":"service","preserve":false,"survey_group":"b85a676b5cdd4744","sequence":164},"geometry":{"type":"Point","coordinates":[123.8121472,10.2878255]}},{"type":"Feature","properties":{"category":"service","preserve":false,"survey_group":"b85a676b5cdd4744","sequence":163},"geometry":{"type":"Point","coordinates":[123.8126709,10.2886072]}},{"type":"Feature","properties":{"category":"service","preserve":false,"survey_group":"b85a676b5cdd4744","sequence":160},"geometry":{"type":"Point","coordinates":[123.8107751,10.2895042]}},{"type":"Feature","properties":{"category":"service","preserve":false,"survey_group":"b85a676b5cdd4744","sequence":162},"geometry":{"type":"Point","coordinates":[123.8128859,10.2895278]}},{"type":"Feature","properties":{"category":"service","preserve":false,"survey_group":"b85a676b5cdd4744","sequence":161},"geometry":{"type":"Point","coordinates":[123.812014,10.2897046]}},{"type":"Feature","properties":{"category":"service","preserve":false,"survey_group":"b85a676b5cdd4744","sequence":159},"geometry":{"type":"Point","coordinates":[123.8103299,10.2903079]}},{"type":"Feature","properties":{"category":"service","preserve":false,"survey_group":"b85a676b5cdd4744","sequence":158},"geometry":{"type":"Point","coordinates":[123.80986729999999,10.291157]}},{"type":"Feature","properties":{"category":"service","preserve":false,"survey_group":"b85a676b5cdd4744","sequence":157},"geometry":{"type":"Point","coordinates":[123.8090491,10.2915799]}},{"type":"Feature","properties":{"category":"service","preserve":false,"survey_group":"b85a676b5cdd4744","sequence":156},"geometry":{"type":"Point","coordinates":[123.8082053,10.291826800000001]}},{"type":"Feature","properties":{"category":"service","preserve":false,"survey_group":"b85a676b5cdd4744","sequence":155},"geometry":{"type":"Point","coordinates":[123.8076647,10.292043700000001]}},{"type":"Feature","properties":{"category":"service","preserve":false,"survey_group":"b85a676b5cdd4744","sequence":154},"geometry":{"type":"Point","coordinates":[123.8071252,10.292776099999999]}},{"type":"Feature","properties":{"category":"service","preserve":false,"survey_group":"b85a676b5cdd4744","sequence":153},"geometry":{"type":"Point","coordinates":[123.8066894,10.2936438]}},{"type":"Feature","properties":{"category":"service","preserve":false,"survey_group":"b85a676b5cdd4744","sequence":152},"geometry":{"type":"Point","coordinates":[123.806363,10.294518699999999]}},{"type":"Feature","properties":{"category":"service","preserve":false,"survey_group":"b85a676b5cdd4744","sequence":146},"geometry":{"type":"Point","coordinates":[123.80394560000001,10.294888800000001]}},{"type":"Feature","properties":{"category":"service","preserve":false,"survey_group":"b85a676b5cdd4744","sequence":147},"geometry":{"type":"Point","coordinates":[123.8042738,10.295257299999999]}},{"type":"Feature","properties":{"category":"service","preserve":false,"survey_group":"b85a676b5cdd4744","sequence":151},"geometry":{"type":"Point","coordinates":[123.80601609999999,10.2952627]}},{"type":"Feature","properties":{"category":"service","preserve":false,"survey_group":"b85a676b5cdd4744","sequence":145},"geometry":{"type":"Point","coordinates":[123.8033555,10.2954764]}},{"type":"Feature","properties":{"category":"service","preserve":false,"survey_group":"b85a676b5cdd4744","sequence":150},"geometry":{"type":"Point","coordinates":[123.80541270000001,10.295662500000001]}},{"type":"Feature","properties":{"category":"service","preserve":false,"survey_group":"b85a676b5cdd4744","sequence":144},"geometry":{"type":"Point","coordinates":[123.80275880000001,10.295702800000001]}},{"type":"Feature","properties":{"category":"service","preserve":false,"survey_group":"b85a676b5cdd4744","sequence":148},"geometry":{"type":"Point","coordinates":[123.8042926,10.295911]}},{"type":"Feature","properties":{"category":"service","preserve":false,"survey_group":"b85a676b5cdd4744","sequence":149},"geometry":{"type":"Point","coordinates":[123.8047862,10.295963499999999]}},{"type":"Feature","properties":{"category":"service","preserve":false,"survey_group":"b85a676b5cdd4744","sequence":143},"geometry":{"type":"Point","coordinates":[123.8030976,10.296506900000001]}},{"type":"Feature","properties":{"category":"service","preserve":false,"survey_group":"b85a676b5cdd4744","sequence":142},"geometry":{"type":"Point","coordinates":[123.80272650000001,10.2972359]}},{"type":"Feature","properties":{"category":"service","preserve":false,"survey_group":"b85a676b5cdd4744","sequence":141},"geometry":{"type":"Point","coordinates":[123.802735,10.298037000000001]}},{"type":"Feature","properties":{"category":"service","preserve":false,"survey_group":"b85a676b5cdd4744","sequence":140},"geometry":{"type":"Point","coordinates":[123.802966,10.2988342]}},{"type":"Feature","properties":{"category":"service","preserve":false,"survey_group":"b85a676b5cdd4744","sequence":139},"geometry":{"type":"Point","coordinates":[123.8032061,10.2997294]}},{"type":"Feature","properties":{"category":"service","preserve":false,"survey_group":"b85a676b5cdd4744","sequence":138},"geometry":{"type":"Point","coordinates":[123.8034466,10.300682399999999]}},{"type":"Feature","properties":{"category":"service","preserve":false,"survey_group":"b85a676b5cdd4744","sequence":137},"geometry":{"type":"Point","coordinates":[123.80297160000001,10.301311699999999]}},{"type":"Feature","properties":{"category":"service","preserve":false,"survey_group":"b85a676b5cdd4744","sequence":136},"geometry":{"type":"Point","coordinates":[123.8025748,10.3020143]}},{"type":"Feature","properties":{"category":"service","preserve":false,"survey_group":"b85a676b5cdd4744","sequence":135},"geometry":{"type":"Point","coordinates":[123.8022673,10.302814]}},{"type":"Feature","properties":{"category":"service","preserve":false,"survey_group":"b85a676b5cdd4744","sequence":134},"geometry":{"type":"Point","coordinates":[123.80252520000001,10.303497699999999]}},{"type":"Feature","properties":{"category":"service","preserve":false,"survey_group":"b85a676b5cdd4744","sequence":133},"geometry":{"type":"Point","coordinates":[123.8027495,10.304375500000001]}},{"type":"Feature","properties":{"category":"no_service","preserve":true,"survey_group":"b85a676b5cdd4744","sequence":131},"geometry":{"type":"Point","coordinates":[123.8022769,10.305002999999999]}},{"type":"Feature","properties":{"category":"service","preserve":true,"survey_group":"b85a676b5cdd4744","sequence":132},"geometry":{"type":"Point","coordinates":[123.8022769,10.305002999999999]}},{"type":"Feature","properties":{"category":"service","preserve":true,"survey_group":"b85a676b5cdd4744","sequence":130},"geometry":{"type":"Point","coordinates":[123.8017201,10.3051335]}},{"type":"Feature","properties":{"category":"service","preserve":false,"survey_group":"b85a676b5cdd4744","sequence":129},"geometry":{"type":"Point","coordinates":[123.8017971,10.305880999999999]}},{"type":"Feature","properties":{"category":"service","preserve":false,"survey_group":"b85a676b5cdd4744","sequence":128},"geometry":{"type":"Point","coordinates":[123.8012136,10.3060928]}},{"type":"Feature","properties":{"category":"service","preserve":false,"survey_group":"b85a676b5cdd4744","sequence":127},"geometry":{"type":"Point","coordinates":[123.8008493,10.3064176]}},{"type":"Feature","properties":{"category":"service","preserve":false,"survey_group":"b85a676b5cdd4744","sequence":126},"geometry":{"type":"Point","coordinates":[123.8011037,10.307186099999999]}},{"type":"Feature","properties":{"category":"service","preserve":false,"survey_group":"b85a676b5cdd4744","sequence":125},"geometry":{"type":"Point","coordinates":[123.8007392,10.307976]}},{"type":"Feature","properties":{"category":"service","preserve":false,"survey_group":"b85a676b5cdd4744","sequence":124},"geometry":{"type":"Point","coordinates":[123.80084979999999,10.308869100000001]}},{"type":"Feature","properties":{"category":"service","preserve":false,"survey_group":"b85a676b5cdd4744","sequence":123},"geometry":{"type":"Point","coordinates":[123.8000706,10.309269]}},{"type":"Feature","properties":{"category":"service","preserve":false,"survey_group":"b85a676b5cdd4744","sequence":122},"geometry":{"type":"Point","coordinates":[123.79938319999999,10.3093384]}},{"type":"Feature","properties":{"category":"service","preserve":true,"survey_group":"b85a676b5cdd4744","sequence":121},"geometry":{"type":"Point","coordinates":[123.7988821,10.309815800000001]}},{"type":"Feature","properties":{"category":"no_service","preserve":true,"survey_group":"b85a676b5cdd4744","sequence":120},"geometry":{"type":"Point","coordinates":[123.7988254,10.3098682]}},{"type":"Feature","properties":{"category":"service","preserve":true,"survey_group":"b85a676b5cdd4744","sequence":119},"geometry":{"type":"Point","coordinates":[123.7988254,10.3098682]}},{"type":"Feature","properties":{"category":"service","preserve":false,"survey_group":"b85a676b5cdd4744","sequence":92},"geometry":{"type":"Point","coordinates":[123.7828962,10.3101643]}},{"type":"Feature","properties":{"category":"service","preserve":false,"survey_group":"b85a676b5cdd4744","sequence":91},"geometry":{"type":"Point","coordinates":[123.7820291,10.310288099999999]}},{"type":"Feature","properties":{"category":"service","preserve":false,"survey_group":"b85a676b5cdd4744","sequence":118},"geometry":{"type":"Point","coordinates":[123.798649,10.3103827]}},{"type":"Feature","properties":{"category":"service","preserve":false,"survey_group":"b85a676b5cdd4744","sequence":90},"geometry":{"type":"Point","coordinates":[123.78132859999999,10.3106469]}},{"type":"Feature","properties":{"category":"service","preserve":false,"survey_group":"b85a676b5cdd4744","sequence":93},"geometry":{"type":"Point","coordinates":[123.7836776,10.3106554]}},{"type":"Feature","properties":{"category":"service","preserve":false,"survey_group":"b85a676b5cdd4744","sequence":117},"geometry":{"type":"Point","coordinates":[123.7991385,10.3111532]}},{"type":"Feature","properties":{"category":"service","preserve":false,"survey_group":"b85a676b5cdd4744","sequence":94},"geometry":{"type":"Point","coordinates":[123.78440689999999,10.311203900000001]}},{"type":"Feature","properties":{"category":"service","preserve":false,"survey_group":"b85a676b5cdd4744","sequence":89},"geometry":{"type":"Point","coordinates":[123.78090539999999,10.3114092]}},{"type":"Feature","properties":{"category":"service","preserve":false,"survey_group":"b85a676b5cdd4744","sequence":95},"geometry":{"type":"Point","coordinates":[123.7849051,10.3119704]}},{"type":"Feature","properties":{"category":"service","preserve":false,"survey_group":"b85a676b5cdd4744","sequence":116},"geometry":{"type":"Point","coordinates":[123.7990934,10.3120776]}},{"type":"Feature","properties":{"category":"service","preserve":false,"survey_group":"b85a676b5cdd4744","sequence":88},"geometry":{"type":"Point","coordinates":[123.78034719999999,10.312124499999999]}},{"type":"Feature","properties":{"category":"service","preserve":false,"survey_group":"b85a676b5cdd4744","sequence":87},"geometry":{"type":"Point","coordinates":[123.77945579999999,10.3124685]}},{"type":"Feature","properties":{"category":"service","preserve":false,"survey_group":"b85a676b5cdd4744","sequence":86},"geometry":{"type":"Point","coordinates":[123.77896459999999,10.3126312]}},{"type":"Feature","properties":{"category":"service","preserve":false,"survey_group":"b85a676b5cdd4744","sequence":96},"geometry":{"type":"Point","coordinates":[123.7852901,10.3127862]}},{"type":"Feature","properties":{"category":"service","preserve":false,"survey_group":"b85a676b5cdd4744","sequence":115},"geometry":{"type":"Point","coordinates":[123.7991763,10.312994700000001]}},{"type":"Feature","properties":{"category":"service","preserve":false,"survey_group":"b85a676b5cdd4744","sequence":85},"geometry":{"type":"Point","coordinates":[123.77814720000001,10.3129955]}},{"type":"Feature","properties":{"category":"service","preserve":true,"survey_group":"b85a676b5cdd4744","sequence":84},"geometry":{"type":"Point","coordinates":[123.77814720000001,10.3129955]}},{"type":"Feature","properties":{"category":"service","preserve":false,"survey_group":"b85a676b5cdd4744","sequence":97},"geometry":{"type":"Point","coordinates":[123.78581939999999,10.3132131]}},{"type":"Feature","properties":{"category":"no_service","preserve":true,"survey_group":"b85a676b5cdd4744","sequence":83},"geometry":{"type":"Point","coordinates":[123.77783669999999,10.313224]}},{"type":"Feature","properties":{"category":"service","preserve":false,"survey_group":"b85a676b5cdd4744","sequence":109},"geometry":{"type":"Point","coordinates":[123.7955202,10.313432300000001]}},{"type":"Feature","properties":{"category":"service","preserve":false,"survey_group":"b85a676b5cdd4744","sequence":114},"geometry":{"type":"Point","coordinates":[123.7985195,10.313595100000001]}},{"type":"Feature","properties":{"category":"service","preserve":false,"survey_group":"b85a676b5cdd4744","sequence":108},"geometry":{"type":"Point","coordinates":[123.79475979999999,10.313601999999999]}},{"type":"Feature","properties":{"category":"service","preserve":true,"survey_group":"b85a676b5cdd4744","sequence":82},"geometry":{"type":"Point","coordinates":[123.7773383,10.313815699999999]}},{"type":"Feature","properties":{"category":"service","preserve":false,"survey_group":"b85a676b5cdd4744","sequence":81},"geometry":{"type":"Point","coordinates":[123.7773383,10.313815699999999]}},{"type":"Feature","properties":{"category":"no_service","preserve":true,"survey_group":"b85a676b5cdd4744","sequence":105},"geometry":{"type":"Point","coordinates":[123.79201519999999,10.3139986]}},{"type":"Feature","properties":{"category":"service","preserve":false,"survey_group":"b85a676b5cdd4744","sequence":113},"geometry":{"type":"Point","coordinates":[123.7979655,10.314022]}},{"type":"Feature","properties":{"category":"service","preserve":true,"survey_group":"b85a676b5cdd4744","sequence":98},"geometry":{"type":"Point","coordinates":[123.7861663,10.3140354]}},{"type":"Feature","properties":{"category":"service","preserve":false,"survey_group":"b85a676b5cdd4744","sequence":107},"geometry":{"type":"Point","coordinates":[123.79396920000001,10.314068000000001]}},{"type":"Feature","properties":{"category":"no_service","preserve":false,"survey_group":"b85a676b5cdd4744","sequence":104},"geometry":{"type":"Point","coordinates":[123.791078,10.314137300000001]}},{"type":"Feature","properties":{"category":"service","preserve":false,"survey_group":"b85a676b5cdd4744","sequence":110},"geometry":{"type":"Point","coordinates":[123.7958436,10.314166500000001]}},{"type":"Feature","properties":{"category":"service","preserve":true,"survey_group":"b85a676b5cdd4744","sequence":106},"geometry":{"type":"Point","coordinates":[123.79310270000001,10.314314100000001]}},{"type":"Feature","properties":{"category":"no_service","preserve":false,"survey_group":"b85a676b5cdd4744","sequence":103},"geometry":{"type":"Point","coordinates":[123.7901681,10.314384199999999]}},{"type":"Feature","properties":{"category":"service","preserve":false,"survey_group":"b85a676b5cdd4744","sequence":111},"geometry":{"type":"Point","coordinates":[123.7967314,10.314463]}},{"type":"Feature","properties":{"category":"no_service","preserve":true,"survey_group":"b85a676b5cdd4744","sequence":99},"geometry":{"type":"Point","coordinates":[123.7867723,10.3145983]}},{"type":"Feature","properties":{"category":"service","preserve":false,"survey_group":"b85a676b5cdd4744","sequence":112},"geometry":{"type":"Point","coordinates":[123.7975497,10.314713100000001]}},{"type":"Feature","properties":{"category":"service","preserve":false,"survey_group":"b85a676b5cdd4744","sequence":80},"geometry":{"type":"Point","coordinates":[123.777005,10.3149838]}},{"type":"Feature","properties":{"category":"no_service","preserve":false,"survey_group":"b85a676b5cdd4744","sequence":100},"geometry":{"type":"Point","coordinates":[123.7874774,10.315065499999999]}},{"type":"Feature","properties":{"category":"no_service","preserve":false,"survey_group":"b85a676b5cdd4744","sequence":102},"geometry":{"type":"Point","coordinates":[123.7890932,10.3151212]}},{"type":"Feature","properties":{"category":"no_service","preserve":false,"survey_group":"b85a676b5cdd4744","sequence":101},"geometry":{"type":"Point","coordinates":[123.7882297,10.315446700000001]}},{"type":"Feature","properties":{"category":"service","preserve":false,"survey_group":"b85a676b5cdd4744","sequence":79},"geometry":{"type":"Point","coordinates":[123.7766462,10.3156056]}},{"type":"Feature","properties":{"category":"service","preserve":false,"survey_group":"b85a676b5cdd4744","sequence":78},"geometry":{"type":"Point","coordinates":[123.7767161,10.316293]}},{"type":"Feature","properties":{"category":"service","preserve":false,"survey_group":"b85a676b5cdd4744","sequence":77},"geometry":{"type":"Point","coordinates":[123.7769139,10.3168054]}},{"type":"Feature","properties":{"category":"service","preserve":false,"survey_group":"b85a676b5cdd4744","sequence":76},"geometry":{"type":"Point","coordinates":[123.77675170000001,10.3172769]}},{"type":"Feature","properties":{"category":"service","preserve":false,"survey_group":"b85a676b5cdd4744","sequence":75},"geometry":{"type":"Point","coordinates":[123.77631959999999,10.317366099999999]}},{"type":"Feature","properties":{"category":"no_service","preserve":false,"survey_group":"b85a676b5cdd4744","sequence":58},"geometry":{"type":"Point","coordinates":[123.78053850000001,10.3179204]}},{"type":"Feature","properties":{"category":"service","preserve":false,"survey_group":"b85a676b5cdd4744","sequence":74},"geometry":{"type":"Point","coordinates":[123.7750284,10.3183483]}},{"type":"Feature","properties":{"category":"no_service","preserve":false,"survey_group":"b85a676b5cdd4744","sequence":57},"geometry":{"type":"Point","coordinates":[123.7810751,10.3183671]}},{"type":"Feature","properties":{"category":"no_service","preserve":false,"survey_group":"b85a676b5cdd4744","sequence":59},"geometry":{"type":"Point","coordinates":[123.780548,10.318812700000001]}},{"type":"Feature","properties":{"category":"no_service","preserve":false,"survey_group":"b85a676b5cdd4744","sequence":56},"geometry":{"type":"Point","coordinates":[123.7815859,10.318934]}},{"type":"Feature","properties":{"category":"service","preserve":false,"survey_group":"b85a676b5cdd4744","sequence":73},"geometry":{"type":"Point","coordinates":[123.77694940000001,10.319011400000001]}},{"type":"Feature","properties":{"category":"no_service","preserve":true,"survey_group":"b85a676b5cdd4744","sequence":55},"geometry":{"type":"Point","coordinates":[123.7822165,10.319612299999999]}},{"type":"Feature","properties":{"category":"service","preserve":false,"survey_group":"b85a676b5cdd4744","sequence":72},"geometry":{"type":"Point","coordinates":[123.7776167,10.3197382]}},{"type":"Feature","properties":{"category":"no_service","preserve":false,"survey_group":"b85a676b5cdd4744","sequence":60},"geometry":{"type":"Point","coordinates":[123.78078170000001,10.3197425]}},{"type":"Feature","properties":{"category":"service","preserve":true,"survey_group":"b85a676b5cdd4744","sequence":54},"geometry":{"type":"Point","coordinates":[123.782826,10.3199991]}},{"type":"Feature","properties":{"category":"service","preserve":false,"survey_group":"b85a676b5cdd4744","sequence":71},"geometry":{"type":"Point","coordinates":[123.77743649999999,10.320500300000001]}},{"type":"Feature","properties":{"category":"service","preserve":false,"survey_group":"b85a676b5cdd4744","sequence":70},"geometry":{"type":"Point","coordinates":[123.77743649999999,10.320500300000001]}},{"type":"Feature","properties":{"category":"no_service","preserve":true,"survey_group":"b85a676b5cdd4744","sequence":61},"geometry":{"type":"Point","coordinates":[123.78090690000001,10.320607900000001]}},{"type":"Feature","properties":{"category":"service","preserve":false,"survey_group":"b85a676b5cdd4744","sequence":53},"geometry":{"type":"Point","coordinates":[123.7835169,10.320608500000001]}},{"type":"Feature","properties":{"category":"service","preserve":false,"survey_group":"b85a676b5cdd4744","sequence":69},"geometry":{"type":"Point","coordinates":[123.77711909999999,10.320767099999999]}},{"type":"Feature","properties":{"category":"service","preserve":false,"survey_group":"b85a676b5cdd4744","sequence":51},"geometry":{"type":"Point","coordinates":[123.7852771,10.320954499999999]}},{"type":"Feature","properties":{"category":"service","preserve":false,"survey_group":"b85a676b5cdd4744","sequence":52},"geometry":{"type":"Point","coordinates":[123.78431879999999,10.321105899999999]}},{"type":"Feature","properties":{"category":"service","preserve":false,"survey_group":"b85a676b5cdd4744","sequence":50},"geometry":{"type":"Point","coordinates":[123.7861355,10.321119700000001]}},{"type":"Feature","properties":{"category":"service","preserve":true,"survey_group":"b85a676b5cdd4744","sequence":62},"geometry":{"type":"Point","coordinates":[123.7808359,10.3211356]}},{"type":"Feature","properties":{"category":"service","preserve":false,"survey_group":"b85a676b5cdd4744","sequence":68},"geometry":{"type":"Point","coordinates":[123.77711429999999,10.3211838]}},{"type":"Feature","properties":{"category":"service","preserve":false,"survey_group":"b85a676b5cdd4744","sequence":49},"geometry":{"type":"Point","coordinates":[123.7868423,10.321661799999999]}},{"type":"Feature","properties":{"category":"no_service","preserve":true,"survey_group":"b85a676b5cdd4744","sequence":0},"geometry":{"type":"Point","coordinates":[123.819532,10.3219289]}},{"type":"Feature","properties":{"category":"service","preserve":false,"survey_group":"b85a676b5cdd4744","sequence":63},"geometry":{"type":"Point","coordinates":[123.780492,10.32198]}},{"type":"Feature","properties":{"category":"service","preserve":false,"survey_group":"b85a676b5cdd4744","sequence":48},"geometry":{"type":"Point","coordinates":[123.7875389,10.3220543]}},{"type":"Feature","properties":{"category":"service","preserve":false,"survey_group":"b85a676b5cdd4744","sequence":64},"geometry":{"type":"Point","coordinates":[123.77958049999999,10.3220791]}},{"type":"Feature","properties":{"category":"service","preserve":false,"survey_group":"b85a676b5cdd4744","sequence":67},"geometry":{"type":"Point","coordinates":[123.7773026,10.322085599999999]}},{"type":"Feature","properties":{"category":"service","preserve":false,"survey_group":"b85a676b5cdd4744","sequence":65},"geometry":{"type":"Point","coordinates":[123.7788449,10.3222386]}},{"type":"Feature","properties":{"category":"service","preserve":false,"survey_group":"b85a676b5cdd4744","sequence":66},"geometry":{"type":"Point","coordinates":[123.77808229999999,10.3223006]}},{"type":"Feature","properties":{"category":"service","preserve":false,"survey_group":"b85a676b5cdd4744","sequence":46},"geometry":{"type":"Point","coordinates":[123.7887807,10.322836499999999]}},{"type":"Feature","properties":{"category":"service","preserve":false,"survey_group":"b85a676b5cdd4744","sequence":47},"geometry":{"type":"Point","coordinates":[123.78786580000001,10.3228635]}},{"type":"Feature","properties":{"category":"no_service","preserve":false,"survey_group":"b85a676b5cdd4744","sequence":1},"geometry":{"type":"Point","coordinates":[123.8194816,10.322908399999999]}},{"type":"Feature","properties":{"category":"service","preserve":false,"survey_group":"b85a676b5cdd4744","sequence":45},"geometry":{"type":"Point","coordinates":[123.78962439999999,10.3230716]}},{"type":"Feature","properties":{"category":"no_service","preserve":true,"survey_group":"b85a676b5cdd4744","sequence":42},"geometry":{"type":"Point","coordinates":[123.7904089,10.323446199999999]}},{"type":"Feature","properties":{"category":"service","preserve":false,"survey_group":"b85a676b5cdd4744","sequence":44},"geometry":{"type":"Point","coordinates":[123.7904089,10.323446199999999]}},{"type":"Feature","properties":{"category":"service","preserve":true,"survey_group":"b85a676b5cdd4744","sequence":43},"geometry":{"type":"Point","coordinates":[123.7904089,10.323446199999999]}},{"type":"Feature","properties":{"category":"service","preserve":false,"survey_group":"b85a676b5cdd4744","sequence":40},"geometry":{"type":"Point","coordinates":[123.7917315,10.323527199999999]}},{"type":"Feature","properties":{"category":"service","preserve":true,"survey_group":"b85a676b5cdd4744","sequence":41},"geometry":{"type":"Point","coordinates":[123.7907852,10.3236287]}},{"type":"Feature","properties":{"category":"no_service","preserve":false,"survey_group":"b85a676b5cdd4744","sequence":2},"geometry":{"type":"Point","coordinates":[123.8192023,10.323776499999999]}},{"type":"Feature","properties":{"category":"service","preserve":false,"survey_group":"b85a676b5cdd4744","sequence":34},"geometry":{"type":"Point","coordinates":[123.7967893,10.3240892]}},{"type":"Feature","properties":{"category":"service","preserve":false,"survey_group":"b85a676b5cdd4744","sequence":27},"geometry":{"type":"Point","coordinates":[123.8005442,10.3241327]}},{"type":"Feature","properties":{"category":"service","preserve":false,"survey_group":"b85a676b5cdd4744","sequence":26},"geometry":{"type":"Point","coordinates":[123.8014867,10.324166999999999]}},{"type":"Feature","properties":{"category":"service","preserve":false,"survey_group":"b85a676b5cdd4744","sequence":39},"geometry":{"type":"Point","coordinates":[123.7923088,10.324195899999999]}},{"type":"Feature","properties":{"category":"service","preserve":false,"survey_group":"b85a676b5cdd4744","sequence":33},"geometry":{"type":"Point","coordinates":[123.79763749999999,10.324274300000001]}},{"type":"Feature","properties":{"category":"service","preserve":false,"survey_group":"b85a676b5cdd4744","sequence":25},"geometry":{"type":"Point","coordinates":[123.8023998,10.324393300000001]}},{"type":"Feature","properties":{"category":"service","preserve":false,"survey_group":"b85a676b5cdd4744","sequence":32},"geometry":{"type":"Point","coordinates":[123.7978303,10.324404299999999]}},{"type":"Feature","properties":{"category":"service","preserve":true,"survey_group":"b85a676b5cdd4744","sequence":31},"geometry":{"type":"Point","coordinates":[123.7978303,10.324404299999999]}},{"type":"Feature","properties":{"category":"service","preserve":false,"survey_group":"b85a676b5cdd4744","sequence":38},"geometry":{"type":"Point","coordinates":[123.7932181,10.3244457]}},{"type":"Feature","properties":{"category":"service","preserve":false,"survey_group":"b85a676b5cdd4744","sequence":36},"geometry":{"type":"Point","coordinates":[123.79506840000001,10.3245629]}},{"type":"Feature","properties":{"category":"no_service","preserve":true,"survey_group":"b85a676b5cdd4744","sequence":30},"geometry":{"type":"Point","coordinates":[123.7981803,10.3245793]}},{"type":"Feature","properties":{"category":"service","preserve":false,"survey_group":"b85a676b5cdd4744","sequence":37},"geometry":{"type":"Point","coordinates":[123.7941458,10.324583199999999]}},{"type":"Feature","properties":{"category":"service","preserve":false,"survey_group":"b85a676b5cdd4744","sequence":35},"geometry":{"type":"Point","coordinates":[123.7959774,10.324588800000001]}},{"type":"Feature","properties":{"category":"service","preserve":false,"survey_group":"b85a676b5cdd4744","sequence":28},"geometry":{"type":"Point","coordinates":[123.7997902,10.324605]}},{"type":"Feature","properties":{"category":"no_service","preserve":false,"survey_group":"b85a676b5cdd4744","sequence":3},"geometry":{"type":"Point","coordinates":[123.81869469999999,10.324608700000001]}},{"type":"Feature","properties":{"category":"service","preserve":false,"survey_group":"b85a676b5cdd4744","sequence":21},"geometry":{"type":"Point","coordinates":[123.8056187,10.324666000000001]}},{"type":"Feature","properties":{"category":"service","preserve":false,"survey_group":"b85a676b5cdd4744","sequence":22},"geometry":{"type":"Point","coordinates":[123.8046915,10.3247549]}},{"type":"Feature","properties":{"category":"service","preserve":false,"survey_group":"b85a676b5cdd4744","sequence":24},"geometry":{"type":"Point","coordinates":[123.8030734,10.3250315]}},{"type":"Feature","properties":{"category":"service","preserve":true,"survey_group":"b85a676b5cdd4744","sequence":29},"geometry":{"type":"Point","coordinates":[123.7993783,10.325054099999999]}},{"type":"Feature","properties":{"category":"service","preserve":false,"survey_group":"b85a676b5cdd4744","sequence":23},"geometry":{"type":"Point","coordinates":[123.8039792,10.325192100000001]}},{"type":"Feature","properties":{"category":"no_service","preserve":false,"survey_group":"b85a676b5cdd4744","sequence":4},"geometry":{"type":"Point","coordinates":[123.8179605,10.3251993]}},{"type":"Feature","properties":{"category":"service","preserve":false,"survey_group":"b85a676b5cdd4744","sequence":20},"geometry":{"type":"Point","coordinates":[123.8058647,10.325532300000001]}},{"type":"Feature","properties":{"category":"service","preserve":false,"survey_group":"b85a676b5cdd4744","sequence":19},"geometry":{"type":"Point","coordinates":[123.806297,10.325541899999999]}},{"type":"Feature","properties":{"category":"service","preserve":false,"survey_group":"b85a676b5cdd4744","sequence":18},"geometry":{"type":"Point","coordinates":[123.8070913,10.3255502]}},{"type":"Feature","properties":{"category":"service","preserve":false,"survey_group":"b85a676b5cdd4744","sequence":13},"geometry":{"type":"Point","coordinates":[123.8115775,10.325737999999999]}},{"type":"Feature","properties":{"category":"service","preserve":false,"survey_group":"b85a676b5cdd4744","sequence":12},"geometry":{"type":"Point","coordinates":[123.81247209999999,10.325771400000001]}},{"type":"Feature","properties":{"category":"no_service","preserve":false,"survey_group":"b85a676b5cdd4744","sequence":5},"geometry":{"type":"Point","coordinates":[123.81722860000001,10.325836799999999]}},{"type":"Feature","properties":{"category":"service","preserve":false,"survey_group":"b85a676b5cdd4744","sequence":11},"geometry":{"type":"Point","coordinates":[123.8133492,10.325863099999999]}},{"type":"Feature","properties":{"category":"service","preserve":false,"survey_group":"b85a676b5cdd4744","sequence":16},"geometry":{"type":"Point","coordinates":[123.808896,10.325870999999999]}},{"type":"Feature","properties":{"category":"service","preserve":false,"survey_group":"b85a676b5cdd4744","sequence":17},"geometry":{"type":"Point","coordinates":[123.80795980000001,10.3259238]}},{"type":"Feature","properties":{"category":"no_service","preserve":false,"survey_group":"b85a676b5cdd4744","sequence":6},"geometry":{"type":"Point","coordinates":[123.8163656,10.3260705]}},{"type":"Feature","properties":{"category":"service","preserve":false,"survey_group":"b85a676b5cdd4744","sequence":14},"geometry":{"type":"Point","coordinates":[123.8107215,10.326093]}},{"type":"Feature","properties":{"category":"no_service","preserve":true,"survey_group":"b85a676b5cdd4744","sequence":9},"geometry":{"type":"Point","coordinates":[123.8142928,10.326131800000001]}},{"type":"Feature","properties":{"category":"service","preserve":true,"survey_group":"b85a676b5cdd4744","sequence":10},"geometry":{"type":"Point","coordinates":[123.8142928,10.326131800000001]}},{"type":"Feature","properties":{"category":"service","preserve":false,"survey_group":"b85a676b5cdd4744","sequence":15},"geometry":{"type":"Point","coordinates":[123.8097946,10.3261442]}},{"type":"Feature","properties":{"category":"no_service","preserve":false,"survey_group":"b85a676b5cdd4744","sequence":7},"geometry":{"type":"Point","coordinates":[123.8159952,10.3263579]}},{"type":"Feature","properties":{"category":"no_service","preserve":false,"survey_group":"b85a676b5cdd4744","sequence":8},"geometry":{"type":"Point","coordinates":[123.81508530000001,10.326560499999999]}},{"type":"Feature","properties":{"category":"no_service","preserve":false,"survey_group":"0e7184bedf0ea43d","sequence":1},"geometry":{"type":"Point","coordinates":[123.80520249999999,10.347502]}},{"type":"Feature","properties":{"category":"no_service","preserve":true,"survey_group":"0e7184bedf0ea43d","sequence":0},"geometry":{"type":"Point","coordinates":[123.80728209999999,10.3476654]}},{"type":"Feature","properties":{"category":"no_service","preserve":false,"survey_group":"0e7184bedf0ea43d","sequence":2},"geometry":{"type":"Point","coordinates":[123.80439579999999,10.348349300000001]}},{"type":"Feature","properties":{"category":"no_service","preserve":false,"survey_group":"0e7184bedf0ea43d","sequence":3},"geometry":{"type":"Point","coordinates":[123.8028,10.3491369]}},{"type":"Feature","properties":{"category":"no_service","preserve":true,"survey_group":"0e7184bedf0ea43d","sequence":5},"geometry":{"type":"Point","coordinates":[123.802087,10.3491929]}},{"type":"Feature","properties":{"category":"no_service","preserve":false,"survey_group":"0e7184bedf0ea43d","sequence":4},"geometry":{"type":"Point","coordinates":[123.8024116,10.349595000000001]}},{"type":"Feature","properties":{"category":"no_service","preserve":true,"survey_group":"2796f76e4632a45b","sequence":2},"geometry":{"type":"Point","coordinates":[123.79986100000001,10.348833300000001]}},{"type":"Feature","properties":{"category":"no_service","preserve":true,"survey_group":"2796f76e4632a45b","sequence":0},"geometry":{"type":"Point","coordinates":[123.8011178,10.3493019]}},{"type":"Feature","properties":{"category":"no_service","preserve":true,"survey_group":"d1aeee4bd6415302","sequence":0},"geometry":{"type":"Point","coordinates":[123.79975779999999,10.347910199999999]}},{"type":"Feature","properties":{"category":"no_service","preserve":false,"survey_group":"d1aeee4bd6415302","sequence":1},"geometry":{"type":"Point","coordinates":[123.7985054,10.348121900000001]}},{"type":"Feature","properties":{"category":"no_service","preserve":false,"survey_group":"d1aeee4bd6415302","sequence":2},"geometry":{"type":"Point","coordinates":[123.79797689999999,10.3481466]}},{"type":"Feature","properties":{"category":"no_service","preserve":true,"survey_group":"d1aeee4bd6415302","sequence":3},"geometry":{"type":"Point","coordinates":[123.7968582,10.348428500000001]}},{"type":"Feature","properties":{"category":"service","preserve":true,"survey_group":"d1aeee4bd6415302","sequence":4},"geometry":{"type":"Point","coordinates":[123.79521219999999,10.3489985]}},{"type":"Feature","properties":{"category":"no_service","preserve":true,"survey_group":"d1aeee4bd6415302","sequence":5},"geometry":{"type":"Point","coordinates":[123.79483,10.3498634]}},{"type":"Feature","properties":{"category":"no_service","preserve":true,"survey_group":"d1aeee4bd6415302","sequence":6},"geometry":{"type":"Point","coordinates":[123.79445800000001,10.351240600000001]}},{"type":"Feature","properties":{"category":"service","preserve":true,"survey_group":"d1aeee4bd6415302","sequence":7},"geometry":{"type":"Point","coordinates":[123.7940631,10.3523631]}},{"type":"Feature","properties":{"category":"service","preserve":true,"survey_group":"d1aeee4bd6415302","sequence":9},"geometry":{"type":"Point","coordinates":[123.79429810000001,10.352535899999999]}},{"type":"Feature","properties":{"category":"service","preserve":false,"survey_group":"d1aeee4bd6415302","sequence":8},"geometry":{"type":"Point","coordinates":[123.79429810000001,10.352535899999999]}},{"type":"Feature","properties":{"category":"no_service","preserve":true,"survey_group":"d1aeee4bd6415302","sequence":10},"geometry":{"type":"Point","coordinates":[123.794634,10.352801400000001]}},{"type":"Feature","properties":{"category":"service","preserve":false,"survey_group":"d1aeee4bd6415302","sequence":13},"geometry":{"type":"Point","coordinates":[123.79503800000001,10.35308]}},{"type":"Feature","properties":{"category":"service","preserve":false,"survey_group":"d1aeee4bd6415302","sequence":12},"geometry":{"type":"Point","coordinates":[123.7950386,10.353081]}},{"type":"Feature","properties":{"category":"service","preserve":true,"survey_group":"d1aeee4bd6415302","sequence":11},"geometry":{"type":"Point","coordinates":[123.7950386,10.353081]}},{"type":"Feature","properties":{"category":"service","preserve":true,"survey_group":"d1aeee4bd6415302","sequence":14},"geometry":{"type":"Point","coordinates":[123.795396,10.3531206]}},{"type":"Feature","properties":{"category":"no_service","preserve":true,"survey_group":"d1aeee4bd6415302","sequence":15},"geometry":{"type":"Point","coordinates":[123.7954506,10.3532121]}},{"type":"Feature","properties":{"category":"service","preserve":true,"survey_group":"d1aeee4bd6415302","sequence":16},"geometry":{"type":"Point","coordinates":[123.79568190000001,10.3533896]}},{"type":"Feature","properties":{"category":"service","preserve":false,"survey_group":"d1aeee4bd6415302","sequence":17},"geometry":{"type":"Point","coordinates":[123.79615920000001,10.354078299999999]}},{"type":"Feature","properties":{"category":"service","preserve":false,"survey_group":"d1aeee4bd6415302","sequence":19},"geometry":{"type":"Point","coordinates":[123.7962134,10.354140299999999]}},{"type":"Feature","properties":{"category":"service","preserve":false,"survey_group":"d1aeee4bd6415302","sequence":18},"geometry":{"type":"Point","coordinates":[123.7962217,10.354152900000001]}},{"type":"Feature","properties":{"category":"service","preserve":true,"survey_group":"d1aeee4bd6415302","sequence":20},"geometry":{"type":"Point","coordinates":[123.7963429,10.354385799999999]}},{"type":"Feature","properties":{"category":"no_service","preserve":true,"survey_group":"d1aeee4bd6415302","sequence":21},"geometry":{"type":"Point","coordinates":[123.7965621,10.3547511]}},{"type":"Feature","properties":{"category":"service","preserve":true,"survey_group":"d1aeee4bd6415302","sequence":22},"geometry":{"type":"Point","coordinates":[123.7966401,10.355184100000001]}},{"type":"Feature","properties":{"category":"service","preserve":false,"survey_group":"d1aeee4bd6415302","sequence":23},"geometry":{"type":"Point","coordinates":[123.7973499,10.356181400000001]}},{"type":"Feature","properties":{"category":"service","preserve":false,"survey_group":"d1aeee4bd6415302","sequence":24},"geometry":{"type":"Point","coordinates":[123.7974243,10.357107299999999]}},{"type":"Feature","properties":{"category":"service","preserve":false,"survey_group":"d1aeee4bd6415302","sequence":25},"geometry":{"type":"Point","coordinates":[123.7977333,10.357710900000001]}},{"type":"Feature","properties":{"category":"service","preserve":false,"survey_group":"d1aeee4bd6415302","sequence":30},"geometry":{"type":"Point","coordinates":[123.7978705,10.358271800000001]}},{"type":"Feature","properties":{"category":"service","preserve":true,"survey_group":"d1aeee4bd6415302","sequence":29},"geometry":{"type":"Point","coordinates":[123.7978705,10.358271800000001]}},{"type":"Feature","properties":{"category":"service","preserve":false,"survey_group":"d1aeee4bd6415302","sequence":26},"geometry":{"type":"Point","coordinates":[123.7978698,10.358272400000001]}},{"type":"Feature","properties":{"category":"no_service","preserve":true,"survey_group":"d1aeee4bd6415302","sequence":28},"geometry":{"type":"Point","coordinates":[123.7978705,10.358272400000001]}},{"type":"Feature","properties":{"category":"service","preserve":true,"survey_group":"d1aeee4bd6415302","sequence":27},"geometry":{"type":"Point","coordinates":[123.7978706,10.358272400000001]}},{"type":"Feature","properties":{"category":"service","preserve":false,"survey_group":"d1aeee4bd6415302","sequence":31},"geometry":{"type":"Point","coordinates":[123.7975904,10.3586998]}},{"type":"Feature","properties":{"category":"service","preserve":false,"survey_group":"d1aeee4bd6415302","sequence":32},"geometry":{"type":"Point","coordinates":[123.7972415,10.359290100000001]}},{"type":"Feature","properties":{"category":"service","preserve":false,"survey_group":"d1aeee4bd6415302","sequence":33},"geometry":{"type":"Point","coordinates":[123.7970093,10.3598239]}},{"type":"Feature","properties":{"category":"service","preserve":true,"survey_group":"d1aeee4bd6415302","sequence":34},"geometry":{"type":"Point","coordinates":[123.7971005,10.360323599999999]}},{"type":"Feature","properties":{"category":"no_service","preserve":true,"survey_group":"d1aeee4bd6415302","sequence":35},"geometry":{"type":"Point","coordinates":[123.7970863,10.3603253]}},{"type":"Feature","properties":{"category":"service","preserve":true,"survey_group":"d1aeee4bd6415302","sequence":36},"geometry":{"type":"Point","coordinates":[123.79708290000001,10.360333000000001]}},{"type":"Feature","properties":{"category":"service","preserve":false,"survey_group":"d1aeee4bd6415302","sequence":38},"geometry":{"type":"Point","coordinates":[123.7975421,10.3608473]}},{"type":"Feature","properties":{"category":"service","preserve":false,"survey_group":"d1aeee4bd6415302","sequence":37},"geometry":{"type":"Point","coordinates":[123.7975421,10.3608473]}},{"type":"Feature","properties":{"category":"service","preserve":true,"survey_group":"d1aeee4bd6415302","sequence":39},"geometry":{"type":"Point","coordinates":[123.7977899,10.3608973]}}]}
