{"type":"FeatureCollection","features":[{"type":"Feature","properties":[],"geometry":{"type":"MultiLineString","coordinates":[[[124.026736,10.518305,5.7000000000000002,0],[124.026223,10.518636000000001,7.5499999999999998,0],[124.025977,10.518812,9.7799999999999994,0],[124.025581,10.519097,8.2300000000000004,0],[124.025233,10.519261999999999,7,0],[124.02472,10.519522,7,0],[124.024339,10.519845,7.9900000000000002,0],[124.02373299999999,10.520586,8,0],[124.023749,10.520629,8.0199999999999996,0],[124.02374500000001,10.520647,8.0700000000000003,0],[124.02374,10.520673,8.1500000000000004,0],[124.023709,10.520707,8.3300000000000001,0],[124.023948,10.521077999999999,9,0],[124.024446,10.521826000000001,8.4900000000000002,0],[124.02498799999999,10.522610999999999,8,0],[124.025485,10.523379,7,0],[124.02592,10.524011,7,0],[124.025892,10.524039,7,0],[124.025468,10.52436,8.0399999999999991,0],[124.02521,10.524556,8.6699999999999999,0],[124.025069,10.524621,9.0800000000000001,0],[124.024869,10.524794999999999,9.2799999999999994,0],[124.0247,10.524931,10.02,0],[124.02458300000001,10.525026,10.529999999999999,0],[124.02443100000001,10.525176999999999,10.5,0],[124.024238,10.525230000000001,10.67,0],[124.024209,10.525238,10.699999999999999,0],[124.02364900000001,10.525543000000001,10.880000000000001,0],[124.02354,10.525619000000001,11.07,0],[124.02292199999999,10.526147999999999,10.31,0],[124.02241100000001,10.526526,10.23,0],[124.02207799999999,10.526831,8.8000000000000007,0],[124.021389,10.527481999999999,9.6799999999999997,0],[124.021309,10.527588,9.8000000000000007,0],[124.02126,10.527668,9.8900000000000006,0],[124.02120499999999,10.527754,9.8499999999999996,0],[124.02108699999999,10.527913,9.5800000000000001,0],[124.021036,10.527981,9.4700000000000006,0],[124.02042299999999,10.529004,11,0],[124.01999499999999,10.529679,10.67,0],[124.01963000000001,10.530218,12.84,0],[124.01950100000001,10.530479,13,0],[124.019428,10.530708000000001,13,0],[124.019373,10.530934,13,0],[124.019283,10.531765999999999,11.380000000000001,0],[124.01925199999999,10.532114999999999,13.960000000000001,0],[124.019245,10.53237,16.969999999999999,0],[124.019274,10.53271,18.43,0],[124.019361,10.532991000000001,16.609999999999999,0],[124.019447,10.533272,12.67,0],[124.019577,10.53374,10.34,0],[124.019593,10.533939,10.15,0],[124.01954600000001,10.534098999999999,10.699999999999999,0],[124.01944899999999,10.534238999999999,10.880000000000001,0],[124.01919100000001,10.534409,11.380000000000001,0],[124.018922,10.534546000000001,10.82,0],[124.018513,10.534699,10.960000000000001,0],[124.018315,10.534796,11,0],[124.01820600000001,10.534882,11.76,0],[124.01805899999999,10.53504,12.49,0],[124.01789100000001,10.535384000000001,13.42,0],[124.01779399999999,10.535622,12.710000000000001,0],[124.01754,10.536199,11.390000000000001,0],[124.01739499999999,10.536441999999999,11.359999999999999,0],[124.017105,10.536927,14.390000000000001,0],[124.01695599999999,10.537203,13.99,0],[124.016865,10.537255999999999,14,0],[124.016578,10.537381,13.789999999999999,0],[124.016066,10.537554,12.01,0],[124.015809,10.53764,13.220000000000001,0],[124.015356,10.537820999999999,15.720000000000001,0],[124.014713,10.53811,15.98,0],[124.014449,10.538237000000001,17.66,0],[124.01365699999999,10.538617,17.52,0],[124.01339299999999,10.538767999999999,20.239999999999998,0],[124.01310700000001,10.539101,21.280000000000001,0],[124.013041,10.539163,21.68,0],[124.012711,10.539357000000001,23.59,0],[124.01243599999999,10.539538,24.289999999999999,0],[124.012292,10.539623000000001,24.66,0],[124.012073,10.539816999999999,27.420000000000002,0],[124.011866,10.54031,32.780000000000001,0],[124.01172099999999,10.540609,32.479999999999997,0],[124.01156,10.540888000000001,31.280000000000001,0],[124.01141,10.541040000000001,30.129999999999999,0],[124.011295,10.541198,27.800000000000001,0],[124.011093,10.541598,26,0],[124.010931,10.541854000000001,26.940000000000001,0],[124.010565,10.542527,28.489999999999998,0],[124.010448,10.542552000000001,28.82,0],[124.00991999999999,10.542576,30.550000000000001,0],[124.00957699999999,10.542609000000001,32.100000000000001,0],[124.009332,10.542736,32.950000000000003,0],[124.009219,10.542897999999999,34.439999999999998,0],[124.00908200000001,10.543063,35.590000000000003,0],[124.00891799999999,10.543187,36.369999999999997,0],[124.008869,10.543214000000001,36.549999999999997,0],[124.00863099999999,10.543314000000001,36.740000000000002,0],[124.008295,10.5434,39.810000000000002,0],[124.008217,10.543386,40.840000000000003,0],[124.008146,10.543296,41.759999999999998,0],[124.00809700000001,10.543182,41.899999999999999,0],[124.008021,10.543063999999999,42.25,0],[124.00791599999999,10.542915000000001,40.640000000000001,0],[124.007743,10.542813000000001,39.039999999999999,0],[124.00768100000001,10.5428,38.920000000000002,0],[124.007503,10.542761,38.590000000000003,0],[124.007183,10.542778,38.490000000000002,0],[124.006671,10.542847,40.560000000000002,0],[124.006603,10.54285,41.149999999999999,0],[124.00650400000001,10.542807,41.899999999999999,0],[124.00627299999999,10.542617999999999,41.520000000000003,0],[124.00602000000001,10.542505,43.549999999999997,0],[124.00588399999999,10.542479999999999,44.549999999999997,0],[124.00566499999999,10.542494,44.859999999999999,0],[124.005359,10.542657999999999,46.399999999999999,0],[124.005066,10.542873,47.299999999999997,0],[124.004777,10.543151,45.93,0],[124.004597,10.54339,48.850000000000001,0],[124.00451099999999,10.543435000000001,49.920000000000002,0],[124.004428,10.543430000000001,50.210000000000001,0],[124.004045,10.543359000000001,49.82,0],[124.00381400000001,10.543400999999999,49.840000000000003,0],[124.003666,10.543459,49.82,0],[124.003578,10.543526999999999,50.409999999999997,0],[124.00346500000001,10.543646000000001,51.57,0],[124.003226,10.543818999999999,52.170000000000002,0],[124.002988,10.543991,56.619999999999997,0],[124.00286199999999,10.544017,56.219999999999999,0],[124.002698,10.544012,54.07,0],[124.00255799999999,10.544044,53.590000000000003,0],[124.002337,10.544135000000001,52.670000000000002,0],[124.001893,10.544318000000001,54.310000000000002,0],[124.001563,10.544442,57.200000000000003,0],[124.001041,10.544585,61.189999999999998,0],[124.000863,10.544651,63.649999999999999,0],[124.000716,10.544650000000001,63.950000000000003,0],[124.00039099999999,10.544582999999999,64.25,0],[124.00002499999999,10.544036,57.469999999999999,0],[123.999821,10.543901999999999,57.68,0],[123.999636,10.543823,58.609999999999999,0],[123.99934399999999,10.543675,60.43,0],[123.99918,10.543608000000001,60.950000000000003,0],[123.998955,10.543476999999999,61.200000000000003,0],[123.998891,10.543331,61.840000000000003,0],[123.998902,10.543202000000001,63.289999999999999,0],[123.998966,10.542730000000001,73.25,0],[123.998841,10.542586999999999,73.420000000000002,0],[123.998769,10.542414000000001,73.099999999999994,0],[123.998676,10.541933999999999,71.439999999999998,0],[123.99853400000001,10.541729999999999,70.459999999999994,0],[123.99805000000001,10.54114,71.280000000000001,0],[123.997908,10.540879,70.200000000000003,0],[123.99783600000001,10.540497,72.489999999999995,0],[123.99777,10.540393999999999,73.040000000000006,0],[123.99757,10.540202000000001,72.680000000000007,0],[123.997294,10.539986000000001,72.560000000000002,0],[123.997259,10.539925,72.920000000000002,0],[123.997237,10.539857,73.109999999999999,0],[123.997203,10.539534,74.790000000000006,0],[123.99713800000001,10.53922,76.140000000000001,0],[123.99709300000001,10.539130999999999,77.239999999999995,0],[123.996826,10.538807,82.799999999999997,0],[123.996741,10.538721000000001,84.420000000000002,0],[123.99656299999999,10.538515,90.780000000000001,0],[123.996402,10.538444,92.359999999999999,0],[123.99627599999999,10.538360000000001,94.010000000000005,0],[123.996197,10.538273999999999,95.560000000000002,0],[123.996015,10.537946,104.93000000000001,0],[123.99594,10.537841,108.22,0],[123.99533700000001,10.537376999999999,128.03999999999999,0],[123.995197,10.537307,131.38999999999999,0],[123.995034,10.537319999999999,131.15000000000001,0],[123.99477,10.537388,128.28,0],[123.994506,10.537457,123.26000000000001,0],[123.99444099999999,10.53744,122.28,0],[123.994398,10.537413000000001,121.83,0],[123.994383,10.537362,122.41,0],[123.99440800000001,10.537191,125.01000000000001,0],[123.994424,10.536993000000001,125.72,0],[123.994479,10.536785999999999,127.90000000000001,0],[123.994539,10.536469,129.09999999999999,0],[123.99449199999999,10.536360999999999,128.41999999999999,0],[123.994395,10.536308999999999,127.13,0],[123.99408699999999,10.536301999999999,125.13,0],[123.993779,10.536294,125.14,0],[123.99329299999999,10.536488,135.52000000000001,0],[123.993042,10.536471000000001,140.02000000000001,0],[123.992541,10.536436,144.84,0],[123.992397,10.536287,143.62,0],[123.992306,10.536175,141.59999999999999,0],[123.992002,10.536218999999999,148.71000000000001,0],[123.991736,10.53619,152.81999999999999,0],[123.99103700000001,10.536244,167.80000000000001,0],[123.990838,10.536201999999999,168.50999999999999,0],[123.99074,10.536216,169.34999999999999,0],[123.99024300000001,10.536429,178.11000000000001,0],[123.989496,10.536747,196.27000000000001,0],[123.989248,10.536853000000001,200.96000000000001,0],[123.98891399999999,10.536941000000001,205.03,0],[123.988743,10.536959,207.22,0],[123.98830599999999,10.536873999999999,209.02000000000001,0],[123.988151,10.536873,209.06999999999999,0],[123.988056,10.536913,209.46000000000001,0],[123.987803,10.537243,210.91,0],[123.98759,10.537697,207.72999999999999,0],[123.987447,10.537868,206.06,0],[123.987087,10.537972999999999,203.62,0],[123.986289,10.538016000000001,204.74000000000001,0],[123.985809,10.538122,207.99000000000001,0],[123.98520600000001,10.538259999999999,215.11000000000001,0],[123.985173,10.538308000000001,216.37,0],[123.985067,10.538684,223.91,0],[123.985038,10.538824,225.34,0],[123.985088,10.539389999999999,230.62,0],[123.985027,10.539552,230.43000000000001,0],[123.984672,10.539737000000001,232.06,0],[123.984094,10.539834000000001,237.83000000000001,0],[123.98386600000001,10.539946,241.22999999999999,0],[123.983754,10.540255,247.94999999999999,0],[123.982696,10.540749,259.17000000000002,0],[123.982631,10.540791,260.18000000000001,0],[123.982343,10.54102,267.06,0],[123.982045,10.540801,264.31999999999999,0],[123.981922,10.54074,263.50999999999999,0],[123.981677,10.540703000000001,264.87,0],[123.981503,10.540649999999999,266.35000000000002,0],[123.981358,10.540533999999999,265.68000000000001,0],[123.981188,10.54036,262.85000000000002,0],[123.980943,10.540155,259.66000000000003,0],[123.980722,10.540027,260.20999999999998,0],[123.980542,10.539892,260.94,0],[123.980363,10.539740999999999,261.69,0],[123.980234,10.539527,261.06,0],[123.980192,10.539433000000001,261.43000000000001,0],[123.98016699999999,10.539142,261.72000000000003,0],[123.980132,10.538999,261.69,0],[123.980079,10.538667,258.80000000000001,0],[123.979978,10.538539999999999,257.67000000000002,0],[123.979679,10.538216,251.22999999999999,0],[123.979597,10.538156000000001,250.13999999999999,0],[123.97932900000001,10.537990000000001,248.62,0],[123.979213,10.537947000000001,248.47,0],[123.97909900000001,10.537874,248.03,0],[123.97883899999999,10.537523999999999,248.97999999999999,0],[123.97872,10.537381,249.21000000000001,0],[123.97863,10.537318000000001,249.55000000000001,0],[123.978443,10.537246,249.31999999999999,0],[123.97807400000001,10.537176000000001,249,0],[123.97787099999999,10.537127,249.18000000000001,0],[123.97752300000001,10.53703,251.22,0],[123.977401,10.536982,251.63999999999999,0],[123.977273,10.536981000000001,252.38,0],[123.977081,10.537103,252.38,0],[123.97704400000001,10.537153,252.08000000000001,0],[123.97701600000001,10.537326999999999,252.34999999999999,0],[123.977002,10.537568,253.43000000000001,0],[123.97696500000001,10.537731000000001,253.81999999999999,0],[123.97674499999999,10.538211,255.97,0],[123.97661600000001,10.53838,257.06999999999999,0],[123.976241,10.538612000000001,260.54000000000002,0],[123.97615500000001,10.53876,260.83999999999997,0],[123.97614900000001,10.539197,263.08999999999997,0],[123.976096,10.539292,262.95999999999998,0],[123.97587300000001,10.539460999999999,262.58999999999997,0],[123.97575000000001,10.539572,263.22000000000003,0],[123.975702,10.539661000000001,263.82999999999998,0],[123.975669,10.539743,264.41000000000003,0],[123.97559699999999,10.540267999999999,270.97000000000003,0],[123.975551,10.540416,272.31,0],[123.975488,10.540505,272.75999999999999,0],[123.97508999999999,10.541194000000001,280.38999999999999,0],[123.974993,10.541461999999999,284.5,0],[123.974889,10.541605000000001,285.68000000000001,0],[123.97478700000001,10.541646999999999,285.18000000000001,0],[123.974191,10.541734,280.80000000000001,0],[123.97403,10.54185,284.68000000000001,0],[123.973888,10.541931999999999,287.61000000000001,0],[123.973625,10.541964,286.06999999999999,0],[123.973406,10.542032000000001,285.91000000000003,0],[123.973253,10.542159,287.23000000000002,0],[123.97317200000001,10.542287999999999,289.35000000000002,0],[123.973111,10.542400000000001,290.38,0],[123.97312700000001,10.542536,294.88,0],[123.97307600000001,10.542668000000001,296.36000000000001,0],[123.972955,10.542744000000001,294.56,0],[123.972728,10.542837,292.49000000000001,0],[123.97256400000001,10.542918,292.00999999999999,0],[123.972144,10.543535,300.20999999999998,0],[123.97195499999999,10.544060999999999,312.70999999999998,0],[123.97188199999999,10.544390999999999,318.88999999999999,0],[123.971935,10.544898,327.22000000000003,0],[123.97203500000001,10.545051000000001,333,0],[123.97207299999999,10.545172000000001,337.97000000000003,0],[123.972038,10.545234000000001,338.42000000000002,0],[123.971907,10.545342,337.19999999999999,0],[123.971784,10.545596,341.48000000000002,0],[123.97174699999999,10.545749000000001,342.94,0],[123.971706,10.545824,343.17000000000002,0],[123.971305,10.545945,343.98000000000002,0],[123.971126,10.546051,346.20999999999998,0],[123.971035,10.546188000000001,349.41000000000003,0],[123.970978,10.546388,355.61000000000001,0],[123.970972,10.546711999999999,361.33999999999997,0],[123.97091899999999,10.546944999999999,364.75,0],[123.97071200000001,10.547321,369.51999999999998,0],[123.970597,10.547559,373.49000000000001,0],[123.970434,10.547612000000001,374.88,0],[123.97035099999999,10.547587999999999,375.14999999999998,0],[123.970114,10.547483,375.87,0],[123.969857,10.547345,375.45999999999998,0],[123.96971499999999,10.547285,374.38,0],[123.969599,10.547302999999999,375.13999999999999,0],[123.969401,10.547396000000001,375.52999999999997,0],[123.969292,10.547529000000001,377.25999999999999,0],[123.969239,10.547751999999999,379.25999999999999,0],[123.96912500000001,10.547969999999999,379.48000000000002,0],[123.96898400000001,10.548133,378.13999999999999,0],[123.96884900000001,10.548378,377.38999999999999,0],[123.96888300000001,10.548731999999999,382.74000000000001,0],[123.96881999999999,10.548840999999999,382.49000000000001,0],[123.968688,10.548925000000001,380.97000000000003,0],[123.968559,10.549139,381.72000000000003,0],[123.968529,10.549277999999999,382.55000000000001,0],[123.968473,10.549658000000001,385.80000000000001,0],[123.968373,10.549868999999999,388.14999999999998,0],[123.968296,10.549974000000001,390.32999999999998,0],[123.968183,10.550056,392.10000000000002,0],[123.967832,10.550148,393.94999999999999,0],[123.96730100000001,10.550520000000001,401.80000000000001,0],[123.96704099999999,10.550606999999999,404.5,0],[123.966866,10.550623,406.48000000000002,0],[123.966561,10.550615000000001,410.91000000000003,0],[123.966426,10.550629000000001,413.82999999999998,0],[123.96634899999999,10.550743000000001,416.95999999999998,0],[123.966302,10.550841,419.80000000000001,0],[123.966212,10.550991,424.29000000000002,0],[123.96648500000001,10.551439,428.33999999999997,0],[123.966505,10.551629,429.31999999999999,0],[123.966621,10.551936,429.08999999999997,0],[123.96689000000001,10.552371000000001,432.55000000000001,0],[123.96687,10.552535000000001,435.13,0],[123.96675,10.552709999999999,436.74000000000001,0],[123.96658100000001,10.552834000000001,437.62,0],[123.966252,10.553050000000001,441.5,0],[123.966188,10.553153,443.06999999999999,0],[123.96621500000001,10.553481,447.44,0],[123.966239,10.553827,449.25999999999999,0],[123.966257,10.553981,450.42000000000002,0],[123.96637,10.554254,454.81999999999999,0],[123.966443,10.554439,456.22000000000003,0],[123.966544,10.554657000000001,457.70999999999998,0],[123.966641,10.554929,460.30000000000001,0],[123.96664800000001,10.555106,461.16000000000003,0],[123.966638,10.555251,461.18000000000001,0],[123.96645599999999,10.555815000000001,459.27999999999997,0],[123.966172,10.556459,465.50999999999999,0],[123.96611300000001,10.556672000000001,470.30000000000001,0],[123.965987,10.556941,475.73000000000002,0],[123.965818,10.557219999999999,477.56,0],[123.965914,10.557294000000001,478.83999999999997,0],[123.966021,10.557344000000001,479.18000000000001,0],[123.966244,10.557389000000001,480.22000000000003,0],[123.96638400000001,10.557449999999999,481.72000000000003,0],[123.96667600000001,10.557779,490.04000000000002,0],[123.966815,10.557957,493.63999999999999,0],[123.966888,10.558071,495.47000000000003,0],[123.966904,10.558201,496.49000000000001,0],[123.96689000000001,10.558357000000001,497.19,0],[123.966713,10.558528000000001,496.31999999999999,0],[123.966398,10.558759999999999,494.77999999999997,0],[123.96616899999999,10.558863000000001,493.94999999999999,0],[123.965844,10.559282,493.35000000000002,0],[123.965748,10.559441,496.36000000000001,0],[123.965667,10.559493,497.97000000000003,0],[123.965563,10.559507,500.02999999999997,0],[123.965459,10.559480000000001,501.94,0],[123.965311,10.559404000000001,504.13,0],[123.96495899999999,10.559269,508.35000000000002,0],[123.96483600000001,10.559214000000001,508.75999999999999,0],[123.964688,10.559056,508.13,0],[123.964533,10.55899,509.70999999999998,0],[123.964375,10.559024000000001,512.32000000000005,0],[123.964326,10.559085,512.88999999999999,0],[123.964313,10.559203,513,0],[123.964415,10.559462,513.08000000000004,0],[123.96444200000001,10.559680999999999,512.63999999999999,0],[123.964517,10.559868,513.07000000000005,0],[123.964581,10.560058,513.75999999999999,0],[123.964575,10.560404999999999,512.05999999999995,0],[123.964479,10.560739,509.45999999999998,0],[123.964434,10.560853,509.44,0],[123.964372,10.560980000000001,510.06999999999999,0],[123.96430700000001,10.561016,509.56999999999999,0],[123.964204,10.561017,508.88,0],[123.964117,10.560980000000001,506.94999999999999,0],[123.96391199999999,10.560936999999999,503.5,0],[123.96381,10.56095,503.19,0],[123.963622,10.561044000000001,503.38,0],[123.963365,10.561145,501.66000000000003,0],[123.96305599999999,10.56114,496.95999999999998,0],[123.962903,10.561081,494.88999999999999,0],[123.962807,10.561033,493.24000000000001,0],[123.962721,10.561062,493.31,0],[123.96262299999999,10.561177000000001,495.41000000000003,0],[123.96259999999999,10.561228,496.00999999999999,0],[123.962603,10.561273,496.02999999999997,0],[123.962626,10.561325999999999,496.16000000000003,0],[123.962682,10.561381000000001,496.44,0],[123.96275,10.561481000000001,495.64999999999998,0],[123.962839,10.56155,495.26999999999998,0],[123.962913,10.561633,494.19,0],[123.96296599999999,10.561769,491.72000000000003,0],[123.962946,10.561833,489.56999999999999,0],[123.962879,10.561889000000001,487.45999999999998,0],[123.962808,10.561911,486.52999999999997,0],[123.96265099999999,10.561938,484.33999999999997,0],[123.962457,10.561982,481.02999999999997,0],[123.962311,10.561983,479.32999999999998,0],[123.96212800000001,10.562092,474.87,0],[123.962045,10.562175,472.02999999999997,0],[123.962034,10.562246999999999,470.20999999999998,0],[123.96204,10.562334,468.39999999999998,0],[123.96201600000001,10.562488999999999,463.64999999999998,0],[123.961975,10.562531,461.47000000000003,0],[123.96195,10.56254,460.60000000000002,0],[123.96189200000001,10.562543,459.02999999999997,0],[123.961832,10.56251,457.55000000000001,0],[123.96175700000001,10.562428000000001,456.91000000000003,0],[123.96156999999999,10.562118,456.56,0],[123.961517,10.562060000000001,455.76999999999998,0],[123.96141900000001,10.561973,454.69,0],[123.96130700000001,10.561889000000001,452.58999999999997,0],[123.96090100000001,10.561608,446.17000000000002,0],[123.960829,10.561579,444.06999999999999,0],[123.960741,10.561596,440.11000000000001,0],[123.960707,10.561612999999999,438.25,0],[123.96068699999999,10.561633,436.99000000000001,0],[123.960674,10.561661000000001,435.87,0],[123.96066999999999,10.561742000000001,433.81999999999999,0],[123.960735,10.562033,429.06,0],[123.960764,10.562251,425.69999999999999,0],[123.960667,10.562352000000001,423.06999999999999,0],[123.960532,10.562530000000001,420.19999999999999,0],[123.96009100000001,10.562751,416.48000000000002,0],[123.95981500000001,10.562863,414.56,0],[123.959372,10.563071000000001,406.23000000000002,0],[123.95930199999999,10.563193,405.44999999999999,0],[123.959225,10.563371999999999,405.61000000000001,0],[123.95918899999999,10.563432000000001,405.60000000000002,0],[123.95895400000001,10.563605000000001,403.83999999999997,0],[123.958704,10.564019,403.80000000000001,0],[123.95851399999999,10.564249999999999,403.94,0],[123.95842399999999,10.564304999999999,402.61000000000001,0],[123.958153,10.564403,399.36000000000001,0],[123.95799100000001,10.564446999999999,397.17000000000002,0],[123.957875,10.564412000000001,395.81999999999999,0],[123.957707,10.564499,392.73000000000002,0],[123.957532,10.564610999999999,390.36000000000001,0],[123.957251,10.564769,387.88999999999999,0],[123.957015,10.564928,385.22000000000003,0],[123.956709,10.565151999999999,384.81,0],[123.956537,10.565263,384.83999999999997,0],[123.956461,10.565322,385.22000000000003,0],[123.956332,10.565376000000001,384.61000000000001,0],[123.956242,10.565340000000001,383.13999999999999,0],[123.95613899999999,10.565288000000001,381.31999999999999,0],[123.95589200000001,10.565139,378.55000000000001,0],[123.955561,10.565027000000001,376.75,0],[123.955352,10.564937,374.83999999999997,0],[123.955252,10.564945,373.69,0],[123.955136,10.564988,372.13,0],[123.95500199999999,10.565149,370.36000000000001,0],[123.954928,10.565201999999999,369.07999999999998,0],[123.954807,10.565227999999999,367.47000000000003,0],[123.954646,10.565225999999999,365.29000000000002,0],[123.954493,10.565137,362.87,0],[123.954335,10.565004,359.99000000000001,0],[123.954196,10.564851000000001,357.44,0],[123.95393799999999,10.564461,351.24000000000001,0],[123.953699,10.564071,344.25,0],[123.953428,10.563781000000001,338.73000000000002,0],[123.953321,10.563701999999999,337.00999999999999,0],[123.95303,10.563451000000001,331.44,0],[123.952668,10.563248,326.50999999999999,0],[123.952349,10.563110999999999,323.42000000000002,0],[123.951936,10.562842,319.08999999999997,0],[123.95107299999999,10.562393999999999,311.00999999999999,0],[123.950925,10.562234,308.63999999999999,0],[123.950793,10.562063999999999,306.25999999999999,0],[123.950532,10.561745,304.47000000000003,0],[123.950339,10.561539,302.10000000000002,0],[123.950193,10.561366,298.73000000000002,0],[123.95008799999999,10.561273999999999,296.58999999999997,0],[123.949904,10.561232,294.24000000000001,0],[123.949759,10.561164,293.27999999999997,0],[123.949659,10.561073,293.31999999999999,0],[123.949561,10.561064999999999,292.75,0],[123.949386,10.561083,290.60000000000002,0],[123.94923900000001,10.561073,288.60000000000002,0],[123.949113,10.561004000000001,287.30000000000001,0],[123.94893,10.560878000000001,285.14999999999998,0],[123.948812,10.560755,283.86000000000001,0],[123.94883900000001,10.560662000000001,283.85000000000002,0],[123.948761,10.560518,282.47000000000003,0],[123.94840499999999,10.560013,277.26999999999998,0],[123.948319,10.559786000000001,273.44,0],[123.948356,10.559528,270.08999999999997,0],[123.94839399999999,10.559269,269.70999999999998,0],[123.94833800000001,10.559151,268.57999999999998,0],[123.948108,10.558892,267.16000000000003,0],[123.94797199999999,10.558785,265.35000000000002,0],[123.947554,10.55857,262.49000000000001,0],[123.94720700000001,10.558294,261.13999999999999,0],[123.946991,10.558009999999999,258.70999999999998,0],[123.94674000000001,10.557575,253.00999999999999,0],[123.946433,10.556732,252.06999999999999,0],[123.946307,10.556647999999999,251.96000000000001,0],[123.946012,10.556568,252.19,0],[123.945869,10.556438,253.00999999999999,0],[123.945718,10.556274999999999,254.19999999999999,0],[123.94543299999999,10.555723,259.38,0],[123.945025,10.555425,263.48000000000002,0],[123.944838,10.555336,263.74000000000001,0],[123.94465099999999,10.555247,261.51999999999998,0],[123.94419499999999,10.554855,254.77000000000001,0],[123.943853,10.554320000000001,250.43000000000001,0],[123.94376800000001,10.554201000000001,249.15000000000001,0],[123.943511,10.554171999999999,246.69,0],[123.943197,10.554183,243.03,0],[123.943,10.554145999999999,242.08000000000001,0],[123.942688,10.553944,241.28999999999999,0],[123.942167,10.553808,241.93000000000001,0],[123.941271,10.553687,240.90000000000001,0],[123.940855,10.553704,240.69999999999999,0],[123.94068799999999,10.553626,241.34999999999999,0],[123.940472,10.553471,241.87,0],[123.94029399999999,10.553222999999999,243.69,0],[123.94014900000001,10.552917000000001,246.53999999999999,0],[123.939392,10.551920000000001,255.05000000000001,0],[123.93926999999999,10.551702000000001,254.55000000000001,0],[123.93928200000001,10.551313,251.97999999999999,0],[123.939221,10.550941999999999,248.96000000000001,0],[123.939049,10.550623999999999,241.97,0],[123.938941,10.550297,239.55000000000001,0],[123.93875300000001,10.549981000000001,234.71000000000001,0],[123.938649,10.549602999999999,229.16,0],[123.93856,10.549329999999999,227.03999999999999,0],[123.93826900000001,10.54888,227.55000000000001,0],[123.93804,10.548634,227.34,0],[123.937794,10.548469000000001,228.25999999999999,0],[123.937085,10.548314,222.88,0],[123.936279,10.548121,217.63,0],[123.936015,10.547910999999999,217.19,0],[123.93589900000001,10.547783000000001,218.15000000000001,0],[123.935802,10.547732999999999,218.75,0],[123.935622,10.547666,219.28,0],[123.93499300000001,10.547572000000001,224.71000000000001,0],[123.934642,10.547416999999999,225.25999999999999,0],[123.934355,10.54744,228.25,0],[123.933781,10.547488,229.09999999999999,0],[123.933207,10.547535,234.81,0],[123.932633,10.547582999999999,251.22999999999999,0],[123.932114,10.547293,242.34999999999999,0],[123.931797,10.547256000000001,247.38999999999999,0],[123.93147999999999,10.547219,255.66999999999999,0],[123.93109200000001,10.546805000000001,240.36000000000001,0],[123.93049600000001,10.546398999999999,234.31999999999999,0],[123.930308,10.546357,234.66999999999999,0],[123.92972399999999,10.546390000000001,239.09999999999999,0],[123.928836,10.546415,242.36000000000001,0],[123.928332,10.546405999999999,250.00999999999999,0],[123.927741,10.546339,261.06,0],[123.92736600000001,10.546162000000001,265.23000000000002,0],[123.92696100000001,10.545798,270.24000000000001,0],[123.926687,10.545700999999999,273.43000000000001,0],[123.92559,10.545311999999999,277.06999999999999,0],[123.92525999999999,10.545351999999999,276.76999999999998,0],[123.92506899999999,10.545486,279.48000000000002,0],[123.924879,10.545621000000001,284.88,0],[123.924654,10.545767,291.12,0],[123.924223,10.545733,296.16000000000003,0],[123.92398900000001,10.545769,299.43000000000001,0],[123.923755,10.545806000000001,300.04000000000002,0],[123.923542,10.545949,300.30000000000001,0],[123.923385,10.546151999999999,302.08999999999997,0],[123.923074,10.546391,304.92000000000002,0],[123.92252999999999,10.546391,301.04000000000002,0],[123.922033,10.546516,305.61000000000001,0],[123.92133699999999,10.546264000000001,305.29000000000002,0],[123.92094299999999,10.546072000000001,302.54000000000002,0],[123.920751,10.5459,300.62,0],[123.920665,10.545586999999999,300.63,0],[123.920534,10.545500000000001,300.43000000000001,0],[123.92037000000001,10.545500000000001,300,0],[123.92018400000001,10.545534,300.18000000000001,0],[123.919905,10.545674,301.80000000000001,0],[123.91813500000001,10.545140999999999,306.93000000000001,0],[123.91788200000001,10.545064999999999,309.41000000000003,0],[123.917593,10.544922,313.98000000000002,0],[123.917086,10.544843,319.73000000000002,0],[123.916833,10.544803999999999,321.10000000000002,0],[123.916372,10.544793,324.50999999999999,0],[123.915571,10.544620999999999,322.22000000000003,0],[123.915305,10.544563999999999,323.63999999999999,0],[123.914833,10.544411,323.13999999999999,0],[123.914599,10.544273,324.13999999999999,0],[123.914304,10.544207999999999,326.24000000000001,0],[123.913966,10.544292,327.69,0],[123.913628,10.544453000000001,331.25999999999999,0],[123.913422,10.544413,334.02999999999997,0],[123.91309,10.544217,339.20999999999998,0],[123.91291699999999,10.544169,343,0],[123.912325,10.544114,355.63,0],[123.912182,10.544008,356.51999999999998,0],[123.91209600000001,10.543898,355.00999999999999,0],[123.91200499999999,10.543809,353.13,0],[123.911908,10.543787999999999,353.38999999999999,0],[123.911686,10.543867000000001,359.20999999999998,0],[123.911434,10.544006,368.19,0],[123.91113799999999,10.543965,368.93000000000001,0],[123.91087899999999,10.543977999999999,374.02999999999997,0],[123.91072200000001,10.54396,377.45999999999998,0],[123.91067,10.54383,377.45999999999998,0],[123.910589,10.543488,383.20999999999998,0],[123.91055299999999,10.543257000000001,385.62,0],[123.910584,10.543087999999999,382.56999999999999,0],[123.910544,10.542935,379.69999999999999,0],[123.910377,10.542878999999999,381.07999999999998,0],[123.91012000000001,10.542818,381.75999999999999,0],[123.90997,10.542805,379.31,0],[123.90988400000001,10.542875,379.49000000000001,0],[123.909746,10.543046,381.69999999999999,0],[123.909626,10.543274,389.04000000000002,0],[123.909459,10.543380000000001,393.11000000000001,0],[123.909212,10.543424,396.47000000000003,0],[123.908948,10.543319,399.31999999999999,0],[123.90885299999999,10.543202000000001,402.51999999999998,0],[123.908796,10.543101,405.18000000000001,0],[123.908754,10.542959,406.20999999999998,0],[123.908708,10.542721999999999,403.25999999999999,0],[123.908492,10.542624,408.13,0],[123.908338,10.542573000000001,410.29000000000002,0],[123.90792999999999,10.542384999999999,412.66000000000003,0],[123.90777300000001,10.542403999999999,419.20999999999998,0],[123.907623,10.542400000000001,425.81,0],[123.90754200000001,10.54228,427.69,0],[123.90751,10.542066,426.23000000000002,0],[123.90754200000001,10.541847000000001,420.85000000000002,0],[123.90750300000001,10.541753,420.26999999999998,0],[123.90743500000001,10.541728000000001,421.81,0],[123.907265,10.541734999999999,426.22000000000003,0],[123.90716500000001,10.54172,428.27999999999997,0],[123.90710900000001,10.541684,428.94,0],[123.90706400000001,10.541522000000001,426.86000000000001,0],[123.906981,10.541276999999999,421.36000000000001,0],[123.906892,10.541214999999999,418.81,0],[123.906807,10.541207,416.56,0],[123.90670900000001,10.541266999999999,416.25,0],[123.906566,10.541445,419.20999999999998,0],[123.906516,10.541539999999999,420.50999999999999,0],[123.90644899999999,10.541779,423.25,0],[123.906408,10.542081,428.17000000000002,0],[123.90638800000001,10.542343000000001,433.81999999999999,0],[123.90632600000001,10.542543999999999,436.63,0],[123.906227,10.542731,440.82999999999998,0],[123.906181,10.542770000000001,441.14999999999998,0],[123.90604500000001,10.542805,439.33999999999997,0],[123.905838,10.542813000000001,434.41000000000003,0],[123.905739,10.542892,433.13999999999999,0],[123.905693,10.542963,432.73000000000002,0],[123.905688,10.543063,433.80000000000001,0],[123.905733,10.543153,436.13999999999999,0],[123.905948,10.5433,444.07999999999998,0],[123.906578,10.543575000000001,461.50999999999999,0],[123.906818,10.543768999999999,466.93000000000001,0],[123.906927,10.543941,469.08999999999997,0],[123.90700200000001,10.544107,471.05000000000001,0],[123.907094,10.544252,476.22000000000003,0],[123.906986,10.544482,469.73000000000002,0],[123.906935,10.544549999999999,467.10000000000002,0],[123.90666400000001,10.544777,454.94999999999999,0],[123.906643,10.544888,457,0],[123.906659,10.54522,464.05000000000001,0],[123.906605,10.545472999999999,466.95999999999998,0],[123.90657299999999,10.545684,469.81,0],[123.906578,10.545774,471.13999999999999,0],[123.90668599999999,10.545806000000001,472.88999999999999,0],[123.906814,10.545821,475.20999999999998,0],[123.90690600000001,10.545874,477.19,0],[123.90690600000001,10.545973999999999,477.48000000000002,0],[123.906809,10.546374999999999,473.48000000000002,0],[123.906758,10.546388,473.24000000000001,0],[123.90663000000001,10.546381999999999,473.45999999999998,0],[123.90642800000001,10.546336999999999,475.69,0],[123.90624099999999,10.546321000000001,480.58999999999997,0],[123.905991,10.546156,487.42000000000002,0],[123.90574100000001,10.5459,482.00999999999999,0],[123.90564500000001,10.545842,479.05000000000001,0],[123.905519,10.545824,474.43000000000001,0],[123.905412,10.545866,473.38,0],[123.90535300000001,10.545958000000001,476.77999999999997,0],[123.90529600000001,10.546082,482.35000000000002,0],[123.905192,10.546198,486.70999999999998,0],[123.90506000000001,10.546258999999999,488.31999999999999,0],[123.904915,10.546284999999999,487.94,0],[123.904803,10.54637,489.72000000000003,0],[123.904685,10.546528,492.22000000000003,0],[123.90459300000001,10.546640999999999,492.76999999999998,0],[123.904453,10.546726,491.13999999999999,0],[123.904338,10.546765000000001,489.82999999999998,0],[123.90415299999999,10.546854,488.91000000000003,0],[123.90397400000001,10.547110999999999,491.81,0],[123.90373,10.547537,497.94,0],[123.903682,10.547572000000001,497.88,0],[123.903584,10.547589,496.81999999999999,0],[123.903431,10.547592,495.12,0],[123.903255,10.547732,497.37,0],[123.903223,10.547834999999999,499.75999999999999,0],[123.90329199999999,10.548583000000001,515.82000000000005,0],[123.90318600000001,10.548881,522.71000000000004,0],[123.903094,10.549123,526.11000000000001,0],[123.90270099999999,10.549723,535.30999999999995,0],[123.902637,10.549951999999999,539.38,0],[123.902732,10.55003,540.75999999999999,0],[123.90285,10.550162,543.77999999999997,0],[123.902914,10.550272,545.75999999999999,0],[123.90294400000001,10.550407,547.37,0],[123.902964,10.550585999999999,548.54999999999995,0],[123.90296499999999,10.550698000000001,549.22000000000003,0],[123.90298799999999,10.550829,550.76999999999998,0],[123.903009,10.551021,553.16999999999996,0],[123.90302699999999,10.551079,554.04999999999995,0],[123.903032,10.551174,555.62,0],[123.903223,10.551322000000001,560.28999999999996,0],[123.903234,10.551377,561.39999999999998,0],[123.90315,10.551636,566.16999999999996,0],[123.90299,10.551818000000001,571.94000000000005,0],[123.90256599999999,10.552144999999999,579.61000000000001,0],[123.902193,10.552152,578.45000000000005,0],[123.902013,10.552208,580.21000000000004,0],[123.901528,10.552586,588.27999999999997,0],[123.90110900000001,10.552580000000001,588.48000000000002,0],[123.90070799999999,10.552530000000001,589.71000000000004,0],[123.900362,10.552436,589.63,0],[123.89985900000001,10.552638999999999,599.51999999999998,0],[123.899545,10.552628,603.46000000000004,0],[123.899165,10.552561000000001,611.63,0],[123.898702,10.552295000000001,610.83000000000004,0],[123.898518,10.552254,612.09000000000003,0],[123.898039,10.552325,621.55999999999995,0],[123.89742099999999,10.552434999999999,633.37,0],[123.897251,10.552390000000001,634.88999999999999,0],[123.897081,10.552255000000001,631.36000000000001,0],[123.896953,10.552246999999999,631.21000000000004,0],[123.89685,10.552261,631.5,0],[123.896744,10.552325,633.14999999999998,0],[123.89649799999999,10.552546,638.96000000000004,0],[123.896292,10.552584,640.13999999999999,0],[123.895948,10.552777000000001,645.71000000000004,0],[123.89559199999999,10.552839000000001,648.05999999999995,0],[123.895225,10.552954,650.37,0],[123.895019,10.553070999999999,651.79999999999995,0],[123.894705,10.553366,654.29999999999995,0],[123.89455700000001,10.553431,654.40999999999997,0],[123.894082,10.553387000000001,652.52999999999997,0],[123.893625,10.553317,652.20000000000005,0],[123.89296899999999,10.553587,648.13999999999999,0],[123.892573,10.553502999999999,648.09000000000003,0],[123.89151,10.553794999999999,636.11000000000001,0],[123.89073,10.553837,626.41999999999996,0],[123.89027,10.553731000000001,622.51999999999998,0],[123.88982,10.5533,616.42999999999995,0],[123.889551,10.553027999999999,611.96000000000004,0],[123.889331,10.552853000000001,605.78999999999996,0],[123.889031,10.553004,604.72000000000003,0],[123.888814,10.553337000000001,605.75999999999999,0],[123.888716,10.553357999999999,605.10000000000002,0],[123.888599,10.553278000000001,602.67999999999995,0],[123.88826,10.552854999999999,592.83000000000004,0],[123.888119,10.552771999999999,590.58000000000004,0],[123.887884,10.552770000000001,587.77999999999997,0],[123.88756600000001,10.552835,584.23000000000002,0],[123.88707700000001,10.552924000000001,581.01999999999998,0],[123.88683,10.553145000000001,581.39999999999998,0],[123.88648999999999,10.553217,584.02999999999997,0],[123.88628,10.553205,586.38999999999999,0],[123.88610799999999,10.553167,589.13,0],[123.885831,10.553329,586.12,0],[123.885561,10.553226,590.74000000000001,0],[123.885509,10.553224999999999,591.28999999999996,0],[123.885453,10.553252000000001,591.5,0],[123.885346,10.553595,586.25999999999999,0],[123.885243,10.553706,584.75999999999999,0],[123.885167,10.553756,584.21000000000004,0],[123.884891,10.553794,582.16999999999996,0],[123.884756,10.553763,582.49000000000001,0],[123.884632,10.553718999999999,583.30999999999995,0],[123.88452100000001,10.553696,584,0],[123.884018,10.553827,587.66999999999996,0],[123.88388399999999,10.553845000000001,586.66999999999996,0],[123.88375499999999,10.553832,585.00999999999999,0],[123.883605,10.553774000000001,582.89999999999998,0],[123.883509,10.553663,582.08000000000004,0],[123.88333299999999,10.553512,579.13,0],[123.883166,10.553466,576.89999999999998,0],[123.883015,10.553452,574.49000000000001,0],[123.882876,10.553457999999999,572.29999999999995,0],[123.882409,10.553621,567,0],[123.881958,10.553774000000001,563.82000000000005,0],[123.881663,10.553793000000001,559.27999999999997,0],[123.881263,10.553917999999999,557.15999999999997,0],[123.880762,10.554085000000001,553.13999999999999,0],[123.880555,10.554118000000001,552.25,0],[123.879743,10.554201000000001,547.38,0],[123.879575,10.554214,547.98000000000002,0],[123.879412,10.554202999999999,549.14999999999998,0],[123.879176,10.554131999999999,548.71000000000004,0],[123.878963,10.554107,548.89999999999998,0],[123.878756,10.554164,548.91999999999996,0],[123.878575,10.554303000000001,550.22000000000003,0],[123.878445,10.554433,551.66999999999996,0],[123.878359,10.554475,551.91999999999996,0],[123.87826,10.554467000000001,551.48000000000002,0],[123.878169,10.554442,551.03999999999996,0],[123.878021,10.554385999999999,549.26999999999998,0],[123.877871,10.554417000000001,549.53999999999996,0],[123.877774,10.554449,550.00999999999999,0],[123.8776,10.554474000000001,549.91999999999996,0],[123.877268,10.554425999999999,550.70000000000005,0],[123.87702899999999,10.554392,549.44000000000005,0],[123.87668499999999,10.554375,549.07000000000005,0],[123.876259,10.554323999999999,551.48000000000002,0],[123.876121,10.554299,552.78999999999996,0],[123.875708,10.554188999999999,553,0],[123.875422,10.554081999999999,553.78999999999996,0],[123.875208,10.554078000000001,555.02999999999997,0],[123.874799,10.554107,556.41999999999996,0],[123.87432800000001,10.554111000000001,558.10000000000002,0],[123.87391100000001,10.554046,561.38,0],[123.873653,10.553917999999999,563.10000000000002,0],[123.87342200000001,10.553736000000001,565.74000000000001,0],[123.873222,10.553622000000001,567.66999999999996,0],[123.87292100000001,10.553583,569.12,0],[123.872761,10.553691000000001,570.94000000000005,0],[123.872682,10.553834999999999,572.47000000000003,0],[123.872648,10.553983000000001,572.64999999999998,0],[123.87266200000001,10.554138999999999,572.44000000000005,0],[123.87275699999999,10.554283,571.29999999999995,0],[123.87272900000001,10.554467000000001,573.95000000000005,0],[123.872711,10.554656,574.92999999999995,0],[123.87261700000001,10.554773000000001,576.32000000000005,0],[123.872472,10.554834,577.51999999999998,0],[123.87227300000001,10.554791,579.78999999999996,0],[123.87179399999999,10.554542,583.86000000000001,0],[123.87150800000001,10.554410000000001,583.42999999999995,0],[123.871135,10.554031999999999,584.26999999999998,0],[123.87101800000001,10.553927,584.58000000000004,0],[123.87089400000001,10.553874,583.88,0],[123.87025300000001,10.553815999999999,582,0],[123.870116,10.553858,582.27999999999997,0],[123.86998199999999,10.553955999999999,582.13999999999999,0],[123.86981299999999,10.554126999999999,580.53999999999996,0],[123.869738,10.554164,579.88,0],[123.869676,10.554159,579.64999999999998,0],[123.869609,10.554125000000001,579.49000000000001,0],[123.869561,10.554067999999999,579.47000000000003,0],[123.86952100000001,10.553974999999999,579.35000000000002,0],[123.869499,10.553674000000001,578.69000000000005,0],[123.869432,10.5535,577.5,0],[123.869229,10.553255,576,0],[123.869186,10.553178000000001,576.10000000000002,0],[123.869145,10.553041,576.10000000000002,0],[123.869057,10.552859,575.00999999999999,0],[123.868942,10.552754,573.60000000000002,0],[123.86888500000001,10.552727000000001,572.90999999999997,0],[123.86862000000001,10.552771999999999,575.25999999999999,0],[123.868172,10.552825,574.30999999999995,0],[123.868099,10.552827000000001,574.15999999999997,0],[123.86792800000001,10.552775,572.87,0],[123.867569,10.552702,573.13,0],[123.86741499999999,10.552726,573.17999999999995,0],[123.86730799999999,10.552769,572.76999999999998,0],[123.867222,10.552811999999999,571.78999999999996,0],[123.867127,10.552910000000001,570.02999999999997,0],[123.867073,10.553057000000001,568.45000000000005,0],[123.867052,10.553146999999999,568.25,0],[123.867073,10.553421,569.30999999999995,0],[123.867054,10.553587,569.86000000000001,0],[123.86699400000001,10.553713,571.13999999999999,0],[123.867,10.553777,571.27999999999997,0],[123.86707199999999,10.553979999999999,570.01999999999998,0],[123.867091,10.554074999999999,569.69000000000005,0],[123.867075,10.554236,568.91999999999996,0],[123.86702099999999,10.554315000000001,568.75,0],[123.86694300000001,10.554385999999999,568.60000000000002,0],[123.86689800000001,10.554417000000001,568,0],[123.866833,10.554423,567.62,0],[123.86671800000001,10.554385999999999,567.48000000000002,0],[123.86644200000001,10.554209,567.08000000000004,0],[123.86622699999999,10.554095999999999,565.60000000000002,0],[123.86604699999999,10.554010999999999,565.01999999999998,0],[123.865758,10.553898,563.65999999999997,0],[123.865709,10.553858,563.41999999999996,0],[123.86568,10.553808,563.59000000000003,0],[123.86557500000001,10.553509999999999,564.38999999999999,0],[123.865495,10.553421,563.97000000000003,0],[123.865422,10.553379,562.88999999999999,0],[123.865326,10.553371,561.53999999999996,0],[123.86526000000001,10.553376999999999,560.72000000000003,0],[123.864811,10.553618999999999,558.44000000000005,0],[123.86430900000001,10.553824000000001,555.74000000000001,0],[123.86341899999999,10.554106000000001,554.94000000000005,0],[123.8631,10.554138,554.57000000000005,0],[123.862816,10.554131,553.57000000000005,0],[123.86272700000001,10.554106000000001,553.34000000000003,0],[123.86262000000001,10.554055999999999,552.64999999999998,0],[123.862548,10.553998,552.08000000000004,0],[123.86228699999999,10.553668999999999,550.24000000000001,0],[123.86211,10.553423,548.79999999999995,0],[123.862061,10.553373000000001,548.37,0],[123.861982,10.553343999999999,548.03999999999996,0],[123.861902,10.553354000000001,548.55999999999995,0],[123.861831,10.553393,548.96000000000004,0],[123.861743,10.553497,548.89999999999998,0],[123.86154000000001,10.553762000000001,548.50999999999999,0],[123.86142,10.553862000000001,548.40999999999997,0],[123.861311,10.553922,548.05999999999995,0],[123.861198,10.553927,547.53999999999996,0],[123.86085799999999,10.553924,547.04999999999995,0],[123.860747,10.553989,546.65999999999997,0],[123.860601,10.554185,545.5,0],[123.860569,10.554296000000001,545,0],[123.860551,10.554437,544.25999999999999,0],[123.860512,10.554632,543.80999999999995,0],[123.86046399999999,10.554788,543.45000000000005,0],[123.860411,10.554902999999999,543.39999999999998,0],[123.860292,10.555033,542.98000000000002,0],[123.860084,10.555199,542.46000000000004,0],[123.86000300000001,10.555247,541.67999999999995,0],[123.85992899999999,10.555274000000001,541.19000000000005,0],[123.85985700000001,10.555287999999999,540.64999999999998,0],[123.85978299999999,10.555289999999999,540.15999999999997,0],[123.859729,10.555268,540.08000000000004,0],[123.85968099999999,10.555236000000001,539.33000000000004,0],[123.859629,10.555182,538.75999999999999,0],[123.859587,10.555027000000001,539.17999999999995,0],[123.859565,10.554786,540.97000000000003,0],[123.85953000000001,10.554601999999999,541.32000000000005,0],[123.85946800000001,10.554472000000001,541.87,0],[123.859391,10.554382,542.02999999999997,0],[123.85924,10.554357,539.84000000000003,0],[123.859106,10.55428,539.51999999999998,0],[123.858795,10.554001,539.25999999999999,0],[123.858682,10.553917,538.85000000000002,0],[123.85861199999999,10.553909000000001,538.01999999999998,0],[123.858609,10.553907000000001,537.98000000000002,0],[123.85861199999999,10.553909000000001,538.01999999999998,0],[123.858535,10.553946,536.97000000000003,0],[123.85847800000001,10.553993,536.36000000000001,0],[123.85844899999999,10.554055999999999,536.36000000000001,0],[123.858266,10.554126,537.23000000000002,0],[123.858204,10.55428,538.89999999999998,0],[123.85816800000001,10.554572,538.88999999999999,0],[123.85820099999999,10.555021,536.87,0],[123.85814999999999,10.555145,535.69000000000005,0],[123.857933,10.555479999999999,530.61000000000001,0],[123.857828,10.555609,529.08000000000004,0],[123.85781299999999,10.555690999999999,528.02999999999997,0],[123.85782399999999,10.555744000000001,527.46000000000004,0],[123.85786,10.555797,526.71000000000004,0],[123.85740699999999,10.556378,522.5,0],[123.857338,10.556531,522.92999999999995,0],[123.857338,10.556630999999999,522.92999999999995,0],[123.85741400000001,10.557107999999999,523.36000000000001,0],[123.857422,10.557361,523.05999999999995,0],[123.857342,10.557632,522.85000000000002,0],[123.857135,10.558120000000001,521.22000000000003,0],[123.857074,10.558230999999999,521.28999999999996,0],[123.857038,10.558294999999999,521.53999999999996,0],[123.856916,10.558458999999999,521.85000000000002,0],[123.85679500000001,10.558623000000001,519.90999999999997,0],[123.85668200000001,10.558814999999999,516.82000000000005,0],[123.856652,10.559004,512.94000000000005,0],[123.856612,10.559123,511.11000000000001,0],[123.85654599999999,10.559443,508.68000000000001,0],[123.856466,10.559516,508,0],[123.856191,10.559628999999999,506.76999999999998,0],[123.855992,10.559761999999999,505.63999999999999,0],[123.855953,10.559851,505.00999999999999,0],[123.85593299999999,10.559986,504.92000000000002,0],[123.855892,10.560157,505.48000000000002,0],[123.855559,10.560396000000001,504.56,0],[123.855468,10.560406,504.13999999999999,0],[123.85466700000001,10.5604,500.88,0],[123.85433500000001,10.560465000000001,499.61000000000001,0],[123.85411000000001,10.560442999999999,498.30000000000001,0]]]}}]}
