{"type":"FeatureCollection","features":[{"type":"Feature","properties":[],"geometry":{"type":"MultiLineString","coordinates":[[[123.83157300000001,10.367754,215.53,0],[123.831571,10.367759,215.59999999999999,0],[123.831503,10.367713999999999,216.02000000000001,0],[123.831137,10.367468000000001,218.25,0],[123.830996,10.367278000000001,217.97,0],[123.83083999999999,10.367077,215.75,0],[123.83067200000001,10.366934000000001,213.03,0],[123.83060399999999,10.366858000000001,210.47,0],[123.83048599999999,10.366809,208.22,0],[123.83035099999999,10.366792999999999,205.72,0],[123.830021,10.366946,205.91,0],[123.829902,10.366948000000001,204.78999999999999,0],[123.82976600000001,10.366928,203.03,0],[123.829561,10.366864,199.97999999999999,0],[123.82935500000001,10.366784000000001,198.86000000000001,0],[123.82907,10.366621,197.69,0],[123.828817,10.366400000000001,200.25,0],[123.828495,10.366061999999999,205.91,0],[123.828243,10.3657,207.09,0],[123.82810499999999,10.365425999999999,204.05000000000001,0],[123.827935,10.365226,199.25999999999999,0],[123.8279,10.365209999999999,198.88,0],[123.827862,10.365204,198.74000000000001,0],[123.827557,10.365015,196.12,0],[123.827224,10.364647,193.88999999999999,0],[123.82704099999999,10.364426,192.97,0],[123.826724,10.364179999999999,191.94999999999999,0],[123.826431,10.363963,194.74000000000001,0],[123.8261,10.363721999999999,193.56999999999999,0],[123.825701,10.363175999999999,191.66999999999999,0],[123.825554,10.362940999999999,190.87,0],[123.82549299999999,10.362854,189.86000000000001,0],[123.825456,10.362653999999999,190.03,0],[123.825335,10.362431000000001,188.21000000000001,0],[123.825273,10.362166,189.63,0],[123.82526,10.361948,190.63,0],[123.825243,10.361639,189.40000000000001,0],[123.82530800000001,10.361036,189.44,0],[123.825322,10.360262000000001,188.74000000000001,0],[123.82526799999999,10.359959999999999,190.84999999999999,0],[123.825123,10.359608,192.21000000000001,0],[123.82498699999999,10.359381000000001,193.28,0],[123.824738,10.359140999999999,196.5,0],[123.82436800000001,10.358905,202.65000000000001,0],[123.824033,10.358908,202.74000000000001,0],[123.823736,10.359022,200.61000000000001,0],[123.82358000000001,10.359171999999999,198.38999999999999,0],[123.82324800000001,10.359494,198.00999999999999,0],[123.823142,10.359534999999999,197.86000000000001,0],[123.822513,10.359609000000001,192.41,0],[123.82242599999999,10.359584999999999,192.13999999999999,0],[123.822202,10.359431000000001,191.99000000000001,0],[123.821763,10.359133999999999,191.16,0],[123.821085,10.358810999999999,193.28999999999999,0],[123.82049600000001,10.358423999999999,180.83000000000001,0],[123.82032,10.358257999999999,177.81999999999999,0],[123.82025899999999,10.358131,176.68000000000001,0],[123.820413,10.357824000000001,178.87,0],[123.82086,10.357684000000001,175.47999999999999,0],[123.82105,10.357557,177.41999999999999,0],[123.821151,10.35731,178.38999999999999,0],[123.82111999999999,10.356935,181.00999999999999,0],[123.82102399999999,10.356723000000001,180.46000000000001,0],[123.82092799999999,10.35651,182.58000000000001,0],[123.820757,10.356325999999999,182.37,0],[123.82058000000001,10.356182,182.12,0],[123.82028099999999,10.355938,185.38,0],[123.819913,10.355691,188.59,0],[123.8189,10.355448000000001,183.33000000000001,0],[123.818439,10.355395,180.75999999999999,0],[123.818096,10.355411,176.30000000000001,0],[123.817849,10.35524,178.13,0],[123.81760199999999,10.355067999999999,176.33000000000001,0],[123.81728,10.354899,170.63,0],[123.816942,10.354520000000001,167.41999999999999,0],[123.81645399999999,10.353973,170.15000000000001,0],[123.81600899999999,10.353778,169.09999999999999,0],[123.81538,10.353474,171.69999999999999,0],[123.815017,10.35336,170.47,0],[123.814505,10.353122000000001,168.5,0],[123.814004,10.352874999999999,165.61000000000001,0],[123.81371300000001,10.352565999999999,164.65000000000001,0],[123.813475,10.352187000000001,163.11000000000001,0],[123.813321,10.351448,165.47,0],[123.813289,10.350583,166.97999999999999,0],[123.81322,10.350434999999999,166.03,0],[123.81319000000001,10.350355,165.08000000000001,0],[123.812932,10.350228,164.83000000000001,0],[123.812889,10.350187,165.24000000000001,0],[123.812628,10.349634999999999,161.15000000000001,0],[123.812422,10.349367000000001,160.66,0],[123.81232900000001,10.349271,160.63,0],[123.812107,10.349144000000001,160.44,0],[123.811868,10.349093999999999,159.94,0],[123.811778,10.349067,159.78,0],[123.811607,10.349043999999999,159.66999999999999,0],[123.81143299999999,10.349036,159.31999999999999,0],[123.811268,10.349071,159.00999999999999,0],[123.81070200000001,10.349259999999999,164.69,0],[123.810419,10.349354999999999,169.56999999999999,0],[123.810058,10.349354,174.44,0],[123.80983500000001,10.349292,175.68000000000001,0],[123.80951399999999,10.348973000000001,167.97,0],[123.80934499999999,10.348775,164.40000000000001,0],[123.809273,10.348708,163.84999999999999,0],[123.808803,10.348295999999999,157.75999999999999,0],[123.808375,10.347974000000001,155.69,0],[123.808212,10.347899999999999,155.33000000000001,0],[123.80814100000001,10.347887,155.47,0],[123.80789300000001,10.347879000000001,155.88999999999999,0],[123.807554,10.347787,157.28,0],[123.807423,10.347742,157.78,0],[123.80719499999999,10.347666,158.63999999999999,0],[123.80699199999999,10.347643,159.44,0],[123.80632799999999,10.347659,166.06999999999999,0],[123.80571500000001,10.347498,163.93000000000001,0],[123.805224,10.347505,168.49000000000001,0],[123.805026,10.347455,166.81999999999999,0],[123.804816,10.347417999999999,162.61000000000001,0],[123.80442499999999,10.347462999999999,159.75999999999999,0],[123.804159,10.347436999999999,160.59999999999999,0],[123.80372199999999,10.34718,156.55000000000001,0],[123.803495,10.346982000000001,151.78,0],[123.803268,10.346783,150.84999999999999,0],[123.802925,10.346410000000001,147.56999999999999,0],[123.802753,10.346223999999999,148.05000000000001,0],[123.80243400000001,10.345567000000001,143.5,0],[123.802212,10.345069000000001,139.72999999999999,0],[123.80217399999999,10.345001999999999,139.84999999999999,0],[123.801875,10.344293,142.75999999999999,0],[123.80185,10.344023,138.69999999999999,0],[123.801598,10.343503,134.72999999999999,0],[123.801309,10.343302,138.38,0],[123.801215,10.343083,136.49000000000001,0],[123.80096,10.342746,137.09999999999999,0],[123.80061600000001,10.341831000000001,127.58,0],[123.800451,10.341543,126.92,0],[123.800247,10.341328000000001,126.92,0],[123.800164,10.341251,126.54000000000001,0],[123.800088,10.341139,125.48,0],[123.799952,10.340832000000001,124.58,0],[123.79978699999999,10.340895,126.33,0],[123.79962999999999,10.340966999999999,128.38999999999999,0],[123.799468,10.341081000000001,130.56999999999999,0],[123.79928200000001,10.341289,133.41,0],[123.799115,10.341386999999999,138.03,0],[123.79900000000001,10.341379,140.53,0],[123.798873,10.341338,142.69,0],[123.798733,10.341154,144.06,0],[123.798663,10.34111,145.06,0],[123.798576,10.341123,147.16999999999999,0],[123.79848800000001,10.341279999999999,150.97999999999999,0],[123.79836400000001,10.341583999999999,154.53999999999999,0],[123.79821200000001,10.341666999999999,157.00999999999999,0],[123.798029,10.341754999999999,160.88,0],[123.79790800000001,10.341751,164.09999999999999,0],[123.797749,10.341701,168.69999999999999,0],[123.79750799999999,10.341567,176.69,0],[123.797027,10.341298999999999,185.81,0],[123.796976,10.341208,186.28,0],[123.796976,10.340987999999999,186.47999999999999,0],[123.796937,10.340897,187.41999999999999,0],[123.796857,10.340862,189.28,0],[123.79665900000001,10.340833999999999,193.88999999999999,0],[123.79634900000001,10.340667,199.72999999999999,0],[123.796048,10.340234000000001,200.59,0],[123.79562300000001,10.339957,204.19,0],[123.795413,10.339926,206.5,0],[123.795248,10.339986,209.15000000000001,0],[123.795136,10.339957,210.16,0],[123.795084,10.339872,211.16999999999999,0],[123.79506600000001,10.339447,214.91,0],[123.795013,10.339233,216.44999999999999,0],[123.794934,10.33897,217,0],[123.794922,10.338755000000001,214.16,0],[123.794889,10.338569,213.81999999999999,0],[123.79476,10.33826,216.88999999999999,0],[123.79463,10.337951,222.11000000000001,0],[123.79450799999999,10.337732000000001,226.53999999999999,0],[123.794466,10.337524,229.28,0],[123.794389,10.337398,231.38999999999999,0],[123.79416999999999,10.33732,235.84999999999999,0],[123.79401,10.337308999999999,238.97,0],[123.79387699999999,10.337381000000001,242.61000000000001,0],[123.793558,10.337769,251.40000000000001,0],[123.793398,10.337963999999999,258.85000000000002,0],[123.79320800000001,10.338067000000001,263.92000000000002,0],[123.79288200000001,10.338155,271.77999999999997,0],[123.792323,10.338093000000001,283.67000000000002,0],[123.79206000000001,10.338120999999999,288.62,0],[123.79188000000001,10.338004,291.11000000000001,0],[123.791763,10.337929000000001,292.73000000000002,0],[123.79164900000001,10.337923,295.33999999999997,0],[123.791584,10.337966,297.56,0],[123.791561,10.338067000000001,299.41000000000003,0],[123.791444,10.338297000000001,305.56999999999999,0],[123.791336,10.338431999999999,310.93000000000001,0],[123.791324,10.338547,312.69,0],[123.791397,10.338649,311.54000000000002,0],[123.791471,10.338787,311.49000000000001,0],[123.791382,10.338903999999999,314.76999999999998,0],[123.791263,10.339019,318.88999999999999,0],[123.790857,10.33924,331.29000000000002,0],[123.790639,10.339287000000001,336.18000000000001,0],[123.79045000000001,10.339271999999999,340.20999999999998,0],[123.79011199999999,10.339108,344.56,0],[123.78997200000001,10.339105,346.20999999999998,0],[123.78977,10.339188999999999,348.19999999999999,0],[123.78968999999999,10.339180000000001,349.00999999999999,0],[123.789624,10.339148,349.94,0],[123.789525,10.339117,351.61000000000001,0],[123.78943200000001,10.339143,353.23000000000002,0],[123.789237,10.339408000000001,360.70999999999998,0],[123.78907700000001,10.33957,368.19,0],[123.788994,10.339702000000001,371.14999999999998,0],[123.789013,10.339924,370.56999999999999,0],[123.788968,10.340043,371.79000000000002,0],[123.788899,10.340071,373.16000000000003,0],[123.788813,10.340043,374.83999999999997,0],[123.788623,10.339885000000001,378.76999999999998,0],[123.788527,10.339854000000001,381.00999999999999,0],[123.78845,10.339874999999999,383.02999999999997,0],[123.788331,10.340128,386.56,0],[123.788275,10.340164,388.17000000000002,0],[123.787949,10.340045999999999,395.62,0],[123.787814,10.339976,398.95999999999998,0],[123.787758,10.339895,400.64999999999998,0],[123.787746,10.339782,400.57999999999998,0],[123.787611,10.339480999999999,401.60000000000002,0],[123.787554,10.339331,402.16000000000003,0],[123.78753,10.339187000000001,403.04000000000002,0],[123.787572,10.339040000000001,402.76999999999998,0],[123.787735,10.338857000000001,398.45999999999998,0],[123.787924,10.338621,393.91000000000003,0],[123.787932,10.338533999999999,393.69999999999999,0],[123.787887,10.338290000000001,393.39999999999998,0],[123.78782,10.33812,394.89999999999998,0],[123.787738,10.33802,397.36000000000001,0],[123.787454,10.33784,404.62,0],[123.78737700000001,10.337756000000001,405.70999999999998,0],[123.787238,10.33741,406.80000000000001,0],[123.78715200000001,10.337275,407.22000000000003,0],[123.787021,10.337185,408.76999999999998,0],[123.78674100000001,10.337073999999999,413.01999999999998,0],[123.786601,10.337061,415.5,0],[123.78649299999999,10.337097,418.38,0],[123.786317,10.337215,424.01999999999998,0],[123.786208,10.337228,426.69999999999999,0],[123.78597499999999,10.337106,430.69999999999999,0],[123.78571599999999,10.336857,435.04000000000002,0],[123.78555,10.336771000000001,437.93000000000001,0],[123.785337,10.336683000000001,442.39999999999998,0],[123.78506400000001,10.336512000000001,449.14999999999998,0],[123.784987,10.33642,451.07999999999998,0],[123.784914,10.336296000000001,452.68000000000001,0],[123.784879,10.336266,453.26999999999998,0],[123.784649,10.336197,457.16000000000003,0],[123.784436,10.336164,462.12,0],[123.78411800000001,10.336046,467.91000000000003,0],[123.78382999999999,10.335845000000001,473.81,0],[123.783756,10.335768,475.95999999999998,0],[123.78369499999999,10.335730999999999,477.39999999999998,0],[123.783607,10.335725999999999,479.52999999999997,0],[123.783495,10.335881000000001,483.17000000000002,0],[123.783435,10.336096,487.00999999999999,0],[123.783429,10.336396000000001,490.29000000000002,0]]]}}]}
