{"type":"FeatureCollection","features":[{"type":"Feature","properties":[],"geometry":{"type":"MultiLineString","coordinates":[[[123.802623,10.248917,16.079999999999998,0],[123.802207,10.249741999999999,19.93,0],[123.801952,10.250297,18.800000000000001,0],[123.801563,10.251136000000001,20,0],[123.801271,10.251737,20.949999999999999,0],[123.80122,10.251837,21,0],[123.801102,10.252117,21,0],[123.80079600000001,10.252775,21.789999999999999,0],[123.800709,10.252993,23,0],[123.80054,10.253365000000001,22.489999999999998,0],[123.800352,10.253571000000001,21.129999999999999,0],[123.800175,10.253716000000001,21.460000000000001,0],[123.800065,10.253879,21.609999999999999,0],[123.80002,10.253978999999999,21.280000000000001,0],[123.799814,10.254547000000001,22.379999999999999,0],[123.79974300000001,10.25482,22.789999999999999,0],[123.79950700000001,10.255315,24.93,0],[123.799369,10.25548,26.739999999999998,0],[123.799159,10.25568,29.140000000000001,0],[123.798968,10.255938,28.370000000000001,0],[123.798918,10.256024999999999,27.420000000000002,0],[123.798869,10.256131999999999,26.969999999999999,0],[123.798734,10.256593000000001,27.010000000000002,0],[123.79873600000001,10.256637,27.27,0],[123.798749,10.256957,29.140000000000001,0],[123.798726,10.257232,28.170000000000002,0],[123.798643,10.257372,27.859999999999999,0],[123.79853799999999,10.257476,28.609999999999999,0],[123.798221,10.257904,28.77,0],[123.797881,10.258319,29.699999999999999,0],[123.797054,10.259361999999999,30.440000000000001,0],[123.797034,10.259534,30.809999999999999,0],[123.79698999999999,10.259724,31.600000000000001,0],[123.79691,10.259827,32.329999999999998,0],[123.796847,10.259883,33.090000000000003,0],[123.79675899999999,10.259947,33.799999999999997,0],[123.79667999999999,10.260042,33.020000000000003,0],[123.796638,10.260294,30.510000000000002,0],[123.79657899999999,10.260441,30.629999999999999,0],[123.796448,10.260586999999999,32.899999999999999,0],[123.796159,10.260749000000001,36.350000000000001,0],[123.795985,10.260897,38.140000000000001,0],[123.79585400000001,10.261037999999999,40.399999999999999,0],[123.795749,10.26117,42.670000000000002,0],[123.795709,10.261277,43.219999999999999,0],[123.79569600000001,10.261523,43.780000000000001,0],[123.79575,10.261913,43.82,0],[123.795755,10.262243,47.380000000000003,0],[123.795785,10.26247,48.140000000000001,0],[123.795862,10.263158000000001,43.770000000000003,0],[123.79586,10.263332,43.93,0],[123.795878,10.263456,43.979999999999997,0],[123.79589799999999,10.263505,43.590000000000003,0],[123.79592599999999,10.263541999999999,42.969999999999999,0],[123.795967,10.263576,42.5,0],[123.796102,10.263635000000001,40.960000000000001,0],[123.796232,10.263672,40.060000000000002,0],[123.79646700000001,10.263806000000001,37.719999999999999,0],[123.79671999999999,10.263999,33.740000000000002,0],[123.796879,10.264111,32.439999999999998,0],[123.797062,10.264226000000001,31.379999999999999,0],[123.797344,10.264343,30,0],[123.797365,10.264373000000001,30,0],[123.797382,10.264643,30.91,0],[123.797436,10.264929,32.600000000000001,0]]]}}]}
