{"type":"FeatureCollection","features":[{"type":"Feature","properties":[],"geometry":{"type":"MultiLineString","coordinates":[[[123.79746,10.265056,33.740000000000002,0],[123.797465,10.265084,34.039999999999999,0],[123.797505,10.265179,34.979999999999997,0],[123.797696,10.265369,37.560000000000002,0],[123.79781199999999,10.265428,38.75,0],[123.797935,10.265516,40.030000000000001,0],[123.798008,10.265593000000001,41.829999999999998,0],[123.79811100000001,10.265734,45.450000000000003,0],[123.798298,10.265942000000001,48.380000000000003,0],[123.79836400000001,10.266002,48.310000000000002,0],[123.798525,10.266192,48.579999999999998,0],[123.79861,10.266261,47.979999999999997,0],[123.798761,10.266337999999999,45.579999999999998,0],[123.799086,10.26656,45.789999999999999,0],[123.79927600000001,10.266722,46.609999999999999,0],[123.799477,10.266914999999999,47.920000000000002,0],[123.799612,10.267026,48.630000000000003,0],[123.79977100000001,10.267199,50.310000000000002,0],[123.799865,10.267353999999999,52.119999999999997,0],[123.799915,10.267452,53.420000000000002,0],[123.800072,10.267815000000001,55.869999999999997,0],[123.800128,10.267994,57.420000000000002,0],[123.800184,10.268212,59.049999999999997,0],[123.800212,10.268402,59.57,0],[123.800202,10.268482000000001,60.109999999999999,0],[123.80018200000001,10.268553000000001,61.149999999999999,0],[123.800072,10.268727,64.959999999999994,0],[123.800062,10.268770999999999,64.909999999999997,0],[123.80005800000001,10.268789,64.900000000000006,0],[123.800079,10.268864000000001,63.149999999999999,0],[123.80014199999999,10.269,61.270000000000003,0],[123.80016500000001,10.269092000000001,61.039999999999999,0],[123.80016999999999,10.269164999999999,61.509999999999998,0],[123.800161,10.269591999999999,66.170000000000002,0],[123.800169,10.269809,66.760000000000005,0],[123.800151,10.269916,67.890000000000001,0],[123.80012000000001,10.269996000000001,69.019999999999996,0],[123.800076,10.270068999999999,70.640000000000001,0],[123.800004,10.270160000000001,73.870000000000005,0],[123.79994600000001,10.270263999999999,75.700000000000003,0],[123.799919,10.270346,75.140000000000001,0],[123.799881,10.270517,72.760000000000005,0],[123.799859,10.27068,70.120000000000005,0],[123.799836,10.271134,63.100000000000001,0],[123.79977,10.2714,62.479999999999997,0],[123.799764,10.271547999999999,60.439999999999998,0],[123.799779,10.271663999999999,58.439999999999998,0],[123.799891,10.271945000000001,52.609999999999999,0],[123.799907,10.272027,51.350000000000001,0],[123.799909,10.272106000000001,50.479999999999997,0],[123.79989500000001,10.272176,50.350000000000001,0],[123.799854,10.272243,50.659999999999997,0],[123.799521,10.272563999999999,54.93,0],[123.79928200000001,10.272693,58.700000000000003,0],[123.79908,10.272814,61.600000000000001,0],[123.798861,10.272975000000001,64.409999999999997,0],[123.798647,10.273216,66.480000000000004,0],[123.79847599999999,10.273516000000001,66.560000000000002,0],[123.798293,10.273866999999999,75.030000000000001,0],[123.79821099999999,10.274084,82.060000000000002,0],[123.79819000000001,10.274219,83.069999999999993,0],[123.798187,10.274324,82.060000000000002,0],[123.798242,10.274538,73.680000000000007,0],[123.798242,10.274645,71.75,0],[123.798233,10.274749,70.739999999999995,0],[123.798237,10.274831000000001,69.549999999999997,0],[123.798247,10.274881000000001,69.120000000000005,0],[123.79827400000001,10.274936,68.040000000000006,0],[123.798441,10.275166,68.049999999999997,0],[123.798563,10.275282000000001,67,0],[123.79873000000001,10.275418,63.009999999999998,0],[123.79884699999999,10.275537,60.710000000000001,0],[123.798953,10.275671000000001,61.060000000000002,0],[123.79904399999999,10.275828000000001,61.43,0],[123.799103,10.275955,61.590000000000003,0],[123.79910700000001,10.276037000000001,62.159999999999997,0],[123.799094,10.276142,63.369999999999997,0],[123.799057,10.276237999999999,64.489999999999995,0],[123.79899500000001,10.27633,66.609999999999999,0],[123.798806,10.276517999999999,71.319999999999993,0],[123.798496,10.276719999999999,78.430000000000007,0],[123.798124,10.27703,74.280000000000001,0],[123.797933,10.277224,75.170000000000002,0],[123.797786,10.277345,75.730000000000004,0],[123.797674,10.277417,76.890000000000001,0],[123.797495,10.277514,78.439999999999998,0],[123.797409,10.277578999999999,78.780000000000001,0],[123.797336,10.277673,77.290000000000006,0],[123.79723799999999,10.277873,76.280000000000001,0],[123.79719900000001,10.277975,76.409999999999997,0],[123.79718800000001,10.278041,76.109999999999999,0],[123.797189,10.278100999999999,75.689999999999998,0],[123.797223,10.278252,73.209999999999994,0],[123.79723,10.278404999999999,71.579999999999998,0],[123.797222,10.278541000000001,69.709999999999994,0],[123.79722599999999,10.278575999999999,69.569999999999993,0],[123.79727200000001,10.278681000000001,67.950000000000003,0],[123.797341,10.278810999999999,69.019999999999996,0],[123.797389,10.278962999999999,72.790000000000006,0],[123.797421,10.279171,78.230000000000004,0],[123.79745200000001,10.27938,77,0],[123.79746400000001,10.279567,76.450000000000003,0],[123.797448,10.279828999999999,76.689999999999998,0],[123.797431,10.279916,75.950000000000003,0],[123.797405,10.279985,75,0],[123.797348,10.280053000000001,74.760000000000005,0],[123.797253,10.280124000000001,74.709999999999994,0],[123.797191,10.280153,75.269999999999996,0],[123.79677,10.280354000000001,79.060000000000002,0],[123.79653399999999,10.280519,77.930000000000007,0],[123.796378,10.280647999999999,78.079999999999998,0],[123.796299,10.280749999999999,78.629999999999995,0],[123.796261,10.280858,79.599999999999994,0],[123.796256,10.280967,80.739999999999995,0],[123.79628,10.281084999999999,81.599999999999994,0],[123.796381,10.281300999999999,79.810000000000002,0],[123.796465,10.281435999999999,77.209999999999994,0],[123.79648299999999,10.281521,74.849999999999994,0],[123.796477,10.281613,72.760000000000005,0],[123.796454,10.281686000000001,71.340000000000003,0],[123.796406,10.281748,70.049999999999997,0],[123.79634299999999,10.281794,69.969999999999999,0],[123.796132,10.281905,71.519999999999996,0],[123.796087,10.281936,72.390000000000001,0],[123.796026,10.282018000000001,74.519999999999996,0],[123.795886,10.282259,76.870000000000005,0],[123.795755,10.28253,75.849999999999994,0],[123.795624,10.2828,71.420000000000002,0],[123.795435,10.283258999999999,68.560000000000002,0],[123.795378,10.283528,69.079999999999998,0],[123.795331,10.283847,72.819999999999993,0],[123.795303,10.283958999999999,74.310000000000002,0],[123.79527,10.284050000000001,75.349999999999994,0],[123.795221,10.284115999999999,75.760000000000005,0],[123.795109,10.284245,75.469999999999999,0],[123.794997,10.284443,75.689999999999998,0],[123.79495900000001,10.284549999999999,76.049999999999997,0],[123.79495799999999,10.284603000000001,76.530000000000001,0],[123.794984,10.284642,77.25,0],[123.795012,10.284656,77.719999999999999,0],[123.79521800000001,10.284704,81.590000000000003,0],[123.795316,10.284750000000001,83.849999999999994,0],[123.79539800000001,10.284815,85.959999999999994,0],[123.795734,10.285156000000001,94.5,0],[123.79585400000001,10.28532,97.069999999999993,0],[123.79594,10.285484,100.63,0],[123.795982,10.285641,103.05,0],[123.796008,10.285822,105.63,0],[123.796042,10.285952999999999,108.61,0],[123.796064,10.285999,109.84999999999999,0],[123.79612400000001,10.286046000000001,112.23,0],[123.796155,10.286052,113.11,0],[123.796207,10.286046000000001,114.28,0],[123.796238,10.286030999999999,114.81999999999999,0],[123.796279,10.285969,115.40000000000001,0],[123.796294,10.285866,115.48999999999999,0],[123.79630899999999,10.285406999999999,117.18000000000001,0],[123.796325,10.285287,118.13,0],[123.796341,10.285228,119.29000000000001,0],[123.79637099999999,10.285190999999999,121.12,0],[123.796403,10.285183,122.8,0],[123.796435,10.285183999999999,124.5,0],[123.796469,10.285197999999999,125.78,0],[123.796487,10.285220000000001,126.44,0],[123.79650700000001,10.285283,127.16,0],[123.796521,10.285404,127.53,0],[123.79657899999999,10.285703,129.44,0],[123.79662999999999,10.285871999999999,131.46000000000001,0],[123.796673,10.286077000000001,132.88,0],[123.796689,10.286273,134.02000000000001,0],[123.796677,10.286396999999999,134.86000000000001,0],[123.796649,10.286569999999999,137.12,0],[123.796616,10.286771999999999,141.47,0],[123.79657400000001,10.286963,145.77000000000001,0],[123.796539,10.28707,147.62,0],[123.796502,10.287125,148.47,0],[123.796442,10.287178000000001,149.21000000000001,0],[123.79634900000001,10.287219,149.56999999999999,0],[123.796066,10.287288,150.53999999999999,0],[123.795987,10.287331,151.86000000000001,0],[123.795946,10.287369999999999,153.22,0],[123.79589900000001,10.287444000000001,155.69,0],[123.795883,10.287512,157.97999999999999,0],[123.795886,10.287585,160.25,0],[123.795922,10.287663,162.66,0],[123.79604999999999,10.287792,167.41,0],[123.796302,10.287898,171.41999999999999,0],[123.79639299999999,10.287958,172.66999999999999,0],[123.796601,10.28814,174.59999999999999,0],[123.796735,10.288217,175.27000000000001,0],[123.796841,10.288264,175.31999999999999,0],[123.796905,10.288268,175.15000000000001,0],[123.796817,10.288411,176.80000000000001,0],[123.79662399999999,10.288463999999999,179.53999999999999,0],[123.796403,10.28844,182.13,0],[123.796252,10.288442,184.33000000000001,0],[123.796148,10.288487999999999,186.63,0],[123.79608500000001,10.288572,189.02000000000001,0],[123.796055,10.288724999999999,192.59,0],[123.79606699999999,10.288907,197.09,0],[123.796087,10.289057,200.90000000000001,0],[123.79607799999999,10.289418,207.80000000000001,0],[123.79607,10.289630000000001,209.22,0],[123.79593800000001,10.290246,213.03999999999999,0],[123.79581899999999,10.290490999999999,215.63,0],[123.7957,10.290737,222.36000000000001,0],[123.79531799999999,10.29116,232.66,0],[123.795113,10.291271999999999,236.53,0],[123.79481699999999,10.291302999999999,235.03,0],[123.79455400000001,10.291359,235.80000000000001,0],[123.79444700000001,10.291479000000001,240.12,0],[123.794417,10.291646,244.63,0],[123.79445200000001,10.291789,248.31,0],[123.794523,10.291949000000001,252.16,0],[123.794651,10.292097999999999,257.13,0],[123.794785,10.292198000000001,260.99000000000001,0],[123.794967,10.292318,265.25,0],[123.795085,10.292463,268.06999999999999,0],[123.795101,10.292595,269.95999999999998,0],[123.795012,10.292714999999999,271.56,0],[123.794802,10.292846000000001,272.81,0],[123.79464,10.292916,271.99000000000001,0],[123.79435599999999,10.293101999999999,270.97000000000003,0],[123.794191,10.293303999999999,275.93000000000001,0],[123.794044,10.293592,284.31999999999999,0],[123.79391099999999,10.293869000000001,290.25,0],[123.793823,10.29401,293.13999999999999,0],[123.793712,10.294168000000001,295.24000000000001,0],[123.793623,10.294280000000001,295.91000000000003,0],[123.793515,10.294411999999999,293.60000000000002,0],[123.79348299999999,10.294527,293.57999999999998,0],[123.79348400000001,10.295033999999999,302.74000000000001,0],[123.79344500000001,10.295316,307.56999999999999,0],[123.793413,10.295445000000001,307.62,0],[123.79336600000001,10.295566000000001,306.44999999999999,0],[123.793344,10.295705,307.88,0],[123.793323,10.295795,308.38999999999999,0],[123.79330899999999,10.29588,309.45999999999998,0],[123.793323,10.296011999999999,313.35000000000002,0],[123.79337099999999,10.296191,319.36000000000001,0],[123.793436,10.296367999999999,323.69999999999999,0],[123.79365799999999,10.29664,334.02999999999997,0],[123.79388400000001,10.296860000000001,342.33999999999997,0],[123.793949,10.296991999999999,343.60000000000002,0],[123.79402399999999,10.297228,345.94999999999999,0],[123.79408100000001,10.297530999999999,348.02999999999997,0],[123.794212,10.29796,359.31,0],[123.794219,10.298183,360.97000000000003,0],[123.794141,10.298306999999999,357.06999999999999,0],[123.793983,10.298590000000001,351.31,0],[123.793947,10.298863000000001,351.49000000000001,0],[123.79395100000001,10.299185,349.07999999999998,0],[123.793869,10.299478000000001,344.32999999999998,0],[123.793712,10.299721999999999,340.23000000000002,0],[123.793605,10.299943000000001,338.54000000000002,0],[123.79356,10.300034,339.06,0],[123.793527,10.300178000000001,340.66000000000003,0],[123.793494,10.300272,343.51999999999998,0],[123.793408,10.300323000000001,346.42000000000002,0],[123.793324,10.300333,347.88999999999999,0],[123.79307799999999,10.300349000000001,350.75,0],[123.79290899999999,10.30045,353.92000000000002,0],[123.79263899999999,10.300684,358.82999999999998,0],[123.792557,10.300769000000001,361.50999999999999,0],[123.792447,10.300850000000001,363.24000000000001,0],[123.792344,10.300941999999999,366.20999999999998,0],[123.792233,10.30097,366.44999999999999,0],[123.792135,10.300966000000001,365.42000000000002,0],[123.791872,10.300993,364.73000000000002,0],[123.791708,10.301055,365.13999999999999,0],[123.791569,10.301168000000001,367.24000000000001,0],[123.79149,10.301296000000001,370.62,0],[123.79145200000001,10.301417000000001,374.73000000000002,0],[123.79140700000001,10.301500000000001,377.13,0],[123.791382,10.301606,381.19999999999999,0],[123.79132799999999,10.301691999999999,383.38,0],[123.791234,10.301746,383.88,0],[123.79112000000001,10.301784,384.89999999999998,0],[123.791003,10.301814,387.14999999999998,0],[123.790693,10.301793999999999,389.60000000000002,0],[123.790581,10.301793,391.50999999999999,0],[123.790284,10.301863000000001,399.47000000000003,0],[123.79011800000001,10.301883,400.80000000000001,0],[123.78999399999999,10.301935,401.63,0],[123.78988200000001,10.302103000000001,403.00999999999999,0],[123.78985,10.302237999999999,404.01999999999998,0],[123.78982999999999,10.30237,405.63,0],[123.789846,10.302493,408.30000000000001,0],[123.789878,10.302637000000001,410.56999999999999,0],[123.789945,10.302732000000001,412.72000000000003,0],[123.79002800000001,10.302820000000001,414.98000000000002,0],[123.790102,10.302867000000001,416.56,0],[123.790223,10.302923,419.00999999999999,0],[123.790325,10.302987999999999,420.33999999999997,0],[123.79037700000001,10.303061,419.57999999999998,0],[123.790358,10.303203,418.93000000000001,0],[123.79034799999999,10.303318000000001,420.33999999999997,0],[123.790289,10.303542,424.19999999999999,0],[123.79004999999999,10.304055999999999,430.95999999999998,0],[123.78995399999999,10.304100999999999,430.80000000000001,0],[123.78974599999999,10.304167,431.87,0],[123.78960600000001,10.30419,434.38,0],[123.78936400000001,10.304201000000001,439.13,0],[123.789164,10.304269,441.24000000000001,0],[123.7889,10.304423,444.88999999999999,0],[123.788775,10.304525999999999,447.88,0],[123.788028,10.305004,462.06,0],[123.787857,10.305142,466.38,0],[123.787712,10.305208,468.95999999999998,0],[123.787547,10.305217000000001,471.67000000000002,0],[123.78741599999999,10.305183,474.18000000000001,0],[123.787336,10.305104,474.62,0],[123.78725,10.304959,472.77999999999997,0],[123.787215,10.304876999999999,471.38,0],[123.787173,10.304802,470.37,0],[123.78713399999999,10.304781,470.32999999999998,0],[123.787104,10.304795,470.58999999999997,0],[123.787086,10.304845,471.50999999999999,0],[123.787075,10.304943,473.22000000000003,0],[123.787086,10.305334999999999,481.30000000000001,0],[123.78704500000001,10.305676999999999,487.81999999999999,0],[123.787043,10.305861,491.43000000000001,0],[123.787025,10.306065,494.80000000000001,0],[123.78699,10.306248,497.47000000000003,0],[123.78693699999999,10.306438999999999,498.92000000000002,0],[123.786917,10.306607,500.51999999999998,0],[123.78686,10.306732,500.50999999999999,0],[123.78677,10.306792,499.47000000000003,0],[123.78666699999999,10.306787999999999,498.16000000000003,0],[123.786542,10.306744999999999,497.31999999999999,0],[123.78641500000001,10.306616999999999,495.38,0],[123.78630099999999,10.306549,495.49000000000001,0],[123.786171,10.306512,497.31,0],[123.786085,10.306471999999999,499.07999999999998,0],[123.78603099999999,10.306402,499.89999999999998,0],[123.786034,10.306281999999999,498.33999999999997,0],[123.78604799999999,10.306175,495.79000000000002,0],[123.786038,10.306058,492.32999999999998,0],[123.785995,10.305985,490.30000000000001,0],[123.785901,10.305985,491.74000000000001,0],[123.78577300000001,10.306016,494.06,0],[123.785651,10.306041,494.52999999999997,0],[123.785479,10.306171000000001,498.89999999999998,0],[123.785268,10.306255,501.22000000000003,0],[123.78508600000001,10.306303,504.77999999999997,0],[123.78498500000001,10.306297000000001,506.14999999999998,0],[123.784854,10.306243,506.25999999999999,0],[123.784705,10.306145000000001,504.83999999999997,0],[123.784542,10.306074000000001,504.31,0],[123.784453,10.306094999999999,505.75,0],[123.784327,10.306157000000001,508.22000000000003,0],[123.784111,10.306232,509.42000000000002,0],[123.783993,10.306267999999999,508.99000000000001,0],[123.783827,10.306214000000001,507.04000000000002,0],[123.78363400000001,10.306039,504.62,0],[123.783304,10.305622,498.14999999999998,0],[123.783152,10.305574,497.68000000000001,0],[123.783107,10.305545,497.74000000000001,0],[123.783073,10.305501,497.67000000000002,0],[123.782892,10.305338000000001,499.06,0],[123.782724,10.305208,500.01999999999998,0],[123.78264299999999,10.305187,501.07999999999998,0],[123.782405,10.305202,505.06,0],[123.782167,10.305351,509.37,0],[123.7821,10.305446,510.67000000000002,0],[123.78205199999999,10.305541,511.50999999999999,0],[123.782025,10.305631,512.40999999999997,0],[123.78202400000001,10.305730000000001,513.58000000000004,0],[123.782008,10.305761,513.85000000000002,0],[123.781931,10.3058,514.25999999999999,0],[123.781757,10.305752999999999,513.97000000000003,0],[123.781378,10.305607999999999,514.51999999999998,0],[123.781265,10.30559,515.37,0],[123.781147,10.305545,516.55999999999995,0],[123.7811,10.305484999999999,516.34000000000003,0],[123.78107300000001,10.305417,515.65999999999997,0],[123.78102699999999,10.305356,515.48000000000002,0],[123.780935,10.305191000000001,513.60000000000002,0],[123.780762,10.305134000000001,512.58000000000004,0],[123.780525,10.305137999999999,511.88999999999999,0],[123.780422,10.305168999999999,512.46000000000004,0],[123.780337,10.305260000000001,514.10000000000002,0],[123.780265,10.305315,514.76999999999998,0],[123.78018400000001,10.305324000000001,515.39999999999998,0],[123.779976,10.305178,515.21000000000004,0],[123.779882,10.305168999999999,515.62,0],[123.77966000000001,10.305173,515.23000000000002,0],[123.779578,10.305208,515.38,0],[123.779545,10.305434,521.05999999999995,0],[123.77939499999999,10.30574,527.69000000000005,0],[123.779331,10.305806,529.54999999999995,0],[123.77926100000001,10.305809999999999,529.30999999999995,0],[123.77918,10.305766,528.90999999999997,0],[123.778976,10.305453999999999,524.55999999999995,0],[123.77883300000001,10.305311,523.85000000000002,0],[123.77867000000001,10.305237,524.57000000000005,0],[123.778549,10.30527,527.86000000000001,0],[123.778507,10.305303,529.48000000000002,0],[123.778431,10.305343000000001,531.55999999999995,0],[123.77837100000001,10.305350000000001,532.28999999999996,0],[123.778317,10.30533,532.38999999999999,0],[123.778238,10.305237,530,0],[123.77815,10.305184000000001,529.30999999999995,0],[123.778037,10.305199999999999,531.92999999999995,0],[123.777908,10.305186000000001,534.32000000000005,0],[123.77775800000001,10.305118,533.79999999999995,0],[123.77765599999999,10.305114,534.41999999999996,0],[123.777593,10.305147,535.91999999999996,0],[123.777518,10.305149,536.08000000000004,0],[123.777418,10.305125,534.29999999999995,0],[123.77730200000001,10.305147,534.17999999999995,0],[123.777263,10.305223,536.55999999999995,0],[123.777235,10.305356,541.12,0],[123.777231,10.305448,544.5,0],[123.777192,10.305550999999999,547.86000000000001,0],[123.777119,10.305612,548.65999999999997,0],[123.77691900000001,10.305607,544.34000000000003,0],[123.776853,10.305654000000001,544.38999999999999,0],[123.776809,10.305740999999999,545.71000000000004,0],[123.776797,10.305832000000001,547.16999999999996,0],[123.776805,10.305968,549.42999999999995,0],[123.776798,10.306088000000001,550.64999999999998,0],[123.776775,10.306198999999999,551.90999999999997,0],[123.776723,10.306260999999999,551.87,0],[123.776656,10.306293,551.05999999999995,0],[123.776473,10.306312999999999,549.98000000000002,0],[123.776347,10.306335000000001,552.04999999999995,0],[123.776263,10.306366000000001,553.90999999999997,0],[123.77617499999999,10.306381,555.27999999999997,0],[123.776132,10.306338,555.10000000000002,0],[123.776049,10.306148,553.69000000000005,0],[123.775946,10.306022,554.14999999999998,0],[123.77582700000001,10.305960000000001,554.78999999999996,0],[123.775701,10.306005000000001,554.67999999999995,0],[123.77563499999999,10.306055000000001,554.91999999999996,0],[123.775611,10.306108,555.60000000000002,0],[123.77559100000001,10.306327,558.46000000000004,0],[123.77554000000001,10.306385000000001,559.19000000000005,0],[123.775481,10.306402,559.14999999999998,0],[123.775217,10.306222999999999,556.37,0],[123.77484699999999,10.305984,555.83000000000004,0],[123.77469499999999,10.305937,556.02999999999997,0],[123.774545,10.305910000000001,555.94000000000005,0],[123.774405,10.305902,555.08000000000004,0],[123.774187,10.305923999999999,552.39999999999998,0],[123.773939,10.305960000000001,550.88999999999999,0],[123.773624,10.306074000000001,548.91999999999996,0],[123.773567,10.306163,548.74000000000001,0],[123.773439,10.30613,547.62,0],[123.77315,10.306153999999999,547.75999999999999,0],[123.773021,10.306047,545.52999999999997,0],[123.77291,10.305996,545.08000000000004,0],[123.772791,10.305994999999999,546.39999999999998,0],[123.772531,10.305929000000001,548.5,0],[123.77228599999999,10.305968999999999,553.26999999999998,0],[123.772217,10.305896000000001,552.75,0],[123.772024,10.305787,553.01999999999998,0],[123.771784,10.305671,556.58000000000004,0],[123.77153300000001,10.305396999999999,558.77999999999997,0],[123.771434,10.305186000000001,555.73000000000002,0],[123.771316,10.304886,548.13,0],[123.771282,10.304702000000001,545.72000000000003,0],[123.771321,10.304357,544.14999999999998,0],[123.771263,10.304125000000001,546.37,0],[123.771063,10.303724000000001,552.28999999999996,0],[123.770878,10.303502,556.15999999999997,0],[123.77080599999999,10.303461,557.47000000000003,0],[123.77067700000001,10.303426,561.04999999999995,0],[123.77061399999999,10.303304000000001,561.90999999999997,0],[123.770611,10.303146,560.91999999999996,0],[123.77055,10.303058999999999,561.48000000000002,0],[123.770438,10.303057000000001,562.96000000000004,0],[123.770241,10.303129999999999,565.51999999999998,0],[123.770055,10.303036000000001,564.20000000000005,0],[123.769875,10.303023,564.33000000000004,0],[123.76951699999999,10.303023,568.24000000000001,0],[123.769431,10.302960000000001,568.41999999999996,0],[123.76929699999999,10.302699,564.98000000000002,0],[123.769088,10.302565,565.03999999999996,0],[123.76892700000001,10.302527,566.95000000000005,0],[123.768794,10.302524,567.19000000000005,0],[123.768664,10.302586,567.80999999999995,0],[123.76852700000001,10.302614,567.85000000000002,0],[123.768478,10.302572,567.63999999999999,0],[123.768321,10.302381,567.76999999999998,0],[123.76815499999999,10.302282,568.67999999999995,0],[123.767853,10.302121,569.76999999999998,0],[123.76779399999999,10.301985,570.33000000000004,0],[123.76781699999999,10.301791,570.24000000000001,0],[123.767837,10.301518,568.5,0],[123.767763,10.301387999999999,568.25999999999999,0],[123.767582,10.301291000000001,568.82000000000005,0],[123.76749599999999,10.30119,568.75999999999999,0],[123.76756399999999,10.301123,566.05999999999995,0],[123.76768,10.301068000000001,563.05999999999995,0],[123.767786,10.300990000000001,559.97000000000003,0],[123.767878,10.300909000000001,557.86000000000001,0]]]}}]}
