{"type":"FeatureCollection","features":[{"type":"Feature","properties":[],"geometry":{"type":"MultiLineString","coordinates":[[[123.775498,10.306457,560.14999999999998,0],[123.77552,10.306528999999999,561.47000000000003,0],[123.775594,10.306654,563.27999999999997,0],[123.775631,10.306774000000001,564.73000000000002,0],[123.775662,10.306824000000001,565.02999999999997,0],[123.776152,10.307055,568.70000000000005,0],[123.77623800000001,10.307092000000001,570.79999999999995,0],[123.776365,10.307297,574.14999999999998,0],[123.776394,10.307394,574,0],[123.776397,10.307549,572.26999999999998,0],[123.776455,10.307608,572.80999999999995,0],[123.776658,10.307738000000001,572.74000000000001,0],[123.77674,10.307766000000001,571.97000000000003,0],[123.776814,10.307772999999999,571.72000000000003,0],[123.77687400000001,10.307741,571.50999999999999,0],[123.776961,10.307653999999999,571.54999999999995,0],[123.777001,10.307573,572.27999999999997,0],[123.77704799999999,10.307479000000001,573.63,0],[123.777102,10.307404999999999,575.27999999999997,0],[123.777179,10.307382,575.70000000000005,0],[123.777511,10.307508,570.78999999999996,0],[123.77763899999999,10.307546,569.72000000000003,0],[123.777798,10.307570999999999,570.11000000000001,0],[123.77786,10.307608,570.00999999999999,0],[123.777912,10.307639,569.92999999999995,0],[123.777939,10.307684999999999,569.92999999999995,0],[123.77794799999999,10.307790000000001,569.15999999999997,0],[123.777935,10.307926999999999,568.25,0],[123.777922,10.30817,568.02999999999997,0],[123.777869,10.308438000000001,566.17999999999995,0],[123.77783700000001,10.308674,564.79999999999995,0],[123.777851,10.308862,562.02999999999997,0],[123.777883,10.30897,561.04999999999995,0],[123.777957,10.309089,561.09000000000003,0],[123.777984,10.309153,560.74000000000001,0],[123.77798300000001,10.309233000000001,559.91999999999996,0],[123.777947,10.309381999999999,558.87,0],[123.77793699999999,10.309498,559.79999999999995,0],[123.77798,10.309574,561.99000000000001,0],[123.778424,10.309729000000001,571.17999999999995,0],[123.77854499999999,10.309813,573.57000000000005,0],[123.778672,10.309987,578.55999999999995,0],[123.778729,10.310154000000001,581.79999999999995,0],[123.77892300000001,10.310523,585.97000000000003,0],[123.778997,10.31094,583.75,0],[123.778991,10.311192,580.86000000000001,0],[123.779044,10.311254999999999,578.47000000000003,0],[123.77915,10.311342,576.36000000000001,0],[123.77919199999999,10.311363,576.03999999999996,0],[123.77932,10.311574999999999,573.90999999999997,0],[123.779596,10.311906,577.36000000000001,0],[123.77963099999999,10.311999999999999,578.38999999999999,0],[123.779617,10.312059,578.16999999999996,0],[123.77953599999999,10.312237,578.33000000000004,0],[123.779398,10.312348,577.09000000000003,0],[123.779217,10.312563000000001,576.62,0],[123.778841,10.312678999999999,568.63999999999999,0],[123.778747,10.312761,567.82000000000005,0],[123.77856300000001,10.312922,566.21000000000004,0],[123.778356,10.312974000000001,564.84000000000003,0],[123.77812,10.312993000000001,563.79999999999995,0],[123.777967,10.313075,565.70000000000005,0],[123.77776900000001,10.313364999999999,567.88,0],[123.777562,10.313634,564.25999999999999,0],[123.77731300000001,10.313885000000001,567.29999999999995,0],[123.777174,10.314045999999999,573.88999999999999,0],[123.777136,10.314249,580.83000000000004,0],[123.777128,10.314463,585.07000000000005,0],[123.777109,10.314711000000001,587.78999999999996,0],[123.777034,10.314911,588.38,0],[123.776943,10.315101,585.38,0],[123.776844,10.315281000000001,587.13999999999999,0],[123.776715,10.315495,588.16999999999996,0],[123.77663099999999,10.315882999999999,586.85000000000002,0],[123.776642,10.316084,588.16999999999996,0],[123.776696,10.316284,592.04999999999995,0],[123.776826,10.316445999999999,595.84000000000003,0],[123.776999,10.316566,599.89999999999998,0],[123.776965,10.316732999999999,601.10000000000002,0],[123.776771,10.316889,597.50999999999999,0],[123.776729,10.317048,597.95000000000005,0],[123.77674399999999,10.317238,599.33000000000004,0],[123.776538,10.317489,597.89999999999998,0],[123.776431,10.317468,596.78999999999996,0],[123.77628900000001,10.317325,593.49000000000001,0],[123.776166,10.31711,588.08000000000004,0],[123.776015,10.316739999999999,583.59000000000003,0],[123.77574,10.316561,574.05999999999995,0],[123.77555099999999,10.316561,568.12,0],[123.775374,10.316723,563.98000000000002,0],[123.775351,10.317019,566.79999999999995,0],[123.775284,10.317112,565.88,0],[123.775178,10.317297999999999,564.99000000000001,0],[123.775144,10.317458,564.96000000000004,0],[123.775092,10.317655999999999,564.72000000000003,0],[123.775004,10.317774999999999,563.36000000000001,0],[123.77497,10.317886,562.70000000000005,0],[123.775037,10.318023,564.25999999999999,0],[123.775046,10.318184,564.59000000000003,0],[123.77500499999999,10.318337,564.25999999999999,0],[123.77492700000001,10.318483000000001,563.63999999999999,0],[123.774784,10.318586,560.07000000000005,0],[123.774562,10.318762,555.16999999999996,0],[123.774552,10.318863,554.44000000000005,0],[123.77463299999999,10.318892999999999,555.59000000000003,0],[123.77478000000001,10.318879000000001,557.99000000000001,0],[123.77491999999999,10.318898000000001,559.65999999999997,0],[123.77504399999999,10.318992,558.99000000000001,0],[123.775256,10.319113,559.33000000000004,0],[123.775419,10.319229,558.42999999999995,0],[123.77548299999999,10.319376999999999,557.16999999999996,0],[123.77558000000001,10.319527000000001,554.37,0],[123.77565300000001,10.319553000000001,552.42999999999995,0],[123.775723,10.319527000000001,550.63999999999999,0],[123.775837,10.319281999999999,552.03999999999996,0],[123.77594499999999,10.319219,551.5,0],[123.77607399999999,10.319234,548.73000000000002,0],[123.776296,10.319197000000001,547.08000000000004,0],[123.77650300000001,10.319084999999999,548.59000000000003,0],[123.776608,10.31884,556.79999999999995,0],[123.776707,10.318797,559.38999999999999,0],[123.77680599999999,10.318864,558.73000000000002,0],[123.777039,10.319114000000001,553.69000000000005,0],[123.777124,10.319176000000001,552.48000000000002,0],[123.777344,10.319300999999999,551.46000000000004,0],[123.77758300000001,10.319419999999999,554.03999999999996,0],[123.777613,10.319515000000001,553.34000000000003,0],[123.777609,10.319630999999999,551.51999999999998,0],[123.77754299999999,10.319851999999999,547.40999999999997,0],[123.77753300000001,10.320041,544.92999999999995,0],[123.777508,10.320251000000001,542.10000000000002,0],[123.777455,10.320430999999999,538.61000000000001,0],[123.77739800000001,10.320551,535.28999999999996,0],[123.777188,10.320743,524.24000000000001,0],[123.777109,10.320831999999999,519.10000000000002,0],[123.77710999999999,10.321002,515.15999999999997,0],[123.777096,10.321308,506.26999999999998,0],[123.777124,10.321653,500.75999999999999,0],[123.777238,10.321958,498.33999999999997,0],[123.777321,10.322132999999999,495.23000000000002,0],[123.777421,10.322255,494.36000000000001,0],[123.77749300000001,10.322329,493.69,0],[123.77767799999999,10.322359000000001,495.02999999999997,0],[123.778339,10.322196999999999,498.19999999999999,0],[123.778485,10.322245000000001,495.63999999999999,0]]]}}]}
