{"type":"FeatureCollection","features":[{"type":"Feature","properties":[],"geometry":{"type":"MultiLineString","coordinates":[[[123.787976,10.315481999999999,589.35000000000002,0],[123.787935,10.315469,588.91999999999996,0],[123.787846,10.315389,588.77999999999997,0],[123.78770299999999,10.315198000000001,590.61000000000001,0],[123.787565,10.315085,590.90999999999997,0],[123.78735500000001,10.314978999999999,592.35000000000002,0],[123.78713500000001,10.314855,596.79999999999995,0],[123.78698900000001,10.314786,596.69000000000005,0],[123.786851,10.3147,597.28999999999996,0],[123.786699,10.31447,599.96000000000004,0],[123.78657699999999,10.314354,600.58000000000004,0],[123.786419,10.314277000000001,600.28999999999996,0],[123.786221,10.314145999999999,602.05999999999995,0],[123.786159,10.314054,603.36000000000001,0],[123.786137,10.313890000000001,606.35000000000002,0],[123.786113,10.313782,608.13,0],[123.78607,10.313694,609.61000000000001,0],[123.785961,10.313395999999999,615.25,0],[123.78590800000001,10.31329,618.63,0],[123.785843,10.313207999999999,621.15999999999997,0],[123.785753,10.313179,622.21000000000004,0],[123.785586,10.313205999999999,622.92999999999995,0],[123.78538500000001,10.313183,625.10000000000002,0],[123.785234,10.313053999999999,625.86000000000001,0],[123.785242,10.312932999999999,626.40999999999997,0],[123.78526599999999,10.312735999999999,628.98000000000002,0],[123.785236,10.312628,629.40999999999997,0],[123.78506899999999,10.312400999999999,628.12,0],[123.78491,10.312013,629.40999999999997,0],[123.784721,10.311489999999999,637.39999999999998,0],[123.784633,10.311353,638.42999999999995,0],[123.784524,10.311268999999999,638.85000000000002,0],[123.78432599999999,10.311135,640.86000000000001,0],[123.78393,10.310833000000001,646.48000000000002,0],[123.783706,10.310686,650.08000000000004,0],[123.78360000000001,10.310438,646.50999999999999,0],[123.78339,10.310290999999999,645.01999999999998,0],[123.783154,10.310241,645.26999999999998,0],[123.78296899999999,10.310166000000001,643.82000000000005,0],[123.782721,10.310129999999999,644.48000000000002,0],[123.782422,10.310129999999999,645.60000000000002,0],[123.78213700000001,10.310143999999999,645.55999999999995,0],[123.782033,10.310235,645.12,0],[123.782006,10.310499999999999,642.22000000000003,0],[123.781888,10.310620999999999,639.25,0],[123.781746,10.310682999999999,636.28999999999996,0],[123.78155599999999,10.310679,633.57000000000005,0],[123.781316,10.310668,627.49000000000001,0],[123.781188,10.310741,623.42999999999995,0],[123.781121,10.310841999999999,621.75999999999999,0],[123.78104399999999,10.311206,623.54999999999995,0],[123.780908,10.311417,623.00999999999999,0],[123.780771,10.311695,619.42999999999995,0],[123.78054899999999,10.311954999999999,611.77999999999997,0],[123.780213,10.312237,598.83000000000004,0],[123.779921,10.312319,590.10000000000002,0],[123.779635,10.312405,583.88,0],[123.77930600000001,10.312529,578.17999999999995,0]]]}}]}
