{"type":"FeatureCollection","features":[{"type":"Feature","properties":[],"geometry":{"type":"MultiLineString","coordinates":[[[123.85429000000001,10.560435999999999,505,1781222086],[123.85438000000001,10.560459,506,1781222095],[123.85451,10.560465000000001,507,1781222108],[123.85460999999999,10.560460000000001,507,1781222117],[123.85471,10.560421,508,1781222126],[123.85482,10.560415000000001,508,1781222135],[123.85491,10.560423,509,1781222143],[123.85500999999999,10.560430999999999,509,1781222151],[123.85511,10.560433,510,1781222158],[123.85521,10.560427000000001,511,1781222166],[123.85532000000001,10.560435999999999,512,1781222175],[123.85542,10.56044,512,1781222183],[123.85552,10.560419,512,1781222190],[123.85562,10.560384000000001,513,1781222198],[123.85571,10.560331,513,1781222206],[123.8558,10.560269,513,1781222215],[123.85588,10.56021,512,1781222223],[123.85593,10.560129,512,1781222230],[123.85598,10.560005,511,1781222242],[123.85601,10.559908,512,1781222250],[123.85589,10.559861,511,1781222266],[123.85581999999999,10.559792,514,1781222275],[123.85574,10.559726,512,1781222284],[123.85565,10.559673,512,1781222293],[123.85557,10.559597999999999,512,1781222304],[123.85550000000001,10.559535,513,1781222312],[123.85543,10.559468000000001,514,1781222321],[123.85536,10.559412,514,1781222329],[123.85529,10.559348,514,1781222338],[123.85522,10.559272,516,1781222394],[123.85517,10.559191999999999,516,1781222404],[123.85513,10.559051,518,1781222419],[123.85511,10.558959,517,1781222433],[123.85503,10.558845,516,1781222449],[123.85496000000001,10.558763000000001,514,1781222460],[123.85492000000001,10.558666000000001,514,1781222470],[123.85487000000001,10.558579,514,1781222479],[123.85482,10.558502000000001,514,1781222487],[123.85476,10.558413,513,1781222497],[123.85469000000001,10.558332999999999,513,1781222528],[123.85460999999999,10.558261,514,1781222538],[123.85453,10.55819,514,1781222548],[123.85446,10.558113000000001,516,1781222557],[123.85442999999999,10.558007999999999,517,1781222567],[123.8544,10.55791,518,1781222578],[123.85439,10.557807,517,1781222589],[123.85437,10.557710999999999,515,1781222599],[123.85442,10.557632999999999,514,1781222616],[123.8545,10.557573,514,1781222626],[123.85457,10.557513,514,1781222636],[123.85460999999999,10.557418999999999,513,1781222646],[123.85459,10.557321,513,1781222656],[123.85457,10.557223,512,1781222664],[123.85456000000001,10.557116000000001,511,1781222673],[123.85451,10.557036,511,1781222781],[123.85442999999999,10.556958,512,1781222789],[123.85433999999999,10.556910999999999,512,1781222799],[123.85423,10.556913,511,1781222845],[123.85417,10.556983000000001,510,1781222857],[123.85424,10.556900000000001,511,1781222893],[123.85415,10.556831000000001,512,1781222909],[123.85406999999999,10.556793000000001,512,1781222916],[123.85402000000001,10.556694999999999,513,1781222933],[123.854,10.556604,513,1781222941],[123.85402000000001,10.556516999999999,513,1781222949],[123.85402999999999,10.556424,513,1781222957],[123.85404,10.556312,514,1781222967],[123.85405,10.556221000000001,515,1781222975],[123.85409,10.556129,515,1781222984],[123.85415999999999,10.556036000000001,516,1781222994],[123.8541,10.556118,516,1781223016],[123.85414,10.556024000000001,516,1781223043],[123.85418,10.555923999999999,515,1781223055],[123.85418,10.555826,514,1781223079],[123.85411000000001,10.55575,513,1781223089],[123.85402000000001,10.555685,513,1781223099],[123.85395,10.555609,513,1781223109],[123.85386,10.555621,513,1781223121],[123.85374,10.555643,513,1781223133],[123.85363,10.555624,513,1781223144],[123.85353000000001,10.555588,513,1781223156],[123.85345,10.555528000000001,514,1781223166],[123.85335000000001,10.555471000000001,515,1781223177],[123.85325,10.555427999999999,515,1781223188],[123.85319,10.555338000000001,516,1781223198],[123.85311,10.555291,518,1781223230],[123.85301,10.555338000000001,517,1781223257],[123.85292,10.555391999999999,516,1781223267],[123.85283,10.555446,516,1781223282],[123.85275,10.555488,515,1781223291],[123.85266,10.555543,516,1781223301],[123.85256,10.555591,515,1781223312],[123.85247,10.555626999999999,515,1781223321],[123.85236999999999,10.555655,514,1781223331],[123.8523,10.555724,512,1781223341],[123.85222,10.555801000000001,511,1781223351],[123.85214000000001,10.555866999999999,511,1781223361],[123.85207,10.55593,510,1781223369],[123.85201000000001,10.555998000000001,510,1781223377],[123.85193,10.556062000000001,509,1781223385],[123.85185,10.55613,509,1781223395],[123.85178000000001,10.556188000000001,509,1781223404],[123.85171,10.556247000000001,508,1781223413],[123.85160999999999,10.556293999999999,509,1781223423],[123.85153,10.556341,509,1781223431],[123.85142999999999,10.556369,510,1781223439],[123.85132,10.556391,510,1781223449],[123.85120999999999,10.556406000000001,509,1781223460],[123.85111000000001,10.556438999999999,508,1781223471],[123.85102000000001,10.556463000000001,508,1781223479],[123.85093999999999,10.556531,508,1781223488],[123.8509,10.556613,508,1781223496],[123.85082,10.556701,508,1781223506],[123.85074,10.556758,508,1781223515],[123.85066999999999,10.55682,507,1781223523],[123.85063,10.556917,506,1781223533],[123.85059,10.557003999999999,505,1781223544],[123.8505,10.557060999999999,504,1781223599],[123.85041,10.557093999999999,504,1781223608],[123.8503,10.557142000000001,503,1781223618],[123.85023,10.557218000000001,503,1781223627],[123.85017000000001,10.557302999999999,502,1781223637],[123.85015,10.557397999999999,500,1781223777],[123.85008000000001,10.557475999999999,499,1781223787],[123.85001,10.557551999999999,501,1781223871],[123.84994,10.557615,500,1781223880],[123.84985,10.557670999999999,502,1781223889],[123.84977000000001,10.557722,502,1781223898],[123.84971,10.557801,502,1781223906],[123.84962,10.557854000000001,502,1781223915],[123.84954999999999,10.557918000000001,502,1781223923],[123.84945999999999,10.557976,501,1781223932],[123.84936,10.55803,500,1781223942],[123.84932999999999,10.558123,499,1781223951],[123.84932999999999,10.558229000000001,499,1781223960],[123.84934,10.558320999999999,498,1781223969],[123.84938,10.558418,497,1781223980],[123.84938,10.558515999999999,497,1781223990],[123.84936999999999,10.558615,497,1781224000],[123.84934,10.558704000000001,497,1781224008],[123.84936,10.558792,495,1781224016],[123.84934,10.5589,495,1781224026],[123.84932999999999,10.558996,495,1781224034],[123.84936,10.559089999999999,495,1781224043],[123.84941000000001,10.559170999999999,495,1781224055],[123.84936999999999,10.559326,492,1781224075],[123.84932999999999,10.55941,491,1781224085],[123.84918999999999,10.559455,492,1781224119],[123.84912,10.559517,494,1781224130],[123.84905999999999,10.559601000000001,493,1781224142],[123.849,10.559670000000001,494,1781224158],[123.84892000000001,10.559725,494,1781224175],[123.84884,10.559768,495,1781224231],[123.84874000000001,10.559792,496,1781224244],[123.84865000000001,10.55982,495,1781224258],[123.84856000000001,10.559855000000001,494,1781224272],[123.84842999999999,10.559867000000001,493,1781224352],[123.84833999999999,10.559888000000001,495,1781224378],[123.84820000000001,10.559901,488,1781224505],[123.84809,10.559903,484,1781224530],[123.848,10.559875999999999,478,1781224550],[123.84789000000001,10.559856999999999,469,1781224609],[123.84792,10.559964000000001,462,1781224661],[123.84789000000001,10.559872,467,1781224687],[123.84779,10.559823,469,1781224701],[123.8477,10.559779000000001,467,1781224723],[123.84762000000001,10.559723,467,1781224741],[123.84753000000001,10.559682,464,1781224762],[123.84744999999999,10.55963,463,1781224778],[123.84735999999999,10.559613000000001,460,1781224792],[123.84726000000001,10.559609999999999,456,1781224879],[123.84712,10.559588,453,1781224901],[123.84703,10.559583,452,1781224958],[123.84693,10.559549000000001,449,1781224973],[123.84681999999999,10.559530000000001,440,1781225064],[123.84672999999999,10.559538999999999,436,1781225147],[123.84662,10.559618,430,1781225185],[123.84659000000001,10.559701,427,1781225199],[123.84652,10.559782999999999,425,1781225247],[123.84645999999999,10.559863,421,1781225261],[123.84634,10.559868,421,1781225289],[123.84623000000001,10.559875,420,1781225300],[123.84613,10.55983,420,1781225309],[123.84613,10.559929,420,1781225416],[123.84614000000001,10.559832999999999,419,1781225524],[123.84602,10.55979,418,1781225572],[123.84592000000001,10.559791000000001,419,1781225581],[123.84583000000001,10.559835,419,1781225590],[123.84575,10.559874000000001,420,1781225599],[123.84565000000001,10.559889,420,1781225609],[123.84554,10.559889,418,1781225621],[123.84544,10.559846,416,1781225629],[123.84535,10.559863,420,1781225637],[123.84526,10.559839,417,1781225651],[123.84516000000001,10.559799,416,1781225713],[123.84506,10.559768999999999,414,1781225723],[123.84496,10.559725,413,1781225734],[123.84487,10.559672000000001,412,1781225753],[123.84479,10.55959,409,1781225765],[123.8447,10.559545,407,1781225775],[123.84459,10.559545999999999,407,1781225788],[123.84448999999999,10.559537000000001,408,1781225834],[123.84439,10.559524,407,1781225844],[123.84428,10.559513000000001,404,1781225856],[123.84417000000001,10.559507999999999,403,1781225866],[123.84408000000001,10.559498,401,1781225876],[123.84397,10.559486,402,1781225892],[123.84386000000001,10.559492000000001,400,1781225909],[123.84377000000001,10.559502,398,1781225918],[123.84367,10.559483,398,1781225930],[123.84358,10.559512,396,1781225940],[123.84350000000001,10.559571999999999,397,1781225955],[123.84341000000001,10.559620000000001,399,1781225964],[123.84335,10.559711999999999,399,1781226074],[123.84336,10.559822,396,1781226090],[123.84338,10.55993,391,1781226113],[123.84336999999999,10.560029999999999,387,1781226141],[123.84331,10.560108,381,1781226161],[123.84331,10.560207,377,1781226458],[123.84323000000001,10.560282000000001,374,1781226475],[123.84323999999999,10.560390999999999,367,1781226695],[123.84327,10.560473999999999,363,1781226709],[123.84325,10.560575,360,1781226723],[123.84323000000001,10.560674000000001,357,1781226737],[123.84326,10.560767999999999,353,1781226751],[123.84327999999999,10.560874999999999,349,1781226769],[123.84331,10.560974999999999,345,1781226784],[123.84331,10.561081,343,1781226803],[123.84335,10.56122,339,1781226828],[123.84331,10.561317000000001,338,1781226844],[123.84323000000001,10.561401999999999,331,1781226876],[123.84323000000001,10.561508,330,1781226889],[123.84321,10.561598,327,1781226904],[123.84316,10.561683,325,1781226933],[123.84308,10.561717,321,1781226954],[123.84302,10.561821,316,1781227016],[123.84296000000001,10.561934000000001,310,1781227153],[123.84296999999999,10.562044,308,1781227225],[123.84293,10.562144999999999,308,1781227235],[123.84292000000001,10.562237,307,1781227246],[123.84292000000001,10.562334999999999,306,1781227256],[123.84289,10.562442000000001,305,1781227266],[123.84286,10.562545999999999,305,1781227276],[123.84287999999999,10.562638,304,1781227285],[123.84292000000001,10.562721,299,1781227302],[123.84296999999999,10.562799999999999,294,1781227487],[123.84302,10.562891,291,1781227507],[123.84308,10.56296,285,1781227522],[123.84314000000001,10.563046999999999,284,1781227535],[123.84317,10.563135000000001,284,1781227544],[123.84322,10.563230000000001,285,1781227553],[123.84326,10.563321999999999,281,1781227564],[123.84323999999999,10.563416999999999,279,1781227620],[123.84322,10.563511,276,1781227632],[123.84314999999999,10.563616,271,1781227703],[123.84305999999999,10.563628,270,1781227715],[123.84296999999999,10.563656,267,1781227733],[123.84287,10.563658999999999,261,1781227822],[123.84278999999999,10.56372,261,1781227834],[123.84281,10.563815999999999,258,1781227883],[123.84278999999999,10.563919,258,1781227895],[123.84269999999999,10.564022,255,1781228098],[123.84263,10.564085,254,1781228111],[123.84256000000001,10.564152,251,1781228124],[123.84242,10.564242999999999,247,1781228274],[123.84233,10.564272000000001,244,1781228288],[123.84225000000001,10.564327,240,1781228301],[123.84216000000001,10.564367000000001,237,1781228312],[123.84207000000001,10.564412000000001,233,1781228392],[123.84197,10.564449,231,1781228402],[123.84186,10.564477,229,1781228461],[123.84186,10.564647000000001,224,1781228494],[123.84177,10.564671000000001,225,1781228503],[123.84166999999999,10.564690000000001,226,1781228513],[123.84159,10.56475,226,1781228524],[123.84152,10.564821,225,1781228539],[123.84146,10.564901000000001,225,1781228547],[123.84143,10.565,223,1781228567],[123.84148,10.565092,221,1781228580],[123.84155,10.565168,220,1781228590],[123.84162000000001,10.565232,221,1781228616],[123.84168,10.565319000000001,221,1781228626],[123.84175,10.565398999999999,221,1781228636],[123.84184,10.565441,220,1781228645],[123.84193,10.5655,221,1781228662],[123.84198000000001,10.565569999999999,221,1781228672],[123.84202000000001,10.565655,218,1781228688],[123.84209,10.565731,215,1781228699],[123.8421,10.565829000000001,214,1781228758],[123.84211000000001,10.565936000000001,210,1781228769],[123.84211000000001,10.566041999999999,209,1781228780],[123.84211999999999,10.566138,208,1781228799],[123.84213,10.566247000000001,208,1781228808],[123.84211000000001,10.566413000000001,208,1781228876],[123.84209,10.566511999999999,208,1781228893],[123.84206,10.566614,208,1781228918],[123.84208,10.566718,208,1781228926],[123.8421,10.566817,208,1781228979],[123.8421,10.567043999999999,206,1781229020],[123.84216000000001,10.567114999999999,205,1781229028],[123.84225000000001,10.567132000000001,203,1781229045],[123.84236,10.567175000000001,203,1781229057],[123.84246,10.567201000000001,207,1781229069],[123.84254,10.567258000000001,202,1781229084],[123.84265000000001,10.567436000000001,193,1781229127],[123.84272,10.56751,190,1781229152],[123.84281,10.567555,187,1781229168],[123.84291,10.567584,181,1781229194],[123.843,10.567570999999999,177,1781229208],[123.84314000000001,10.567536,171,1781229249],[123.84323999999999,10.567561,165,1781229272],[123.84332000000001,10.567606,160,1781229297],[123.84341999999999,10.567606,156,1781229316],[123.84350999999999,10.567636,154,1781229359],[123.84350000000001,10.567728000000001,151,1781229369],[123.8436,10.567714,154,1781229945],[123.84369,10.567852999999999,151,1781230046],[123.84371,10.567954,152,1781230059],[123.84379,10.568141000000001,154,1781230137],[123.84385,10.568313,153,1781230157],[123.84393,10.568382,153,1781230169],[123.84399000000001,10.568462,157,1781230244],[123.84408000000001,10.568566000000001,151,1781230290],[123.84408000000001,10.568737,152,1781230396],[123.84415,10.568633,150,1781230502],[123.84417999999999,10.568728999999999,148,1781230585],[123.84429,10.568776,146,1781230637],[123.84441,10.568828,146,1781230696],[123.84444000000001,10.568923,146,1781230715],[123.84442,10.569015,142,1781230782],[123.84451,10.569035,141,1781230788],[123.84453999999999,10.569122,138,1781230871],[123.84463,10.569205,141,1781230940],[123.84466,10.569115999999999,141,1781230954],[123.84457999999999,10.569184,144,1781231080],[123.84457999999999,10.569077999999999,144,1781231421],[123.84452,10.569153999999999,140,1781231632],[123.8446,10.569115,140,1781231644],[123.84452,10.569184999999999,142,1781231702],[123.84457,10.569103,143,1781231765],[123.84457,10.569125,142,1781232010],[123.84462000000001,10.569089999999999,145,1781232501],[123.84472,10.569138000000001,142,1781232536],[123.84479,10.569051999999999,141,1781232596],[123.84488,10.569114000000001,144,1781232773],[123.84507000000001,10.568985,148,1781232949],[123.84520999999999,10.568955000000001,147,1781232969],[123.84529999999999,10.569001,147,1781233053],[123.84537,10.568936000000001,150,1781233086],[123.84551999999999,10.568863,151,1781233150],[123.84560999999999,10.568827000000001,151,1781233164],[123.84569999999999,10.568807,149,1781233197],[123.84578999999999,10.568854999999999,144,1781233226],[123.84587999999999,10.568785999999999,148,1781233273],[123.84604,10.568804,155,1781233364],[123.84614000000001,10.568802,162,1781233453],[123.84622,10.568756,157,1781233531],[123.84645,10.568707,155,1781233574],[123.84663,10.568641,155,1781233601],[123.84667,10.568555999999999,150,1781233615],[123.84671,10.568642000000001,151,1781233727],[123.84677000000001,10.568706000000001,154,1781233749],[123.84681,10.568796000000001,159,1781233766],[123.84690000000001,10.568789000000001,160,1781233890],[123.84698,10.568740999999999,166,1781233906],[123.84705,10.568661000000001,172,1781233923],[123.84714,10.568662,171,1781233936],[123.84715,10.568773999999999,174,1781233967],[123.84716,10.568879000000001,177,1781233986],[123.84726999999999,10.568865000000001,179,1781234007],[123.84735000000001,10.568828,180,1781234019],[123.84744999999999,10.568861,185,1781234157],[123.84754,10.568844,186,1781234170],[123.84764,10.568875,189,1781234187],[123.84774,10.568875,192,1781234205],[123.84791,10.568909,200,1781234331],[123.84799,10.568849999999999,206,1781234353],[123.84808,10.568911,209,1781234379],[123.84813,10.569004,210,1781234471],[123.84820999999999,10.569051999999999,214,1781234546],[123.84831,10.569043000000001,219,1781234566],[123.84851999999999,10.56916,233,1781234689],[123.84851999999999,10.569286,239,1781234876],[123.84862,10.569281999999999,241,1781234899],[123.84873,10.569272,247,1781234915],[123.84883000000001,10.569241999999999,249,1781234928],[123.84893,10.569217999999999,254,1781235008],[123.84902,10.569190000000001,258,1781235048],[123.84908,10.569096,263,1781235070],[123.84918,10.569070999999999,265,1781235086],[123.84927999999999,10.569025999999999,270,1781235145],[123.84939,10.569015,270,1781235210],[123.84949,10.569013,272,1781235229],[123.84958,10.569037,272,1781235247],[123.84972999999999,10.569044999999999,275,1781235264],[123.84979,10.568963999999999,275,1781235273],[123.84981999999999,10.568866999999999,277,1781235295],[123.84981999999999,10.568768,278,1781235308],[123.84989,10.568708000000001,279,1781235318],[123.84997,10.568643,281,1781235336],[123.84999999999999,10.568519999999999,282,1781235643],[123.85006,10.568441999999999,283,1781235654],[123.85007,10.568318,281,1781235727],[123.85007,10.568218999999999,280,1781235746],[123.85012999999999,10.568125,281,1781235757],[123.85015,10.568034000000001,282,1781235766],[123.85017999999999,10.567947,283,1781235777],[123.85019,10.567845999999999,283,1781235825],[123.85019,10.567753,284,1781235834],[123.85014,10.567669,282,1781235845],[123.85017999999999,10.567568,281,1781235858],[123.85015,10.567470999999999,280,1781235869],[123.85017999999999,10.567356999999999,279,1781235890],[123.85016,10.567254999999999,276,1781236010],[123.85024,10.567183,285,1781236073],[123.85017999999999,10.567062,286,1781236120],[123.85012999999999,10.566979,290,1781236147],[123.85005,10.566924,288,1781236167],[123.85021999999999,10.566788000000001,298,1781236489],[123.85029,10.566647,308,1781236580],[123.85038,10.566681000000001,317,1781236697],[123.85047,10.56668,323,1781236732],[123.85066,10.566560000000001,337,1781237033],[123.85075999999999,10.566611,341,1781237077],[123.85086,10.566649999999999,345,1781237098],[123.85101,10.566622000000001,351,1781237310],[123.85107000000001,10.566546000000001,355,1781237325],[123.85117,10.566556,364,1781237424],[123.85124,10.566741,368,1781237563],[123.85133999999999,10.566739999999999,366,1781237590],[123.85144,10.566598000000001,380,1781237779],[123.85142999999999,10.566464,382,1781237871],[123.85138000000001,10.566312,396,1781238065],[123.85136,10.566063,405,1781238171],[123.85138000000001,10.565967000000001,406,1781238186],[123.85136,10.565860000000001,411,1781238222],[123.85138000000001,10.565712,410,1781238310],[123.85147000000001,10.565783,418,1781238354],[123.85156000000001,10.565754999999999,420,1781238378],[123.85165000000001,10.565689000000001,424,1781238392],[123.85169,10.565593,426,1781238414],[123.85177,10.565531999999999,426,1781238447],[123.85187000000001,10.565512,430,1781238462],[123.85196999999999,10.565492000000001,432,1781238476],[123.85207,10.565453,436,1781238491],[123.85216,10.565353,438,1781238518],[123.85223000000001,10.565265999999999,439,1781238564],[123.85223999999999,10.565163999999999,440,1781238577],[123.85226,10.565075,442,1781238591],[123.85236,10.565064,444,1781238616],[123.85245999999999,10.565037999999999,446,1781238633],[123.85257,10.565066,445,1781238648],[123.85268000000001,10.565042999999999,451,1781238673],[123.85271,10.564942,455,1781238691],[123.85275,10.564855,454,1781238846],[123.85279,10.564765,456,1781238878],[123.85283,10.564666000000001,460,1781238900],[123.85287,10.564576000000001,466,1781238917],[123.85290999999999,10.564481000000001,467,1781238933],[123.85296,10.564385,468,1781238948],[123.85298,10.564294,469,1781238958],[123.85303,10.56418,471,1781238978],[123.85307,10.564088999999999,470,1781238990],[123.85308999999999,10.563998,471,1781238998],[123.85314,10.563897000000001,472,1781239015],[123.85321,10.563784,475,1781239034],[123.85329,10.563691,476,1781239049],[123.85334,10.563589,478,1781239062],[123.85344000000001,10.563470000000001,481,1781239083],[123.85346,10.563381,483,1781239094],[123.85348999999999,10.563294000000001,484,1781239105],[123.8535,10.5632,485,1781239118],[123.85347,10.563086999999999,483,1781239131],[123.85351,10.562979,486,1781239143],[123.85355,10.562874000000001,487,1781239155],[123.85359,10.562785999999999,488,1781239166],[123.85363,10.562697999999999,489,1781239177],[123.85368,10.562616,489,1781239188],[123.85374,10.562538,489,1781239198],[123.85377,10.56244,489,1781239207],[123.85381,10.562345000000001,488,1781239217],[123.85384999999999,10.562258,489,1781239227],[123.85389000000001,10.562165999999999,489,1781239238],[123.85392,10.562079000000001,490,1781239246],[123.85393999999999,10.561980999999999,492,1781239256],[123.85399,10.561873,493,1781239267],[123.85399,10.561768000000001,497,1781239277],[123.854,10.561667999999999,499,1781239292],[123.85402999999999,10.561574,499,1781239304],[123.85406,10.561483000000001,500,1781239335],[123.85409,10.561382,500,1781239345],[123.85411999999999,10.561292,501,1781239357],[123.85415999999999,10.561203000000001,503,1781239370],[123.85420000000001,10.561109,505,1781239383],[123.85424999999999,10.561026999999999,506,1781239396],[123.85426,10.560933,505,1781239406],[123.85432,10.560848,505,1781239417],[123.8544,10.560786999999999,506,1781239429],[123.85445,10.560708999999999,508,1781239439],[123.85451999999999,10.560639,509,1781239450],[123.85456000000001,10.560561999999999,509,1781239463],[123.8545,10.56047,510,1781239482],[123.8544,10.560447999999999,508,1781239511],[123.85431,10.560444,510,1781239521]]]}}]}
