{"type":"FeatureCollection","features":[{"type":"Feature","properties":[],"geometry":{"type":"MultiLineString","coordinates":[[[123.58414999999999,10.081796000000001,481,1779320335],[123.58419000000001,10.081884000000001,481,1779320346],[123.58422,10.081974000000001,482,1779320355],[123.58426,10.082072,487,1779320413],[123.58428000000001,10.082166000000001,490,1779320498],[123.58432000000001,10.08225,491,1779320509],[123.58434,10.082341,494,1779320520],[123.58436,10.082432000000001,496,1779320532],[123.58439,10.08253,499,1779320610],[123.58441999999999,10.082625,502,1779320634],[123.58443,10.08273,505,1779320646],[123.58443,10.082834,508,1779320657],[123.58444,10.082926,510,1779320665],[123.58448,10.083022,510,1779320675],[123.58457,10.08305,512,1779320705],[123.58468000000001,10.083067,512,1779320714],[123.58477000000001,10.083073000000001,512,1779320724],[123.58487,10.083111000000001,514,1779320758],[123.58496,10.083135,515,1779320780],[123.58499,10.083335999999999,514,1779320810],[123.58499999999999,10.083442,515,1779320820],[123.58498,10.083532,514,1779320830],[123.58498,10.083625,514,1779320839],[123.58489,10.083677,513,1779320851],[123.5848,10.083733000000001,512,1779320862],[123.5847,10.083735000000001,512,1779320875],[123.58462,10.083786999999999,513,1779320885],[123.58450999999999,10.083811000000001,513,1779320895],[123.58441000000001,10.083830000000001,517,1779320946],[123.58432000000001,10.083833,517,1779320954],[123.58423999999999,10.0839,519,1779320961],[123.58419000000001,10.083993,520,1779320971],[123.58423000000001,10.084091000000001,520,1779320980],[123.58423999999999,10.084247,520,1779321039],[123.58431,10.084319000000001,519,1779321047],[123.58431,10.084415999999999,518,1779321057],[123.58432999999999,10.084318,517,1779321073],[123.58428000000001,10.084229000000001,519,1779321081],[123.58425,10.084123,520,1779321088],[123.58423000000001,10.084023,521,1779321097],[123.58410000000001,10.084082,521,1779321114],[123.584,10.084199,525,1779321148],[123.58394,10.084272,527,1779321157],[123.58396999999999,10.084362,526,1779321180],[123.58402,10.084441,524,1779321191],[123.58407,10.084536,524,1779321211],[123.58410000000001,10.084631,525,1779321220],[123.58413,10.084724,525,1779321229],[123.58416,10.084823,525,1779321239],[123.58416,10.084918,526,1779321247],[123.58417,10.085029,528,1779321257],[123.58423000000001,10.085117,528,1779321268],[123.58429,10.085184999999999,526,1779321353],[123.58432000000001,10.085276,528,1779321361],[123.58434,10.08539,527,1779321410],[123.5844,10.0855,527,1779321654],[123.58438,10.085604999999999,526,1779321667],[123.58432999999999,10.085698000000001,526,1779321680],[123.58425,10.085760000000001,525,1779321700],[123.58421,10.085848,523,1779321711],[123.58417,10.085931,523,1779321718],[123.58407,10.086017999999999,523,1779321746],[123.58403,10.086100999999999,523,1779321757],[123.58396999999999,10.086225000000001,524,1779321771],[123.58393,10.086327000000001,525,1779321781],[123.58384,10.086354,524,1779321790],[123.58374999999999,10.086385,525,1779321800],[123.58369,10.086497,528,1779321813],[123.58364,10.086603999999999,528,1779321858],[123.58356999999999,10.086681,528,1779321877],[123.58354,10.086785000000001,532,1779321891],[123.58351999999999,10.086891,535,1779321905],[123.58349,10.087001000000001,538,1779321920],[123.58347000000001,10.087094,539,1779321930],[123.58342,10.087180999999999,542,1779322093],[123.58335,10.087249,543,1779322276],[123.58331,10.087338000000001,544,1779322286],[123.58329000000001,10.087474,546,1779322372],[123.58328,10.087577,548,1779322383],[123.58322,10.087655,549,1779322403],[123.58315,10.087735,550,1779322414],[123.58306,10.087776,552,1779322427],[123.58307000000001,10.087884000000001,554,1779322545],[123.583,10.087968999999999,553,1779322555],[123.58296,10.088055000000001,553,1779322565],[123.58286,10.088088000000001,553,1779322577],[123.58278,10.088134999999999,556,1779322595],[123.58269,10.088169000000001,556,1779322604],[123.58259,10.088226000000001,560,1779322626],[123.58251,10.088329999999999,565,1779322728],[123.58249000000001,10.088424,564,1779322826],[123.58248,10.088517,566,1779322842],[123.58244999999999,10.088603000000001,568,1779322911],[123.58243,10.088801999999999,576,1779323038],[123.58239,10.088889999999999,577,1779323079],[123.58226000000001,10.089017999999999,580,1779323343],[123.58217,10.089064,578,1779323533],[123.58208,10.0891,579,1779323543],[123.58195000000001,10.089092000000001,581,1779323616],[123.58186000000001,10.089078000000001,583,1779323627],[123.58176,10.089096,584,1779323637],[123.58167,10.089079,586,1779323647],[123.58159000000001,10.089017,587,1779323663],[123.58152,10.088951,589,1779323679],[123.58145,10.088875,590,1779323693],[123.5814,10.088797,593,1779323715],[123.58132000000001,10.088737,594,1779323778],[123.58127,10.088654999999999,596,1779323884],[123.58119000000001,10.088590999999999,598,1779323918],[123.58113,10.088519,598,1779324082],[123.58104,10.088537000000001,599,1779324160],[123.58105,10.088430000000001,601,1779324176],[123.58098,10.088353,604,1779324189],[123.58091,10.088286,604,1779324226],[123.58083999999999,10.08821,607,1779324237],[123.58077,10.088134999999999,610,1779324250],[123.58076,10.088039,613,1779324295],[123.58077,10.087944999999999,617,1779324394],[123.58076,10.087847,617,1779324407],[123.58071,10.087764,618,1779324448],[123.58069999999999,10.087668000000001,619,1779324461],[123.58073,10.087567999999999,619,1779324472],[123.58074000000001,10.087472999999999,620,1779324483],[123.58074999999999,10.087368,623,1779324634],[123.58074999999999,10.087275,624,1779324644],[123.58077,10.087173,625,1779324656],[123.58078,10.087077000000001,625,1779324668],[123.58078,10.086978,626,1779324679],[123.58078999999999,10.086836,628,1779324699],[123.58081,10.086738,629,1779324718],[123.58083000000001,10.086639,629,1779324730],[123.58086,10.086537999999999,630,1779324742],[123.58083999999999,10.08644,632,1779324771],[123.58083999999999,10.086347,634,1779324781],[123.58083000000001,10.086247999999999,636,1779324794],[123.58083999999999,10.086156000000001,638,1779324804],[123.58083999999999,10.086048,637,1779324821],[123.58083000000001,10.085952000000001,637,1779324837],[123.58082,10.085856,638,1779324848],[123.58081,10.085756,638,1779324865],[123.58081,10.085658,636,1779324876],[123.58078999999999,10.085563,637,1779324885],[123.58085,10.085492,636,1779324923],[123.58091,10.08541,638,1779324951],[123.58093,10.085317999999999,640,1779324962],[123.58113,10.085144,647,1779325156],[123.58119000000001,10.085070999999999,647,1779325168],[123.58126,10.085006,649,1779325181],[123.58132000000001,10.08494,649,1779325265],[123.58138,10.084868,652,1779325318],[123.58145,10.084802,650,1779325367],[123.58147,10.084701000000001,650,1779325395],[123.58154,10.084635,662,1779325465],[123.58163,10.084619,672,1779325524],[123.58154,10.084588999999999,672,1779325605],[123.58159000000001,10.084616,672,1779326721]]]}}]}
