{"type":"FeatureCollection","features":[{"type":"Feature","properties":[],"geometry":{"type":"MultiLineString","coordinates":[[[123.78805,10.315498,590.04999999999995,0],[123.788276,10.315441999999999,591.47000000000003,0],[123.78841199999999,10.315417999999999,590.38,0],[123.78859,10.315376000000001,588.15999999999997,0],[123.788912,10.315238000000001,583.5,0],[123.789238,10.315056999999999,579,0],[123.789387,10.314911,578.96000000000004,0],[123.78953799999999,10.314738,578.74000000000001,0],[123.789675,10.314572999999999,581.00999999999999,0],[123.789771,10.314505,582.46000000000004,0],[123.790109,10.314394,585.07000000000005,0],[123.79030299999999,10.314342,585.49000000000001,0],[123.79051,10.314244,586.07000000000005,0],[123.79073,10.314195,587.19000000000005,0],[123.791083,10.314136,588.04999999999995,0],[123.791674,10.313977,583.97000000000003,0],[123.79188000000001,10.313972,581.51999999999998,0],[123.792177,10.314022,577.05999999999995,0],[123.79239699999999,10.314109,575.27999999999997,0],[123.792677,10.314228,576.38,0],[123.79283700000001,10.314284000000001,576.84000000000003,0],[123.79317500000001,10.314325999999999,574.5,0],[123.79332700000001,10.314309,574.94000000000005,0],[123.79355099999999,10.314258000000001,576.29999999999995,0],[123.794087,10.313993999999999,576.05999999999995,0],[123.794194,10.313836,573,0],[123.79427800000001,10.313698,568.90999999999997,0],[123.794354,10.313603000000001,566.09000000000003,0],[123.794451,10.313542999999999,564.90999999999997,0],[123.794586,10.313541000000001,565.40999999999997,0],[123.794693,10.313552,565.69000000000005,0],[123.794805,10.313594999999999,567.02999999999997,0],[123.794904,10.313592,566.94000000000005,0],[123.79509,10.313421,562.59000000000003,0],[123.795192,10.313376,561.40999999999997,0],[123.795451,10.313385,560.13999999999999,0],[123.79562799999999,10.313446000000001,558.74000000000001,0],[123.795739,10.313554999999999,558.09000000000003,0],[123.79575,10.313687,559.47000000000003,0],[123.79571,10.314003,563.62,0],[123.795754,10.314107,563.09000000000003,0],[123.795912,10.314197999999999,557.88,0],[123.79623599999999,10.314253000000001,549.23000000000002,0],[123.796448,10.314247999999999,544.05999999999995,0],[123.796609,10.31434,544.33000000000004,0],[123.79691699999999,10.314576000000001,545.34000000000003,0],[123.79707000000001,10.314662999999999,545.61000000000001,0],[123.79725999999999,10.314733,545.04999999999995,0],[123.797453,10.314759,543.41999999999996,0],[123.797657,10.31466,542.51999999999998,0],[123.79776200000001,10.314553999999999,542.16999999999996,0],[123.797809,10.314363999999999,541.60000000000002,0],[123.7978,10.314232000000001,540.45000000000005,0],[123.797844,10.314052,538.02999999999997,0],[123.797922,10.314000999999999,538.40999999999997,0],[123.798118,10.313967999999999,542.15999999999997,0],[123.798348,10.31396,546.63,0],[123.798461,10.313924,547.72000000000003,0],[123.79855000000001,10.313884,548.48000000000002,0],[123.798563,10.313800000000001,547.41999999999996,0],[123.798529,10.313471,540.35000000000002,0],[123.798593,10.313355,538.73000000000002,0],[123.798733,10.313238999999999,537.74000000000001,0],[123.79895999999999,10.313105,537.39999999999998,0],[123.799024,10.313046999999999,536.77999999999997,0],[123.79913000000001,10.312889999999999,534.61000000000001,0],[123.799115,10.312753000000001,531.47000000000003,0],[123.799087,10.312611,528.67999999999995,0],[123.799097,10.312389,526.37,0],[123.799115,10.312129000000001,523.75999999999999,0],[123.799133,10.311869,518.49000000000001,0],[123.799215,10.311484999999999,508.08999999999997,0],[123.79919599999999,10.311318999999999,504.22000000000003,0],[123.79915699999999,10.311177000000001,500.73000000000002,0],[123.799072,10.310991,498.52999999999997,0],[123.798941,10.310772,497.06,0],[123.798776,10.310589,492.5,0],[123.798725,10.310503000000001,490.89999999999998,0],[123.798658,10.310373999999999,487.51999999999998,0],[123.79863,10.310285,485.36000000000001,0],[123.79863400000001,10.31019,483.94999999999999,0],[123.798794,10.309922,482.11000000000001,0],[123.798998,10.309730999999999,478.86000000000001,0],[123.799132,10.309635999999999,477.63,0],[123.799153,10.309607,476.98000000000002,0],[123.799194,10.309502,473.95999999999998,0],[123.799234,10.309445999999999,472.36000000000001,0],[123.79926,10.309383,470.20999999999998,0],[123.79931500000001,10.309348999999999,469.25999999999999,0],[123.799396,10.309329,468.73000000000002,0],[123.799494,10.309333000000001,468.88999999999999,0],[123.799599,10.309346,468.31,0],[123.799814,10.309308,462.77999999999997,0],[123.799983,10.309265999999999,459,0],[123.80018699999999,10.309189,455.60000000000002,0],[123.80030600000001,10.309161,455.33999999999997,0],[123.80043499999999,10.309148,455.86000000000001,0],[123.80067099999999,10.309091,456.92000000000002,0],[123.80079000000001,10.308999999999999,458.55000000000001,0],[123.800856,10.308869,461.88999999999999,0],[123.80085699999999,10.308821999999999,462.81999999999999,0],[123.800782,10.308662999999999,462.44,0],[123.800732,10.308475,460.63,0],[123.800715,10.308263999999999,458.20999999999998,0],[123.800718,10.308023,453.97000000000003,0],[123.80073,10.307941,452.37,0],[123.800748,10.307885000000001,451.49000000000001,0],[123.80082400000001,10.307772999999999,450.33999999999997,0],[123.801006,10.307641,453.36000000000001,0],[123.801095,10.307409,452.80000000000001,0],[123.80111100000001,10.307292,452.44,0],[123.801101,10.307214,451.94,0],[123.801062,10.307117999999999,449.44,0],[123.80094099999999,10.30673,440.67000000000002,0],[123.80086900000001,10.306607,435.47000000000003,0],[123.800814,10.306495,431.01999999999998,0],[123.80082400000001,10.306418000000001,429.75,0],[123.80088000000001,10.306311000000001,428.66000000000003,0],[123.800923,10.306279999999999,428.79000000000002,0],[123.80112699999999,10.306160999999999,426.75999999999999,0],[123.80115600000001,10.306132,425.88,0],[123.801199,10.30603,421.62,0],[123.80129700000001,10.305835,415.19999999999999,0],[123.80135900000001,10.30579,414.76999999999998,0],[123.801407,10.305769,415.01999999999998,0],[123.801458,10.305757,415.01999999999998,0],[123.801551,10.305771999999999,415.64999999999998,0],[123.80168500000001,10.305852,418.13,0],[123.80173600000001,10.305854999999999,417.54000000000002,0],[123.80176899999999,10.305845,416.67000000000002,0],[123.801784,10.305776,413.33999999999997,0],[123.801762,10.305709999999999,411.57999999999998,0],[123.80171799999999,10.305622,408.95999999999998,0],[123.80165100000001,10.305529,407.07999999999998,0],[123.801626,10.305439,404.79000000000002,0],[123.801621,10.305343000000001,403.24000000000001,0],[123.801631,10.305227,402.24000000000001,0],[123.80165,10.305148000000001,402.50999999999999,0],[123.801709,10.305099,403.29000000000002,0],[123.801782,10.305084000000001,404.13999999999999,0],[123.801962,10.305085,404.13999999999999,0],[123.802142,10.305104999999999,401.19999999999999,0],[123.80223700000001,10.305056,399.57999999999998,0],[123.80230299999999,10.304947,399.98000000000002,0],[123.80233800000001,10.3048,401.85000000000002,0],[123.802413,10.304672999999999,401.45999999999998,0],[123.802531,10.304546999999999,399.22000000000003,0],[123.80275899999999,10.304401,391.06,0],[123.802764,10.304150999999999,388.75999999999999,0],[123.80269199999999,10.303886,385.08999999999997,0],[123.802606,10.303622000000001,381.55000000000001,0],[123.80244500000001,10.303364,378.18000000000001,0],[123.80233699999999,10.303146,375,0],[123.802254,10.302923,372.24000000000001,0],[123.80228,10.302795,372.60000000000002,0],[123.802386,10.302683999999999,372.27999999999997,0],[123.80246099999999,10.302562999999999,371.94999999999999,0],[123.80249999999999,10.302357000000001,371.08999999999997,0],[123.80252400000001,10.302172000000001,370.22000000000003,0],[123.80260199999999,10.301878,369.86000000000001,0],[123.80269199999999,10.301696,370.76999999999998,0],[123.80280999999999,10.301511,372.42000000000002,0],[123.80296,10.301342,370.44999999999999,0],[123.803078,10.301164999999999,369.81,0],[123.803262,10.301026999999999,364.14999999999998,0],[123.803444,10.300862,355.58999999999997,0],[123.803483,10.300758,352.12,0],[123.80344700000001,10.300615000000001,351.69999999999999,0],[123.80342,10.300451000000001,348.97000000000003,0],[123.803365,10.300264,346.89999999999998,0],[123.803375,10.300069000000001,339.54000000000002,0],[123.803364,10.299932,335.26999999999998,0],[123.803284,10.299768,335.38,0],[123.803178,10.299614999999999,336.80000000000001,0],[123.80315299999999,10.299438,331.18000000000001,0],[123.803014,10.299009,321.13,0],[123.80297400000001,10.298813000000001,317.16000000000003,0],[123.802807,10.298549,315.38999999999999,0],[123.80268100000001,10.298393000000001,316.82999999999998,0],[123.802668,10.298315000000001,315.69,0],[123.802677,10.298216,313.29000000000002,0],[123.802745,10.297890000000001,301.43000000000001,0],[123.802693,10.297508000000001,297.88,0],[123.802756,10.297278,290.80000000000001,0],[123.802752,10.297155,289.60000000000002,0],[123.802735,10.297041,289.85000000000002,0],[123.802756,10.296927999999999,288.22000000000003,0],[123.802854,10.296815,283.00999999999999,0],[123.80299100000001,10.296761,275.29000000000002,0],[123.80308100000001,10.296635,270.16000000000003,0],[123.80311399999999,10.296467,266.48000000000002,0],[123.803101,10.296290000000001,261.58999999999997,0],[123.80301,10.29616,260.58999999999997,0],[123.802905,10.296022000000001,257.38,0],[123.80276000000001,10.295792,250.09,0],[123.802751,10.295624999999999,244.65000000000001,0],[123.80289,10.295557000000001,246.22999999999999,0],[123.803073,10.295541,248.90000000000001,0],[123.80331,10.295486,250.88,0],[123.80351,10.295425,248.80000000000001,0],[123.80363800000001,10.295361,247.30000000000001,0],[123.803701,10.295222000000001,249.19999999999999,0],[123.803804,10.295011000000001,248.68000000000001,0],[123.803927,10.2949,244.09,0],[123.80408300000001,10.2948,237.43000000000001,0],[123.804185,10.294810999999999,233.81,0],[123.804275,10.29486,230.91,0],[123.80429700000001,10.295042,230.03,0],[123.804323,10.295455,223.72999999999999,0],[123.804303,10.295591999999999,221.77000000000001,0],[123.804259,10.295743,220.72999999999999,0],[123.804379,10.295996000000001,219.19,0],[123.804468,10.296146,220.30000000000001,0],[123.80457,10.296143000000001,220.00999999999999,0],[123.80467299999999,10.296098000000001,219.36000000000001,0],[123.80492700000001,10.295745999999999,214.40000000000001,0],[123.805026,10.295673000000001,213.53,0],[123.805233,10.295659000000001,211.97999999999999,0],[123.80544500000001,10.295639,207.33000000000001,0],[123.80573,10.295552000000001,198.06999999999999,0],[123.80587800000001,10.295427,195.05000000000001,0],[123.805993,10.295254999999999,193.69999999999999,0],[123.806149,10.295043,193.24000000000001,0],[123.806237,10.294805,191.27000000000001,0],[123.806332,10.294581000000001,189.91,0],[123.806493,10.294126,190.84999999999999,0],[123.806611,10.293829000000001,191.19,0],[123.806719,10.293611,191.03,0],[123.80702599999999,10.292992,185.46000000000001,0],[123.807149,10.292757999999999,184.31,0],[123.807394,10.292287999999999,185.56999999999999,0],[123.80759,10.292082000000001,187.25,0],[123.807884,10.291947,187.81999999999999,0],[123.808271,10.291784,186.12,0],[123.80871500000001,10.291617,184.52000000000001,0],[123.809039,10.291532999999999,181.99000000000001,0],[123.80932199999999,10.29143,180.02000000000001,0],[123.80953700000001,10.291261,179.81,0],[123.809843,10.291124,185.00999999999999,0],[123.80993100000001,10.291029,187.65000000000001,0],[123.810014,10.290861,188.91,0],[123.81012699999999,10.29067,191.31999999999999,0],[123.810191,10.290501000000001,191.69999999999999,0],[123.81032,10.290285000000001,195.13999999999999,0],[123.810363,10.290084999999999,191.97,0],[123.810478,10.289904999999999,193.56999999999999,0],[123.81062,10.289709,196.02000000000001,0],[123.81074,10.289564,197.97,0],[123.810841,10.289445000000001,197.44,0],[123.81095500000001,10.289364000000001,196.34,0],[123.811093,10.289329,196.27000000000001,0],[123.81133699999999,10.289362000000001,200.03,0],[123.811592,10.289448999999999,206.81,0],[123.811809,10.289543,212.69999999999999,0],[123.811954,10.289629,215.63999999999999,0],[123.812246,10.289657999999999,216.03,0],[123.81267,10.289671999999999,223.90000000000001,0],[123.812789,10.289647,227.02000000000001,0],[123.81285200000001,10.289529999999999,229.41,0],[123.812854,10.289386,230.24000000000001,0],[123.81282299999999,10.289234,231.28,0],[123.81277799999999,10.288945,236.88999999999999,0],[123.81273,10.288788,239.09,0],[123.812659,10.288633000000001,240.09,0],[123.812476,10.288304999999999,244,0],[123.81215,10.287826000000001,251.44999999999999,0],[123.81196799999999,10.287606,252.50999999999999,0],[123.811858,10.287470000000001,249.77000000000001,0],[123.811849,10.287335000000001,247.74000000000001,0],[123.81195099999999,10.287208,247.56,0],[123.81216999999999,10.287118,251.40000000000001,0],[123.81236,10.287075,255.33000000000001,0],[123.8125,10.287032,257.82999999999998,0],[123.812637,10.28688,259.10000000000002,0],[123.812659,10.286733,257.57999999999998,0],[123.812712,10.286511000000001,257.14999999999998,0],[123.812721,10.286326000000001,255.03,0],[123.81269399999999,10.286173,252.68000000000001,0],[123.812658,10.286020000000001,249.97,0],[123.812681,10.285894000000001,249.09,0],[123.81282400000001,10.285809,250.66,0],[123.81303200000001,10.285811000000001,253.41999999999999,0],[123.813474,10.285888,258.58999999999997,0],[123.81376400000001,10.285905,260.86000000000001,0],[123.81397200000001,10.285867,261.49000000000001,0],[123.81410099999999,10.285778000000001,261.73000000000002,0],[123.814252,10.285621000000001,260.74000000000001,0],[123.814554,10.285448000000001,261.17000000000002,0],[123.814724,10.285413,261.01999999999998,0],[123.814795,10.28547,260.52999999999997,0],[123.814834,10.285598,261.61000000000001,0],[123.814887,10.28593,263.69,0],[123.81490100000001,10.286194,263.13,0],[123.81479400000001,10.286346,264.93000000000001,0],[123.81457,10.286584,264.30000000000001,0],[123.814015,10.286789000000001,268.39999999999998,0],[123.813776,10.286903000000001,269.17000000000002,0],[123.813689,10.287118,268.93000000000001,0],[123.81371,10.287266000000001,269.52999999999997,0],[123.813931,10.287280000000001,265.5,0],[123.814114,10.287243999999999,262.31999999999999,0],[123.81444,10.287217999999999,258.41000000000003,0],[123.81484,10.287267999999999,255.25,0],[123.814995,10.287267,252.86000000000001,0],[123.81525000000001,10.287293,250.19999999999999,0],[123.815337,10.287262,248.83000000000001,0],[123.81542,10.287176000000001,247.09,0],[123.81548600000001,10.287068,244.94,0],[123.81565399999999,10.286837,242.28,0],[123.81589099999999,10.286337,233.84999999999999,0],[123.816146,10.285845999999999,224.84999999999999,0],[123.816312,10.285437,217.59999999999999,0],[123.81660599999999,10.284762000000001,208.43000000000001,0],[123.816872,10.284268000000001,209.34999999999999,0],[123.816878,10.284008999999999,209.97,0],[123.816849,10.283573000000001,211.96000000000001,0],[123.816819,10.283282,212.91999999999999,0],[123.816819,10.283208999999999,212.96000000000001,0],[123.81683099999999,10.283132,213.22999999999999,0],[123.816884,10.283028,214.02000000000001,0],[123.817111,10.282852999999999,215.69999999999999,0],[123.817193,10.282774,216.31,0],[123.817358,10.28251,219.87,0],[123.817482,10.282392,222.84999999999999,0],[123.81760199999999,10.282347,223.90000000000001,0],[123.817897,10.282332,222.94,0],[123.818004,10.282272000000001,223.36000000000001,0],[123.81807499999999,10.282156000000001,224.30000000000001,0],[123.818084,10.282109,224.78999999999999,0],[123.818083,10.282055,225.55000000000001,0],[123.818062,10.281953,226.96000000000001,0],[123.817947,10.281712000000001,226.19,0],[123.817896,10.281547,224.47999999999999,0],[123.81788400000001,10.281454999999999,222.75,0],[123.81788,10.281378,221.25,0],[123.817899,10.281262,219.72,0],[123.81796900000001,10.280937,217.72,0],[123.81797,10.280723,216.44,0],[123.81795,10.280469,216.06999999999999,0],[123.817908,10.280277,215.97,0],[123.817832,10.280082999999999,215.78,0],[123.81774299999999,10.279925,215.50999999999999,0],[123.817559,10.279698,213.13999999999999,0],[123.81740000000001,10.279479,212.63999999999999,0],[123.817303,10.279283,213.71000000000001,0],[123.81725299999999,10.279163,214,0],[123.817198,10.279082000000001,214.53999999999999,0],[123.81713000000001,10.279004,215.33000000000001,0],[123.81688200000001,10.278874,216.71000000000001,0],[123.816677,10.278781,214.72999999999999,0],[123.816497,10.278665999999999,212.56,0],[123.816245,10.278447,208.81999999999999,0],[123.81606600000001,10.278275000000001,209.06999999999999,0],[123.816058,10.278228,209.59,0],[123.816062,10.278166000000001,209.90000000000001,0],[123.81621,10.27787,206.28999999999999,0],[123.816233,10.277803,205.43000000000001,0],[123.816283,10.277552999999999,202.28,0],[123.81635,10.277296,199.91999999999999,0],[123.81641999999999,10.277082,198.77000000000001,0],[123.81642600000001,10.276997,198.81,0],[123.816395,10.276915000000001,198.99000000000001,0],[123.81631899999999,10.276818,198.58000000000001,0],[123.81617799999999,10.276619,196.72,0],[123.816092,10.276355000000001,193.16,0],[123.816076,10.276194,191.84999999999999,0],[123.816087,10.276040999999999,191.02000000000001,0],[123.816253,10.275637,191.37,0],[123.81637000000001,10.275245999999999,192.03,0],[123.816378,10.275218000000001,192.08000000000001,0],[123.816782,10.2753,191.71000000000001,0],[123.816936,10.275308000000001,191.55000000000001,0],[123.81708500000001,10.275275000000001,189.88999999999999,0],[123.817727,10.274768,175.16999999999999,0],[123.81809800000001,10.274495,171.34999999999999,0],[123.81822099999999,10.274464999999999,170.74000000000001,0],[123.81848599999999,10.274462,169.47,0],[123.818567,10.27445,168.55000000000001,0],[123.81871,10.274362,167.19,0],[123.81895299999999,10.274183000000001,168.37,0],[123.819209,10.274024000000001,170.31999999999999,0],[123.819532,10.273909,170.91,0],[123.819783,10.273809999999999,170.08000000000001,0],[123.819942,10.273768,168.84999999999999,0],[123.82016,10.273759999999999,168.34,0],[123.820387,10.273776,168.75999999999999,0],[123.820949,10.273849999999999,168.13,0],[123.82106899999999,10.273887999999999,168.08000000000001,0],[123.821144,10.27384,167.50999999999999,0],[123.821235,10.273738,166.00999999999999,0],[123.82158699999999,10.273125,153.31,0],[123.821714,10.272995999999999,152.37,0],[123.821856,10.272866,154.47999999999999,0],[123.82186799999999,10.272829,154.91999999999999,0],[123.82186299999999,10.272693,154.18000000000001,0],[123.821837,10.272468999999999,150.63999999999999,0],[123.82186799999999,10.27182,149.02000000000001,0],[123.821878,10.271784,149.40000000000001,0],[123.821912,10.271656,149.78999999999999,0],[123.82196399999999,10.271521,149.97999999999999,0],[123.822098,10.271312,149.69,0],[123.82245500000001,10.270854,141.83000000000001,0],[123.822526,10.270737,139.75999999999999,0],[123.82261699999999,10.270586,137.08000000000001,0],[123.822682,10.270389,134.25,0],[123.82288800000001,10.269818000000001,129.80000000000001,0],[123.82297,10.269622,127.08,0],[123.823125,10.26948,125.34,0],[123.823351,10.269394,126.33,0],[123.82353500000001,10.269342999999999,128.03,0],[123.823639,10.269270000000001,127.64,0],[123.82371000000001,10.269093,124.14,0],[123.823789,10.268563,118.18000000000001,0],[123.82384999999999,10.268198,115.29000000000001,0],[123.823863,10.267701000000001,110.73999999999999,0],[123.823874,10.267664,110.44,0],[123.823897,10.267633,110.44,0],[123.823926,10.267552,109.7,0],[123.823947,10.267431,108.61,0],[123.82403100000001,10.266315000000001,98.010000000000005,0],[123.823943,10.265844,91.930000000000007,0],[123.82390700000001,10.265568,88.459999999999994,0],[123.82391,10.265408000000001,86.180000000000007,0],[123.82395,10.265155999999999,81.829999999999998,0],[123.82401,10.264859,77.659999999999997,0],[123.824128,10.264747,75.079999999999998,0],[123.82451399999999,10.264462,69.730000000000004,0],[123.824697,10.264262,69.280000000000001,0],[123.824889,10.263953000000001,68.510000000000005,0],[123.82512,10.263505,66.299999999999997,0],[123.82518899999999,10.263362000000001,64.480000000000004,0],[123.8254,10.262829999999999,56.329999999999998,0],[123.825464,10.26268,55.310000000000002,0],[123.825598,10.262146,51.630000000000003,0],[123.825349,10.261998,51.479999999999997,0],[123.82508300000001,10.261798000000001,50.109999999999999,0],[123.825368,10.26135,46.350000000000001,0],[123.825604,10.260942999999999,43.020000000000003,0],[123.8258,10.260524,41.700000000000003,0],[123.825948,10.260251,39.43,0],[123.826042,10.260063000000001,38.890000000000001,0],[123.826385,10.259345,37.159999999999997,0],[123.826426,10.259221,35.880000000000003,0],[123.826481,10.258927999999999,34.390000000000001,0]]]}}]}
