{"type":"FeatureCollection","features":[{"type":"Feature","properties":[],"geometry":{"type":"MultiLineString","coordinates":[[[123.70462000000001,10.159751,16.789999999999999,0],[123.704342,10.160354,19.93,0],[123.70415,10.160784,18.800000000000001,0],[123.70392699999999,10.161208,21.719999999999999,0],[123.703906,10.161263999999999,21.800000000000001,0],[123.703856,10.161559,21.829999999999998,0],[123.703757,10.16215,26.640000000000001,0],[123.703666,10.162367,27.969999999999999,0],[123.703536,10.162568,26.02,0],[123.703405,10.162768,21.43,0],[123.70325099999999,10.162922999999999,20.489999999999998,0],[123.70307699999999,10.163022,22.539999999999999,0],[123.70292999999999,10.163057,23.43,0],[123.702383,10.162964000000001,26.760000000000002,0],[123.70210899999999,10.162917,26,0],[123.702022,10.162910999999999,26.370000000000001,0],[123.701848,10.162901,27.120000000000001,0],[123.70169199999999,10.162927,27.699999999999999,0],[123.70150700000001,10.163027,26.920000000000002,0],[123.701337,10.163150999999999,24.93,0],[123.70120799999999,10.163261,25.129999999999999,0],[123.701048,10.163449999999999,25.800000000000001,0],[123.700788,10.163575,27.510000000000002,0],[123.700621,10.163584999999999,27.329999999999998,0],[123.700436,10.163614000000001,25.760000000000002,0],[123.700287,10.163669000000001,24.57,0],[123.700065,10.163805999999999,23,0],[123.699763,10.164027000000001,24,0],[123.699534,10.164206999999999,24,0],[123.69946899999999,10.164281000000001,24,0],[123.699416,10.164353,24,0],[123.69937299999999,10.164429,24,0],[123.699303,10.164622,24.27,0],[123.699241,10.164701000000001,24.550000000000001,0],[123.699196,10.164735,24.809999999999999,0],[123.69895200000001,10.16489,26.719999999999999,0],[123.697549,10.165592,36.039999999999999,0],[123.69742100000001,10.165685,37.079999999999998,0],[123.697317,10.165872,35.890000000000001,0],[123.69712,10.16647,37.369999999999997,0],[123.696988,10.166663,37.82,0],[123.69691400000001,10.166793,37.149999999999999,0],[123.696658,10.167090999999999,38.969999999999999,0],[123.696155,10.167667,38.32,0],[123.695944,10.167789000000001,41.289999999999999,0],[123.69580499999999,10.167827000000001,43.960000000000001,0],[123.69565799999999,10.167896000000001,45.5,0],[123.69547,10.168022000000001,44.530000000000001,0],[123.69532,10.168139,43.670000000000002,0],[123.695221,10.168199,43.560000000000002,0],[123.695072,10.168227,45.850000000000001,0],[123.694998,10.168221000000001,47.409999999999997,0],[123.69478700000001,10.168179,50.789999999999999,0],[123.694594,10.168172,52.149999999999999,0],[123.69445399999999,10.168212,49.770000000000003,0],[123.69432500000001,10.168272999999999,48.219999999999999,0],[123.694165,10.168412999999999,46.020000000000003,0],[123.694079,10.168516,45.039999999999999,0],[123.694013,10.168640999999999,44.780000000000001,0],[123.69396,10.168809,44.369999999999997,0],[123.69395299999999,10.168927999999999,43.32,0],[123.693904,10.169117999999999,43.25,0],[123.693888,10.169161000000001,43.43,0],[123.693842,10.169229,43.719999999999999,0],[123.693766,10.169244000000001,45.189999999999998,0],[123.693534,10.169188,52.57,0],[123.69326100000001,10.169211000000001,60.43,0],[123.69309,10.169295,59.890000000000001,0],[123.692987,10.169385,57.969999999999999,0],[123.69292900000001,10.16947,56.509999999999998,0],[123.692831,10.169584,57.359999999999999,0],[123.69274,10.169759000000001,57.850000000000001,0],[123.6927,10.169866000000001,57.039999999999999,0],[123.692612,10.170005,57.07,0],[123.692582,10.170038999999999,57.060000000000002,0],[123.692514,10.170088,57.909999999999997,0],[123.692376,10.170211,60.079999999999998,0],[123.692312,10.170309,60.369999999999997,0],[123.692221,10.170484,60.560000000000002,0],[123.692172,10.170648,59.299999999999997,0],[123.692122,10.170704000000001,59.710000000000001,0],[123.692055,10.170745,60.920000000000002,0],[123.69197699999999,10.17075,62.649999999999999,0],[123.691749,10.170749000000001,66.510000000000005,0],[123.691512,10.170819,68.010000000000005,0],[123.69136899999999,10.170869,68.299999999999997,0],[123.691006,10.171013,70.579999999999998,0],[123.690552,10.171232,72.049999999999997,0],[123.69022,10.171449000000001,73.650000000000006,0],[123.69006299999999,10.171609999999999,74.200000000000003,0],[123.689989,10.171668,75.189999999999998,0],[123.689611,10.171887999999999,81.890000000000001,0],[123.68956799999999,10.171927999999999,82.780000000000001,0],[123.689543,10.171970999999999,83.150000000000006,0],[123.689511,10.17211,83.030000000000001,0],[123.68938199999999,10.172472000000001,86.390000000000001,0],[123.689205,10.172848999999999,90.090000000000003,0],[123.688858,10.173261,91.859999999999999,0],[123.68879099999999,10.173306,92.109999999999999,0],[123.68872399999999,10.173314,92.799999999999997,0],[123.688644,10.173301,93.879999999999995,0],[123.688542,10.173173999999999,96.099999999999994,0],[123.68837000000001,10.172620999999999,98.319999999999993,0],[123.688312,10.172532,99.079999999999998,0],[123.688142,10.172406000000001,102.3,0],[123.688041,10.172407,103.68000000000001,0],[123.68792500000001,10.172514,103.87,0],[123.68781799999999,10.172627,104.65000000000001,0],[123.68773,10.172739999999999,105.18000000000001,0],[123.687703,10.17285,104.97,0],[123.687718,10.173159,104.28,0],[123.687658,10.173256,104.92,0],[123.687619,10.173287,105.37,0],[123.687557,10.173298000000001,106.18000000000001,0],[123.68746299999999,10.173285,108.27,0],[123.687414,10.173244,109.56,0],[123.68744599999999,10.173214,109.01000000000001,0],[123.687467,10.173107,109.14,0],[123.687471,10.173044000000001,109.19,0],[123.68742899999999,10.172929999999999,110.15000000000001,0],[123.687425,10.172712000000001,111.67,0],[123.687168,10.172966000000001,117.54000000000001,0],[123.68708100000001,10.173102,119.86,0],[123.686986,10.173282,120.48999999999999,0],[123.686847,10.17362,121.91,0],[123.686791,10.173643999999999,123.65000000000001,0],[123.68677599999999,10.173700999999999,124.31,0],[123.686775,10.173759,124.55,0],[123.686804,10.173821999999999,124.28,0],[123.68705,10.17408,119.63,0],[123.687078,10.174121,119.05,0],[123.68709800000001,10.174208999999999,118.12,0],[123.68709699999999,10.174258999999999,117.92,0],[123.687059,10.174333000000001,116.87,0],[123.686961,10.174417,116.7,0],[123.686832,10.174442000000001,118.81999999999999,0],[123.686583,10.174393,126.16,0],[123.686486,10.174386,129.00999999999999,0],[123.686392,10.174424999999999,131.16,0],[123.68629199999999,10.174523000000001,131.87,0],[123.68616299999999,10.174747999999999,129.88999999999999,0],[123.686132,10.174834000000001,127.61,0],[123.686077,10.174908,126.47,0],[123.686032,10.174937,126.81999999999999,0],[123.68594400000001,10.174925,128.72,0],[123.685834,10.174897,131.33000000000001,0],[123.68565099999999,10.174769,137.25999999999999,0],[123.685433,10.174725,138.80000000000001,0],[123.68525,10.174721,139.27000000000001,0],[123.68505,10.174749,139.31999999999999,0],[123.68490300000001,10.174813,138.38,0],[123.684727,10.174910000000001,138.24000000000001,0],[123.68454,10.175083000000001,136.69999999999999,0],[123.68447,10.175117,136.88999999999999,0],[123.68405799999999,10.175053,144.63999999999999,0],[123.68390599999999,10.175075,146.97999999999999,0],[123.683846,10.175133000000001,147.34999999999999,0],[123.68383,10.175248,146.84999999999999,0],[123.68385499999999,10.175312999999999,145.86000000000001,0],[123.68395099999999,10.175509,143.72,0],[123.684026,10.175701999999999,143.25,0],[123.684045,10.175879999999999,145.06999999999999,0],[123.68402,10.176003,147.03,0],[123.683995,10.176047000000001,147.78999999999999,0],[123.683965,10.176133,148.44999999999999,0],[123.683907,10.176208000000001,147.97,0],[123.68379400000001,10.176278,148.30000000000001,0],[123.683697,10.176289000000001,147.80000000000001,0],[123.68363600000001,10.176257,148.38999999999999,0],[123.683556,10.176187000000001,149.69999999999999,0],[123.683528,10.176005,152.88999999999999,0],[123.68354100000001,10.175913,153.72,0],[123.683521,10.175776000000001,154,0],[123.683361,10.17564,155.30000000000001,0],[123.68327600000001,10.175584000000001,156.15000000000001,0],[123.68320199999999,10.175547999999999,157.12,0],[123.68311,10.175518,158.63,0],[123.68298799999999,10.175514,160.36000000000001,0],[123.682856,10.175628,161.49000000000001,0],[123.682807,10.175734,161.99000000000001,0],[123.68277500000001,10.175993,161.02000000000001,0],[123.682751,10.176083999999999,160.5,0],[123.682714,10.176135,160.91999999999999,0],[123.682641,10.176190999999999,161.47999999999999,0],[123.682216,10.17625,169.50999999999999,0],[123.68208199999999,10.176285999999999,171.18000000000001,0],[123.681922,10.176447,168.08000000000001,0],[123.681774,10.176553999999999,167.84999999999999,0],[123.681518,10.176667,169.62,0],[123.68127699999999,10.176799000000001,172.09,0],[123.681121,10.176933,173.84,0],[123.68102399999999,10.177092,174.12,0],[123.680637,10.177486999999999,180.19999999999999,0],[123.680398,10.177814,184.97,0],[123.680181,10.178089999999999,187.94,0],[123.68009000000001,10.178231,187.93000000000001,0],[123.67985400000001,10.178626,186.68000000000001,0],[123.679689,10.178900000000001,191.13999999999999,0],[123.679417,10.179379000000001,198.09,0],[123.679355,10.179506,199.99000000000001,0],[123.679295,10.179708,202.93000000000001,0],[123.67927400000001,10.179904000000001,205.06,0],[123.679259,10.180211,207.36000000000001,0],[123.67929100000001,10.180339,208.31,0],[123.67933499999999,10.180434,209.16,0],[123.679408,10.180484,208.97,0],[123.679501,10.180482,207.56,0],[123.679661,10.180399,206,0],[123.679849,10.180299,207.18000000000001,0],[123.679891,10.180249999999999,207.25,0],[123.680007,10.180077000000001,205.80000000000001,0],[123.680074,10.180009999999999,205.27000000000001,0],[123.680161,10.179942,204.90000000000001,0],[123.680267,10.179898,205.94,0],[123.68066899999999,10.179781999999999,209.24000000000001,0],[123.68074900000001,10.179715,207.5,0],[123.68100800000001,10.179557000000001,206.19,0],[123.68115299999999,10.179510000000001,206.97,0],[123.6812,10.179487999999999,207.16,0],[123.681252,10.179480999999999,207.86000000000001,0],[123.68143600000001,10.179510000000001,210.83000000000001,0],[123.681518,10.179535,211.25999999999999,0],[123.68158,10.179569000000001,211.09999999999999,0],[123.681605,10.179619000000001,211.09,0],[123.681617,10.179709000000001,211.02000000000001,0],[123.681591,10.179778000000001,210.96000000000001,0],[123.68147500000001,10.179885000000001,213.46000000000001,0],[123.681378,10.179947,215.75,0],[123.68123199999999,10.180062,218.31,0],[123.681152,10.180159,219.08000000000001,0],[123.68104099999999,10.180403999999999,220.71000000000001,0],[123.681,10.180524,220.13999999999999,0],[123.680959,10.180595,219.90000000000001,0],[123.680858,10.180671,222.5,0],[123.680778,10.180747999999999,222.84,0],[123.68069199999999,10.180865000000001,223.81,0],[123.680623,10.180933,225.09,0],[123.680542,10.181039999999999,227.66,0],[123.680493,10.181215,227.59999999999999,0],[123.680463,10.181274,227.93000000000001,0],[123.680328,10.181391,233.11000000000001,0],[123.68029,10.181469,233.22,0],[123.680278,10.181481,233.56,0],[123.680268,10.181521999999999,233.58000000000001,0],[123.680209,10.181626,235.47,0],[123.68008,10.182086999999999,236.37,0],[123.680019,10.182183,237.06999999999999,0],[123.679817,10.18238,238.74000000000001,0],[123.67973600000001,10.182435999999999,239.38999999999999,0],[123.679717,10.182480999999999,238.71000000000001,0],[123.67964000000001,10.182575999999999,239.16,0],[123.67951499999999,10.182864,240.49000000000001,0],[123.679514,10.182993,240.09,0],[123.679481,10.183192,240.59,0],[123.67945899999999,10.183261,241.19,0],[123.67938599999999,10.183429,243.62,0],[123.679349,10.183481,244.78,0],[123.679322,10.183593999999999,243.72999999999999,0],[123.679282,10.183650999999999,244.27000000000001,0],[123.67926,10.183719,243.41,0],[123.679194,10.183828,243.37,0],[123.67911700000001,10.183904,244.21000000000001,0],[123.67904,10.183915000000001,246.49000000000001,0],[123.67893599999999,10.183897999999999,250.68000000000001,0],[123.678866,10.183861,254.53999999999999,0],[123.67872300000001,10.183865000000001,257.77999999999997,0],[123.678534,10.18389,261.10000000000002,0],[123.678428,10.183916999999999,263.44999999999999,0],[123.678348,10.183952,265.82999999999998,0],[123.67826100000001,10.184015,267.00999999999999,0],[123.67822099999999,10.184074000000001,266.29000000000002,0],[123.678172,10.184184,263.11000000000001,0],[123.67813099999999,10.1843,259.00999999999999,0],[123.67805,10.184476999999999,255.31,0],[123.678015,10.184589000000001,253.08000000000001,0],[123.677948,10.184725,254.77000000000001,0],[123.67788400000001,10.184818,256.74000000000001,0],[123.6778,10.184977,257.31,0],[123.67773099999999,10.185079,258.35000000000002,0],[123.67761900000001,10.185225000000001,258.63999999999999,0],[123.677538,10.185288999999999,259.85000000000002,0],[123.677443,10.185345,261.94,0],[123.677251,10.185432,265.30000000000001,0],[123.677077,10.185559,265.60000000000002,0],[123.676604,10.185862999999999,267.32999999999998,0],[123.676329,10.186049000000001,269.58999999999997,0],[123.67626199999999,10.186119,269.00999999999999,0],[123.676044,10.186323,270.63,0],[123.675862,10.18651,272.48000000000002,0],[123.675169,10.187279,277.36000000000001,0],[123.674959,10.187488999999999,279.29000000000002,0],[123.674837,10.187595999999999,280.36000000000001,0],[123.674708,10.187696000000001,282.10000000000002,0],[123.674564,10.18783,282.98000000000002,0],[123.67438199999999,10.18806,283.82999999999998,0],[123.674318,10.188162999999999,283.92000000000002,0],[123.674271,10.188257,284.49000000000001,0],[123.674209,10.188344000000001,286.19,0],[123.674108,10.188511,289.20999999999998,0],[123.67408,10.188580999999999,290.01999999999998,0],[123.674087,10.188707000000001,289.45999999999998,0],[123.67410700000001,10.188755,289.25999999999999,0],[123.67416299999999,10.188798,288.16000000000003,0],[123.674251,10.188886999999999,288.54000000000002,0],[123.674344,10.189047,290.62,0],[123.674387,10.189169,291.98000000000002,0],[123.674414,10.18929,292.48000000000002,0],[123.674424,10.189379000000001,292.75,0],[123.67442200000001,10.18946,293.06,0],[123.674398,10.189544,294.63999999999999,0],[123.674278,10.189848,302.02999999999997,0],[123.674181,10.190013,305.88999999999999,0],[123.67404399999999,10.190149999999999,308.05000000000001,0],[123.673924,10.190327,306.57999999999998,0],[123.673785,10.190562999999999,303.47000000000003,0],[123.673683,10.190770000000001,301.22000000000003,0],[123.673492,10.191128000000001,296.43000000000001,0],[123.673401,10.191226,295.68000000000001,0],[123.673306,10.191281999999999,296.06,0],[123.673179,10.191338,298.01999999999998,0],[123.673039,10.191438,299.00999999999999,0],[123.672787,10.191691,298.92000000000002,0],[123.672709,10.191758,299.57999999999998,0],[123.672613,10.191878000000001,299.23000000000002,0],[123.67252999999999,10.192000999999999,298.5,0],[123.672484,10.192126999999999,296.01999999999998,0],[123.67238999999999,10.19244,290.91000000000003,0],[123.672234,10.192743,292.51999999999998,0],[123.67215,10.192835000000001,293.77999999999997,0],[123.672085,10.192880000000001,295.35000000000002,0],[123.67200200000001,10.192916,295.85000000000002,0],[123.671892,10.192945999999999,297.11000000000001,0],[123.671711,10.192974,299.55000000000001,0],[123.671531,10.192985,301.95999999999998,0],[123.671375,10.193002999999999,302.87,0],[123.671098,10.193059,304.23000000000002,0],[123.67097,10.193098000000001,303.98000000000002,0],[123.670877,10.193135,303.81999999999999,0],[123.670683,10.193229000000001,304.44999999999999,0],[123.670575,10.193263999999999,305.23000000000002,0],[123.67048800000001,10.193272,306.13999999999999,0],[123.670394,10.193258,307.25,0],[123.67035,10.193244999999999,307.81,0],[123.670259,10.193185,308.77999999999997,0],[123.670193,10.193163,309.39999999999998,0],[123.670109,10.193149,310.94,0],[123.670024,10.193163,312.33999999999997,0],[123.66999,10.193192,313.02999999999997,0],[123.669962,10.193239999999999,313.26999999999998,0],[123.66994699999999,10.193345000000001,312.63999999999999,0],[123.669974,10.193457,311.13,0],[123.67002100000001,10.193561000000001,309.06,0],[123.67004900000001,10.193702,307.13999999999999,0],[123.67005399999999,10.194091999999999,304.45999999999998,0],[123.670092,10.194219,302.72000000000003,0],[123.670143,10.194343999999999,301.54000000000002,0],[123.670243,10.194534000000001,300.00999999999999,0],[123.670776,10.195198,296.06999999999999,0],[123.671131,10.195639999999999,295.85000000000002,0],[123.67131999999999,10.196021,297.66000000000003,0],[123.671376,10.196183,298.10000000000002,0],[123.671418,10.196398,300.22000000000003,0],[123.67140999999999,10.196717,302.44999999999999,0],[123.671423,10.196828,302.63,0],[123.671477,10.196944999999999,305.06999999999999,0],[123.671637,10.197222999999999,311.75999999999999,0],[123.671744,10.197504,311.44,0],[123.671768,10.19791,297.37,0],[123.671795,10.198073000000001,294.48000000000002,0],[123.671857,10.198211000000001,294.44999999999999,0],[123.671949,10.198331,295.93000000000001,0],[123.672207,10.198511,299.64999999999998,0],[123.672399,10.198739,294.41000000000003,0],[123.67252000000001,10.198865,290.92000000000002,0],[123.67260400000001,10.198914,290.08999999999997,0],[123.672719,10.198935000000001,289.66000000000003,0],[123.672915,10.198956000000001,288.18000000000001,0],[123.673384,10.198997,289.73000000000002,0],[123.674139,10.199572,286.54000000000002,0],[123.674677,10.199782000000001,282.5,0],[123.67494600000001,10.199887,283.41000000000003,0],[123.67509699999999,10.200111,279.62,0],[123.67534000000001,10.200286999999999,281.14999999999998,0],[123.675826,10.200639000000001,277.38999999999999,0],[123.676301,10.200899,279.14999999999998,0],[123.67653900000001,10.201029,282.13,0],[123.67660100000001,10.201082,283.27999999999997,0],[123.67686,10.201347,282.13999999999999,0],[123.677092,10.201610000000001,276.43000000000001,0],[123.67731499999999,10.201886999999999,275.06999999999999,0],[123.67735,10.202075000000001,273.38,0],[123.67735,10.202496999999999,265.72000000000003,0],[123.677375,10.202584,264.19999999999999,0],[123.677446,10.202655,263.81,0],[123.677693,10.202800999999999,264.95999999999998,0],[123.677739,10.202859999999999,264.80000000000001,0],[123.677798,10.203010000000001,263.66000000000003,0],[123.67783300000001,10.203249,262.77999999999997,0],[123.67785000000001,10.203405999999999,262.10000000000002,0],[123.677807,10.203810000000001,258.95999999999998,0],[123.677755,10.203889999999999,256.80000000000001,0],[123.677644,10.203998,252.69999999999999,0],[123.677314,10.204287000000001,243.34999999999999,0],[123.677183,10.204451000000001,241.09,0],[123.677058,10.204637999999999,239.49000000000001,0],[123.677027,10.204718,239.06,0],[123.677041,10.204794,238.68000000000001,0],[123.677091,10.204838000000001,238.41999999999999,0],[123.67733800000001,10.204946,237.25999999999999,0],[123.67740999999999,10.205016000000001,236.99000000000001,0],[123.677423,10.205085,237,0],[123.677401,10.205149,236.44999999999999,0],[123.677328,10.205223999999999,235.16999999999999,0],[123.677226,10.205294,233.31,0],[123.677098,10.205323999999999,231.84999999999999,0],[123.676895,10.205311999999999,231.06,0],[123.676637,10.205311999999999,229.34,0],[123.676255,10.205451,223.38,0],[123.676005,10.205500000000001,220.11000000000001,0],[123.67559900000001,10.205596,212.69,0],[123.67537900000001,10.205716000000001,208.25999999999999,0],[123.675234,10.205816,205.74000000000001,0],[123.67514199999999,10.205908000000001,205.11000000000001,0],[123.675122,10.205987,204.84999999999999,0],[123.675144,10.206054,204.91,0],[123.675207,10.206118,204.84,0],[123.675342,10.206136000000001,205.19999999999999,0],[123.675687,10.206056999999999,207.81,0],[123.67581199999999,10.206051,208.16999999999999,0],[123.675901,10.20608,207.38999999999999,0],[123.675949,10.206130999999999,206.33000000000001,0],[123.675971,10.206243000000001,204.52000000000001,0],[123.67592999999999,10.206355,203.36000000000001,0],[123.675759,10.206512,200.88,0],[123.67526599999999,10.207065999999999,193.37,0],[123.674953,10.207461,186.65000000000001,0],[123.674559,10.207914000000001,182.05000000000001,0],[123.67450700000001,10.208,181.52000000000001,0],[123.674477,10.208081,181.56999999999999,0],[123.67440999999999,10.208313,181.56,0],[123.674246,10.208875000000001,177.13999999999999,0],[123.674187,10.208964999999999,176.25999999999999,0],[123.674094,10.209066999999999,175.56999999999999,0],[123.673862,10.209232999999999,175,0],[123.67338100000001,10.209519999999999,176.97,0],[123.673301,10.209585000000001,177.63999999999999,0],[123.673225,10.209669,177.78,0],[123.67313300000001,10.209838,177.28999999999999,0],[123.672965,10.210191,174.62,0],[123.672911,10.210319,174.56,0],[123.672854,10.210386,174.11000000000001,0],[123.67273400000001,10.210464999999999,172.77000000000001,0],[123.672445,10.210641000000001,172.08000000000001,0],[123.67194499999999,10.210947000000001,172.80000000000001,0],[123.671803,10.211067,172.09999999999999,0],[123.671775,10.211126,172.12,0],[123.671768,10.211245,172.31,0],[123.67180399999999,10.211496,172.97999999999999,0],[123.671797,10.211797000000001,171.63,0],[123.671868,10.211982000000001,171.53,0],[123.67187,10.212465,173.24000000000001,0],[123.671922,10.212607,173.75,0],[123.671941,10.212685,173.86000000000001,0],[123.67195700000001,10.212929000000001,172.88,0],[123.672034,10.213301,172.52000000000001,0],[123.67209200000001,10.213469999999999,171.44,0],[123.67208599999999,10.213666999999999,169.27000000000001,0],[123.67199100000001,10.213844,167.90000000000001,0],[123.671813,10.214047000000001,168.22999999999999,0],[123.671604,10.214145,167.44999999999999,0],[123.67144399999999,10.214180000000001,166.81,0],[123.67124200000001,10.21421,165.99000000000001,0],[123.67110099999999,10.214264,165.34999999999999,0],[123.671012,10.214376,166.31999999999999,0],[123.670963,10.214485,166.80000000000001,0],[123.670858,10.214817999999999,168.66999999999999,0],[123.670771,10.214986,169.47999999999999,0],[123.670638,10.21518,169.31,0],[123.67061699999999,10.215273,168.71000000000001,0],[123.670609,10.215351999999999,168.13,0],[123.670689,10.215560999999999,167.02000000000001,0],[123.670742,10.215653,166.91999999999999,0],[123.67075199999999,10.215778,166.66,0],[123.670655,10.216018999999999,166.80000000000001,0],[123.670588,10.216253,167.19999999999999,0],[123.670518,10.216441,166.81999999999999,0],[123.670376,10.216646000000001,165.59999999999999,0],[123.67017800000001,10.216858,163.37,0],[123.670027,10.217112999999999,162.19,0],[123.669904,10.217248,161.53,0],[123.669658,10.21754,162.02000000000001,0],[123.669569,10.217717,162.16,0],[123.66950799999999,10.217874,162.61000000000001,0],[123.66927200000001,10.218904,164.5,0],[123.669138,10.219120999999999,163.56,0],[123.66891699999999,10.219344,161.99000000000001,0],[123.668494,10.219631,159.38999999999999,0],[123.668443,10.219752,160.34999999999999,0],[123.668434,10.219847,161.83000000000001,0],[123.66846700000001,10.219931000000001,164.09,0],[123.66852,10.219996999999999,165.68000000000001,0],[123.668604,10.220041999999999,166.88,0],[123.668733,10.220081,168.56999999999999,0],[123.668941,10.220086999999999,171.58000000000001,0],[123.669072,10.220102000000001,173.19999999999999,0],[123.669191,10.220124999999999,174.63,0],[123.669337,10.220235000000001,174.88999999999999,0],[123.669431,10.220276999999999,174.97,0],[123.66958200000001,10.220371,174.52000000000001,0],[123.669753,10.220449,174.75,0],[123.670158,10.220649999999999,176.41,0],[123.670314,10.220851,177.44,0],[123.670373,10.220901,178.21000000000001,0],[123.670469,10.221005,178.56,0],[123.670694,10.221092000000001,180.91999999999999,0],[123.671205,10.221292,182.41,0],[123.671586,10.221337,184.05000000000001,0],[123.671829,10.221429000000001,185.61000000000001,0],[123.67193399999999,10.221548,186.88999999999999,0],[123.672118,10.221788999999999,188.91999999999999,0],[123.672309,10.221904,191.74000000000001,0],[123.67246,10.22198,193.15000000000001,0],[123.67256999999999,10.222057,193.71000000000001,0],[123.67274,10.222238000000001,194.96000000000001,0],[123.67281800000001,10.222407,196.31999999999999,0],[123.672854,10.222486,196.96000000000001,0],[123.672915,10.222763,199.68000000000001,0],[123.67291299999999,10.223108,201.53,0],[123.67278899999999,10.223582,201.47,0],[123.67274999999999,10.223689,201.31999999999999,0],[123.672703,10.223770999999999,200.94999999999999,0],[123.67260400000001,10.223858999999999,201.06,0],[123.67245699999999,10.223929,201.56999999999999,0],[123.672256,10.224047000000001,200.84,0],[123.67214800000001,10.224151000000001,200.24000000000001,0],[123.67206299999999,10.22443,198.11000000000001,0],[123.672056,10.224644,196.61000000000001,0],[123.671966,10.224904,197.30000000000001,0],[123.671982,10.225391999999999,194.81999999999999,0],[123.67203000000001,10.22551,194,0],[123.67213,10.225676,191.38999999999999,0],[123.672158,10.225781,191.24000000000001,0],[123.672144,10.225923,193.13999999999999,0],[123.67209099999999,10.226035,194.91,0],[123.67197,10.226162,197.27000000000001,0],[123.67174,10.226451000000001,193.16,0],[123.671318,10.226708,186.19,0],[123.670924,10.226793000000001,183.61000000000001,0],[123.670625,10.226785,183.66,0],[123.670491,10.226805000000001,183.84999999999999,0],[123.67022799999999,10.226902000000001,183.94,0],[123.669873,10.22705,181.72999999999999,0],[123.66978899999999,10.227112999999999,180.50999999999999,0],[123.669703,10.227223,177.61000000000001,0],[123.669579,10.227361,175.50999999999999,0],[123.669392,10.227525999999999,172.37,0],[123.669186,10.227587,171.94999999999999,0],[123.669006,10.227615999999999,171.25,0],[123.66877599999999,10.227682,169.68000000000001,0],[123.668689,10.227733000000001,169.18000000000001,0],[123.668578,10.227843999999999,167.11000000000001,0],[123.668424,10.228047999999999,163.69,0],[123.66833099999999,10.22813,162.91,0],[123.668224,10.228182,161.80000000000001,0],[123.668092,10.228223,160.13999999999999,0],[123.66800000000001,10.228278,157.59,0],[123.66794400000001,10.228339999999999,156.02000000000001,0],[123.66785900000001,10.228579,155.25,0],[123.667843,10.228705,157.40000000000001,0],[123.667845,10.228857,159.91999999999999,0],[123.66794899999999,10.229209000000001,163.69,0],[123.667953,10.229352,164.88,0],[123.66792599999999,10.229488,166.75999999999999,0],[123.667874,10.229641000000001,168.44999999999999,0],[123.667773,10.229816,170.22,0],[123.667694,10.229882,171.59999999999999,0],[123.66754400000001,10.229967,173.77000000000001,0],[123.66722300000001,10.230131999999999,177.52000000000001,0],[123.667055,10.230293,178.53,0],[123.6669,10.230499999999999,180.43000000000001,0],[123.666827,10.23067,181.86000000000001,0],[123.666718,10.231045999999999,182.40000000000001,0],[123.666634,10.231221,182.81999999999999,0],[123.666535,10.231389999999999,183.19,0],[123.666405,10.231582,182.81999999999999,0],[123.66632199999999,10.23165,184.13,0],[123.666158,10.231741,186.94999999999999,0],[123.666014,10.231864,189.06,0],[123.665874,10.231939000000001,192.38999999999999,0],[123.665646,10.232004999999999,196.08000000000001,0],[123.665418,10.232044,199.36000000000001,0],[123.66533200000001,10.232108,199.90000000000001,0],[123.665048,10.232445,202.55000000000001,0],[123.664917,10.232538999999999,205.03999999999999,0],[123.664507,10.232695,209.68000000000001,0],[123.664383,10.232894999999999,209.38999999999999,0],[123.66434599999999,10.233101,208.43000000000001,0],[123.664265,10.233228,210.02000000000001,0],[123.66405899999999,10.233397999999999,214.28,0],[123.663788,10.233698,219.06,0],[123.663616,10.233877,222.71000000000001,0],[123.66346,10.234147999999999,225.40000000000001,0],[123.66334000000001,10.234574,226.93000000000001,0],[123.66317600000001,10.234938,230.78,0],[123.662986,10.235237,234.63,0],[123.662868,10.235485000000001,238.34999999999999,0],[123.66280399999999,10.235844,248.81,0],[123.662632,10.236234,256.26999999999998,0],[123.662417,10.236488,259.95999999999998,0],[123.66189199999999,10.236762000000001,264.61000000000001,0],[123.661546,10.237031999999999,269.38,0],[123.661377,10.237206,273.35000000000002,0],[123.661205,10.237385,279.94999999999999,0],[123.66098,10.237449,283.57999999999998,0],[123.66030499999999,10.23756,290.88999999999999,0],[123.659995,10.237648999999999,295.11000000000001,0],[123.659836,10.237688,295.63,0],[123.65961900000001,10.237734,294.37,0],[123.659453,10.23781,293.29000000000002,0]]]}}]}
