{"type":"FeatureCollection","features":[{"type":"Feature","properties":[],"geometry":{"type":"MultiLineString","coordinates":[[[123.77098599999999,10.321260000000001,422.38,0],[123.77066499999999,10.321002999999999,423.98000000000002,0],[123.770546,10.320921,425.29000000000002,0],[123.77046799999999,10.320884,425.25,0],[123.770385,10.320864,425.31999999999999,0],[123.770257,10.320867,425.88,0],[123.770008,10.320925000000001,429.29000000000002,0],[123.769915,10.320938999999999,429.91000000000003,0],[123.769791,10.320935,429.41000000000003,0],[123.7697,10.320912999999999,428.19,0],[123.76959100000001,10.320865,426.04000000000002,0],[123.769347,10.320712,423.85000000000002,0],[123.768704,10.320228999999999,424.24000000000001,0],[123.768275,10.319907000000001,418.06,0],[123.76767,10.319515000000001,413.13999999999999,0],[123.767475,10.319433999999999,412.91000000000003,0],[123.767295,10.319372,411.87,0],[123.76714699999999,10.319331,411.97000000000003,0],[123.76700099999999,10.319281,413.02999999999997,0],[123.766859,10.319203,412.48000000000002,0],[123.76672600000001,10.319096999999999,411.80000000000001,0],[123.76659100000001,10.318949999999999,408.79000000000002,0],[123.766414,10.318727000000001,403.87,0],[123.766268,10.318566000000001,401.06,0],[123.76596000000001,10.318288000000001,397.24000000000001,0],[123.765519,10.317968,392.22000000000003,0],[123.765173,10.317729999999999,390.62,0],[123.76478299999999,10.317486000000001,388.44999999999999,0],[123.764399,10.317173,388.80000000000001,0],[123.764094,10.317014,386.79000000000002,0],[123.76363499999999,10.316825,381.24000000000001,0],[123.76350100000001,10.316735,378.98000000000002,0],[123.763336,10.316508000000001,372.41000000000003,0],[123.76325199999999,10.316371999999999,368.86000000000001,0],[123.763136,10.316231999999999,366.13999999999999,0],[123.762991,10.316091999999999,363.63,0],[123.76282,10.31601,362.42000000000002,0],[123.762466,10.31588,359.41000000000003,0],[123.76190200000001,10.315714,355.38,0],[123.76127700000001,10.315654,353.55000000000001,0],[123.760863,10.315538999999999,348.31999999999999,0],[123.760746,10.315545,347.69,0],[123.76055599999999,10.315595,347.05000000000001,0],[123.760336,10.315642,345.56999999999999,0],[123.760053,10.31568,342.88999999999999,0],[123.759817,10.315662,340.27999999999997,0],[123.759505,10.31559,338.18000000000001,0],[123.75932400000001,10.315514,336.62,0],[123.75918,10.315435000000001,336.06999999999999,0],[123.758622,10.315025,335.27999999999997,0],[123.758396,10.314866,330.10000000000002,0],[123.757943,10.314546999999999,330.04000000000002,0],[123.757811,10.314448000000001,329.16000000000003,0],[123.75771899999999,10.31438,328.55000000000001,0],[123.75748299999999,10.314171,326.36000000000001,0],[123.757363,10.314055,325.98000000000002,0],[123.75718000000001,10.313810999999999,324.14999999999998,0],[123.757069,10.313675999999999,323.56,0],[123.75684800000001,10.313453000000001,323.44999999999999,0],[123.756441,10.312969000000001,320.19999999999999,0],[123.75624500000001,10.312816,318.82999999999998,0],[123.756131,10.312754,318.48000000000002,0],[123.755898,10.312651000000001,318.00999999999999,0],[123.75577199999999,10.312585,317.58999999999997,0],[123.75545200000001,10.312386,316.41000000000003,0],[123.754972,10.312039,316.06999999999999,0],[123.754695,10.311828999999999,314.73000000000002,0],[123.75446100000001,10.311664,316.13,0],[123.754378,10.311591,317.08999999999997,0],[123.754293,10.311496,318.04000000000002,0],[123.75400500000001,10.311071999999999,319.01999999999998,0],[123.753879,10.310952,318.54000000000002,0],[123.753767,10.310881999999999,317.44999999999999,0],[123.753602,10.310805,315.25999999999999,0],[123.753153,10.31067,315.22000000000003,0],[123.752993,10.310629,315.70999999999998,0],[123.752871,10.310605000000001,316.14999999999998,0],[123.75274899999999,10.310561,316.75,0],[123.75256299999999,10.310471,317.19,0],[123.75234399999999,10.310328,316.25999999999999,0],[123.752162,10.310198,315,0],[123.751699,10.309851999999999,314.01999999999998,0],[123.750688,10.309177,311.94999999999999,0],[123.750006,10.308695999999999,310.54000000000002,0],[123.749726,10.308517999999999,309.98000000000002,0],[123.749112,10.308227,308.82999999999998,0],[123.74838200000001,10.307929,307.5,0],[123.74803199999999,10.307739,306.82999999999998,0],[123.74792600000001,10.307691,306.64999999999998,0],[123.74787000000001,10.307636,306.52999999999997,0],[123.74783600000001,10.307581000000001,306.42000000000002,0],[123.747822,10.307537999999999,306.33999999999997,0],[123.747733,10.307114,305.89999999999998,0],[123.747664,10.307067,305.80000000000001,0],[123.747612,10.307048999999999,305.73000000000002,0],[123.74755,10.307010999999999,305.63999999999999,0],[123.74731800000001,10.306896,305.31999999999999,0],[123.747169,10.306794999999999,305.10000000000002,0],[123.74707600000001,10.306722000000001,304.95999999999998,0],[123.746945,10.306647999999999,304.76999999999998,0],[123.745861,10.306194,303.31,0],[123.744536,10.30559,300.77999999999997,0],[123.744146,10.305455,298.89999999999998,0],[123.743697,10.305268,297.43000000000001,0],[123.74317600000001,10.305058000000001,298.42000000000002,0],[123.742374,10.304772,296.56,0],[123.74185300000001,10.304565,298.19,0],[123.741432,10.304425,297.22000000000003,0],[123.74097,10.304296000000001,295.82999999999998,0],[123.740739,10.304232000000001,293.47000000000003,0],[123.74021999999999,10.304107,290.23000000000002,0],[123.7397,10.303982,290.70999999999998,0],[123.73906700000001,10.303823,289.25,0],[123.738798,10.303801999999999,288.33999999999997,0],[123.73858300000001,10.303857000000001,289.63,0],[123.738454,10.303947000000001,291.27999999999997,0],[123.73838499999999,10.304121,292.62,0],[123.738315,10.304337,293,0],[123.738258,10.304657000000001,294.80000000000001,0],[123.738136,10.304871,295.99000000000001,0],[123.737966,10.304964999999999,297.14999999999998,0],[123.737802,10.305016999999999,297.95999999999998,0],[123.73757500000001,10.305071,297.81,0],[123.736763,10.305348,294.54000000000002,0],[123.736543,10.305398,294.19999999999999,0],[123.73617299999999,10.305533,293,0],[123.735896,10.305628,294.08999999999997,0],[123.73515399999999,10.306134,296.06,0],[123.73494599999999,10.306298,296,0],[123.734701,10.30645,295.05000000000001,0],[123.734422,10.306545,292.14999999999998,0],[123.733856,10.30667,288.38999999999999,0],[123.73221599999999,10.307005999999999,289.83999999999997,0],[123.731397,10.307174,285.23000000000002,0],[123.73057300000001,10.307351000000001,287.94999999999999,0],[123.729195,10.307656,282.85000000000002,0],[123.72843,10.307796,281.49000000000001,0],[123.727844,10.307937000000001,280.33999999999997,0],[123.727372,10.308045,284.94999999999999,0],[123.726071,10.308355000000001,282.67000000000002,0],[123.72549100000001,10.308458999999999,280.08999999999997,0],[123.72512500000001,10.308498999999999,278.94,0],[123.724783,10.308559000000001,278.83999999999997,0],[123.72432499999999,10.308665,280,0],[123.72351500000001,10.308866,278.76999999999998,0],[123.723291,10.308908000000001,279.14999999999998,0],[123.722983,10.308932,280.49000000000001,0],[123.722072,10.308949999999999,287.75999999999999,0],[123.721605,10.308966,287.52999999999997,0],[123.721315,10.308954,287.50999999999999,0],[123.720551,10.308926,292.47000000000003,0],[123.720254,10.308925,294.20999999999998,0],[123.72008099999999,10.308953000000001,294.48000000000002,0],[123.719989,10.308979000000001,294.69,0],[123.71983,10.309055000000001,295.81999999999999,0],[123.71962600000001,10.309194,298.01999999999998,0],[123.719452,10.309374999999999,298.37,0],[123.719171,10.309744999999999,298.99000000000001,0],[123.719116,10.309792,299.56999999999999,0],[123.718985,10.309863999999999,300.56999999999999,0],[123.718835,10.309894999999999,301.62,0],[123.718684,10.309879,301.48000000000002,0],[123.718497,10.309837,301.93000000000001,0],[123.71830199999999,10.309721,301.87,0],[123.717883,10.309359000000001,304.45999999999998,0],[123.717839,10.309329,304.94,0],[123.71767699999999,10.309272,305.56,0],[123.71757599999999,10.30925,306.01999999999998,0],[123.717263,10.309263,307.48000000000002,0],[123.716747,10.309298,308.77999999999997,0],[123.716628,10.309338,309.06,0],[123.716222,10.309369999999999,311.27999999999997,0],[123.715779,10.309364,313.64999999999998,0],[123.715328,10.309338,317.81999999999999,0],[123.715118,10.309283000000001,320.49000000000001,0],[123.714915,10.309198,322.32999999999998,0],[123.714555,10.308973999999999,323.08999999999997,0],[123.71424399999999,10.308895,325.13999999999999,0],[123.714082,10.308875,325.67000000000002,0],[123.71356900000001,10.308844000000001,329.62,0],[123.71305700000001,10.308812,330.27999999999997,0],[123.712586,10.308757,330.88999999999999,0],[123.712509,10.308754,330.45999999999998,0],[123.712423,10.308766,329.24000000000001,0],[123.71227500000001,10.308846000000001,327.02999999999997,0],[123.712108,10.3089,324.99000000000001,0],[123.712022,10.308916999999999,324.29000000000002,0],[123.71194800000001,10.308922000000001,323.51999999999998,0],[123.71186,10.308914,322.50999999999999,0],[123.71176800000001,10.308892999999999,321.72000000000003,0],[123.711648,10.308845,321.01999999999998,0],[123.71155899999999,10.308792,320.10000000000002,0],[123.711496,10.308738999999999,319.73000000000002,0],[123.7114,10.308597000000001,320.10000000000002,0],[123.711167,10.308168,323.80000000000001,0],[123.711124,10.308121999999999,324.33999999999997,0],[123.711072,10.308097999999999,324.62,0],[123.71096199999999,10.308075000000001,324.88999999999999,0],[123.710668,10.308033,323.70999999999998,0],[123.710472,10.307995,322.95999999999998,0],[123.710481,10.307971999999999,323.32999999999998,0]]]}}]}
