{"type":"FeatureCollection","features":[{"type":"Feature","geometry":{"type":"Point","coordinates":[123.83,10.25]},"properties":{"category":"service","signal_dbm":-88,"preserve":true,"sequence":0,"survey_group":"8a60d4721503df19"}},{"type":"Feature","geometry":{"type":"Point","coordinates":[123.8305,10.250500000000001]},"properties":{"category":"service","signal_dbm":null,"preserve":true,"sequence":1,"survey_group":"8a60d4721503df19"}},{"type":"Feature","geometry":{"type":"Point","coordinates":[123.831,10.250999999999999]},"properties":{"category":"no_service","signal_dbm":null,"preserve":true,"sequence":2,"survey_group":"8a60d4721503df19"}},{"type":"Feature","geometry":{"type":"Point","coordinates":[123.83150000000001,10.2515]},"properties":{"category":"emergency_only","signal_dbm":null,"preserve":true,"sequence":3,"survey_group":"8a60d4721503df19"}}]}
