{"type":"FeatureCollection","features":[{"type":"Feature","id":"7fc50674-7ffa-478d-b3bb-2b3de4492ed7","properties":{"id":"7fc50674-7ffa-478d-b3bb-2b3de4492ed7","updated_date":"2026-10-08T00:24:41Z","time_created":"2026-10-08T00:24:40Z","last_updated_on_server":"2026-10-08T00:24:41.242661","db_insert_date":"2026-10-08T00:24:41Z","deleted":false,"title":"New file 3","public":false,"color":"#5E7A8C","hexcolor":"#5E7A8C","is_active":true,"revision":1791419081,"notes":"","track_type":"track","routing_mode":null,"uploaded_gpx_to_osm":null,"flag":null,"source":null,"cover_photo_id":null,"distance":1414.2232647719716,"total_ascent":52.61666666666656,"total_descent":34.58333333333326,"stopped_time":0.0,"total_time":0.0,"average_speed":0,"moving_time":0.0,"moving_speed":0,"activities":[],"imported":true,"folder":"9902433e-0766-46b2-ab38-4e552ac14d9f","privacy_level":null,"sync_to_mobile":null,"preferred_link":"/public/NZ42FWjDcX9xPjx8muSI10n0","favorite_count":0,"comment_count":0,"comments":[],"user_photo_count":0,"latitude":10.312196400850686,"longitude":123.78380190132955,"writable":false},"style":{"stroke":"#5E7A8C"},"geometry":{"type":"MultiLineString","coordinates":[[[123.787976,10.315482,589.35,0.0],[123.787935,10.315469,588.92,0.0],[123.787846,10.315389,588.78,0.0],[123.787703,10.315198,590.61,0.0],[123.787565,10.315085,590.91,0.0],[123.787355,10.314979,592.35,0.0],[123.787135,10.314855,596.8,0.0],[123.786989,10.314786,596.69,0.0],[123.786851,10.3147,597.29,0.0],[123.786699,10.31447,599.96,0.0],[123.786577,10.314354,600.58,0.0],[123.786419,10.314277,600.29,0.0],[123.786221,10.314146,602.06,0.0],[123.786159,10.314054,603.36,0.0],[123.786137,10.31389,606.35,0.0],[123.786113,10.313782,608.13,0.0],[123.78607,10.313694,609.61,0.0],[123.785961,10.313396,615.25,0.0],[123.785908,10.31329,618.63,0.0],[123.785843,10.313208,621.16,0.0],[123.785753,10.313179,622.21,0.0],[123.785586,10.313206,622.93,0.0],[123.785385,10.313183,625.1,0.0],[123.785234,10.313054,625.86,0.0],[123.785242,10.312933,626.41,0.0],[123.785266,10.312736,628.98,0.0],[123.785236,10.312628,629.41,0.0],[123.785069,10.312401,628.12,0.0],[123.78491,10.312013,629.41,0.0],[123.784721,10.31149,637.4,0.0],[123.784633,10.311353,638.43,0.0],[123.784524,10.311269,638.85,0.0],[123.784326,10.311135,640.86,0.0],[123.78393,10.310833,646.48,0.0],[123.783706,10.310686,650.08,0.0],[123.7836,10.310438,646.51,0.0],[123.78339,10.310291,645.02,0.0],[123.783154,10.310241,645.27,0.0],[123.782969,10.310166,643.82,0.0],[123.782721,10.31013,644.48,0.0],[123.782422,10.31013,645.6,0.0],[123.782137,10.310144,645.56,0.0],[123.782033,10.310235,645.12,0.0],[123.782006,10.3105,642.22,0.0],[123.781888,10.310621,639.25,0.0],[123.781746,10.310683,636.29,0.0],[123.781556,10.310679,633.57,0.0],[123.781316,10.310668,627.49,0.0],[123.781188,10.310741,623.43,0.0],[123.781121,10.310842,621.76,0.0],[123.781044,10.311206,623.55,0.0],[123.780908,10.311417,623.01,0.0],[123.780771,10.311695,619.43,0.0],[123.780549,10.311955,611.78,0.0],[123.780213,10.312237,598.83,0.0],[123.779921,10.312319,590.1,0.0],[123.779635,10.312405,583.88,0.0],[123.779306,10.312529,578.18,0.0]]]}}]}