{"type":"FeatureCollection","features":[{"type":"Feature","id":"71782ee3-8d68-4c3d-a105-9150556721d3","properties":{"id":"71782ee3-8d68-4c3d-a105-9150556721d3","updated_date":"2026-07-25T08:30:38Z","time_created":"2026-07-25T08:30:29Z","last_updated_on_server":"2026-07-25T08:30:38.204764","db_insert_date":"2026-07-25T08:30:29Z","deleted":false,"title":"from highway near inayagan brgy hall to pangilatan peak","public":false,"color":"#784D3E","hexcolor":"#784D3E","is_active":true,"revision":1784968238,"notes":"","track_type":"track","routing_mode":null,"uploaded_gpx_to_osm":null,"flag":null,"source":null,"cover_photo_id":null,"distance":3588.41578411817,"total_ascent":258.21666666666664,"total_descent":56.08333333333334,"stopped_time":0.0,"total_time":0.0,"average_speed":0,"moving_time":0.0,"moving_speed":0,"activities":[],"imported":true,"folder":"baad9289-5cd7-48e0-98e7-8ef2c50f5b61","privacy_level":null,"sync_to_mobile":null,"preferred_link":"/public/9L9iiTHGmCJFggqm2o1688PM","favorite_count":0,"comment_count":0,"comments":[],"user_photo_count":0,"latitude":10.245417309312902,"longitude":123.76684206704843,"writable":false},"style":{"stroke":"#784D3E"},"geometry":{"type":"MultiLineString","coordinates":[[[123.774536,10.236508,14.0,0.0],[123.774492,10.236573,14.0,0.0],[123.774412,10.237328,12.93,0.0],[123.773938,10.237262,11.91,0.0],[123.773922,10.23726,11.88,0.0],[123.773908,10.237527,11.0,0.0],[123.773831,10.23804,12.41,0.0],[123.773781,10.238175,12.65,0.0],[123.773745,10.238467,14.26,0.0],[123.773721,10.238551,14.67,0.0],[123.77364,10.238661,14.66,0.0],[123.773383,10.2389,14.05,0.0],[123.773291,10.239003,14.58,0.0],[123.773051,10.239406,16.16,0.0],[123.773028,10.239489,16.53,0.0],[123.773031,10.239553,16.42,0.0],[123.773238,10.239858,13.95,0.0],[123.773428,10.240139,15.27,0.0],[123.773564,10.240356,17.83,0.0],[123.77357,10.240387,18.17,0.0],[123.773563,10.240417,18.55,0.0],[123.773415,10.240578,19.5,0.0],[123.773407,10.240683,20.67,0.0],[123.773432,10.240795,21.79,0.0],[123.773492,10.240912,22.41,0.0],[123.773154,10.241238,29.25,0.0],[123.773045,10.241316,31.21,0.0],[123.772945,10.241363,33.14,0.0],[123.772729,10.241536,37.96,0.0],[123.772652,10.241614,40.06,0.0],[123.772603,10.241735,42.63,0.0],[123.772559,10.241875,45.19,0.0],[123.77252,10.241941,46.75,0.0],[123.772357,10.242159,51.03,0.0],[123.772171,10.242305,53.19,0.0],[123.771859,10.242414,57.59,0.0],[123.771431,10.242511,61.99,0.0],[123.77142,10.242544,62.84,0.0],[123.771408,10.24258,63.76,0.0],[123.771388,10.242776,68.75,0.0],[123.77134,10.242957,73.87,0.0],[123.771317,10.243086,77.8,0.0],[123.771299,10.243314,83.74,0.0],[123.771316,10.243384,85.3,0.0],[123.771433,10.243613,90.28,0.0],[123.771456,10.243692,91.89,0.0],[123.77149,10.243967,96.4,0.0],[123.771514,10.244216,98.86,0.0],[123.771507,10.244317,99.62,0.0],[123.771408,10.24444,102.13,0.0],[123.771274,10.244537,105.03,0.0],[123.77112,10.244598,107.41,0.0],[123.771014,10.244673,108.65,0.0],[123.770942,10.244746,109.79,0.0],[123.770849,10.24488,112.37,0.0],[123.770786,10.245058,116.5,0.0],[123.770713,10.245326,121.53,0.0],[123.770668,10.245471,123.2,0.0],[123.770568,10.245616,125.05,0.0],[123.770312,10.245953,135.21,0.0],[123.770147,10.246235,142.58,0.0],[123.770062,10.246327,145.39,0.0],[123.769934,10.246418,149.31,0.0],[123.769509,10.246592,156.35,0.0],[123.769227,10.246731,160.14,0.0],[123.768822,10.246861,166.11,0.0],[123.768224,10.247107,177.56,0.0],[123.76809,10.247185,180.2,0.0],[123.76783,10.247418,185.59,0.0],[123.767586,10.247613,189.21,0.0],[123.767287,10.247828,194.62,0.0],[123.767007,10.247973,202.86,0.0],[123.766827,10.248045,208.84,0.0],[123.766656,10.248107,212.54,0.0],[123.766524,10.248117,216.02,0.0],[123.766382,10.248089,220.49,0.0],[123.76622,10.248016,226.17,0.0],[123.766103,10.247897,230.6,0.0],[123.766031,10.247727,232.2,0.0],[123.765976,10.247687,233.6,0.0],[123.765925,10.247697,235.61,0.0],[123.765888,10.247745,237.88,0.0],[123.765822,10.247939,241.83,0.0],[123.765729,10.248157,243.12,0.0],[123.765549,10.248299,248.13,0.0],[123.76521,10.248587,256.8,0.0],[123.765017,10.248719,262.58,0.0],[123.76493,10.248844,264.69,0.0],[123.764924,10.249136,262.76,0.0],[123.764952,10.249281,263.47,0.0],[123.765021,10.24947,264.13,0.0],[123.765025,10.249569,265.83,0.0],[123.765015,10.249622,266.87,0.0],[123.764977,10.249624,267.23,0.0],[123.764928,10.249597,266.19,0.0],[123.764889,10.249472,264.75,0.0],[123.7648,10.249231,265.99,0.0],[123.764728,10.249085,267.03,0.0],[123.764607,10.2489,271.19,0.0],[123.764492,10.248653,275.06,0.0],[123.764467,10.248523,276.7,0.0],[123.764457,10.248379,277.39,0.0],[123.764285,10.248155,274.36,0.0],[123.76394,10.247708,273.37,0.0],[123.76357,10.247497,270.52,0.0],[123.763354,10.24747,270.15,0.0],[123.763007,10.247519,267.21,0.0],[123.762751,10.247528,264.34,0.0],[123.762553,10.247577,260.25,0.0],[123.762106,10.24767,249.95,0.0],[123.761802,10.247842,244.43,0.0],[123.761643,10.247948,243.15,0.0],[123.761412,10.248083,244.14,0.0],[123.760947,10.24831,246.51,0.0],[123.760829,10.248377,248.06,0.0],[123.760663,10.248507,250.56,0.0],[123.760194,10.248733,247.71,0.0],[123.760018,10.248826,246.31,0.0],[123.75962,10.249012,241.07,0.0],[123.759247,10.249172,235.59,0.0],[123.758924,10.249271,231.6,0.0],[123.758598,10.249321,230.07,0.0],[123.758363,10.24932,230.35,0.0],[123.758273,10.249303,230.69,0.0],[123.758226,10.249274,230.97,0.0],[123.758212,10.249237,231.21,0.0],[123.758237,10.249192,230.94,0.0],[123.758677,10.248632,222.07,0.0],[123.758763,10.248441,218.38,0.0],[123.758822,10.248165,216.83,0.0],[123.758891,10.248061,215.88,0.0],[123.758965,10.248012,215.65,0.0],[123.759107,10.24795,215.19,0.0],[123.759316,10.247834,214.38,0.0],[123.759526,10.24762,214.88,0.0],[123.75965,10.247401,214.15,0.0],[123.759695,10.247035,214.72,0.0],[123.759715,10.246831,213.74,0.0],[123.759734,10.246606,214.68,0.0],[123.759808,10.246482,213.97,0.0],[123.759948,10.246349,213.48,0.0],[123.759988,10.246265,214.32,0.0],[123.759982,10.246166,215.51,0.0],[123.759774,10.245727,219.5,0.0]]]}}]}