{"type":"FeatureCollection","features":[{"type":"Feature","id":"c39b7bb1-efc7-4139-96b9-6625d517f50f","properties":{"id":"c39b7bb1-efc7-4139-96b9-6625d517f50f","updated_date":"2026-10-08T00:22:59Z","time_created":"2026-10-08T00:22:57Z","last_updated_on_server":"2026-10-08T00:22:59.798152","db_insert_date":"2026-10-08T00:22:59Z","deleted":false,"title":"New file 2","public":false,"color":"#0479FF","hexcolor":"#0479FF","is_active":true,"revision":1791418979,"notes":"","track_type":"track","routing_mode":null,"uploaded_gpx_to_osm":null,"flag":null,"source":null,"cover_photo_id":null,"distance":3095.5215647008645,"total_ascent":51.74666666666667,"total_descent":120.2433333333334,"stopped_time":0.0,"total_time":0.0,"average_speed":0,"moving_time":0.0,"moving_speed":0,"activities":[],"imported":true,"folder":"1c2f2ad0-0b7a-4ffe-a678-f6f76bdfe848","privacy_level":null,"sync_to_mobile":null,"preferred_link":"/public/OPqsrHLP5HZgbdi2FrHZ4xlm","favorite_count":0,"comment_count":0,"comments":[],"user_photo_count":0,"latitude":10.314892279423582,"longitude":123.77708811697185,"writable":false},"style":{"stroke":"#0479FF"},"geometry":{"type":"MultiLineString","coordinates":[[[123.775498,10.306457,560.15,0.0],[123.77552,10.306529,561.47,0.0],[123.775594,10.306654,563.28,0.0],[123.775631,10.306774,564.73,0.0],[123.775662,10.306824,565.03,0.0],[123.776152,10.307055,568.7,0.0],[123.776238,10.307092,570.8,0.0],[123.776365,10.307297,574.15,0.0],[123.776394,10.307394,574.0,0.0],[123.776397,10.307549,572.27,0.0],[123.776455,10.307608,572.81,0.0],[123.776658,10.307738,572.74,0.0],[123.77674,10.307766,571.97,0.0],[123.776814,10.307773,571.72,0.0],[123.776874,10.307741,571.51,0.0],[123.776961,10.307654,571.55,0.0],[123.777001,10.307573,572.28,0.0],[123.777048,10.307479,573.63,0.0],[123.777102,10.307405,575.28,0.0],[123.777179,10.307382,575.7,0.0],[123.777511,10.307508,570.79,0.0],[123.777639,10.307546,569.72,0.0],[123.777798,10.307571,570.11,0.0],[123.77786,10.307608,570.01,0.0],[123.777912,10.307639,569.93,0.0],[123.777939,10.307685,569.93,0.0],[123.777948,10.30779,569.16,0.0],[123.777935,10.307927,568.25,0.0],[123.777922,10.30817,568.03,0.0],[123.777869,10.308438,566.18,0.0],[123.777837,10.308674,564.8,0.0],[123.777851,10.308862,562.03,0.0],[123.777883,10.30897,561.05,0.0],[123.777957,10.309089,561.09,0.0],[123.777984,10.309153,560.74,0.0],[123.777983,10.309233,559.92,0.0],[123.777947,10.309382,558.87,0.0],[123.777937,10.309498,559.8,0.0],[123.77798,10.309574,561.99,0.0],[123.778424,10.309729,571.18,0.0],[123.778545,10.309813,573.57,0.0],[123.778672,10.309987,578.56,0.0],[123.778729,10.310154,581.8,0.0],[123.778923,10.310523,585.97,0.0],[123.778997,10.31094,583.75,0.0],[123.778991,10.311192,580.86,0.0],[123.779044,10.311255,578.47,0.0],[123.77915,10.311342,576.36,0.0],[123.779192,10.311363,576.04,0.0],[123.77932,10.311575,573.91,0.0],[123.779596,10.311906,577.36,0.0],[123.779631,10.312,578.39,0.0],[123.779617,10.312059,578.17,0.0],[123.779536,10.312237,578.33,0.0],[123.779398,10.312348,577.09,0.0],[123.779217,10.312563,576.62,0.0],[123.778841,10.312679,568.64,0.0],[123.778747,10.312761,567.82,0.0],[123.778563,10.312922,566.21,0.0],[123.778356,10.312974,564.84,0.0],[123.77812,10.312993,563.8,0.0],[123.777967,10.313075,565.7,0.0],[123.777769,10.313365,567.88,0.0],[123.777562,10.313634,564.26,0.0],[123.777313,10.313885,567.3,0.0],[123.777174,10.314046,573.89,0.0],[123.777136,10.314249,580.83,0.0],[123.777128,10.314463,585.07,0.0],[123.777109,10.314711,587.79,0.0],[123.777034,10.314911,588.38,0.0],[123.776943,10.315101,585.38,0.0],[123.776844,10.315281,587.14,0.0],[123.776715,10.315495,588.17,0.0],[123.776631,10.315883,586.85,0.0],[123.776642,10.316084,588.17,0.0],[123.776696,10.316284,592.05,0.0],[123.776826,10.316446,595.84,0.0],[123.776999,10.316566,599.9,0.0],[123.776965,10.316733,601.1,0.0],[123.776771,10.316889,597.51,0.0],[123.776729,10.317048,597.95,0.0],[123.776744,10.317238,599.33,0.0],[123.776538,10.317489,597.9,0.0],[123.776431,10.317468,596.79,0.0],[123.776289,10.317325,593.49,0.0],[123.776166,10.31711,588.08,0.0],[123.776015,10.31674,583.59,0.0],[123.77574,10.316561,574.06,0.0],[123.775551,10.316561,568.12,0.0],[123.775374,10.316723,563.98,0.0],[123.775351,10.317019,566.8,0.0],[123.775284,10.317112,565.88,0.0],[123.775178,10.317298,564.99,0.0],[123.775144,10.317458,564.96,0.0],[123.775092,10.317656,564.72,0.0],[123.775004,10.317775,563.36,0.0],[123.77497,10.317886,562.7,0.0],[123.775037,10.318023,564.26,0.0],[123.775046,10.318184,564.59,0.0],[123.775005,10.318337,564.26,0.0],[123.774927,10.318483,563.64,0.0],[123.774784,10.318586,560.07,0.0],[123.774562,10.318762,555.17,0.0],[123.774552,10.318863,554.44,0.0],[123.774633,10.318893,555.59,0.0],[123.77478,10.318879,557.99,0.0],[123.77492,10.318898,559.66,0.0],[123.775044,10.318992,558.99,0.0],[123.775256,10.319113,559.33,0.0],[123.775419,10.319229,558.43,0.0],[123.775483,10.319377,557.17,0.0],[123.77558,10.319527,554.37,0.0],[123.775653,10.319553,552.43,0.0],[123.775723,10.319527,550.64,0.0],[123.775837,10.319282,552.04,0.0],[123.775945,10.319219,551.5,0.0],[123.776074,10.319234,548.73,0.0],[123.776296,10.319197,547.08,0.0],[123.776503,10.319085,548.59,0.0],[123.776608,10.31884,556.8,0.0],[123.776707,10.318797,559.39,0.0],[123.776806,10.318864,558.73,0.0],[123.777039,10.319114,553.69,0.0],[123.777124,10.319176,552.48,0.0],[123.777344,10.319301,551.46,0.0],[123.777583,10.31942,554.04,0.0],[123.777613,10.319515,553.34,0.0],[123.777609,10.319631,551.52,0.0],[123.777543,10.319852,547.41,0.0],[123.777533,10.320041,544.93,0.0],[123.777508,10.320251,542.1,0.0],[123.777455,10.320431,538.61,0.0],[123.777398,10.320551,535.29,0.0],[123.777188,10.320743,524.24,0.0],[123.777109,10.320832,519.1,0.0],[123.77711,10.321002,515.16,0.0],[123.777096,10.321308,506.27,0.0],[123.777124,10.321653,500.76,0.0],[123.777238,10.321958,498.34,0.0],[123.777321,10.322133,495.23,0.0],[123.777421,10.322255,494.36,0.0],[123.777493,10.322329,493.69,0.0],[123.777678,10.322359,495.03,0.0],[123.778339,10.322197,498.2,0.0],[123.778485,10.322245,495.64,0.0]]]}}]}