{"type":"FeatureCollection","features":[{"type":"Feature","id":"8d536943-cc3e-42fd-a521-69da8cc442a9","properties":{"id":"8d536943-cc3e-42fd-a521-69da8cc442a9","updated_date":"2026-10-08T00:11:29Z","time_created":"2026-10-08T00:11:26Z","last_updated_on_server":"2026-10-08T00:11:29.998442","db_insert_date":"2026-10-08T00:11:29Z","deleted":false,"title":"New file 1","public":false,"color":"#F42410","hexcolor":"#F42410","is_active":true,"revision":1791418289,"notes":"","track_type":"track","routing_mode":null,"uploaded_gpx_to_osm":null,"flag":null,"source":null,"cover_photo_id":null,"distance":2106.5774241328786,"total_ascent":21.226666666666667,"total_descent":8.873333333333335,"stopped_time":0.0,"total_time":0.0,"average_speed":0,"moving_time":0.0,"moving_speed":0,"activities":[],"imported":true,"folder":"e46fc7da-3e76-42db-b993-9ccc9a023533","privacy_level":null,"sync_to_mobile":null,"preferred_link":"/public/meS1iWtrfNSxp9nn6w6bHjrz","favorite_count":0,"comment_count":0,"comments":[],"user_photo_count":0,"latitude":10.257186389876322,"longitude":123.7986443120207,"writable":false},"style":{"stroke":"#F42410"},"geometry":{"type":"MultiLineString","coordinates":[[[123.802623,10.248917,16.08,0.0],[123.802207,10.249742,19.93,0.0],[123.801952,10.250297,18.8,0.0],[123.801563,10.251136,20.0,0.0],[123.801271,10.251737,20.95,0.0],[123.80122,10.251837,21.0,0.0],[123.801102,10.252117,21.0,0.0],[123.800796,10.252775,21.79,0.0],[123.800709,10.252993,23.0,0.0],[123.80054,10.253365,22.49,0.0],[123.800352,10.253571,21.13,0.0],[123.800175,10.253716,21.46,0.0],[123.800065,10.253879,21.61,0.0],[123.80002,10.253979,21.28,0.0],[123.799814,10.254547,22.38,0.0],[123.799743,10.25482,22.79,0.0],[123.799507,10.255315,24.93,0.0],[123.799369,10.25548,26.74,0.0],[123.799159,10.25568,29.14,0.0],[123.798968,10.255938,28.37,0.0],[123.798918,10.256025,27.42,0.0],[123.798869,10.256132,26.97,0.0],[123.798734,10.256593,27.01,0.0],[123.798736,10.256637,27.27,0.0],[123.798749,10.256957,29.14,0.0],[123.798726,10.257232,28.17,0.0],[123.798643,10.257372,27.86,0.0],[123.798538,10.257476,28.61,0.0],[123.798221,10.257904,28.77,0.0],[123.797881,10.258319,29.7,0.0],[123.797054,10.259362,30.44,0.0],[123.797034,10.259534,30.81,0.0],[123.79699,10.259724,31.6,0.0],[123.79691,10.259827,32.33,0.0],[123.796847,10.259883,33.09,0.0],[123.796759,10.259947,33.8,0.0],[123.79668,10.260042,33.02,0.0],[123.796638,10.260294,30.51,0.0],[123.796579,10.260441,30.63,0.0],[123.796448,10.260587,32.9,0.0],[123.796159,10.260749,36.35,0.0],[123.795985,10.260897,38.14,0.0],[123.795854,10.261038,40.4,0.0],[123.795749,10.26117,42.67,0.0],[123.795709,10.261277,43.22,0.0],[123.795696,10.261523,43.78,0.0],[123.79575,10.261913,43.82,0.0],[123.795755,10.262243,47.38,0.0],[123.795785,10.26247,48.14,0.0],[123.795862,10.263158,43.77,0.0],[123.79586,10.263332,43.93,0.0],[123.795878,10.263456,43.98,0.0],[123.795898,10.263505,43.59,0.0],[123.795926,10.263542,42.97,0.0],[123.795967,10.263576,42.5,0.0],[123.796102,10.263635,40.96,0.0],[123.796232,10.263672,40.06,0.0],[123.796467,10.263806,37.72,0.0],[123.79672,10.263999,33.74,0.0],[123.796879,10.264111,32.44,0.0],[123.797062,10.264226,31.38,0.0],[123.797344,10.264343,30.0,0.0],[123.797365,10.264373,30.0,0.0],[123.797382,10.264643,30.91,0.0],[123.797436,10.264929,32.6,0.0]]]}}]}