{"type":"FeatureCollection","features":[{"type":"Feature","id":"da987b7d-6cd9-4cc3-975c-fbc31c1a5fcf","properties":{"id":"da987b7d-6cd9-4cc3-975c-fbc31c1a5fcf","updated_date":"2026-10-08T00:20:25Z","time_created":"2026-10-08T00:20:22Z","last_updated_on_server":"2026-10-08T00:20:25.421851","db_insert_date":"2026-10-08T00:20:25Z","deleted":false,"title":"New file 1","public":false,"color":"#00DAE1","hexcolor":"#00DAE1","is_active":true,"revision":1791418825,"notes":"","track_type":"track","routing_mode":null,"uploaded_gpx_to_osm":null,"flag":null,"source":null,"cover_photo_id":null,"distance":9418.729907083885,"total_ascent":578.5550000000003,"total_descent":50.49833333333355,"stopped_time":0.0,"total_time":0.0,"average_speed":0,"moving_time":0.0,"moving_speed":0,"activities":[],"imported":true,"folder":"aa6a6a81-0551-4129-9834-f31fb447e88c","privacy_level":null,"sync_to_mobile":null,"preferred_link":"/public/rAZUuU3Tyz40o5uHcx7MtX9p","favorite_count":0,"comment_count":0,"comments":[],"user_photo_count":0,"latitude":10.292763978451225,"longitude":123.78929631136262,"writable":false},"style":{"stroke":"#00DAE1"},"geometry":{"type":"MultiLineString","coordinates":[[[123.79746,10.265056,33.74,0.0],[123.797465,10.265084,34.04,0.0],[123.797505,10.265179,34.98,0.0],[123.797696,10.265369,37.56,0.0],[123.797812,10.265428,38.75,0.0],[123.797935,10.265516,40.03,0.0],[123.798008,10.265593,41.83,0.0],[123.798111,10.265734,45.45,0.0],[123.798298,10.265942,48.38,0.0],[123.798364,10.266002,48.31,0.0],[123.798525,10.266192,48.58,0.0],[123.79861,10.266261,47.98,0.0],[123.798761,10.266338,45.58,0.0],[123.799086,10.26656,45.79,0.0],[123.799276,10.266722,46.61,0.0],[123.799477,10.266915,47.92,0.0],[123.799612,10.267026,48.63,0.0],[123.799771,10.267199,50.31,0.0],[123.799865,10.267354,52.12,0.0],[123.799915,10.267452,53.42,0.0],[123.800072,10.267815,55.87,0.0],[123.800128,10.267994,57.42,0.0],[123.800184,10.268212,59.05,0.0],[123.800212,10.268402,59.57,0.0],[123.800202,10.268482,60.11,0.0],[123.800182,10.268553,61.15,0.0],[123.800072,10.268727,64.96,0.0],[123.800062,10.268771,64.91,0.0],[123.800058,10.268789,64.9,0.0],[123.800079,10.268864,63.15,0.0],[123.800142,10.269,61.27,0.0],[123.800165,10.269092,61.04,0.0],[123.80017,10.269165,61.51,0.0],[123.800161,10.269592,66.17,0.0],[123.800169,10.269809,66.76,0.0],[123.800151,10.269916,67.89,0.0],[123.80012,10.269996,69.02,0.0],[123.800076,10.270069,70.64,0.0],[123.800004,10.27016,73.87,0.0],[123.799946,10.270264,75.7,0.0],[123.799919,10.270346,75.14,0.0],[123.799881,10.270517,72.76,0.0],[123.799859,10.27068,70.12,0.0],[123.799836,10.271134,63.1,0.0],[123.79977,10.2714,62.48,0.0],[123.799764,10.271548,60.44,0.0],[123.799779,10.271664,58.44,0.0],[123.799891,10.271945,52.61,0.0],[123.799907,10.272027,51.35,0.0],[123.799909,10.272106,50.48,0.0],[123.799895,10.272176,50.35,0.0],[123.799854,10.272243,50.66,0.0],[123.799521,10.272564,54.93,0.0],[123.799282,10.272693,58.7,0.0],[123.79908,10.272814,61.6,0.0],[123.798861,10.272975,64.41,0.0],[123.798647,10.273216,66.48,0.0],[123.798476,10.273516,66.56,0.0],[123.798293,10.273867,75.03,0.0],[123.798211,10.274084,82.06,0.0],[123.79819,10.274219,83.07,0.0],[123.798187,10.274324,82.06,0.0],[123.798242,10.274538,73.68,0.0],[123.798242,10.274645,71.75,0.0],[123.798233,10.274749,70.74,0.0],[123.798237,10.274831,69.55,0.0],[123.798247,10.274881,69.12,0.0],[123.798274,10.274936,68.04,0.0],[123.798441,10.275166,68.05,0.0],[123.798563,10.275282,67.0,0.0],[123.79873,10.275418,63.01,0.0],[123.798847,10.275537,60.71,0.0],[123.798953,10.275671,61.06,0.0],[123.799044,10.275828,61.43,0.0],[123.799103,10.275955,61.59,0.0],[123.799107,10.276037,62.16,0.0],[123.799094,10.276142,63.37,0.0],[123.799057,10.276238,64.49,0.0],[123.798995,10.27633,66.61,0.0],[123.798806,10.276518,71.32,0.0],[123.798496,10.27672,78.43,0.0],[123.798124,10.27703,74.28,0.0],[123.797933,10.277224,75.17,0.0],[123.797786,10.277345,75.73,0.0],[123.797674,10.277417,76.89,0.0],[123.797495,10.277514,78.44,0.0],[123.797409,10.277579,78.78,0.0],[123.797336,10.277673,77.29,0.0],[123.797238,10.277873,76.28,0.0],[123.797199,10.277975,76.41,0.0],[123.797188,10.278041,76.11,0.0],[123.797189,10.278101,75.69,0.0],[123.797223,10.278252,73.21,0.0],[123.79723,10.278405,71.58,0.0],[123.797222,10.278541,69.71,0.0],[123.797226,10.278576,69.57,0.0],[123.797272,10.278681,67.95,0.0],[123.797341,10.278811,69.02,0.0],[123.797389,10.278963,72.79,0.0],[123.797421,10.279171,78.23,0.0],[123.797452,10.27938,77.0,0.0],[123.797464,10.279567,76.45,0.0],[123.797448,10.279829,76.69,0.0],[123.797431,10.279916,75.95,0.0],[123.797405,10.279985,75.0,0.0],[123.797348,10.280053,74.76,0.0],[123.797253,10.280124,74.71,0.0],[123.797191,10.280153,75.27,0.0],[123.79677,10.280354,79.06,0.0],[123.796534,10.280519,77.93,0.0],[123.796378,10.280648,78.08,0.0],[123.796299,10.28075,78.63,0.0],[123.796261,10.280858,79.6,0.0],[123.796256,10.280967,80.74,0.0],[123.79628,10.281085,81.6,0.0],[123.796381,10.281301,79.81,0.0],[123.796465,10.281436,77.21,0.0],[123.796483,10.281521,74.85,0.0],[123.796477,10.281613,72.76,0.0],[123.796454,10.281686,71.34,0.0],[123.796406,10.281748,70.05,0.0],[123.796343,10.281794,69.97,0.0],[123.796132,10.281905,71.52,0.0],[123.796087,10.281936,72.39,0.0],[123.796026,10.282018,74.52,0.0],[123.795886,10.282259,76.87,0.0],[123.795755,10.28253,75.85,0.0],[123.795624,10.2828,71.42,0.0],[123.795435,10.283259,68.56,0.0],[123.795378,10.283528,69.08,0.0],[123.795331,10.283847,72.82,0.0],[123.795303,10.283959,74.31,0.0],[123.79527,10.28405,75.35,0.0],[123.795221,10.284116,75.76,0.0],[123.795109,10.284245,75.47,0.0],[123.794997,10.284443,75.69,0.0],[123.794959,10.28455,76.05,0.0],[123.794958,10.284603,76.53,0.0],[123.794984,10.284642,77.25,0.0],[123.795012,10.284656,77.72,0.0],[123.795218,10.284704,81.59,0.0],[123.795316,10.28475,83.85,0.0],[123.795398,10.284815,85.96,0.0],[123.795734,10.285156,94.5,0.0],[123.795854,10.28532,97.07,0.0],[123.79594,10.285484,100.63,0.0],[123.795982,10.285641,103.05,0.0],[123.796008,10.285822,105.63,0.0],[123.796042,10.285953,108.61,0.0],[123.796064,10.285999,109.85,0.0],[123.796124,10.286046,112.23,0.0],[123.796155,10.286052,113.11,0.0],[123.796207,10.286046,114.28,0.0],[123.796238,10.286031,114.82,0.0],[123.796279,10.285969,115.4,0.0],[123.796294,10.285866,115.49,0.0],[123.796309,10.285407,117.18,0.0],[123.796325,10.285287,118.13,0.0],[123.796341,10.285228,119.29,0.0],[123.796371,10.285191,121.12,0.0],[123.796403,10.285183,122.8,0.0],[123.796435,10.285184,124.5,0.0],[123.796469,10.285198,125.78,0.0],[123.796487,10.28522,126.44,0.0],[123.796507,10.285283,127.16,0.0],[123.796521,10.285404,127.53,0.0],[123.796579,10.285703,129.44,0.0],[123.79663,10.285872,131.46,0.0],[123.796673,10.286077,132.88,0.0],[123.796689,10.286273,134.02,0.0],[123.796677,10.286397,134.86,0.0],[123.796649,10.28657,137.12,0.0],[123.796616,10.286772,141.47,0.0],[123.796574,10.286963,145.77,0.0],[123.796539,10.28707,147.62,0.0],[123.796502,10.287125,148.47,0.0],[123.796442,10.287178,149.21,0.0],[123.796349,10.287219,149.57,0.0],[123.796066,10.287288,150.54,0.0],[123.795987,10.287331,151.86,0.0],[123.795946,10.28737,153.22,0.0],[123.795899,10.287444,155.69,0.0],[123.795883,10.287512,157.98,0.0],[123.795886,10.287585,160.25,0.0],[123.795922,10.287663,162.66,0.0],[123.79605,10.287792,167.41,0.0],[123.796302,10.287898,171.42,0.0],[123.796393,10.287958,172.67,0.0],[123.796601,10.28814,174.6,0.0],[123.796735,10.288217,175.27,0.0],[123.796841,10.288264,175.32,0.0],[123.796905,10.288268,175.15,0.0],[123.796817,10.288411,176.8,0.0],[123.796624,10.288464,179.54,0.0],[123.796403,10.28844,182.13,0.0],[123.796252,10.288442,184.33,0.0],[123.796148,10.288488,186.63,0.0],[123.796085,10.288572,189.02,0.0],[123.796055,10.288725,192.59,0.0],[123.796067,10.288907,197.09,0.0],[123.796087,10.289057,200.9,0.0],[123.796078,10.289418,207.8,0.0],[123.79607,10.28963,209.22,0.0],[123.795938,10.290246,213.04,0.0],[123.795819,10.290491,215.63,0.0],[123.7957,10.290737,222.36,0.0],[123.795318,10.29116,232.66,0.0],[123.795113,10.291272,236.53,0.0],[123.794817,10.291303,235.03,0.0],[123.794554,10.291359,235.8,0.0],[123.794447,10.291479,240.12,0.0],[123.794417,10.291646,244.63,0.0],[123.794452,10.291789,248.31,0.0],[123.794523,10.291949,252.16,0.0],[123.794651,10.292098,257.13,0.0],[123.794785,10.292198,260.99,0.0],[123.794967,10.292318,265.25,0.0],[123.795085,10.292463,268.07,0.0],[123.795101,10.292595,269.96,0.0],[123.795012,10.292715,271.56,0.0],[123.794802,10.292846,272.81,0.0],[123.79464,10.292916,271.99,0.0],[123.794356,10.293102,270.97,0.0],[123.794191,10.293304,275.93,0.0],[123.794044,10.293592,284.32,0.0],[123.793911,10.293869,290.25,0.0],[123.793823,10.29401,293.14,0.0],[123.793712,10.294168,295.24,0.0],[123.793623,10.29428,295.91,0.0],[123.793515,10.294412,293.6,0.0],[123.793483,10.294527,293.58,0.0],[123.793484,10.295034,302.74,0.0],[123.793445,10.295316,307.57,0.0],[123.793413,10.295445,307.62,0.0],[123.793366,10.295566,306.45,0.0],[123.793344,10.295705,307.88,0.0],[123.793323,10.295795,308.39,0.0],[123.793309,10.29588,309.46,0.0],[123.793323,10.296012,313.35,0.0],[123.793371,10.296191,319.36,0.0],[123.793436,10.296368,323.7,0.0],[123.793658,10.29664,334.03,0.0],[123.793884,10.29686,342.34,0.0],[123.793949,10.296992,343.6,0.0],[123.794024,10.297228,345.95,0.0],[123.794081,10.297531,348.03,0.0],[123.794212,10.29796,359.31,0.0],[123.794219,10.298183,360.97,0.0],[123.794141,10.298307,357.07,0.0],[123.793983,10.29859,351.31,0.0],[123.793947,10.298863,351.49,0.0],[123.793951,10.299185,349.08,0.0],[123.793869,10.299478,344.33,0.0],[123.793712,10.299722,340.23,0.0],[123.793605,10.299943,338.54,0.0],[123.79356,10.300034,339.06,0.0],[123.793527,10.300178,340.66,0.0],[123.793494,10.300272,343.52,0.0],[123.793408,10.300323,346.42,0.0],[123.793324,10.300333,347.89,0.0],[123.793078,10.300349,350.75,0.0],[123.792909,10.30045,353.92,0.0],[123.792639,10.300684,358.83,0.0],[123.792557,10.300769,361.51,0.0],[123.792447,10.30085,363.24,0.0],[123.792344,10.300942,366.21,0.0],[123.792233,10.30097,366.45,0.0],[123.792135,10.300966,365.42,0.0],[123.791872,10.300993,364.73,0.0],[123.791708,10.301055,365.14,0.0],[123.791569,10.301168,367.24,0.0],[123.79149,10.301296,370.62,0.0],[123.791452,10.301417,374.73,0.0],[123.791407,10.3015,377.13,0.0],[123.791382,10.301606,381.2,0.0],[123.791328,10.301692,383.38,0.0],[123.791234,10.301746,383.88,0.0],[123.79112,10.301784,384.9,0.0],[123.791003,10.301814,387.15,0.0],[123.790693,10.301794,389.6,0.0],[123.790581,10.301793,391.51,0.0],[123.790284,10.301863,399.47,0.0],[123.790118,10.301883,400.8,0.0],[123.789994,10.301935,401.63,0.0],[123.789882,10.302103,403.01,0.0],[123.78985,10.302238,404.02,0.0],[123.78983,10.30237,405.63,0.0],[123.789846,10.302493,408.3,0.0],[123.789878,10.302637,410.57,0.0],[123.789945,10.302732,412.72,0.0],[123.790028,10.30282,414.98,0.0],[123.790102,10.302867,416.56,0.0],[123.790223,10.302923,419.01,0.0],[123.790325,10.302988,420.34,0.0],[123.790377,10.303061,419.58,0.0],[123.790358,10.303203,418.93,0.0],[123.790348,10.303318,420.34,0.0],[123.790289,10.303542,424.2,0.0],[123.79005,10.304056,430.96,0.0],[123.789954,10.304101,430.8,0.0],[123.789746,10.304167,431.87,0.0],[123.789606,10.30419,434.38,0.0],[123.789364,10.304201,439.13,0.0],[123.789164,10.304269,441.24,0.0],[123.7889,10.304423,444.89,0.0],[123.788775,10.304526,447.88,0.0],[123.788028,10.305004,462.06,0.0],[123.787857,10.305142,466.38,0.0],[123.787712,10.305208,468.96,0.0],[123.787547,10.305217,471.67,0.0],[123.787416,10.305183,474.18,0.0],[123.787336,10.305104,474.62,0.0],[123.78725,10.304959,472.78,0.0],[123.787215,10.304877,471.38,0.0],[123.787173,10.304802,470.37,0.0],[123.787134,10.304781,470.33,0.0],[123.787104,10.304795,470.59,0.0],[123.787086,10.304845,471.51,0.0],[123.787075,10.304943,473.22,0.0],[123.787086,10.305335,481.3,0.0],[123.787045,10.305677,487.82,0.0],[123.787043,10.305861,491.43,0.0],[123.787025,10.306065,494.8,0.0],[123.78699,10.306248,497.47,0.0],[123.786937,10.306439,498.92,0.0],[123.786917,10.306607,500.52,0.0],[123.78686,10.306732,500.51,0.0],[123.78677,10.306792,499.47,0.0],[123.786667,10.306788,498.16,0.0],[123.786542,10.306745,497.32,0.0],[123.786415,10.306617,495.38,0.0],[123.786301,10.306549,495.49,0.0],[123.786171,10.306512,497.31,0.0],[123.786085,10.306472,499.08,0.0],[123.786031,10.306402,499.9,0.0],[123.786034,10.306282,498.34,0.0],[123.786048,10.306175,495.79,0.0],[123.786038,10.306058,492.33,0.0],[123.785995,10.305985,490.3,0.0],[123.785901,10.305985,491.74,0.0],[123.785773,10.306016,494.06,0.0],[123.785651,10.306041,494.53,0.0],[123.785479,10.306171,498.9,0.0],[123.785268,10.306255,501.22,0.0],[123.785086,10.306303,504.78,0.0],[123.784985,10.306297,506.15,0.0],[123.784854,10.306243,506.26,0.0],[123.784705,10.306145,504.84,0.0],[123.784542,10.306074,504.31,0.0],[123.784453,10.306095,505.75,0.0],[123.784327,10.306157,508.22,0.0],[123.784111,10.306232,509.42,0.0],[123.783993,10.306268,508.99,0.0],[123.783827,10.306214,507.04,0.0],[123.783634,10.306039,504.62,0.0],[123.783304,10.305622,498.15,0.0],[123.783152,10.305574,497.68,0.0],[123.783107,10.305545,497.74,0.0],[123.783073,10.305501,497.67,0.0],[123.782892,10.305338,499.06,0.0],[123.782724,10.305208,500.02,0.0],[123.782643,10.305187,501.08,0.0],[123.782405,10.305202,505.06,0.0],[123.782167,10.305351,509.37,0.0],[123.7821,10.305446,510.67,0.0],[123.782052,10.305541,511.51,0.0],[123.782025,10.305631,512.41,0.0],[123.782024,10.30573,513.58,0.0],[123.782008,10.305761,513.85,0.0],[123.781931,10.3058,514.26,0.0],[123.781757,10.305753,513.97,0.0],[123.781378,10.305608,514.52,0.0],[123.781265,10.30559,515.37,0.0],[123.781147,10.305545,516.56,0.0],[123.7811,10.305485,516.34,0.0],[123.781073,10.305417,515.66,0.0],[123.781027,10.305356,515.48,0.0],[123.780935,10.305191,513.6,0.0],[123.780762,10.305134,512.58,0.0],[123.780525,10.305138,511.89,0.0],[123.780422,10.305169,512.46,0.0],[123.780337,10.30526,514.1,0.0],[123.780265,10.305315,514.77,0.0],[123.780184,10.305324,515.4,0.0],[123.779976,10.305178,515.21,0.0],[123.779882,10.305169,515.62,0.0],[123.77966,10.305173,515.23,0.0],[123.779578,10.305208,515.38,0.0],[123.779545,10.305434,521.06,0.0],[123.779395,10.30574,527.69,0.0],[123.779331,10.305806,529.55,0.0],[123.779261,10.30581,529.31,0.0],[123.77918,10.305766,528.91,0.0],[123.778976,10.305454,524.56,0.0],[123.778833,10.305311,523.85,0.0],[123.77867,10.305237,524.57,0.0],[123.778549,10.30527,527.86,0.0],[123.778507,10.305303,529.48,0.0],[123.778431,10.305343,531.56,0.0],[123.778371,10.30535,532.29,0.0],[123.778317,10.30533,532.39,0.0],[123.778238,10.305237,530.0,0.0],[123.77815,10.305184,529.31,0.0],[123.778037,10.3052,531.93,0.0],[123.777908,10.305186,534.32,0.0],[123.777758,10.305118,533.8,0.0],[123.777656,10.305114,534.42,0.0],[123.777593,10.305147,535.92,0.0],[123.777518,10.305149,536.08,0.0],[123.777418,10.305125,534.3,0.0],[123.777302,10.305147,534.18,0.0],[123.777263,10.305223,536.56,0.0],[123.777235,10.305356,541.12,0.0],[123.777231,10.305448,544.5,0.0],[123.777192,10.305551,547.86,0.0],[123.777119,10.305612,548.66,0.0],[123.776919,10.305607,544.34,0.0],[123.776853,10.305654,544.39,0.0],[123.776809,10.305741,545.71,0.0],[123.776797,10.305832,547.17,0.0],[123.776805,10.305968,549.43,0.0],[123.776798,10.306088,550.65,0.0],[123.776775,10.306199,551.91,0.0],[123.776723,10.306261,551.87,0.0],[123.776656,10.306293,551.06,0.0],[123.776473,10.306313,549.98,0.0],[123.776347,10.306335,552.05,0.0],[123.776263,10.306366,553.91,0.0],[123.776175,10.306381,555.28,0.0],[123.776132,10.306338,555.1,0.0],[123.776049,10.306148,553.69,0.0],[123.775946,10.306022,554.15,0.0],[123.775827,10.30596,554.79,0.0],[123.775701,10.306005,554.68,0.0],[123.775635,10.306055,554.92,0.0],[123.775611,10.306108,555.6,0.0],[123.775591,10.306327,558.46,0.0],[123.77554,10.306385,559.19,0.0],[123.775481,10.306402,559.15,0.0],[123.775217,10.306223,556.37,0.0],[123.774847,10.305984,555.83,0.0],[123.774695,10.305937,556.03,0.0],[123.774545,10.30591,555.94,0.0],[123.774405,10.305902,555.08,0.0],[123.774187,10.305924,552.4,0.0],[123.773939,10.30596,550.89,0.0],[123.773624,10.306074,548.92,0.0],[123.773567,10.306163,548.74,0.0],[123.773439,10.30613,547.62,0.0],[123.77315,10.306154,547.76,0.0],[123.773021,10.306047,545.53,0.0],[123.77291,10.305996,545.08,0.0],[123.772791,10.305995,546.4,0.0],[123.772531,10.305929,548.5,0.0],[123.772286,10.305969,553.27,0.0],[123.772217,10.305896,552.75,0.0],[123.772024,10.305787,553.02,0.0],[123.771784,10.305671,556.58,0.0],[123.771533,10.305397,558.78,0.0],[123.771434,10.305186,555.73,0.0],[123.771316,10.304886,548.13,0.0],[123.771282,10.304702,545.72,0.0],[123.771321,10.304357,544.15,0.0],[123.771263,10.304125,546.37,0.0],[123.771063,10.303724,552.29,0.0],[123.770878,10.303502,556.16,0.0],[123.770806,10.303461,557.47,0.0],[123.770677,10.303426,561.05,0.0],[123.770614,10.303304,561.91,0.0],[123.770611,10.303146,560.92,0.0],[123.77055,10.303059,561.48,0.0],[123.770438,10.303057,562.96,0.0],[123.770241,10.30313,565.52,0.0],[123.770055,10.303036,564.2,0.0],[123.769875,10.303023,564.33,0.0],[123.769517,10.303023,568.24,0.0],[123.769431,10.30296,568.42,0.0],[123.769297,10.302699,564.98,0.0],[123.769088,10.302565,565.04,0.0],[123.768927,10.302527,566.95,0.0],[123.768794,10.302524,567.19,0.0],[123.768664,10.302586,567.81,0.0],[123.768527,10.302614,567.85,0.0],[123.768478,10.302572,567.64,0.0],[123.768321,10.302381,567.77,0.0],[123.768155,10.302282,568.68,0.0],[123.767853,10.302121,569.77,0.0],[123.767794,10.301985,570.33,0.0],[123.767817,10.301791,570.24,0.0],[123.767837,10.301518,568.5,0.0],[123.767763,10.301388,568.26,0.0],[123.767582,10.301291,568.82,0.0],[123.767496,10.30119,568.76,0.0],[123.767564,10.301123,566.06,0.0],[123.76768,10.301068,563.06,0.0],[123.767786,10.30099,559.97,0.0],[123.767878,10.300909,557.86,0.0]]]}}]}