{"type":"FeatureCollection","properties":{"schema_version":1,"session_uuid":"4616a89e-6aa7-461f-abf0-d8186b0aab26","source":"beesayatv-field-logger","finalized_at":"2026-09-13 09:24:23"},"features":[{"type":"Feature","properties":{"surface":"UNPAVED","start_m":17.058919276208002,"end_m":767.05891927620996,"length_m":750},"geometry":{"type":"LineString","coordinates":[[123.8078768,10.3478309],[123.80788680000001,10.3478069],[123.8079573,10.347674],[123.8079742,10.3476438],[123.80798631860151,10.347635526393873],[123.8080095,10.347619699999999],[123.8080119,10.347575900000001],[123.80801580000001,10.347573000000001],[123.8080683,10.347508700000001],[123.80811593032526,10.347462323104349],[123.8081253,10.3474532],[123.80817380000001,10.347421199999999],[123.8082144,10.3473843],[123.808244,10.347352600000001],[123.8082418,10.3473328],[123.80824614680945,10.347295972864357],[123.8082526,10.3472413],[123.80827429999999,10.347179499999999],[123.80829079999999,10.347152700000001],[123.8082531,10.347122300000001],[123.80823930753182,10.347101158514693],[123.80821349999999,10.3470616],[123.8081961,10.3470415],[123.8081778,10.347027000000001],[123.8081502,10.3470286],[123.8080664,10.3470338],[123.80804771156735,10.347031647833559],[123.8079978,10.3470259],[123.8079568,10.347013499999999],[123.80793180000001,10.3469976],[123.80791139999999,10.3469648],[123.8078872,10.346936299999999],[123.80786414909572,10.346919324527864],[123.80786139999999,10.346917299999999],[123.8078328,10.3468962],[123.80779990000001,10.3468909],[123.8077737,10.346870300000001],[123.8077412,10.3468593],[123.8077225,10.346853100000001],[123.8077263,10.3468508],[123.8076966,10.346844000000001],[123.8076657,10.346847500000001],[123.80766397623387,10.34684596919276],[123.8076389,10.3468237],[123.8076126,10.3468094],[123.8075891,10.3467857],[123.80756,10.3467696],[123.80753420000001,10.3467553],[123.8075156,10.3467339],[123.80748560000001,10.3467228],[123.80748039829504,10.346717641284339],[123.8074735,10.3467108],[123.8074797,10.3467091],[123.8074799,10.3467091],[123.8074824,10.346710699999999],[123.8074833,10.346709799999999],[123.8074838,10.346707500000001],[123.80748920000001,10.346705200000001],[123.8074895,10.3467056],[123.8074854,10.3466977],[123.8074617,10.3466947],[123.80743560000001,10.346686699999999],[123.8074051,10.346674399999999],[123.8073867,10.3466635],[123.80735869999999,10.3466521],[123.80734270000001,10.3466402],[123.8073223,10.3466314],[123.80731181766789,10.346626198539752],[123.8072959,10.346618299999999],[123.80726850000001,10.3466041],[123.8072363,10.346596999999999],[123.80721610000001,10.3465924],[123.80718760000001,10.346584500000001],[123.8071612,10.346580899999999],[123.8071351,10.3465828],[123.8071128,10.3465772],[123.80709236663229,10.346579504515155],[123.8070862,10.3465802],[123.8070534,10.346585599999999],[123.80702770000001,10.346591200000001],[123.8069986,10.3465965],[123.80696519999999,10.346607199999999],[123.8069531,10.3466223],[123.8069534,10.3466223],[123.80695350000001,10.3466223],[123.80695369999999,10.346622200000001],[123.80695369999999,10.346622200000001],[123.8069555,10.346618400000001],[123.8069465,10.346580299999999],[123.80692668519205,10.346553305913814],[123.8069258,10.3465521],[123.8068797,10.346508500000001],[123.8068863,10.3464969],[123.80687690000001,10.346493600000001],[123.8068691,10.3464826],[123.80686,10.3464686],[123.806861,10.346451],[123.80688276758067,10.346363929677272],[123.8068955,10.346313],[123.80691400000001,10.346300599999999],[123.8069145,10.346306],[123.8069292,10.3462899],[123.80695,10.3462733],[123.8069653,10.3462599],[123.8069825,10.3462485],[123.8069902,10.3462476],[123.80699300000001,10.3462464],[123.8069936,10.3462406],[123.80699509999999,10.346239499999999],[123.8069981,10.346234300000001],[123.80700589999999,10.346229599999999],[123.8070118,10.346229900000001],[123.8070146,10.3462245],[123.8070096,10.346220199999999],[123.8070123,10.3462231],[123.80701308060632,10.346222995284517],[123.80702049999999,10.346221999999999],[123.80703080000001,10.346219100000001],[123.8070441,10.3462149],[123.8070697,10.3461973],[123.80707839999999,10.346196600000001],[123.80708989999999,10.346192500000001],[123.8072340753686,10.346193985443191],[123.8072549,10.346194199999999],[123.8073138,10.346185800000001],[123.8073864,10.3461626],[123.8073912,10.346146600000001],[123.80737499999999,10.3461515],[123.80740354187978,10.346126874331633],[123.807418,10.346114399999999],[123.80756145502838,10.345964452732055],[123.8076014,10.345922699999999],[123.8075968,10.345927],[123.80761,10.345904300000001],[123.807568,10.345881200000001],[123.80748819999999,10.3458968],[123.80748091918656,10.345893902163807],[123.80746809999999,10.345888800000001],[123.8074136,10.345879099999999],[123.8073323,10.345876799999999],[123.8073129,10.3458573],[123.80728209999999,10.345836500000001],[123.80727498152295,10.345825911876259],[123.8072384,10.3457715],[123.8072489,10.3457556],[123.8072622,10.345830299999999],[123.8072648,10.3457913],[123.80726795439313,10.345765774795803],[123.80727349999999,10.3457209],[123.80728929999999,10.345682699999999],[123.80732829999999,10.345666899999999],[123.807326,10.3456384],[123.80734409999999,10.3456188],[123.80738480991836,10.345606748182513],[123.8074022,10.3456016],[123.8074563,10.345606],[123.80750020000001,10.3456093],[123.8075418,10.345613800000001],[123.80759449999999,10.3456116],[123.8076098164309,10.345603323884522],[123.8076354,10.345589500000001],[123.80767609999999,10.345550899999999],[123.8077335,10.3455466],[123.8077725,10.345539499999999],[123.80781519999999,10.345524899999999],[123.80781517744238,10.345524517975894],[123.80781210000001,10.3454724],[123.8077404,10.3454009],[123.8077139,10.3453745],[123.8076811,10.3453731],[123.80768265512373,10.345370767314396],[123.80768449999999,10.345368000000001],[123.8076593,10.3453114],[123.807616,10.3452679],[123.80759810000001,10.345281],[123.8075559,10.3452568],[123.80754769989989,10.345229103158374],[123.80754159999999,10.3452085],[123.8075254,10.3451582],[123.80752099999999,10.3451047],[123.80745330000001,10.345053999999999],[123.80744030371793,10.345050596211836],[123.8073819,10.345035299999999],[123.80734150000001,10.3450378],[123.8072775,10.3450252],[123.80722929206259,10.345064111867567],[123.8072189,10.345072500000001],[123.8072123,10.3451488],[123.807213,10.3451568],[123.80716270000001,10.345143],[123.80710089999999,10.345104299999999],[123.80709760994816,10.34510281088563],[123.80704919999999,10.345080899999999],[123.8070175,10.345027099999999],[123.8070183,10.3450086],[123.80703800000001,10.345005499999999],[123.80700469999999,10.344991200000001],[123.80697322585026,10.34497218086139],[123.8069299,10.344946],[123.8068777,10.344925099999999],[123.80679600000001,10.3449074],[123.80676043955094,10.344919665934018],[123.80672989999999,10.3449302],[123.8067221,10.344919000000001],[123.8066781,10.3448756],[123.80667800000001,10.344879600000001],[123.80667029999999,10.3448715],[123.8066566,10.344857299999999],[123.8066381,10.344825],[123.8066645,10.3448064],[123.80667088520018,10.344793403574863]]}},{"type":"Feature","properties":{"surface":"TRAIL","start_m":767.05891927620996,"end_m":6942.0589192762,"length_m":6175},"geometry":{"type":"LineString","coordinates":[[123.80667088520018,10.344793403574863],[123.8066871,10.3447604],[123.80673520000001,10.3447292],[123.80678690000001,10.3447408],[123.80682748919159,10.344672251507792],[123.80682899999999,10.344669700000001],[123.80683879999999,10.3446219],[123.8068286,10.3446506],[123.806894,10.344681],[123.80691779999999,10.344701799999999],[123.80695634121359,10.344688331296325],[123.80697360000001,10.344682300000001],[123.80699799999999,10.3446389],[123.8070457,10.3446319],[123.8070445,10.3446487],[123.80702479999999,10.344637000000001],[123.80701329999999,10.344670499999999],[123.8070149,10.3446672],[123.80700760000001,10.344649499999999],[123.80701971052396,10.344646976974177],[123.807034,10.344644000000001],[123.80712320000001,10.344645099999999],[123.8071948,10.3446239],[123.80724032824199,10.344603665225783],[123.8072497,10.344599499999999],[123.8072713,10.344671699999999],[123.807265,10.3446783],[123.80727160000001,10.3446696],[123.807265,10.3446646],[123.8072633,10.344652],[123.8072647,10.344656000000001],[123.8072665,10.344659699999999],[123.8072712,10.344661800000001],[123.80727160000001,10.3446549],[123.80726439999999,10.344652999999999],[123.80726799999999,10.344673800000001],[123.8072702,10.3446376],[123.80727036978776,10.344623983022103],[123.8072712,10.344557399999999],[123.8072636,10.344549900000001],[123.8072927,10.344513900000001],[123.8073691,10.3444854],[123.80739068958137,10.34448411647306],[123.8074347,10.344481500000001],[123.8074288,10.3444968],[123.8074167,10.344504799999999],[123.8073811,10.344518799999999],[123.8073713,10.344514500000001],[123.80738359999999,10.3445176],[123.807434,10.344550699999999],[123.80745457519126,10.344528053929112],[123.80746480000001,10.344516799999999],[123.8074864,10.3445228],[123.80748610000001,10.3444409],[123.8074419,10.3443738],[123.8074177346612,10.344363775859463],[123.80738789999999,10.344351400000001],[123.8073954,10.3442928],[123.8074136,10.344327699999999],[123.80746273327243,10.344409125523018],[123.8074737,10.3444273],[123.80753540000001,10.344422399999999],[123.8075477,10.344376799999999],[123.80759810000001,10.344328300000001],[123.80762464065315,10.344325448257051],[123.80768,10.344319499999999],[123.8077153,10.344220099999999],[123.80772132466689,10.344155616202816],[123.8077244,10.3441227],[123.8077565,10.344064299999999],[123.8078308,10.3440318],[123.80786678915165,10.34400339209822],[123.8078721,10.343999200000001],[123.8079547,10.3439701],[123.8080221,10.3439169],[123.80806437348845,10.343938392213403],[123.8080994,10.343956199999999],[123.8080812,10.3439771],[123.80811009999999,10.343958000000001],[123.8082023,10.343912],[123.8082249325783,10.343915719887438],[123.8082601,10.3439215],[123.80830210000001,10.343958000000001],[123.808296,10.3440172],[123.80832700000001,10.344061399999999],[123.80834874198325,10.344060215340656],[123.8083582,10.344059700000001],[123.8083721,10.3440616],[123.8083764,10.3440964],[123.808374,10.344186799999999],[123.80837080000001,10.3441727],[123.8083721,10.3441507],[123.8083788,10.3441423],[123.8083769702134,10.344171302117712],[123.8083768,10.344174000000001],[123.80838679999999,10.3441949],[123.8084175,10.3442449],[123.8084341,10.3443167],[123.8084516,10.3443693],[123.80844259946846,10.344376848832896],[123.8084392,10.344379699999999],[123.8084284,10.344356899999999],[123.8084259,10.3443513],[123.8084284,10.344346],[123.80842610000001,10.3443497],[123.8084295,10.3443513],[123.8084264,10.3443503],[123.8084307,10.344347900000001],[123.8084353,10.3443468],[123.80844399999999,10.3443518],[123.8085209,10.344397499999999],[123.80853620000001,10.3444205],[123.80855320000001,10.3444214],[123.80857134084486,10.344430470422434],[123.8085718,10.3444307],[123.80859460000001,10.344436999999999],[123.8086121,10.344443399999999],[123.80862519999999,10.3444453],[123.80864029999999,10.3444515],[123.8086624,10.3444574],[123.80867480000001,10.3444638],[123.80869490000001,10.3444828],[123.80869970000001,10.3444918],[123.80871260000001,10.3445026],[123.8087276,10.3445052],[123.80874489999999,10.3445062],[123.80876069999999,10.344507],[123.8087697,10.344511900000001],[123.80877451102877,10.344514217721892],[123.8087834,10.3445185],[123.8087968,10.344522700000001],[123.80881239999999,10.3445254],[123.8088297,10.3445353],[123.80884020000001,10.3445438],[123.8088516,10.3445509],[123.80886820000001,10.3445555],[123.80898293068068,10.344602787645416],[123.8090162,10.344616500000001],[123.80908890000001,10.3446453],[123.8091252,10.3446509],[123.8091435,10.3446558],[123.80916089999999,10.344659500000001],[123.8091785,10.3446613],[123.8091905,10.344662100000001],[123.80920136029839,10.344661722250491],[123.809202,10.3446617],[123.8092096,10.344664399999999],[123.8092171,10.3446663],[123.80922579999999,10.3446663],[123.8092324,10.344661199999999],[123.8092413,10.3446658],[123.8092499,10.3446693],[123.809264,10.3446719],[123.809268,10.3446733],[123.8092723,10.344675199999999],[123.8092753,10.3446774],[123.80927939999999,10.344676700000001],[123.8092943,10.3446715],[123.8093013,10.3446684],[123.809313,10.3446604],[123.8093247,10.344652999999999],[123.8093365,10.344644600000001],[123.80934739999999,10.3446382],[123.80936250000001,10.3446263],[123.80937950000001,10.344614699999999],[123.8093915,10.344605700000001],[123.80940094094602,10.344601436346958],[123.80940699999999,10.344598700000001],[123.80941489999999,10.344583999999999],[123.8094232,10.3445661],[123.8094296,10.3445483],[123.809431,10.344535199999999],[123.8094332,10.344519500000001],[123.8094351,10.3445071],[123.8094368,10.3444836],[123.8094346,10.3444638],[123.80943550000001,10.3444565],[123.80943310000001,10.3444454],[123.80942899999999,10.3444226],[123.80942570000001,10.3444108],[123.80942020000001,10.3444001],[123.80941548518948,10.344389069122562],[123.80941489999999,10.3443877],[123.8094122,10.3443746],[123.80940699999999,10.3443594],[123.8093992,10.3443445],[123.8093939,10.344327399999999],[123.80938740000001,10.344309900000001],[123.80937950000001,10.3442911],[123.8093671,10.344273899999999],[123.8093552,10.344255199999999],[123.8093465,10.344235299999999],[123.80933469999999,10.3442226],[123.8093233,10.344212300000001],[123.80931510000001,10.344202299999999],[123.80930902404131,10.344193988547072],[123.8093045,10.3441878],[123.8092972,10.344172199999999],[123.80928,10.344144399999999],[123.8092714,10.3441302],[123.80919447545824,10.343999576649791],[123.8091366,10.343901300000001],[123.8091127,10.343852],[123.80911182342459,10.343795373227749],[123.8091117,10.3437874],[123.80912720000001,10.3437213],[123.8091424,10.343723799999999],[123.8091404,10.343715899999999],[123.8091324,10.3437061],[123.80912960000001,10.3437056],[123.8091251,10.3437068],[123.80911829999999,10.343706900000001],[123.8091168,10.3437071],[123.8091192,10.343707999999999],[123.80912069999999,10.343710700000001],[123.80912170000001,10.3437111],[123.8091268,10.3437126],[123.80913339999999,10.3437176],[123.8091429,10.3437228],[123.8091526,10.3437304],[123.8091654,10.3437365],[123.80917580000001,10.3437397],[123.8091854,10.343742900000001],[123.809195,10.343749300000001],[123.80919912512488,10.34375677105951],[123.80920399999999,10.343765599999999],[123.8092134,10.343776099999999],[123.8092247,10.3437851],[123.8092374,10.343793099999999],[123.8092503,10.3437985],[123.8093523,10.3438993],[123.80936096112231,10.343912406248576],[123.8093901,10.343956500000001],[123.8094217,10.343986900000001],[123.8094451,10.343999800000001],[123.8094648,10.344003300000001],[123.8094813,10.3440113],[123.8095027,10.3440086],[123.8095246,10.3440067],[123.8095379,10.3440087],[123.80954650500863,10.344009379342786],[123.8095531,10.3440099],[123.80956810000001,10.344010000000001],[123.80959129999999,10.3440067],[123.8096101,10.344003000000001],[123.80962529999999,10.3439972],[123.809708,10.3439593],[123.80975915952547,10.343935075097578],[123.8098024,10.3439146],[123.80988790000001,10.3438993],[123.8099266,10.343913199999999],[123.80997370843401,10.343890504903371],[123.8099924,10.3438815],[123.80996159999999,10.343867899999999],[123.80995710000001,10.343867299999999],[123.8099926,10.343844499999999],[123.81000400000001,10.3438228],[123.8100298,10.3437831],[123.81004419999999,10.343767],[123.81007117393858,10.343749153019079],[123.8100906,10.3437363],[123.8101106,10.343699600000001],[123.8101151,10.343657200000001],[123.8101561,10.343626199999999],[123.81019089999999,10.3436094],[123.81020057927205,10.343582513133178],[123.8102062,10.343566900000001],[123.8102631,10.343535599999999],[123.81026919999999,10.3435264],[123.810275,10.3434948],[123.8102835,10.3434373],[123.8103187,10.3434177],[123.81032159900737,10.343416374431575],[123.81034560000001,10.3434054],[123.8103741,10.343385700000001],[123.8103854,10.343367499999999],[123.8104125,10.3433426],[123.810439,10.3433493],[123.810456,10.3433084],[123.81047198059105,10.343276438817901],[123.8104768,10.3432668],[123.8105386,10.3432332],[123.8105499,10.3432098],[123.8105609,10.3431844],[123.81060979999999,10.3431391],[123.81060515022375,10.343114488253315],[123.810604,10.3431084],[123.8106011,10.3431011],[123.8106057,10.343094900000001],[123.8105923,10.3430784],[123.8105544,10.3430784],[123.81053110000001,10.343102],[123.8105068,10.3430886],[123.81048440000001,10.343064699999999],[123.8104855,10.343087799999999],[123.81046265361475,10.343105782316131],[123.810439,10.343124400000001],[123.81038340000001,10.343074100000001],[123.8103931,10.3430772],[123.8104081,10.343088],[123.8103962,10.343123],[123.8103572,10.343140200000001],[123.810354,10.3431468],[123.81036017310593,10.343147691670859],[123.810363,10.343148100000001],[123.81032159999999,10.3431236],[123.81025889999999,10.3431561],[123.81022609999999,10.343191600000001],[123.810196,10.343208000000001],[123.8101994,10.343190099999999],[123.81019776891739,10.343194559761903],[123.8101772,10.3432508],[123.8101774,10.3432665],[123.8101626,10.343270499999999],[123.81014140000001,10.343282800000001],[123.81008129999999,10.3432999],[123.81003568632444,10.34331830837621],[123.81002530000001,10.343322499999999],[123.81000400000001,10.343363200000001],[123.8099572,10.343364899999999],[123.80991090000001,10.343367499999999],[123.8099041,10.343339],[123.8098641895408,10.343313087363651],[123.8098562,10.343307899999999],[123.8098426,10.3432534],[123.80984890000001,10.3432224],[123.8098564,10.343188100000001],[123.8098742,10.3432174],[123.80987570000001,10.343227600000001],[123.8098682,10.3432294],[123.8098645,10.343230399999999],[123.8098593,10.3432291],[123.8098552,10.343230399999999],[123.80986679999999,10.3432449],[123.80986379556965,10.343253210126493],[123.8098621,10.343257899999999],[123.8098617,10.3432636],[123.8098608,10.3432633],[123.8098583,10.3432605],[123.80985870000001,10.3432566],[123.8098334,10.343255299999999],[123.80983000000001,10.343260799999999],[123.8098311,10.343264],[123.8098323,10.3432592],[123.8098359,10.3432549],[123.8098397,10.343257700000001],[123.8098478,10.3432639],[123.8098531,10.343261999999999],[123.8098541,10.343259400000001],[123.8098545,10.343260300000001],[123.8098646,10.343224899999999],[123.80986350000001,10.3432271],[123.8098548,10.343238299999999],[123.8098571,10.343241300000001],[123.8098533,10.3432522],[123.8098505,10.3432563],[123.8098521,10.343256],[123.80985029999999,10.3432543],[123.8098504,10.343254099999999],[123.8098509,10.343253199999999],[123.8098494,10.343251199999999],[123.8098521,10.3432491],[123.80985149999999,10.343249800000001],[123.8098502,10.3432479],[123.8098519,10.3432473],[123.8098538,10.3432406],[123.80985680000001,10.343231400000001],[123.80985990000001,10.3432257],[123.8098694,10.3432148],[123.80987198894434,10.343206071559072],[123.8098729,10.343203000000001],[123.809884,10.3431959],[123.8098947,10.343181400000001],[123.80998,10.3431014],[123.81003655176859,10.343051474029584],[123.8100773,10.3430155],[123.81013179999999,10.3429603],[123.8101633,10.3429129],[123.81017487365224,10.342877288762342],[123.81018280000001,10.3428529],[123.8101935,10.342836800000001],[123.8102172,10.342808099999999],[123.8102179,10.342796699999999],[123.8102447,10.3428202],[123.8102674,10.3427642],[123.81027822101385,10.342729824153002],[123.8102872,10.3427013],[123.8102739,10.342701099999999],[123.8102781,10.3426904],[123.8102746,10.3426519],[123.8102914,10.342591000000001],[123.8103347932888,10.342537225989091],[123.8103378,10.3425335],[123.8103691,10.342481100000001],[123.81038169999999,10.3424329],[123.8103971,10.3423879],[123.8104481,10.3424023],[123.81045753987868,10.342405580266723],[123.8104999,10.342420300000001],[123.81050500000001,10.342378500000001],[123.81045570000001,10.3423619],[123.8104544,10.3423669],[123.810464,10.342373200000001],[123.8104716,10.342378699999999],[123.81046499999999,10.3424003],[123.8104597,10.342399800000001],[123.81046600000001,10.342400700000001],[123.8104688,10.3424055],[123.8104647,10.342409200000001],[123.8104678,10.3424075],[123.81047119999999,10.342405299999999],[123.8104751,10.342401300000001],[123.81047724162009,10.342398658668547],[123.8104781,10.3423976],[123.8104778,10.3423946],[123.8104797,10.342391900000001],[123.8104852,10.3423915],[123.8104902,10.3423982],[123.8104924,10.342401300000001],[123.8104938,10.342417899999999],[123.810456,10.342415300000001],[123.8104567,10.342389300000001],[123.8104718,10.3423874],[123.81047909999999,10.3423842],[123.8105035,10.342362],[123.81051549999999,10.342305],[123.81052091711163,10.342302299778202],[123.810548,10.3422888],[123.81057970000001,10.342289900000001],[123.8105846,10.342241899999999],[123.8105618,10.3422044],[123.8105575,10.3421793],[123.81056918880586,10.342134381588913],[123.81057149999999,10.3421255],[123.8105853,10.342101],[123.8105963,10.3420568],[123.8105577,10.3420296],[123.8104999,10.3420118],[123.8104933,10.342020399999999],[123.8105017,10.342011299999999],[123.81048943018132,10.342007077117852],[123.8104494,10.3419933],[123.8104209,10.3419399],[123.81038700000001,10.3419109],[123.81038700000001,10.3418884],[123.81033090290374,10.3418782985998],[123.81032980000001,10.341878100000001],[123.810278,10.341865200000001],[123.8102639,10.341836000000001],[123.8102349,10.341814100000001],[123.8101989,10.341783599999999],[123.8101679,10.3417823],[123.81014187074871,10.341782237579734],[123.8101262,10.341782200000001],[123.8100843,10.3417694],[123.81006259999999,10.341743299999999],[123.81001689999999,10.3417504],[123.80996399999999,10.3417484],[123.80993410000001,10.341734799999999],[123.80993161912581,10.341734114806174],[123.8099131,10.341729000000001],[123.80990389999999,10.341696300000001],[123.8098634,10.3416932],[123.80981,10.341693299999999],[123.8097775,10.3416598],[123.80979141364021,10.341629580328947],[123.80979960000001,10.341611800000001],[123.8098487,10.3416069],[123.8099058,10.341594799999999],[123.8099624,10.3415684],[123.80999374652156,10.34154675060382],[123.810018,10.341530000000001],[123.8100767,10.341543700000001],[123.8101387,10.3415512],[123.8101863,10.3415166],[123.81019130678439,10.341500691346395],[123.8102049,10.341457500000001],[123.8102564,10.3414492],[123.8103481,10.341506600000001],[123.81036706569149,10.341496213383751],[123.8104184,10.3414681],[123.8104807,10.3414546],[123.8105599,10.341474699999999],[123.81057950153755,10.341460732158517],[123.810602,10.3414447],[123.81061680000001,10.341449900000001],[123.8107138,10.341447499999999],[123.8107883,10.3414401],[123.81080125585905,10.341437960284622],[123.8108434,10.341431],[123.81085880000001,10.341428199999999],[123.8109197,10.341395800000001],[123.8109453,10.3413764],[123.8110066,10.3413842],[123.8110109499999,10.341379074418731],[123.8110195,10.341369],[123.8110642,10.341334700000001],[123.8110679,10.341336500000001],[123.81107710000001,10.341343800000001],[123.8110733,10.3413428],[123.81107710000001,10.3413536],[123.8110844,10.341353399999999],[123.811086,10.3413512],[123.811071,10.3413401],[123.8110642,10.3413358],[123.81106509999999,10.341332899999999],[123.81106610000001,10.341327700000001],[123.81111559999999,10.341312800000001],[123.81114543379287,10.341311159735691],[123.8112411,10.3413059],[123.811173,10.341302900000001],[123.8111639,10.341272399999999],[123.81119587334062,10.341268271310369],[123.8111972,10.341268100000001],[123.8112417,10.3412883],[123.8112854,10.3412693],[123.8113319,10.341272999999999],[123.81136909999999,10.341259900000001],[123.81141296382992,10.341254126333173],[123.8114238,10.3412527],[123.81141270000001,10.341255500000001],[123.8113862,10.3412544],[123.8113805,10.341263700000001],[123.81137510000001,10.341264199999999],[123.81141959999999,10.3412729],[123.8114614,10.3412829],[123.8114748,10.3413018],[123.81151770529715,10.341329558863389],[123.8115493,10.34135],[123.81157399999999,10.341334099999999],[123.81160920000001,10.341300199999999],[123.8116431,10.341294299999999],[123.81163189999999,10.3412901],[123.8116417,10.341295799999999],[123.81167170000001,10.341306899999999],[123.8116901539711,10.341294935822566],[123.8117135,10.341279800000001],[123.8117359,10.3412513],[123.8117673,10.3413342],[123.8118187,10.341333199999999],[123.81183129999999,10.3413188],[123.81182804347651,10.341318218477948],[123.81180329999999,10.3413138],[123.81182099999999,10.3413235],[123.81181979999999,10.341348999999999],[123.8118123,10.341348999999999],[123.8118164,10.3413485],[123.8118712,10.341333499999999],[123.81189689999999,10.341329399999999],[123.81192,10.3413138],[123.8119389,10.3413267],[123.81194631384442,10.341335494081406],[123.8119765,10.3413713],[123.8120535,10.3413773],[123.8120406,10.341360099999999],[123.8120237,10.3413462],[123.8120672,10.341324999999999],[123.81205602208456,10.341321553476071],[123.8120552,10.341321300000001],[123.8120644,10.341339],[123.8120998,10.341358700000001],[123.8121179,10.3413585],[123.8121132,10.3413574],[123.8121074,10.3413637],[123.8121129,10.341366900000001],[123.81211740000001,10.341354300000001],[123.8121187,10.3413494],[123.8121154,10.341356599999999],[123.81211879999999,10.3413579],[123.8121202,10.341350200000001],[123.8121246,10.341326199999999],[123.8121781,10.341341699999999],[123.81218570972473,10.341347970976855],[123.81221050000001,10.3413684],[123.81222699999999,10.341418900000001],[123.81220740000001,10.3414178],[123.812225,10.3414486],[123.81226959999999,10.3414622],[123.81230474718777,10.341443327488308],[123.81231560000001,10.3414375],[123.8123411,10.3414503],[123.81243190000001,10.341478800000001],[123.8124553,10.3414901],[123.81249649999999,10.341506900000001],[123.81251695655921,10.341513645135741],[123.8125335,10.341519099999999],[123.81250559999999,10.3415993],[123.812538,10.341587499999999],[123.8125728,10.341596600000001],[123.8126046,10.3416374],[123.81260668917497,10.341637113509762],[123.812652,10.3416309],[123.8126832,10.3416608],[123.8126553,10.341775999999999],[123.81265999999999,10.3417896],[123.81266355390431,10.341787297604998],[123.8126972,10.341765499999999],[123.8126905,10.3417727],[123.81268420000001,10.3417782],[123.8127217,10.3418017],[123.8127678,10.34177],[123.8127353,10.341825500000001],[123.81273258334151,10.341828514374491],[123.81272800000001,10.341833599999999],[123.81273179999999,10.341837699999999],[123.8127396,10.3418446],[123.8127408,10.341844999999999],[123.8127458,10.341848199999999],[123.8128013,10.341916700000001],[123.8127843,10.3419683],[123.8128018,10.341979],[123.81281679999999,10.3419933],[123.81282587649528,10.342001895165986],[123.81283000000001,10.342005800000001],[123.8128286,10.342019799999999],[123.8128128,10.3421786],[123.81279730975866,10.342221550214608],[123.8127886,10.342245699999999],[123.8127497,10.342318300000001],[123.8127449,10.3423973],[123.81275435992509,10.342434139131393],[123.8127657,10.3424783],[123.8128115,10.342542999999999],[123.81286009999999,10.3425662],[123.81289599999999,10.3425397],[123.81289794955239,10.342537208031819],[123.8129208,10.342508],[123.8129727,10.3424815],[123.8129679,10.3424812],[123.8129521,10.3424879],[123.8129382,10.3425008],[123.81296279999999,10.3424987],[123.8129465,10.342473500000001],[123.81296549864371,10.342504072530101],[123.8130074,10.3425715],[123.81305450000001,10.342644699999999],[123.8130579,10.342635599999999],[123.81307681329349,10.342589758113924],[123.8130848,10.3425704],[123.8131387,10.3425253],[123.8131648,10.3424814],[123.81320909999999,10.342465300000001],[123.81324505166859,10.34245439002318],[123.81325820000001,10.342450400000001],[123.8133261,10.342434000000001],[123.8133867,10.342417899999999],[123.8134039,10.342387],[123.81340059999999,10.342382300000001],[123.813424,10.342393],[123.81343570830438,10.342401702118117],[123.8134388,10.342404],[123.8135004,10.3424288],[123.8135765,10.342470499999999],[123.813604,10.3424721],[123.8136016,10.342459099999999],[123.8135925,10.342434799999999],[123.81358910544358,10.342433357886927],[123.81347409999999,10.3423845],[123.8134196,10.3423493],[123.81338276249578,10.342339823131695],[123.81329909999999,10.342318300000001],[123.81327159999999,10.342394199999999],[123.81322590188893,10.342432690690865],[123.81321199999999,10.3424444],[123.8131941,10.342437800000001],[123.8132784,10.3424356],[123.81329150000001,10.342438899999999],[123.8132966,10.342454999999999],[123.8132971,10.342462899999999],[123.81329770000001,10.3424625],[123.8132987,10.342463],[123.8132937,10.3424592],[123.8132873,10.3424531],[123.813273,10.3424639],[123.81324004041224,10.342465089263476],[123.813176,10.3424674],[123.813073,10.3424814],[123.8130834,10.342538599999999],[123.81308284370911,10.342539879135922],[123.81306669999999,10.342577],[123.8130151,10.342627800000001],[123.8129386,10.3426943],[123.81294494988927,10.342704792978468],[123.81298320000001,10.342768],[123.8130424,10.3428325],[123.81309053111988,10.342876105227962],[123.813153,10.3429327],[123.8131964,10.3429851],[123.8132446,10.3430181],[123.8132557278126,10.343029666543567],[123.8132725,10.3430471],[123.8133196,10.3431181],[123.8133677,10.343170499999999],[123.81339022326605,10.343210174603703],[123.8134025,10.3432318],[123.8134455,10.3433245],[123.81350816881174,10.343400891909196],[123.813514,10.343408],[123.8135901,10.3434913],[123.81353981473558,10.34340016063755],[123.8134728,10.343278700000001],[123.81354025600714,10.343334390424509],[123.81355019999999,10.3433426],[123.81362679999999,10.343391499999999],[123.8137009,10.343394099999999],[123.81375099919819,10.343393734312423],[123.8137694,10.343393600000001],[123.8138934,10.34341],[123.81386070000001,10.343426900000001],[123.81390427235414,10.343446917557525],[123.81396909999999,10.3434767],[123.81403109999999,10.3435062],[123.81411253632142,10.343473070420895],[123.814125,10.343468],[123.814042,10.343447100000001],[123.8140562,10.3434676],[123.8140921,10.3435258],[123.8141061,10.343507300000001],[123.81411420000001,10.343507300000001],[123.81411228155571,10.34351008279832],[123.81410510000001,10.3435205],[123.8141413,10.3435843],[123.8141694,10.3436404],[123.81418360000001,10.3436694],[123.8142284,10.3436678],[123.81422872661128,10.343667929872987],[123.8142538,10.343677899999999],[123.8142931,10.3437363],[123.81434729999999,10.3438134],[123.81438221767154,10.343810814817422],[123.8144459,10.3438061],[123.81452350000001,10.3437938],[123.8145792,10.343821999999999],[123.81459522538819,10.343838825229314],[123.81463530000001,10.3438809],[123.8146948,10.3439692],[123.8147507513779,10.343942368979169],[123.81475589999999,10.343939900000001],[123.81482219999999,10.3439177],[123.8148752,10.343864200000001],[123.8149159,10.3438246],[123.81493522937809,10.343821410791277],[123.8149856,10.3438131],[123.8150004,10.343861499999999],[123.81507089999999,10.3439326],[123.81509556551397,10.343927876816474],[123.81514610000001,10.343918199999999],[123.8152115,10.343906199999999],[123.81525600000001,10.343901600000001],[123.81532126298525,10.343893432585473],[123.8153415,10.3438909],[123.8153861,10.343897200000001],[123.8154342,10.3438766],[123.81549459999999,10.3438561],[123.8155294150998,10.343886768275086],[123.81557100000001,10.3439234],[123.8156013,10.3439462],[123.81564830000001,10.3439584],[123.8156852,10.343989000000001],[123.81571941263407,10.344004594915525],[123.815735,10.344011699999999],[123.8157753,10.344036900000001],[123.8158531,10.344013199999999],[123.8159187,10.343990700000001],[123.81593077552942,10.343986844559883],[123.8160515,10.343948299999999],[123.8160541,10.3439557],[123.8160634,10.343978699999999],[123.81609962855904,10.344035891455089],[123.816113,10.344056999999999],[123.8161698,10.3440546],[123.8162375,10.344066400000001],[123.8163035,10.344097100000001],[123.8163081279163,10.344097539223538],[123.8163467,10.344101200000001],[123.8164379,10.344113999999999],[123.8164755,10.344163],[123.81650136950775,10.344186572997931],[123.8165138,10.344197899999999],[123.8165547,10.3442439],[123.8165315,10.3442481],[123.8165494,10.344306400000001],[123.8165618,10.3442834],[123.81658963813678,10.34430814059802],[123.8166319,10.3443457],[123.8166641,10.344378600000001],[123.81669170000001,10.344421199999999],[123.8166985,10.3444325],[123.8167143,10.344428199999999],[123.81673187897994,10.344467957477917],[123.81674219999999,10.3444913],[123.81679440000001,10.3445313],[123.81682429999999,10.3445658],[123.8168319,10.3446494],[123.81683559547545,10.344652851198262],[123.8168909,10.344704500000001],[123.8169331,10.344758000000001],[123.8169678,10.344828],[123.81697204854783,10.344827446617721],[123.81699159999999,10.344824900000001],[123.8170381,10.3448198],[123.8170619,10.3447949],[123.81707478750258,10.34491947919159],[123.81707780000001,10.3449486],[123.81712,10.3449141],[123.81709979999999,10.344909700000001],[123.8170641,10.3449654],[123.81706405342267,10.345020780453092],[123.817064,10.3450843],[123.81707710000001,10.345141699999999],[123.8171067,10.345175299999999],[123.81715932806544,10.345201490201983],[123.8171917,10.3452176],[123.8172235,10.3452298],[123.8172371,10.3452254],[123.8172678,10.3452754],[123.8173085983944,10.345348127572652],[123.81731379999999,10.345357399999999],[123.8173551,10.3453804],[123.8173268,10.3453085],[123.8173494,10.345363900000001],[123.81737151033839,10.34538564515263],[123.81741599999999,10.3454294],[123.8174571,10.345497200000001],[123.81751319999999,10.345555600000001],[123.81751586425507,10.345558143609566],[123.8175662,10.345606200000001],[123.81761229999999,10.345651699999999],[123.8176457,10.3456975],[123.8176763270301,10.345715738935745],[123.81773939999999,10.3457533],[123.8177779,10.3457866],[123.8178619,10.3458208],[123.8178726166196,10.345827396574673],[123.8179095,10.3458501],[123.81795579999999,10.3458661],[123.8179918,10.345866900000001],[123.81801729999999,10.345852900000001],[123.8180328,10.345827],[123.8180272,10.345817500000001],[123.81802759999999,10.345815],[123.8180236,10.3458117],[123.8180246,10.3458103],[123.818034,10.3458103],[123.81803600000001,10.3458088],[123.8180327,10.345807000000001],[123.81803565278837,10.34580462136493],[123.8180363,10.345804100000001],[123.81803499999999,10.345803800000001],[123.8180326,10.345805800000001],[123.8180299,10.3458048],[123.8180235,10.345808],[123.8180243,10.3458082],[123.8180249,10.345806899999999],[123.8180184,10.345796699999999],[123.8180152,10.345802900000001],[123.81803979999999,10.345818100000001],[123.8180562,10.3458215],[123.8180313,10.345815699999999],[123.8180328,10.345812199999999],[123.818029,10.3458077],[123.8180342,10.3458068],[123.8180302,10.345804299999999],[123.81803189999999,10.345800199999999],[123.8180272,10.345796200000001],[123.818033,10.3457919],[123.8180235,10.3457913],[123.8180595,10.3457875],[123.81804889999999,10.3457916],[123.8180464,10.345796],[123.81805079999999,10.3457952],[123.8180488,10.3457939],[123.8180425,10.345795000000001],[123.8180419,10.3458001],[123.8180434901936,10.345799670900137],[123.81804820000001,10.3457984],[123.818061,10.345805199999999],[123.8181939,10.3458904],[123.8182331014565,10.345921695280401],[123.8182534,10.345937899999999],[123.81831409999999,10.3459427],[123.8183621,10.345946],[123.8183962,10.345922699999999],[123.8183954,10.345921199999999],[123.81840459999999,10.345924699999999],[123.81844422950171,10.345917566689693],[123.8184746,10.3459121],[123.8185387,10.3458877],[123.8186049,10.345890799999999],[123.81865963222272,10.345920821032614],[123.8186853,10.3459349],[123.81869709999999,10.345950500000001],[123.8187425,10.3459871],[123.8188202,10.346023000000001],[123.81885053764177,10.346039874736906],[123.81888600000001,10.3460596],[123.81892910000001,10.346070299999999],[123.81899009999999,10.346082300000001],[123.81906316021829,10.346117043310327],[123.8190637,10.3461173],[123.81911839999999,10.3461731],[123.81916699999999,10.3462183],[123.8192191,10.346257700000001],[123.81922915083643,10.346270634620728],[123.8192428,10.3462882],[123.8192262,10.3462716],[123.8192226,10.346268],[123.8192197,10.346278399999999],[123.81923639999999,10.3462979],[123.8192552,10.346311800000001],[123.8193447,10.3463788],[123.81934811856442,10.346381525815682],[123.8193674,10.3463969],[123.81943939999999,10.346454],[123.81949830000001,10.346520699999999],[123.81951329934699,10.346535758167951],[123.81954930000001,10.346571900000001],[123.8195855,10.3465998],[123.8196683,10.346653399999999],[123.81968906043203,10.346677360068513],[123.8196962,10.346685600000001],[123.8197164,10.346725599999999],[123.81973290000001,10.346734700000001],[123.81977430000001,10.3467433],[123.81982859999999,10.3468313],[123.81983344116888,10.34683521060095],[123.8198723,10.3468666],[123.8199766,10.3468895],[123.81999970935274,10.346955958269325],[123.82000720000001,10.346977499999999],[123.8200368,10.3470602],[123.8199662,10.3471107],[123.81994659999999,10.3471174],[123.81995132235028,10.347124039695508],[123.8199599,10.3471361],[123.8199742,10.347168999999999],[123.82002629999999,10.3472651],[123.82006763861243,10.347316340790874],[123.8200956,10.347351],[123.82015629999999,10.347420400000001],[123.8202209,10.3474716],[123.82022786341382,10.347474453509028],[123.82028630000001,10.347498399999999],[123.82037130000001,10.3475267],[123.82041529999999,10.347540499999999],[123.82044350750937,10.347548388280639],[123.82050719999999,10.347566199999999],[123.8205782,10.347597800000001],[123.8206399,10.3476239],[123.82065675725649,10.347627455285577],[123.8207371,10.3476444],[123.8207793,10.3476625],[123.82087075936055,10.347703105635764],[123.8208739,10.347704500000001],[123.82091269999999,10.3477253],[123.8209876,10.347774299999999],[123.82103499999999,10.347806800000001],[123.82105735051339,10.347830933336439],[123.8210864,10.347862299999999],[123.8211261,10.3479429],[123.8211683,10.347981799999999],[123.82119502376679,10.34800631165259],[123.8212432,10.348050499999999],[123.82137633756693,10.347958538312167],[123.82144270000001,10.3479127],[123.8214917,10.347932999999999],[123.82153891416208,10.34801329269018],[123.8215742,10.348073299999999],[123.82163989999999,10.348102900000001],[123.82172538222329,10.34811033073235],[123.82178829999999,10.3481158],[123.82175949679998,10.34827600847264],[123.8217497,10.348330499999999],[123.8218256,10.348277],[123.82183449999999,10.348282299999999],[123.8218735,10.3483228],[123.82188001716527,10.348332488686534],[123.8219259,10.348400699999999],[123.8219527,10.348421999999999],[123.8219883,10.348438700000001],[123.8220235,10.348432799999999],[123.82205855279044,10.34842563651355],[123.8221106,10.348414999999999],[123.8221915,10.348449199999999],[123.82224359999999,10.3484573],[123.82227717038054,10.348449101885677],[123.8222997,10.3484436],[123.8223727,10.348440500000001],[123.8224179,10.3484374],[123.82244882020288,10.34851735187724],[123.82250070000001,10.348651500000001],[123.8225391,10.3486744],[123.82257346035294,10.34868975976042],[123.82262969999999,10.348714899999999],[123.8226768,10.3487521],[123.8227066,10.348804700000001],[123.82275172264072,10.348802910996625],[123.82275199999999,10.348802900000001],[123.82280110000001,10.3488902],[123.82283579999999,10.3489241],[123.82289288409545,10.348976311062911],[123.8229096,10.3489916],[123.82296669999999,10.3489936],[123.82301200000001,10.349077100000001],[123.8230494,10.3491129],[123.82304950876023,10.349113054855875],[123.8231006,10.349185800000001],[123.8231315,10.3491962],[123.823205,10.3492622],[123.82320099636254,10.349257172176209],[123.8232007,10.349256799999999],[123.82324819999999,10.3492788],[123.8232891,10.3492645],[123.8233683,10.349235999999999],[123.82340166997392,10.349202294649453],[123.82340809999999,10.3491958],[123.82352029830241,10.349381197194898],[123.82357639999999,10.3494739],[123.823629,10.3494312],[123.82367324241199,10.349406881999881],[123.8237156,10.349383599999999],[123.82376050000001,10.349392699999999],[123.82381530000001,10.3493455],[123.82385422571095,10.349298854499594],[123.8239106,10.3492313],[123.82400348168984,10.349333954722455],[123.8240332,10.3493668],[123.8240854,10.349343899999999],[123.8241338,10.3493099],[123.82411866009227,10.349374328379952],[123.82408409999999,10.3495214],[123.824107,10.3495738],[123.82410338151881,10.349590262708302],[123.82409389999999,10.3496334],[123.8240916,10.349671600000001],[123.82411070000001,10.349728199999999],[123.8241434,10.3497383],[123.8241721,10.3497764],[123.82417345652885,10.349777379269351],[123.82423970000001,10.3498252],[123.82411608705331,10.349902331995606],[123.8240804,10.3499246],[123.8240948,10.3499873],[123.82409869999999,10.350000700000001],[123.82420190000001,10.3499759],[123.8242014048384,10.349976115287651],[123.8241076,10.3500169],[123.8241702,10.3500935],[123.82414624829759,10.350103652937436],[123.82406640000001,10.350137500000001],[123.8240923,10.3501858],[123.82410583944289,10.350269437267754],[123.82410640000001,10.3502729],[123.8241092,10.3503124],[123.82414199999999,10.350455999999999],[123.82412158419945,10.350427889607955],[123.8240892,10.350383300000001],[123.82412189999999,10.3504402],[123.82420681014464,10.350503271602342],[123.8242296,10.3505202],[123.824038,10.3505027],[123.82404493065866,10.350505691371731],[123.82412720000001,10.3505412],[123.8240349,10.350471499999999],[123.82405231761179,10.350485278721061],[123.8240775,10.350505200000001],[123.8240885,10.3505228],[123.8240694,10.3506181],[123.8240227736071,10.350677750524996],[123.82396199999999,10.3507555],[123.8239992,10.350739000000001],[123.8239785,10.350802699999999],[123.82398325918446,10.350783528441056],[123.8240138,10.3506605],[123.8240156,10.350698599999999],[123.82400730000001,10.3507093],[123.82401070618401,10.350755765491273],[123.8240126,10.350781599999999],[123.82399239999999,10.3508835],[123.8239636,10.350954700000001],[123.82396971810853,10.350937227820298],[123.8239851,10.350893299999999],[123.82390178529134,10.351051724821643],[123.82388659999999,10.3510806],[123.8238614,10.3508985],[123.82385280703438,10.350899717900637],[123.823836,10.350902100000001],[123.8239023,10.350888100000001],[123.8239093,10.350903300000001],[123.8239166,10.3509283],[123.82390169999999,10.350926299999999],[123.8238906,10.350932500000001],[123.8238827,10.350933700000001],[123.8238576,10.350950599999999],[123.8238628,10.350969900000001],[123.82384895930301,10.350970259498624],[123.82383969999999,10.350970500000001],[123.82383179999999,10.3509636],[123.8238293,10.3509694],[123.823813,10.3509685],[123.8237943,10.3510084],[123.82381460000001,10.3510103],[123.82382440000001,10.351037399999999],[123.8238152,10.3510946],[123.82378733066174,10.351111668302849],[123.82377339999999,10.3511202],[123.8237623,10.3510946],[123.82378370000001,10.3510592],[123.8238468,10.3510104],[123.823849,10.351028700000001],[123.8238439,10.351043900000001],[123.82382538009371,10.351062835306058],[123.82379039999999,10.3510986],[123.8237742,10.351099],[123.8237744,10.3511176],[123.8237512,10.3511398],[123.8237196,10.3511658],[123.8237305,10.351138199999999],[123.82372839999999,10.3511332],[123.82374206386108,10.351163637428483],[123.8237429,10.3511655],[123.8237409,10.351171300000001],[123.8237039,10.3511173],[123.823696,10.351096699999999],[123.82369679999999,10.3511142],[123.82371310000001,10.351188],[123.8237271,10.3512074],[123.82373787126181,10.351214401320176],[123.82375709999999,10.3512269],[123.8237651,10.351248699999999],[123.8237319,10.351316600000001],[123.8237451,10.3513281],[123.8237542,10.351338800000001],[123.8237906,10.3513342],[123.8238046,10.351323300000001],[123.82382240807127,10.351329765350714],[123.82385170000001,10.3513404],[123.8238638,10.351326800000001],[123.82388829999999,10.3512757],[123.82388,10.351277400000001],[123.8238819,10.351349000000001],[123.8238964,10.351373199999999],[123.82390558044267,10.351366099208626],[123.8239454,10.351335300000001],[123.82398689999999,10.351295800000001],[123.823978,10.351333500000001],[123.8239883,10.3513704],[123.82399599999999,10.3513658],[123.8239963,10.3513658],[123.824001,10.351373000000001],[123.82402347908715,10.351380988787119],[123.8240539,10.3513918],[123.8239641,10.3512632],[123.82396444980546,10.351300191927175],[123.82396489999999,10.351347799999999],[123.8239849,10.35139],[123.82399289999999,10.351329],[123.8240297,10.351349000000001],[123.8240561271632,10.351358835352002],[123.82409149999999,10.351372],[123.82410659999999,10.351404799999999],[123.82409800000001,10.3514021],[123.8241439,10.3514328],[123.824179,10.351444499999999],[123.82416822830616,10.351393917133668],[123.82416189999999,10.351364200000001],[123.8241755,10.351293099999999],[123.8242164,10.351365100000001],[123.8242199,10.351371500000001],[123.82424949312804,10.351385663248044],[123.82427130000001,10.351396100000001],[123.82432919999999,10.3513717],[123.8243191,10.351332599999999],[123.824314,10.3512705],[123.82434713876764,10.351286615905941],[123.824409,10.3513167],[123.8244026,10.351353599999999],[123.8243933,10.351353899999999],[123.82446040000001,10.3513571],[123.8244954,10.3513629],[123.82450418201147,10.351366497450481],[123.824512,10.351369699999999],[123.82450249999999,10.3514055],[123.8245032,10.351409],[123.8245038,10.3514254],[123.82450489999999,10.3514365],[123.8244974,10.3514987],[123.8244969,10.3515262],[123.8244978,10.3515368],[123.8244926,10.351546300000001],[123.82449339999999,10.3515526],[123.8244935,10.3515669],[123.824493,10.351576400000001],[123.82449153385105,10.351582881921679],[123.8244911,10.351584799999999],[123.8244899,10.351590699999999],[123.8244914,10.3515959],[123.824496,10.351596799999999],[123.82450009999999,10.351599],[123.82450849999999,10.3516029],[123.824567,10.351680999999999],[123.82462529999999,10.351705600000001],[123.824646962567,10.351731682753533],[123.8246846,10.351777],[123.8246994,10.3518639],[123.8246997,10.3519086],[123.82470240000001,10.3518898],[123.8246989,10.3519007],[123.82469697041012,10.351903127548562],[123.8246865,10.351916299999999],[123.8246843,10.351914000000001],[123.82468280000001,10.351907000000001],[123.8246946,10.3519215],[123.8247393,10.3519735],[123.82477369999999,10.3520372],[123.82479034788346,10.35207258680544],[123.8247944,10.352081200000001],[123.8248198,10.352119500000001],[123.8248533,10.3521389],[123.8248554,10.3521889],[123.8249149,10.3522281],[123.82491931606162,10.35223807572487],[123.82494,10.3522848],[123.8249412,10.352300700000001],[123.8249568,10.352344499999999],[123.8249043,10.352379900000001],[123.82491349999999,10.3523634],[123.82489396081695,10.35238653966173],[123.82486900000001,10.352416099999999],[123.82487690000001,10.3524198],[123.8249021,10.352392699999999],[123.82488290000001,10.352424900000001],[123.8248629,10.3524881],[123.82486603414777,10.352525517886706],[123.82486780000001,10.3525466],[123.8248924,10.352582],[123.8249057,10.3526264],[123.8249345,10.352670399999999],[123.82494199999999,10.352705],[123.82494629999999,10.3526889],[123.8249463681321,10.352699051682958],[123.8249464,10.3527038],[123.8249366,10.3527673],[123.82491109999999,10.352822099999999],[123.82491090000001,10.3528555],[123.8248674,10.3528231],[123.82487071438653,10.352830962033156],[123.824876,10.352843500000001],[123.8248509,10.3529029],[123.8248384,10.352952999999999],[123.8248541,10.353030499999999],[123.82484909202383,10.353046057322441],[123.8248372,10.353083],[123.8248308,10.3531136],[123.8248279,10.3531432],[123.8248267,10.3531841],[123.8248292,10.353199800000001],[123.8248344,10.353217600000001],[123.82484770000001,10.3532069],[123.82483379999999,10.353188400000001],[123.82483211418148,10.353178674123892],[123.8248299,10.3531659],[123.8248359,10.3531622],[123.8248311,10.3531724],[123.8248439,10.353182500000001],[123.82483809999999,10.353176100000001],[123.824827,10.353166099999999],[123.8248212,10.353166999999999],[123.8248162,10.353168699999999],[123.82480769999999,10.353175],[123.8248816,10.3532349],[123.824882,10.3532393],[123.82485346716703,10.353219969439728],[123.8248327,10.353205900000001],[123.8248248,10.353199200000001],[123.82481900000001,10.3532191],[123.8248148,10.3531972],[123.8248231,10.353195700000001],[123.82483879999999,10.3532087],[123.8248305,10.3532025],[123.8248232,10.3531923],[123.82482539999999,10.353194500000001],[123.8248506,10.353217000000001],[123.82485990000001,10.353225399999999],[123.82486849999999,10.353229199999999],[123.8248589,10.3532151],[123.82484289999999,10.353211099999999],[123.82484653128702,10.353209102792135],[123.82486489999999,10.353199],[123.82486179999999,10.3532008],[123.8248638,10.353232],[123.8248543,10.353225999999999],[123.8248497,10.3532139],[123.82483449999999,10.353234499999999],[123.8248337,10.353248300000001],[123.82483360000001,10.3532472],[123.8248334,10.353244],[123.82483879999999,10.3532403],[123.8248407,10.3532393],[123.8248395,10.3532367],[123.8248402,10.353235],[123.8248421,10.3532688],[123.82485699999999,10.3532756],[123.82486059999999,10.3532689],[123.8248577,10.353249699999999],[123.8248593069963,10.353238377980631],[123.82485990000001,10.353234199999999],[123.82485610000001,10.353232500000001],[123.824855,10.353229799999999],[123.8248346,10.353218],[123.82483360000001,10.3532229],[123.82482760000001,10.353226100000001],[123.82483089999999,10.353222799999999],[123.8248361,10.3532197],[123.8248445,10.353216099999999],[123.8248506,10.353221400000001],[123.8248487,10.353235400000001],[123.82485200000001,10.353252100000001],[123.8248507,10.353263500000001],[123.8248371,10.3532981],[123.8248363,10.3533062],[123.8248427,10.353342400000001],[123.82485625140352,10.353365173886466],[123.8248571,10.353366599999999],[123.82484530000001,10.3533943],[123.8248339,10.3534173],[123.82483499999999,10.3534047],[123.82481869999999,10.3534221],[123.8248158,10.3534436],[123.8248263,10.3534924],[123.8248208,10.353532400000001],[123.82483302282452,10.353547514832108],[123.8248432,10.353560099999999],[123.824859,10.3536062],[123.8248621,10.353621800000001],[123.82487639999999,10.353683200000001],[123.8249004,10.353740800000001],[123.82491338469528,10.353726785153624],[123.8249546,10.353682299999999],[123.8250171,10.353732300000001],[123.8250007,10.3537458],[123.8250285,10.353793400000001],[123.82502194839753,10.353800326694204],[123.82500229999999,10.353821099999999],[123.8249933,10.353869700000001],[123.8250372,10.353929300000001],[123.82507150000001,10.353972600000001],[123.82507256186318,10.353991131225017],[123.82507459999999,10.3540267],[123.8250737,10.3540642],[123.8250537,10.354096999999999],[123.8250713,10.3541405],[123.8250795,10.354178599999999],[123.82508966633277,10.354204413644949],[123.825091,10.354207799999999],[123.8250688,10.354253],[123.825084,10.3542551],[123.8250879,10.3542971],[123.8250682,10.3542963],[123.825063,10.354336099999999],[123.8250625,10.3543731],[123.82504995881959,10.354361116205386],[123.825031,10.354343],[123.8250281,10.354343500000001],[123.8250434,10.354483099999999],[123.82505630403388,10.354537154224881],[123.8250651,10.354574],[123.82507699999999,10.35464],[123.8250913,10.354700299999999],[123.825075,10.354745100000001],[123.825080342039,10.354754132595914],[123.82510670000001,10.3547987],[123.8251368,10.3548347],[123.82515739999999,10.354907799999999],[123.8252054688015,10.354926365033915],[123.8252198,10.3549319],[123.8252203,10.354888000000001],[123.8252294,10.3549019],[123.8252524,10.3549504],[123.8252337,10.354975],[123.82523209999999,10.354977699999999],[123.82527589999999,10.355014000000001],[123.82527065953505,10.355011946304279],[123.82526850000001,10.3550111],[123.8252574,10.355011599999999],[123.82525889999999,10.3550085],[123.8252976,10.355010500000001],[123.8253198,10.35505],[123.8253211,10.3550638],[123.8253138,10.3550798],[123.8253512,10.3550798],[123.8253371,10.3550854],[123.8253144,10.355078600000001],[123.8253081,10.3550716],[123.82531699763202,10.355074034257814],[123.8253187,10.355074500000001],[123.8253134,10.355084099999999],[123.82530420000001,10.3550792],[123.8253259,10.355068899999999],[123.8252846,10.3551176],[123.82530079999999,10.355118300000001],[123.8253011,10.3551246],[123.82523430000001,10.355167],[123.82522382401899,10.355176901349145],[123.82518690000001,10.355211799999999],[123.825152,10.355223799999999],[123.82516409999999,10.3552687],[123.825186,10.355338],[123.8251837049054,10.355356934530517],[123.825176,10.355420499999999],[123.8251467,10.3554567],[123.8251509,10.355484799999999],[123.82515309999999,10.355524300000001],[123.8251671,10.355540599999999],[123.82519142812525,10.355548624013238],[123.8251956,10.355549999999999],[123.8252124,10.355590299999999],[123.8252602,10.3556107],[123.8252317,10.3556455],[123.8252188,10.355646800000001],[123.8252232,10.3556577],[123.82527583412779,10.355680355773027],[123.8253303,10.355703800000001],[123.82541449999999,10.355705],[123.8254542,10.355722699999999],[123.82548856199722,10.355745248285775],[123.8255147,10.3557624],[123.8255305,10.355765399999999],[123.82563,10.355803999999999],[123.82561459999999,10.355766900000001],[123.82563367225596,10.355739991124011],[123.8256348,10.3557384],[123.8257055,10.355690600000001],[123.8257333,10.3557208],[123.8257588,10.3557419],[123.82578908518086,10.355799647166874],[123.8257942,10.3558094],[123.8258245,10.3558205],[123.825862,10.355900699999999],[123.82586619999999,10.3559278],[123.8258733,10.355961499999999],[123.82587820000001,10.3559897],[123.82588050518439,10.355992144892529],[123.8258914,10.3560037],[123.8259606,10.356128399999999],[123.8259855,10.3561443],[123.8260142,10.3561675],[123.82601498497557,10.356168490006503],[123.8260276,10.3561844],[123.8260253,10.3561952],[123.8260281,10.356208000000001],[123.8260322,10.3562192],[123.8260368,10.3562285],[123.82603589999999,10.356237500000001],[123.8260365,10.3562405],[123.82604310000001,10.3562467],[123.8260497,10.356251],[123.82605940000001,10.356254],[123.82606579999999,10.356256999999999],[123.82607179999999,10.3562639],[123.8260755,10.356272199999999],[123.82607969999999,10.3562751],[123.82608500000001,10.356278100000001],[123.82609189999999,10.3562823],[123.826099,10.356284499999999],[123.8261124,10.3562884],[123.82611609999999,10.3562894],[123.8261189,10.356296499999999],[123.8261255,10.356297400000001],[123.8261368,10.356299699999999],[123.82614169999999,10.3563037],[123.82614890000001,10.3563057],[123.82615389999999,10.3563031],[123.82615687968172,10.35629821470787],[123.8261625,10.356289],[123.8261712,10.356278700000001],[123.8261773,10.3562633],[123.8261804,10.356255600000001],[123.8261852,10.3562476],[123.8261938,10.3562362],[123.8262039,10.356229799999999],[123.8262192,10.356218200000001],[123.82622600000001,10.356212899999999],[123.8262338,10.356209700000001],[123.82624029999999,10.356213199999999],[123.8262409,10.3562183],[123.8262398,10.3562259],[123.82624,10.356236300000001],[123.8262414,10.356247400000001],[123.8262417,10.3562575],[123.8262419,10.3562672],[123.8262459,10.3562783],[123.82624946035845,10.356309563337998],[123.82625640000001,10.356370500000001],[123.82626550000001,10.356455499999999],[123.8262613,10.356464000000001],[123.82625640000001,10.3564829],[123.82624683493697,10.356531076326666],[123.82623460000001,10.3565927],[123.8262541,10.356669399999999],[123.8262387,10.3567328],[123.82624908865469,10.356747368346666],[123.826273,10.3567809],[123.8263176,10.3567482],[123.8263275,10.3567196],[123.8263499,10.356703],[123.82640441158193,10.356750070033749],[123.8264107,10.3567555],[123.82645580000001,10.356804199999999],[123.82645909999999,10.3567734],[123.8264465,10.356802999999999],[123.8264386,10.3568465],[123.82641554748946,10.356883587882603],[123.8264092,10.3568938],[123.8264757,10.3569405],[123.8264712,10.3569724],[123.8264678,10.356958499999999],[123.8264858,10.3569622],[123.82653761203407,10.357007053337526],[123.8265543,10.3570215],[123.8265856,10.3570101],[123.8265664,10.357036000000001],[123.8265103,10.3570896],[123.8265009,10.3571416],[123.82650235642448,10.357149803533796],[123.82650580000001,10.3571692],[123.82655370000001,10.3571221],[123.8265693,10.357149100000001],[123.8265803,10.357158999999999],[123.8266022,10.357174000000001],[123.82658859999999,10.357217800000001],[123.82657753992676,10.357235464289621],[123.82657469999999,10.357239999999999],[123.8265487,10.3573039],[123.82651850000001,10.3573369],[123.82651,10.357353399999999],[123.82650649999999,10.3573629],[123.8265136,10.3573825],[123.82650839999999,10.357417099999999],[123.82649277283215,10.357432679668854],[123.8264755,10.357449900000001],[123.8263941,10.357450699999999],[123.826379,10.3574164],[123.82639090000001,10.357433],[123.82633867453499,10.357469240104047],[123.8263383,10.357469500000001],[123.826292,10.3575015],[123.82631189999999,10.357527599999999],[123.82633629999999,10.357492499999999],[123.8263407,10.3575746],[123.82633662072844,10.357585222064102],[123.8262998,10.357681100000001],[123.82634659999999,10.357763200000001],[123.8263597,10.3577733],[123.82635822626419,10.357785050055828],[123.826356,10.3578028],[123.82636479999999,10.3578142],[123.82637889999999,10.3578904],[123.82636669999999,10.357958200000001],[123.82632971161357,10.357986873167782],[123.826328,10.357988199999999],[123.82629129999999,10.3579749],[123.82632150000001,10.358031],[123.8263087,10.358033300000001],[123.8263089,10.358046099999999],[123.8263097,10.358059900000001],[123.8263287,10.3580632],[123.826331,10.3580617],[123.82631069999999,10.3580705],[123.8262998,10.358038499999999],[123.82629794214368,10.358042107337676],[123.8262878,10.3580618],[123.82628459999999,10.3580781],[123.8262847,10.358076199999999],[123.8262769,10.358064000000001],[123.8263512,10.358008999999999],[123.82635687350155,10.358087168243529],[123.8263575,10.358095799999999],[123.8263615,10.358140000000001],[123.8263486,10.358123000000001],[123.8263433,10.358112500000001],[123.8263403,10.3581077],[123.82633370000001,10.358062],[123.8263249,10.3580481],[123.8263209,10.3580442],[123.8263303,10.358037599999999],[123.8263243,10.358021900000001],[123.82628963039082,10.358036306628136]]}},{"type":"Feature","properties":{"surface":"PAVED","start_m":6942.0589192762,"end_m":7543.4921006148998,"length_m":601.43318133867251},"geometry":{"type":"LineString","coordinates":[[123.82628963039082,10.358036306628136],[123.8262651,10.3580465],[123.8261802,10.3581272],[123.8261918,10.3581874],[123.82617111812223,10.358193457938079],[123.8261382,10.358203100000001],[123.8260626,10.358204300000001],[123.82602060000001,10.358221800000001],[123.826003,10.358275799999999],[123.82600937339821,10.358289525483032],[123.82602970000001,10.3583333],[123.8259894,10.3583432],[123.8259575,10.358391900000001],[123.8259688,10.3584438],[123.82596923128264,10.358468629557633],[123.8259695,10.3584841],[123.825985,10.3585589],[123.8260214,10.3586312],[123.8260362,10.358679800000001],[123.82603667990551,10.358681333752051],[123.82606579999999,10.3587744],[123.8260662,10.3588357],[123.82604936840747,10.35889974863899],[123.8260472,10.358908],[123.8260325,10.358968300000001],[123.82603779999999,10.3590006],[123.8260477,10.3590521],[123.82607539999999,10.3590862],[123.82608573548796,10.359109604879205],[123.8261064,10.3591564],[123.8261691,10.3592458],[123.8261467,10.3592815],[123.82613424781536,10.359301257230452],[123.8260763,10.3593932],[123.8260858,10.3594574],[123.82608555956531,10.359509173604136],[123.8260855,10.359522],[123.8260556,10.359544400000001],[123.82605220000001,10.3595395],[123.8260397,10.359496399999999],[123.8260339,10.3594857],[123.8261177,10.3594475],[123.82611583955126,10.359468720743481],[123.8261145,10.359484],[123.8260954,10.3594761],[123.82607729999999,10.3594665],[123.8260745,10.3594659],[123.8260717,10.359534500000001],[123.8260638,10.359525100000001],[123.82597955334857,10.359505265706771],[123.82597800000001,10.359504899999999],[123.8259812,10.3595811],[123.8259844,10.359568100000001],[123.82600909999999,10.359524],[123.8260262,10.359480700000001],[123.82598884092222,10.359478507014302],[123.82597850000001,10.3594779],[123.8259427,10.3594521],[123.82595019999999,10.3594469],[123.8259592,10.3594633],[123.8259972,10.359475099999999],[123.8260093,10.359476799999999],[123.8260401,10.3594499],[123.82605359999999,10.3594074],[123.8260562,10.35941],[123.82605340831988,10.359412019139709],[123.8260403,10.3594215],[123.8260245,10.3594361],[123.82602610000001,10.359449400000001],[123.8260277,10.3594568],[123.8260245,10.359505499999999],[123.82601222925479,10.359622620771294],[123.82601219999999,10.3596229],[123.8259997,10.3596734],[123.8259791,10.359774699999999],[123.8259726,10.3598362],[123.82597094001126,10.359843454281517],[123.8259599,10.3598917],[123.8259381,10.3599669],[123.82593660000001,10.360010300000001],[123.8259376312237,10.360064044952342],[123.8259383,10.360098900000001],[123.82595329999999,10.360184500000001],[123.825979,10.360251699999999],[123.82599962675128,10.360275543767543],[123.8260444,10.3603273],[123.8260702,10.360363400000001],[123.8261126,10.360438800000001],[123.82610038564653,10.360462503819504],[123.8260789,10.360504199999999],[123.8260375,10.360563000000001],[123.8260269,10.3606406],[123.82600698869402,10.360660971441201],[123.8259793,10.360689300000001],[123.82595809999999,10.3607224],[123.8259576,10.360802100000001],[123.82594860628404,10.360868219318659],[123.8259431,10.3609087],[123.8259358,10.360976000000001],[123.82592889999999,10.3610875],[123.8259263806351,10.36109137594601],[123.8259211,10.3610995],[123.8258797,10.361122399999999],[123.8258058,10.361105800000001],[123.82574940000001,10.361098399999999],[123.82571107485465,10.361094250143498],[123.8256866,10.3610916],[123.82561010000001,10.361130299999999],[123.8255686,10.3611451],[123.82549693665452,10.36116231107262],[123.825472,10.361168299999999],[123.82537360000001,10.3612249],[123.8253601,10.361287600000001],[123.82535321284043,10.361309955938641],[123.82534750000001,10.361328500000001],[123.82531899999999,10.3614228],[123.8253169,10.3614672],[123.8252971,10.361514100000001],[123.82528982147595,10.361504666649761],[123.82528189999999,10.3614944]]}}]}