{"type":"FeatureCollection","features":[{"type":"Feature","geometry":{"type":"Point","coordinates":[123.8389859,10.2492382]},"properties":{"category":"service"}},{"type":"Feature","geometry":{"type":"Point","coordinates":[123.8378333,10.2501583]},"properties":{"category":"service"}},{"type":"Feature","geometry":{"type":"Point","coordinates":[123.8390233,10.2502729]},"properties":{"category":"service"}},{"type":"Feature","geometry":{"type":"Point","coordinates":[123.8390766,10.2510003]},"properties":{"category":"service"}},{"type":"Feature","geometry":{"type":"Point","coordinates":[123.8335767,10.2510633]},"properties":{"category":"service"}},{"type":"Feature","geometry":{"type":"Point","coordinates":[123.8325515,10.2515162]},"properties":{"category":"service"}},{"type":"Feature","geometry":{"type":"Point","coordinates":[123.8341615,10.2519135]},"properties":{"category":"service"}},{"type":"Feature","geometry":{"type":"Point","coordinates":[123.834108,10.2521936]},"properties":{"category":"service"}},{"type":"Feature","geometry":{"type":"Point","coordinates":[123.8392283,10.2527167]},"properties":{"category":"service"}},{"type":"Feature","geometry":{"type":"Point","coordinates":[123.8282432,10.2532199]},"properties":{"category":"service"}},{"type":"Feature","geometry":{"type":"Point","coordinates":[123.8392806,10.25359]},"properties":{"category":"service"}},{"type":"Feature","geometry":{"type":"Point","coordinates":[123.8281837,10.2536397]},"properties":{"category":"service"}},{"type":"Feature","geometry":{"type":"Point","coordinates":[123.8394316,10.2538066]},"properties":{"category":"service"}},{"type":"Feature","geometry":{"type":"Point","coordinates":[123.8255312,10.2542755]},"properties":{"category":"service"}},{"type":"Feature","geometry":{"type":"Point","coordinates":[123.839555,10.2552783]},"properties":{"category":"service"}},{"type":"Feature","geometry":{"type":"Point","coordinates":[123.8195983,10.2562767]},"properties":{"category":"service"}},{"type":"Feature","geometry":{"type":"Point","coordinates":[123.8189383,10.2578583]},"properties":{"category":"service"}},{"type":"Feature","geometry":{"type":"Point","coordinates":[123.8252367,10.2586217]},"properties":{"category":"service"}},{"type":"Feature","geometry":{"type":"Point","coordinates":[123.8314067,10.25975]},"properties":{"category":"service"}},{"type":"Feature","geometry":{"type":"Point","coordinates":[123.8396933,10.26067]},"properties":{"category":"service"}},{"type":"Feature","geometry":{"type":"Point","coordinates":[123.837095,10.2617933]},"properties":{"category":"service"}}]}
