{"type":"FeatureCollection","features":[{"type":"Feature","id":"c1d9b422-f8cb-4db2-9f8f-88a9c45c2840","properties":{"id":"c1d9b422-f8cb-4db2-9f8f-88a9c45c2840","updated_date":"2026-07-25T04:02:38Z","time_created":"2026-07-25T04:02:07Z","last_updated_on_server":"2026-07-25T04:02:38.825723","db_insert_date":"2026-07-25T04:02:13Z","deleted":false,"title":"balirong lanas cabuan","public":false,"color":"#784D3E","hexcolor":"#784D3E","is_active":true,"revision":1784952158,"notes":"","track_type":"track","routing_mode":null,"uploaded_gpx_to_osm":null,"flag":null,"source":null,"cover_photo_id":null,"distance":6635.6903989681205,"total_ascent":433.1849999999999,"total_descent":60.00999999999988,"stopped_time":0.0,"total_time":0.0,"average_speed":0,"moving_time":0.0,"moving_speed":0,"activities":[],"imported":true,"folder":"ba93e98c-e16c-4600-aa34-70cf218dd8fa","privacy_level":null,"sync_to_mobile":null,"preferred_link":"/public/aSKTjR7l04FxsTlPeoHooxou","favorite_count":0,"comment_count":0,"comments":[],"user_photo_count":0,"latitude":10.27484987942023,"longitude":123.72189941391602,"writable":false},"style":{"stroke":"#784D3E"},"geometry":{"type":"MultiLineString","coordinates":[[[123.710681,10.256562,90.05,0.0],[123.711131,10.258062,94.99,0.0],[123.711147,10.258149,95.19,0.0],[123.711194,10.258392,95.75,0.0],[123.711197,10.258693,98.31,0.0],[123.710907,10.25938,98.24,0.0],[123.710845,10.25966,98.7,0.0],[123.710862,10.259927,97.9,0.0],[123.711176,10.260828,98.72,0.0],[123.71127,10.261804,99.5,0.0],[123.711343,10.262083,99.26,0.0],[123.71149,10.262284,100.66,0.0],[123.711571,10.262413,102.58,0.0],[123.711605,10.262501,102.94,0.0],[123.711634,10.262628,102.88,0.0],[123.711651,10.262771,103.18,0.0],[123.711695,10.263526,103.89,0.0],[123.711746,10.26413,104.3,0.0],[123.711909,10.264902,105.38,0.0],[123.71203,10.265414,105.24,0.0],[123.712116,10.265559,105.82,0.0],[123.712277,10.265758,106.18,0.0],[123.712422,10.265906,106.1,0.0],[123.712562,10.266027,105.76,0.0],[123.712741,10.266132,106.13,0.0],[123.713028,10.266271,108.02,0.0],[123.713334,10.266473,108.17,0.0],[123.713488,10.266602,109.15,0.0],[123.713586,10.266716,109.37,0.0],[123.713653,10.266816,110.06,0.0],[123.713691,10.266925,110.13,0.0],[123.713739,10.267238,112.52,0.0],[123.713746,10.267727,115.52,0.0],[123.713762,10.267855,115.04,0.0],[123.713791,10.267945,114.59,0.0],[123.713912,10.268093,114.65,0.0],[123.714124,10.268297,115.35,0.0],[123.714248,10.268447,117.15,0.0],[123.714317,10.268631,118.01,0.0],[123.714328,10.269032,116.34,0.0],[123.714292,10.269512,115.58,0.0],[123.714217,10.26992,115.0,0.0],[123.714107,10.270232,114.24,0.0],[123.714023,10.270418,112.73,0.0],[123.713741,10.270979,116.41,0.0],[123.713627,10.271139,116.65,0.0],[123.71349,10.271263,115.78,0.0],[123.713288,10.271423,115.54,0.0],[123.71352,10.271508,118.76,0.0],[123.713764,10.271596,124.61,0.0],[123.713842,10.271609,126.95,0.0],[123.713893,10.271552,128.19,0.0],[123.713943,10.271451,129.62,0.0],[123.714,10.271409,131.65,0.0],[123.714062,10.271416,134.26,0.0],[123.714095,10.271433,135.73,0.0],[123.714088,10.271703,136.62,0.0],[123.714076,10.272243,145.65,0.0],[123.714069,10.272513,148.24,0.0],[123.714173,10.272751,152.21,0.0],[123.714266,10.272836,154.24,0.0],[123.71473,10.272947,167.73,0.0],[123.715055,10.2731,174.77,0.0],[123.715403,10.273169,182.56,0.0],[123.716101,10.273148,196.74,0.0],[123.716456,10.273075,204.88,0.0],[123.716689,10.27298,211.52,0.0],[123.717154,10.272788,220.68,0.0],[123.717353,10.272685,223.6,0.0],[123.717404,10.272635,225.68,0.0],[123.717388,10.272582,227.27,0.0],[123.717327,10.272561,227.54,0.0],[123.717126,10.272562,229.52,0.0],[123.716959,10.272537,232.93,0.0],[123.716874,10.272516,234.87,0.0],[123.716863,10.272486,235.96,0.0],[123.716876,10.272423,237.29,0.0],[123.716927,10.272371,237.01,0.0],[123.717219,10.272305,233.22,0.0],[123.717411,10.272338,232.76,0.0],[123.717655,10.272461,233.46,0.0],[123.717934,10.272593,236.59,0.0],[123.718166,10.27268,241.39,0.0],[123.718167,10.272747,240.2,0.0],[123.718134,10.272942,237.45,0.0],[123.718165,10.273086,238.4,0.0],[123.718241,10.273221,241.44,0.0],[123.718356,10.273318,246.67,0.0],[123.718636,10.273409,256.75,0.0],[123.718905,10.273552,261.33,0.0],[123.718986,10.273569,262.2,0.0],[123.719072,10.273554,263.67,0.0],[123.719164,10.273484,265.98,0.0],[123.719312,10.273281,269.79,0.0],[123.719518,10.27283,274.55,0.0],[123.719609,10.272725,273.72,0.0],[123.719744,10.272733,275.02,0.0],[123.720363,10.273138,286.45,0.0],[123.720652,10.273239,291.9,0.0],[123.720945,10.273334,300.7,0.0],[123.721049,10.273387,304.65,0.0],[123.721084,10.273545,306.27,0.0],[123.72111,10.273605,307.2,0.0],[123.721455,10.273635,319.24,0.0],[123.721466,10.273816,318.57,0.0],[123.721503,10.273966,318.59,0.0],[123.721644,10.274046,320.8,0.0],[123.721843,10.27405,326.65,0.0],[123.722143,10.274255,325.52,0.0],[123.722253,10.274383,324.38,0.0],[123.722288,10.274624,321.42,0.0],[123.722421,10.275481,326.94,0.0],[123.722349,10.275665,325.25,0.0],[123.721963,10.276205,322.19,0.0],[123.721986,10.276582,322.46,0.0],[123.721998,10.276934,320.91,0.0],[123.722063,10.27713,322.61,0.0],[123.722075,10.277271,323.03,0.0],[123.722031,10.277378,322.3,0.0],[123.72199,10.277606,325.89,0.0],[123.721913,10.277712,328.08,0.0],[123.721808,10.277894,332.02,0.0],[123.721953,10.278642,347.74,0.0],[123.721929,10.278818,350.6,0.0],[123.721847,10.279045,353.64,0.0],[123.72187,10.27924,355.66,0.0],[123.721949,10.279346,358.96,0.0],[123.722242,10.279414,366.15,0.0],[123.722339,10.279358,367.76,0.0],[123.722396,10.279194,368.03,0.0],[123.722417,10.279118,367.48,0.0],[123.722529,10.279091,369.96,0.0],[123.722642,10.279136,373.4,0.0],[123.722774,10.279202,377.66,0.0],[123.72325,10.279214,389.43,0.0],[123.72347,10.279199,392.33,0.0],[123.723762,10.279286,395.27,0.0],[123.723917,10.27927,396.55,0.0],[123.724189,10.279181,397.82,0.0],[123.724384,10.279202,398.14,0.0],[123.724624,10.27918,402.46,0.0],[123.724864,10.279158,409.21,0.0],[123.725268,10.278876,419.27,0.0],[123.72547,10.278735,420.27,0.0],[123.72557,10.278716,421.36,0.0],[123.72568,10.27877,423.94,0.0],[123.725874,10.278994,430.88,0.0],[123.725912,10.279206,436.94,0.0],[123.725906,10.279588,446.95,0.0],[123.72593,10.279666,448.65,0.0],[123.725986,10.27971,449.36,0.0],[123.726092,10.279726,449.1,0.0],[123.726324,10.279658,447.03,0.0],[123.726421,10.279683,448.41,0.0],[123.726611,10.279904,456.44,0.0],[123.727018,10.280004,462.83,0.0],[123.727082,10.279972,463.62,0.0],[123.727144,10.279877,464.58,0.0],[123.727268,10.279546,465.56,0.0],[123.727335,10.279404,464.04,0.0],[123.727382,10.279385,465.11,0.0],[123.727669,10.279422,473.43,0.0],[123.727897,10.279512,481.14,0.0],[123.728047,10.279558,484.28,0.0],[123.728467,10.279792,492.77,0.0],[123.728596,10.279874,494.72,0.0],[123.728707,10.280077,493.07,0.0],[123.728763,10.280102,493.14,0.0],[123.729007,10.280038,496.88,0.0],[123.729328,10.280142,494.67,0.0],[123.729641,10.280362,487.24,0.0],[123.729832,10.280374,488.73,0.0],[123.729958,10.280494,482.72,0.0],[123.730059,10.280656,476.69,0.0],[123.730079,10.280924,473.86,0.0],[123.730091,10.281112,474.3,0.0],[123.730242,10.281351,476.34,0.0],[123.730429,10.281564,475.69,0.0],[123.730678,10.28169,469.98,0.0],[123.730812,10.28175,469.11,0.0],[123.730885,10.281904,467.9,0.0],[123.730907,10.28203,465.38,0.0],[123.730905,10.282121,462.83,0.0],[123.730936,10.282175,461.19,0.0],[123.731044,10.282182,461.84,0.0],[123.731328,10.28215,458.51,0.0],[123.731743,10.282126,447.34,0.0],[123.731966,10.282162,446.71,0.0],[123.732051,10.282228,448.51,0.0],[123.732091,10.282323,449.11,0.0],[123.732275,10.282638,455.04,0.0],[123.732393,10.282959,458.07,0.0],[123.732462,10.283051,458.86,0.0],[123.732877,10.283075,473.14,0.0],[123.732946,10.283131,473.74,0.0],[123.733023,10.283323,474.65,0.0],[123.733011,10.283439,474.77,0.0],[123.732889,10.283555,471.45,0.0],[123.732759,10.283635,466.33,0.0],[123.732725,10.28377,467.39,0.0],[123.732731,10.283856,468.58,0.0],[123.732804,10.283951,473.16,0.0],[123.73293,10.283991,478.15,0.0],[123.733044,10.284151,479.01,0.0],[123.73319,10.284235,481.95,0.0],[123.733349,10.284227,486.17,0.0],[123.733475,10.284271,486.3,0.0],[123.733731,10.284623,478.2,0.0],[123.733918,10.284851,477.48,0.0],[123.734064,10.284991,478.99,0.0],[123.73417,10.285187,481.6,0.0],[123.734219,10.285655,487.02,0.0],[123.734219,10.285967,484.73,0.0],[123.734308,10.286231,478.73,0.0],[123.734308,10.286451,477.53,0.0],[123.734267,10.286791,479.01,0.0],[123.734349,10.287119,484.02,0.0],[123.734528,10.287383,488.36,0.0],[123.734648,10.287532,489.76,0.0],[123.734719,10.287687,488.58,0.0],[123.734737,10.28778,487.91,0.0],[123.734785,10.287814,489.56,0.0],[123.734889,10.287779,493.77,0.0],[123.735093,10.287691,498.57,0.0],[123.735361,10.287459,499.25,0.0],[123.735548,10.287161,495.84,0.0],[123.73562,10.287145,496.35,0.0],[123.735696,10.28718,498.14,0.0],[123.735832,10.287205,499.65,0.0],[123.735967,10.287139,497.04,0.0],[123.73626,10.286975,488.21,0.0],[123.736508,10.286667,477.63,0.0],[123.736671,10.286568,474.66,0.0],[123.736892,10.286561,471.15,0.0],[123.737113,10.286553,465.26,0.0],[123.737779,10.286486,446.23,0.0],[123.738068,10.28646,440.77,0.0],[123.738523,10.286487,435.88,0.0]]]}}]}