{"type":"FeatureCollection","features":[{"type":"Feature","id":"528726dd-0ad5-4426-bf62-847f69d05aea","properties":{"id":"528726dd-0ad5-4426-bf62-847f69d05aea","updated_date":"2026-08-16T07:53:06Z","time_created":"2026-08-16T02:59:30Z","last_updated_on_server":"2026-08-16T07:53:06.916186","db_insert_date":"2026-08-16T07:53:06Z","deleted":false,"title":"Sunday Morning Hiking","public":false,"color":"#5726C2","hexcolor":"#5726C2","is_active":true,"revision":1786866786,"notes":"","track_type":"track","routing_mode":null,"uploaded_gpx_to_osm":null,"flag":null,"source":null,"cover_photo_id":null,"distance":1082.4560059541122,"total_ascent":10.317031860351562,"total_descent":14.150955200195312,"stopped_time":54.5,"total_time":314.0,"average_speed":3.447312120872969,"moving_time":259.5,"moving_speed":4.171314088455153,"activities":[],"imported":true,"folder":"fa3c1c6d-3382-4698-957d-00e13dbcd06e","privacy_level":null,"sync_to_mobile":null,"preferred_link":"/public/uomMGB1sgygmciVSzGJ6SCz8","favorite_count":0,"comment_count":0,"comments":[],"user_photo_count":0,"latitude":10.271657887488498,"longitude":123.75422261443477,"writable":false},"style":{"stroke":"#5726C2"},"geometry":{"type":"MultiLineString","coordinates":[[[123.754712,10.275039,62.98614501953125,1786849170.0],[123.754785,10.275024,62.90130615234375,1786849178.0],[123.754791,10.274999,63.30316162109375,1786849182.0],[123.754713,10.274997,66.6409912109375,1786849224.0],[123.754698,10.275001,66.7230224609375,1786849225.0],[123.754554,10.275013,67.0,1786849232.0],[123.754529,10.274993,67.623291015625,1786849234.0],[123.754507,10.274976,67.63861083984375,1786849235.0],[123.754491,10.274961,67.9608154296875,1786849236.0],[123.754468,10.274873,67.69970703125,1786849240.0],[123.754452,10.274848,68.1055908203125,1786849241.0],[123.75437,10.274788,67.09912109375,1786849244.0],[123.754352,10.274774,67.18743896484375,1786849245.0],[123.75434,10.274759,67.0355224609375,1786849246.0],[123.754342,10.274736,67.0015869140625,1786849247.0],[123.75438,10.274672,67.55499267578125,1786849250.0],[123.754396,10.274619,67.52783203125,1786849252.0],[123.754387,10.274561,67.8580322265625,1786849254.0],[123.754373,10.27453,67.80548095703125,1786849255.0],[123.754308,10.274444,67.2391357421875,1786849258.0],[123.754144,10.274295,68.13800048828125,1786849264.0],[123.754119,10.274272,68.1241455078125,1786849265.0],[123.754073,10.274239,68.4815673828125,1786849267.0],[123.754023,10.274218,68.4500732421875,1786849269.0],[123.753944,10.274218,68.9154052734375,1786849272.0],[123.753894,10.274245,69.2183837890625,1786849274.0],[123.75387,10.274257,68.89923095703125,1786849275.0],[123.753794,10.27426,68.7266845703125,1786849278.0],[123.753626,10.274202,69.67779541015625,1786849284.0],[123.7536,10.274194,70.023681640625,1786849285.0],[123.753399,10.274139,71.17437744140625,1786849306.0],[123.753386,10.274136,71.44500732421875,1786849307.0],[123.753209,10.274094,71.917724609375,1786849318.0],[123.75319,10.274085,71.8028564453125,1786849319.0],[123.753157,10.274069,70.80413818359375,1786849320.0],[123.753135,10.274043,71.0865478515625,1786849321.0],[123.753108,10.273979,71.61749267578125,1786849323.0],[123.753089,10.27388,72.22528076171875,1786849326.0],[123.753105,10.273793,72.626708984375,1786849328.0],[123.753107,10.273787,73.044677734375,1786849329.0],[123.753228,10.273457,73.82281494140625,1786849338.0],[123.753249,10.273425,73.7374267578125,1786849339.0],[123.753414,10.273233,71.33984375,1786849346.0],[123.753476,10.27319,71.5384521484375,1786849348.0],[123.753505,10.273178,72.9932861328125,1786849349.0],[123.753675,10.273065,71.67816162109375,1786849354.0],[123.753737,10.272962,65.17803955078125,1786849356.0],[123.753767,10.272933,66.4769287109375,1786849357.0],[123.75378,10.272887,67.89544677734375,1786849358.0],[123.753799,10.272851,68.2916259765625,1786849359.0],[123.753875,10.272692,69.67822265625,1786849363.0],[123.753878,10.272572,70.85357666015625,1786849366.0],[123.75386,10.272488,71.1783447265625,1786849368.0],[123.753851,10.272446,70.959716796875,1786849369.0],[123.753833,10.27236,71.0439453125,1786849371.0],[123.753743,10.272096,72.88909912109375,1786849378.0],[123.753738,10.27206,73.1280517578125,1786849379.0],[123.753687,10.271856,72.83709716796875,1786849386.0],[123.753688,10.271794,72.61871337890625,1786849388.0],[123.753696,10.271763,72.6444091796875,1786849389.0],[123.753704,10.271693,72.25103759765625,1786849391.0],[123.753724,10.271632,72.3873291015625,1786849393.0],[123.75375,10.271438,73.1036376953125,1786849398.0],[123.753757,10.271398,72.9049072265625,1786849399.0],[123.753775,10.271295,72.81610107421875,1786849402.0],[123.753857,10.271148,73.1427001953125,1786849408.0],[123.753873,10.271124,73.07342529296875,1786849409.0],[123.754034,10.270943,73.072509765625,1786849418.0],[123.754055,10.27092,72.821044921875,1786849419.0],[123.75424,10.270718,72.4619140625,1786849425.0],[123.754309,10.27062,71.2572021484375,1786849427.0],[123.754338,10.270563,70.86248779296875,1786849428.0],[123.754358,10.270503,70.2247314453125,1786849429.0],[123.754414,10.270399,69.45892333984375,1786849431.0],[123.754454,10.270357,69.11553955078125,1786849432.0],[123.754645,10.270216,68.7840576171875,1786849436.0],[123.754753,10.270147,68.3643798828125,1786849438.0],[123.754811,10.270113,68.21075439453125,1786849439.0],[123.755044,10.269994,67.5877685546875,1786849443.0],[123.755089,10.269958,67.5269775390625,1786849444.0],[123.755126,10.269917,67.55755615234375,1786849445.0],[123.755151,10.269868,67.9437255859375,1786849446.0],[123.755173,10.269746,67.31109619140625,1786849448.0],[123.755162,10.269683,66.9368896484375,1786849449.0],[123.755134,10.269624,66.8751220703125,1786849450.0],[123.754958,10.269378,65.67523193359375,1786849454.0],[123.754924,10.26931,65.682373046875,1786849455.0],[123.754901,10.269236,65.27679443359375,1786849456.0],[123.754894,10.269087,64.69873046875,1786849458.0],[123.754888,10.269014,65.0159912109375,1786849459.0],[123.754868,10.268946,64.07757568359375,1786849460.0],[123.754761,10.268762,63.25140380859375,1786849463.0],[123.754741,10.268703,62.96337890625,1786849464.0],[123.754746,10.268583,62.5989990234375,1786849466.0],[123.754779,10.268462,62.52197265625,1786849468.0],[123.754797,10.268401,62.591064453125,1786849469.0],[123.754873,10.268213,62.3240966796875,1786849472.0],[123.754934,10.268099,61.9498291015625,1786849474.0],[123.7551,10.267889,60.68994140625,1786849478.0],[123.755146,10.267836,60.36370849609375,1786849479.0],[123.755377,10.267629,60.05047607421875,1786849484.0]]]}}]}