{"type":"FeatureCollection","id":"cdd4edcb-bd3b-4cac-b44d-8b0fdcc4b002","properties":{"id":"cdd4edcb-bd3b-4cac-b44d-8b0fdcc4b002","name":"xx_gpx","updated_date":"2026-08-18T03:39:11Z","time_created":"2026-08-18T03:39:11Z","notes":"","cover_photo_id":null,"deleted":false,"sync_to_mobile":null},"features":[{"type":"Feature","properties":{"id":"33b24608-9d97-4573-8aac-818cb6644b00","updated_date":"2026-08-18T03:39:11Z","time_created":"2026-08-18T03:38:24Z","last_updated_on_server":"2026-08-18T03:39:11.843067","db_insert_date":"2026-08-18T03:39:11Z","deleted":false,"title":"Untitled Track","public":false,"color":"{1.000, 0.384, 0.000, 1.000}","hexcolor":"#FF6200","is_active":true,"revision":1787024351,"notes":"","track_type":"track","routing_mode":null,"uploaded_gpx_to_osm":null,"flag":null,"source":null,"cover_photo_id":null,"distance":5591.209646861803,"total_ascent":8.551666666666677,"total_descent":224.04000000000008,"stopped_time":0.0,"total_time":0.0,"average_speed":0,"moving_time":0.0,"moving_speed":0,"activities":[],"imported":true,"folder":"cdd4edcb-bd3b-4cac-b44d-8b0fdcc4b002","privacy_level":null,"sync_to_mobile":null,"preferred_link":"/public/JA9mr0vNpxiNKMfz8FivNbem","user_displayname":"onenet","username":"pislatpov","user_email":"onenet.cebu@gmail.com","user_id":3135682,"created_by":{"id":3135682,"displayName":"onenet","link":"/profile/3135682/","image":"https://www.gaiagps.com/profile/3135682/photo/"},"favorite_count":0,"comment_count":0,"comments":[],"user_photo_count":0,"latitude":10.33576474214064,"longitude":123.75513580273649,"writable":false},"style":{"stroke":"#FF6200"},"geometry":{"type":"MultiLineString","coordinates":[[[123.753299,10.326746,642.9,0.0],[123.753254,10.326758,643.03,0.0],[123.752996,10.326776,641.09,0.0],[123.752618,10.326834,638.55,0.0],[123.752082,10.327097,632.04,0.0],[123.751697,10.327424,625.89,0.0],[123.751675,10.327483,623.87,0.0],[123.751697,10.327521,622.03,0.0],[123.751757,10.327509,621.55,0.0],[123.751992,10.327367,622.91,0.0],[123.752364,10.327239,622.89,0.0],[123.752772,10.327247,621.42,0.0],[123.752932,10.327335,619.46,0.0],[123.752987,10.327455,615.37,0.0],[123.752979,10.327556,612.7,0.0],[123.752878,10.327641,609.88,0.0],[123.752285,10.327706,607.01,0.0],[123.751989,10.327739,608.43,0.0],[123.751768,10.32781,609.09,0.0],[123.7516,10.327956,606.9,0.0],[123.751387,10.328285,603.79,0.0],[123.751057,10.328623,603.58,0.0],[123.751005,10.328677,603.55,0.0],[123.750865,10.328736,603.67,0.0],[123.750675,10.32875,602.74,0.0],[123.750178,10.328558,602.51,0.0],[123.750082,10.328567,599.79,0.0],[123.750044,10.328633,596.81,0.0],[123.750144,10.328781,594.75,0.0],[123.750461,10.329166,589.11,0.0],[123.750777,10.329566,578.48,0.0],[123.751022,10.329649,575.81,0.0],[123.751254,10.329599,573.83,0.0],[123.751555,10.32939,572.06,0.0],[123.752114,10.329001,568.76,0.0],[123.752222,10.329002,567.49,0.0],[123.752281,10.329041,566.38,0.0],[123.752312,10.329116,564.86,0.0],[123.752257,10.32924,563.54,0.0],[123.751949,10.329486,561.99,0.0],[123.751831,10.329738,558.93,0.0],[123.751707,10.329966,558.32,0.0],[123.751521,10.330189,557.6,0.0],[123.751378,10.330336,556.65,0.0],[123.751208,10.330428,556.99,0.0],[123.751033,10.330457,555.72,0.0],[123.750857,10.330399,555.03,0.0],[123.75072,10.330262,555.87,0.0],[123.750657,10.33026,554.53,0.0],[123.750634,10.330309,552.67,0.0],[123.750677,10.330439,550.09,0.0],[123.75118,10.331189,540.13,0.0],[123.751306,10.331201,539.79,0.0],[123.751515,10.331092,539.3,0.0],[123.752486,10.330562,527.95,0.0],[123.752701,10.330603,525.61,0.0],[123.752749,10.33071,524.7,0.0],[123.752698,10.331007,523.55,0.0],[123.752724,10.331095,522.73,0.0],[123.752832,10.331116,521.35,0.0],[123.753492,10.330974,513.5,0.0],[123.753977,10.33096,507.47,0.0],[123.754462,10.330946,504.63,0.0],[123.754525,10.331001,503.96,0.0],[123.754534,10.331074,503.53,0.0],[123.754461,10.33114,503.15,0.0],[123.75405,10.331308,503.21,0.0],[123.753911,10.331356,503.09,0.0],[123.753674,10.331467,502.55,0.0],[123.753004,10.331847,501.45,0.0],[123.752341,10.332224,502.82,0.0],[123.752143,10.332398,501.82,0.0],[123.751916,10.332678,500.0,0.0],[123.751686,10.332833,498.24,0.0],[123.75151,10.332863,496.65,0.0],[123.751249,10.332802,495.55,0.0],[123.751014,10.332826,491.21,0.0],[123.751073,10.332884,491.21,0.0],[123.751266,10.333045,491.37,0.0],[123.75147,10.333166,491.05,0.0],[123.751697,10.333208,490.83,0.0],[123.75192,10.333227,490.42,0.0],[123.75221,10.333198,488.26,0.0],[123.752497,10.333137,486.16,0.0],[123.752851,10.33301,484.94,0.0],[123.753237,10.332863,482.14,0.0],[123.754034,10.33271,478.48,0.0],[123.75416,10.33272,477.65,0.0],[123.754205,10.332739,477.38,0.0],[123.754249,10.332796,477.1,0.0],[123.754255,10.332889,476.66,0.0],[123.754239,10.332996,475.64,0.0],[123.754168,10.333132,475.28,0.0],[123.754082,10.333274,474.67,0.0],[123.753953,10.333435,473.59,0.0],[123.753607,10.333744,472.52,0.0],[123.753264,10.334024,469.32,0.0],[123.753106,10.334203,466.2,0.0],[123.753023,10.334322,464.81,0.0],[123.752939,10.334547,462.1,0.0],[123.752786,10.334958,460.2,0.0],[123.752679,10.335174,459.58,0.0],[123.752618,10.335396,459.43,0.0],[123.752562,10.335637,457.65,0.0],[123.752526,10.335873,455.92,0.0],[123.752647,10.336156,454.66,0.0],[123.752808,10.33632,453.61,0.0],[123.752967,10.33646,453.1,0.0],[123.7532,10.33661,454.34,0.0],[123.753493,10.336819,456.38,0.0],[123.75379,10.337042,460.19,0.0],[123.753961,10.337195,461.51,0.0],[123.754277,10.337515,459.99,0.0],[123.754373,10.337684,458.81,0.0],[123.754416,10.337822,459.15,0.0],[123.754417,10.338029,460.38,0.0],[123.75441,10.338046,460.31,0.0],[123.754203,10.338552,458.51,0.0],[123.754122,10.33881,456.92,0.0],[123.754111,10.339058,457.29,0.0],[123.754094,10.339242,456.49,0.0],[123.754138,10.339433,457.43,0.0],[123.754208,10.339644,457.34,0.0],[123.754342,10.339829,458.35,0.0],[123.754492,10.339966,457.88,0.0],[123.754637,10.340151,455.86,0.0],[123.754841,10.340452,449.44,0.0],[123.754943,10.340631,446.15,0.0],[123.755217,10.341127,442.79,0.0],[123.755377,10.341364,441.81,0.0],[123.75556,10.341607,441.68,0.0],[123.755793,10.341866,440.59,0.0],[123.756067,10.341875,441.27,0.0],[123.756487,10.341781,441.92,0.0],[123.756539,10.34177,442.0,0.0],[123.756872,10.341738,442.47,0.0],[123.758262,10.341392,443.34,0.0],[123.758728,10.341369,443.62,0.0],[123.758977,10.341384,444.21,0.0],[123.759972,10.341448,437.49,0.0],[123.760155,10.341534,433.32,0.0],[123.760423,10.341682,429.34,0.0],[123.760654,10.341899,429.0,0.0],[123.760753,10.341961,429.0,0.0],[123.761226,10.34206,428.89,0.0],[123.761601,10.342142,427.12,0.0],[123.761654,10.342201,426.59,0.0],[123.761743,10.342354,424.73,0.0],[123.76191,10.342767,421.25,0.0],[123.762035,10.342999,421.97,0.0],[123.762038,10.343122,422.66,0.0],[123.762004,10.343342,423.76,0.0],[123.762046,10.343449,424.66,0.0],[123.762177,10.34362,427.83,0.0],[123.762467,10.343948,429.73,0.0],[123.762518,10.344036,429.3,0.0],[123.76251,10.344146,429.99,0.0],[123.762448,10.344431,433.56,0.0],[123.76244,10.344556,434.47,0.0],[123.762499,10.344837,435.67,0.0],[123.762614,10.345043,435.99,0.0],[123.762708,10.345154,436.37,0.0],[123.762826,10.345399,434.31,0.0],[123.762928,10.345511,433.71,0.0],[123.76295,10.345587,433.34,0.0],[123.762963,10.345721,432.71,0.0],[123.762942,10.345856,431.86,0.0],[123.762893,10.345978,431.47,0.0],[123.762786,10.346088,429.95,0.0],[123.762571,10.346245,427.18,0.0],[123.762507,10.346381,427.0,0.0],[123.762515,10.346486,427.0,0.0],[123.762561,10.346622,427.02,0.0],[123.762955,10.347406,425.68,0.0],[123.763082,10.347738,425.0,0.0],[123.763064,10.347742,425.0,0.0],[123.763082,10.347738,425.0,0.0],[123.763143,10.347754,424.98,0.0],[123.763388,10.347867,423.44,0.0],[123.763592,10.347989,420.12,0.0],[123.763738,10.348063,418.49,0.0],[123.763822,10.34808,418.45,0.0],[123.763891,10.348124,418.24,0.0],[123.764001,10.348285,417.58,0.0],[123.764071,10.348398,416.17,0.0],[123.764218,10.348575,414.1,0.0],[123.764327,10.34868,413.1,0.0],[123.764446,10.34889,412.01,0.0],[123.764609,10.349076,412.11,0.0],[123.764653,10.349163,412.23,0.0],[123.764695,10.349212,411.97,0.0]]]}},{"type":"Feature","properties":{"id":"029c4cc2-18a4-473b-8cbd-5e2c2e42ce15","updated_date":"2026-08-18T03:39:11Z","time_created":"2026-08-18T03:38:24Z","last_updated_on_server":"2026-08-18T03:39:11.896320","db_insert_date":"2026-08-18T03:39:11Z","deleted":false,"title":"Untitled Track","public":false,"color":"{0.000, 0.643, 0.471, 1.000}","hexcolor":"#00A478","is_active":true,"revision":1787024351,"notes":"","track_type":"track","routing_mode":null,"uploaded_gpx_to_osm":null,"flag":null,"source":null,"cover_photo_id":null,"distance":1591.5353041393914,"total_ascent":55.99000000000001,"total_descent":0.0,"stopped_time":0.0,"total_time":0.0,"average_speed":0,"moving_time":0.0,"moving_speed":0,"activities":[],"imported":true,"folder":"cdd4edcb-bd3b-4cac-b44d-8b0fdcc4b002","privacy_level":null,"sync_to_mobile":null,"preferred_link":"/public/S2fQN1K9KLfXdaTDJjKnLQGZ","user_displayname":"onenet","username":"pislatpov","user_email":"onenet.cebu@gmail.com","user_id":3135682,"created_by":{"id":3135682,"displayName":"onenet","link":"/profile/3135682/","image":"https://www.gaiagps.com/profile/3135682/photo/"},"favorite_count":0,"comment_count":0,"comments":[],"user_photo_count":0,"latitude":10.34250214062505,"longitude":123.75506398281779,"writable":false},"style":{"stroke":"#00A478"},"geometry":{"type":"MultiLineString","coordinates":[[[123.759235,10.345867,383.34,0.0],[123.759141,10.345507,384.66,0.0],[123.758959,10.345217,385.02,0.0],[123.758656,10.344898,388.58,0.0],[123.758508,10.34473,389.34,0.0],[123.757997,10.344345,391.35,0.0],[123.757451,10.343959,392.71,0.0],[123.756909,10.343626,393.67,0.0],[123.756561,10.343481,393.44,0.0],[123.756147,10.343338,392.85,0.0],[123.756,10.343302,392.2,0.0],[123.755759,10.343283,392.72,0.0],[123.755522,10.343243,393.99,0.0],[123.755051,10.343104,393.97,0.0],[123.754505,10.342851,391.07,0.0],[123.754222,10.342748,391.72,0.0],[123.753642,10.342583,394.44,0.0],[123.75328,10.342399,396.56,0.0],[123.753079,10.342241,395.22,0.0],[123.752924,10.341886,394.63,0.0],[123.752824,10.341158,395.19,0.0],[123.752816,10.340963,396.25,0.0],[123.752768,10.340536,398.24,0.0],[123.752778,10.340267,399.66,0.0],[123.752811,10.339959,402.04,0.0],[123.752875,10.339816,403.77,0.0],[123.752969,10.33976,405.33,0.0],[123.753082,10.339811,406.83,0.0],[123.75314,10.339968,408.31,0.0],[123.753274,10.340384,413.92,0.0],[123.753376,10.340697,416.14,0.0],[123.753477,10.34101,414.28,0.0],[123.753543,10.341309,414.62,0.0],[123.753621,10.341626,418.22,0.0],[123.753661,10.341748,418.99,0.0],[123.753725,10.341818,419.99,0.0],[123.753835,10.341874,420.24,0.0],[123.754117,10.341916,420.13,0.0],[123.754573,10.341913,424.94,0.0],[123.754905,10.341903,430.08,0.0],[123.755163,10.341937,432.36,0.0],[123.755547,10.342032,434.92,0.0],[123.755635,10.342029,436.18,0.0],[123.755726,10.342016,437.8,0.0],[123.755777,10.341948,439.67,0.0],[123.755788,10.341891,440.31,0.0]]]}}]}