{"type":"FeatureCollection","id":"a16262d9-c64a-43c1-8c0e-46dd9d1bdd77","properties":{"id":"a16262d9-c64a-43c1-8c0e-46dd9d1bdd77","name":"habal_routes_cantao_an_gpx","updated_date":"2026-08-21T05:41:37Z","time_created":"2026-08-21T05:41:37Z","notes":"","cover_photo_id":null,"deleted":false,"sync_to_mobile":null},"features":[{"type":"Feature","properties":{"id":"a8899af6-df07-4d8f-8cb2-f09233aa0665","updated_date":"2026-08-21T05:41:37Z","time_created":"2026-08-21T05:41:35Z","last_updated_on_server":"2026-08-21T05:41:37.639330","db_insert_date":"2026-08-21T05:41:37Z","deleted":false,"title":"Untitled Track","public":false,"color":"{0.478, 0.851, 0.082, 1.000}","hexcolor":"#7AD915","is_active":true,"revision":1787290897,"notes":"","track_type":"track","routing_mode":null,"uploaded_gpx_to_osm":null,"flag":null,"source":null,"cover_photo_id":null,"distance":2391.865136328464,"total_ascent":2.0450000000000443,"total_descent":142.10000000000002,"stopped_time":0.0,"total_time":0.0,"average_speed":0,"moving_time":0.0,"moving_speed":0,"activities":[],"imported":true,"folder":"a16262d9-c64a-43c1-8c0e-46dd9d1bdd77","privacy_level":null,"sync_to_mobile":null,"preferred_link":"/public/FonvOyXGFBvACeSJPw7b1euw","user_displayname":"onenet","username":"pislatpov","user_email":"onenet.cebu@gmail.com","user_id":3135682,"created_by":{"id":3135682,"displayName":"onenet","link":"/profile/3135682/","image":"https://www.gaiagps.com/profile/3135682/photo/"},"favorite_count":0,"comment_count":0,"comments":[],"user_photo_count":0,"latitude":10.25327032642868,"longitude":123.75489722481277,"writable":false},"style":{"stroke":"#7AD915"},"geometry":{"type":"MultiLineString","coordinates":[[[123.753051,10.244664,178.1,0.0],[123.753058,10.244706,178.93,0.0],[123.753,10.244831,180.92,0.0],[123.752873,10.245064,184.33,0.0],[123.752844,10.245238,186.47,0.0],[123.752856,10.245354,187.73,0.0],[123.752876,10.245444,188.29,0.0],[123.753025,10.245754,189.14,0.0],[123.753149,10.246185,184.4,0.0],[123.753182,10.24651,181.21,0.0],[123.75318,10.246792,179.99,0.0],[123.753137,10.24693,178.01,0.0],[123.752958,10.247126,170.76,0.0],[123.752778,10.247322,165.6,0.0],[123.752698,10.247469,163.44,0.0],[123.752628,10.247639,161.58,0.0],[123.752585,10.24783,160.52,0.0],[123.752576,10.247954,159.62,0.0],[123.752619,10.248108,159.03,0.0],[123.752797,10.24842,156.2,0.0],[123.752811,10.248506,155.78,0.0],[123.752789,10.24859,155.29,0.0],[123.752728,10.248658,155.19,0.0],[123.752589,10.248761,154.42,0.0],[123.752502,10.24886,154.96,0.0],[123.752422,10.248997,156.21,0.0],[123.752371,10.249164,158.31,0.0],[123.75235,10.249287,159.73,0.0],[123.75235,10.249413,161.48,0.0],[123.752395,10.249552,162.69,0.0],[123.752462,10.249642,163.61,0.0],[123.752676,10.249856,163.5,0.0],[123.753178,10.25034,158.56,0.0],[123.753274,10.250401,157.94,0.0],[123.753426,10.250454,156.69,0.0],[123.753564,10.250468,154.91,0.0],[123.753753,10.250426,153.65,0.0],[123.75406,10.250309,151.95,0.0],[123.754368,10.250193,153.57,0.0],[123.754535,10.250167,155.21,0.0],[123.754639,10.250181,156.07,0.0],[123.754733,10.250228,156.73,0.0],[123.754907,10.250422,154.63,0.0],[123.755045,10.250709,151.57,0.0],[123.755251,10.251527,146.34,0.0],[123.75525,10.251689,144.79,0.0],[123.755223,10.251783,143.26,0.0],[123.755114,10.25196,140.19,0.0],[123.754891,10.25224,136.87,0.0],[123.754723,10.252585,133.61,0.0],[123.754706,10.252821,131.91,0.0],[123.754737,10.252958,130.66,0.0],[123.754854,10.253213,125.64,0.0],[123.755315,10.253931,112.55,0.0],[123.755379,10.254143,108.65,0.0],[123.755398,10.254337,105.57,0.0],[123.755378,10.254953,96.21,0.0],[123.755397,10.255261,90.61,0.0],[123.755434,10.255877,82.74,0.0],[123.755602,10.256478,78.04,0.0],[123.755739,10.256986,67.49,0.0],[123.75615,10.257982,51.89,0.0],[123.756356,10.25848,47.03,0.0],[123.756594,10.258987,44.83,0.0],[123.756764,10.259374,43.75,0.0],[123.756799,10.259488,43.47,0.0],[123.756803,10.25958,43.45,0.0],[123.756786,10.259715,44.35,0.0],[123.756644,10.260009,46.08,0.0],[123.756863,10.260139,45.4,0.0],[123.757117,10.260328,44.88,0.0],[123.757477,10.260651,43.17,0.0],[123.757768,10.260979,42.22,0.0],[123.758043,10.261354,41.24,0.0],[123.758427,10.261937,42.0,0.0],[123.758574,10.262157,40.72,0.0]]]}},{"type":"Feature","properties":{"id":"25fcc4d7-502c-478e-9bfa-438323657711","updated_date":"2026-08-21T05:41:37Z","time_created":"2026-08-21T05:41:35Z","last_updated_on_server":"2026-08-21T05:41:37.612275","db_insert_date":"2026-08-21T05:41:37Z","deleted":false,"title":"Untitled Track","public":false,"color":"{0.000, 0.000, 0.000, 1.000}","hexcolor":"#000000","is_active":true,"revision":1787290897,"notes":"","track_type":"track","routing_mode":null,"uploaded_gpx_to_osm":null,"flag":null,"source":null,"cover_photo_id":null,"distance":5927.965036346243,"total_ascent":172.12,"total_descent":159.23000000000005,"stopped_time":0.0,"total_time":0.0,"average_speed":0,"moving_time":0.0,"moving_speed":0,"activities":[],"imported":true,"folder":"a16262d9-c64a-43c1-8c0e-46dd9d1bdd77","privacy_level":null,"sync_to_mobile":null,"preferred_link":"/public/iVf51m1C3SPIWJE1aynKZjqH","user_displayname":"onenet","username":"pislatpov","user_email":"onenet.cebu@gmail.com","user_id":3135682,"created_by":{"id":3135682,"displayName":"onenet","link":"/profile/3135682/","image":"https://www.gaiagps.com/profile/3135682/photo/"},"favorite_count":0,"comment_count":0,"comments":[],"user_photo_count":0,"latitude":10.238479921735616,"longitude":123.75165912909397,"writable":false},"style":{"stroke":"#000000"},"geometry":{"type":"MultiLineString","coordinates":[[[123.772244,10.233931,11.21,0.0],[123.771678,10.234395,11.8,0.0],[123.771433,10.234681,12.39,0.0],[123.771351,10.234795,12.79,0.0],[123.771253,10.235037,14.86,0.0],[123.771224,10.235251,17.01,0.0],[123.771222,10.23545,19.26,0.0],[123.771203,10.235568,20.98,0.0],[123.771155,10.235683,22.61,0.0],[123.77109,10.235776,23.11,0.0],[123.771002,10.235855,23.67,0.0],[123.770708,10.236084,25.68,0.0],[123.770618,10.236164,26.29,0.0],[123.770434,10.236346,28.5,0.0],[123.770239,10.236579,29.0,0.0],[123.769966,10.236995,29.0,0.0],[123.769898,10.237067,29.0,0.0],[123.769776,10.237176,30.25,0.0],[123.769498,10.237307,31.8,0.0],[123.7694,10.237364,32.47,0.0],[123.76928,10.237449,33.48,0.0],[123.768641,10.238023,40.27,0.0],[123.767905,10.238655,45.33,0.0],[123.767792,10.238733,46.29,0.0],[123.767669,10.238796,46.98,0.0],[123.767585,10.238827,46.92,0.0],[123.7672,10.238885,45.18,0.0],[123.76699,10.238917,42.69,0.0],[123.766835,10.238981,40.94,0.0],[123.766614,10.239238,43.32,0.0],[123.766479,10.239297,42.71,0.0],[123.765947,10.239473,42.05,0.0],[123.765773,10.239519,42.31,0.0],[123.765616,10.239525,41.35,0.0],[123.765296,10.239517,38.8,0.0],[123.765007,10.239468,38.39,0.0],[123.7648,10.239439,40.84,0.0],[123.764453,10.239432,44.8,0.0],[123.764117,10.23952,48.41,0.0],[123.763627,10.239665,52.16,0.0],[123.763455,10.23969,51.44,0.0],[123.763252,10.239625,47.54,0.0],[123.762551,10.239363,56.07,0.0],[123.762317,10.239276,56.43,0.0],[123.761013,10.23879,72.4,0.0],[123.760774,10.238716,74.7,0.0],[123.760549,10.238676,75.41,0.0],[123.760062,10.238666,74.07,0.0],[123.759572,10.238653,75.89,0.0],[123.759326,10.238645,78.1,0.0],[123.759081,10.238638,86.08,0.0],[123.758828,10.238573,95.12,0.0],[123.758576,10.238508,98.82,0.0],[123.758246,10.238561,105.09,0.0],[123.758015,10.23863,107.84,0.0],[123.757607,10.238784,110.72,0.0],[123.757268,10.23891,115.42,0.0],[123.757072,10.239008,119.29,0.0],[123.756952,10.239081,120.7,0.0],[123.756798,10.239228,123.65,0.0],[123.756674,10.239375,124.79,0.0],[123.756569,10.239538,124.08,0.0],[123.756433,10.23984,122.48,0.0],[123.756355,10.240012,121.57,0.0],[123.756381,10.240379,130.24,0.0],[123.756245,10.240712,136.31,0.0],[123.756136,10.240958,138.61,0.0],[123.756026,10.241205,138.62,0.0],[123.755916,10.241451,136.27,0.0],[123.755796,10.241697,134.53,0.0],[123.755675,10.241942,135.58,0.0],[123.755471,10.242274,147.21,0.0],[123.755309,10.242474,158.53,0.0],[123.755099,10.242721,163.2,0.0],[123.754319,10.24358,166.88,0.0],[123.753901,10.244037,175.89,0.0],[123.753692,10.244265,177.25,0.0],[123.753505,10.24443,178.17,0.0],[123.753288,10.24454,178.38,0.0],[123.753188,10.244579,177.98,0.0],[123.752938,10.244643,176.4,0.0],[123.752637,10.244637,177.46,0.0],[123.752565,10.244628,178.26,0.0],[123.752389,10.244575,181.08,0.0],[123.752266,10.244512,183.25,0.0],[123.751983,10.244329,185.19,0.0],[123.750761,10.243511,181.97,0.0],[123.750117,10.243079,185.16,0.0],[123.749753,10.24284,189.35,0.0],[123.749083,10.242945,192.62,0.0],[123.748769,10.242708,192.9,0.0],[123.748344,10.242333,190.82,0.0],[123.747795,10.241966,187.55,0.0],[123.747759,10.241895,186.88,0.0],[123.747759,10.241767,186.88,0.0],[123.74783,10.241535,188.53,0.0],[123.747635,10.241407,184.75,0.0],[123.74744,10.241279,184.65,0.0],[123.747228,10.241067,188.25,0.0],[123.747016,10.240856,187.65,0.0],[123.746804,10.240644,183.42,0.0],[123.746537,10.240133,180.35,0.0],[123.74638,10.2399,177.09,0.0],[123.74618,10.239689,173.07,0.0],[123.745662,10.23929,165.41,0.0],[123.74538,10.239036,163.99,0.0],[123.745364,10.238873,165.06,0.0],[123.745158,10.238717,162.17,0.0],[123.744747,10.238407,152.79,0.0],[123.744335,10.238214,145.42,0.0],[123.743843,10.238081,139.39,0.0],[123.743596,10.238015,134.66,0.0],[123.743266,10.238053,128.02,0.0],[123.742997,10.238247,124.99,0.0],[123.742869,10.23826,122.72,0.0],[123.742462,10.23826,116.61,0.0],[123.742269,10.238298,114.63,0.0],[123.741956,10.238329,110.7,0.0],[123.741735,10.238435,106.65,0.0],[123.74167,10.238422,105.29,0.0],[123.741562,10.238337,103.84,0.0],[123.741142,10.237859,99.66,0.0],[123.741093,10.237782,98.64,0.0],[123.741078,10.237696,97.65,0.0],[123.741097,10.237635,97.15,0.0],[123.741292,10.237419,95.93,0.0],[123.741297,10.23733,95.06,0.0],[123.741271,10.237268,94.04,0.0],[123.741103,10.237064,90.54,0.0],[123.741092,10.236963,90.42,0.0],[123.740978,10.236879,88.52,0.0],[123.740655,10.236463,81.01,0.0],[123.740363,10.236121,76.48,0.0],[123.740013,10.235881,70.85,0.0],[123.739838,10.235807,68.72,0.0],[123.739676,10.23579,66.7,0.0],[123.739474,10.235843,66.2,0.0],[123.739227,10.236029,62.6,0.0],[123.739101,10.236099,59.68,0.0],[123.738843,10.236171,53.64,0.0],[123.738593,10.236159,50.49,0.0],[123.738458,10.236137,49.48,0.0],[123.737286,10.236005,42.1,0.0],[123.737142,10.235981,41.24,0.0],[123.736887,10.235996,41.9,0.0],[123.73677,10.235965,42.4,0.0],[123.736655,10.235876,41.92,0.0],[123.736488,10.235671,40.59,0.0],[123.736454,10.235507,39.06,0.0],[123.736288,10.23529,38.14,0.0],[123.735957,10.234857,40.88,0.0],[123.735626,10.234423,36.0,0.0],[123.735324,10.234028,37.01,0.0],[123.735153,10.233803,35.38,0.0],[123.73501,10.233576,34.1,0.0],[123.734723,10.233121,35.31,0.0],[123.734412,10.232574,32.88,0.0],[123.734275,10.232372,31.35,0.0],[123.734121,10.232188,31.59,0.0],[123.733912,10.232007,32.09,0.0],[123.733494,10.231743,30.55,0.0],[123.733345,10.231627,30.55,0.0],[123.733208,10.231483,29.63,0.0],[123.733109,10.231349,29.45,0.0],[123.733024,10.231193,28.98,0.0],[123.732779,10.230659,28.37,0.0],[123.732715,10.230454,27.5,0.0],[123.732689,10.230285,27.65,0.0],[123.732681,10.230113,27.63,0.0],[123.732704,10.229951,26.94,0.0],[123.732751,10.229767,25.85,0.0]]]}}]}