{"type":"FeatureCollection","features":[{"type":"Feature","properties":[],"geometry":{"type":"MultiLineString","coordinates":[[[123.7634,10.261861,47,1773786431],[123.76336000000001,10.261958999999999,48,1773786467],[123.76331999999999,10.262048999999999,48,1773786477],[123.76331999999999,10.262161000000001,47,1773786513],[123.76336000000001,10.262257999999999,47,1773786562],[123.7634,10.262345,49,1773786572],[123.76340999999999,10.262447999999999,51,1773786582],[123.7634,10.262561,53,1773786592],[123.76338,10.262668,57,1773786603],[123.7634,10.262764000000001,60,1773786613],[123.76339,10.262860999999999,63,1773786624],[123.7634,10.262956000000001,64,1773786634],[123.76338,10.263052999999999,65,1773786707],[123.76333,10.263147999999999,67,1773786721],[123.76327999999999,10.263245,68,1773786734],[123.76331999999999,10.263344,69,1773786749],[123.76331999999999,10.263443000000001,71,1773786759],[123.76331,10.263543,73,1773786769],[123.76331,10.263648999999999,74,1773786780],[123.76327999999999,10.26374,77,1773786790],[123.76326,10.263833999999999,80,1773786887],[123.76327999999999,10.263923999999999,83,1773786897],[123.76333,10.264006,85,1773786909],[123.76338,10.264108,87,1773786949],[123.76342,10.264241999999999,89,1773787042],[123.76348,10.264335000000001,92,1773787073],[123.76355,10.264391,94,1773787101],[123.76364,10.26445,98,1773787116],[123.76372000000001,10.264499000000001,102,1773787198],[123.76382,10.264516,106,1773787235],[123.76392,10.264514,110,1773787305],[123.76401,10.264472,113,1773787342],[123.76409,10.264415,116,1773787352],[123.76416999999999,10.264362,119,1773787407],[123.76425999999999,10.264291,121,1773787420],[123.76434999999999,10.264241,124,1773787441],[123.76443,10.264188000000001,126,1773787458],[123.76452,10.264146999999999,128,1773787504],[123.76461999999999,10.264094999999999,132,1773787517],[123.7647,10.264056999999999,135,1773787527],[123.76478,10.264004999999999,137,1773787538],[123.76487,10.263941000000001,139,1773787550],[123.76494,10.263876,138,1773787593],[123.76503,10.263817,140,1773787730],[123.76512,10.263779,141,1773787742],[123.76519999999999,10.263731,142,1773787750],[123.76528999999999,10.263659000000001,141,1773787807],[123.76537999999999,10.263604000000001,140,1773787815],[123.76546,10.26356,139,1773787831],[123.76553,10.263629,140,1773787839],[123.76563,10.26369,144,1773787849],[123.76573,10.263700999999999,145,1773787857],[123.76582999999999,10.263714999999999,144,1773787865],[123.76593,10.263707999999999,143,1773787871],[123.76603,10.263711000000001,144,1773787879],[123.76613,10.263736,142,1773787894],[123.76618999999999,10.263807,143,1773787903],[123.76627999999999,10.263856000000001,144,1773787959],[123.76638,10.263894000000001,144,1773787970],[123.76648,10.263923,145,1773787979],[123.76657,10.263918,144,1773787988],[123.76666,10.263972000000001,141,1773787998],[123.76675,10.264014,139,1773788013],[123.76681000000001,10.263918,140,1773788028],[123.76687,10.263849,141,1773788036],[123.76693,10.263745999999999,139,1773788116],[123.767,10.263681999999999,140,1773788128],[123.7671,10.263699000000001,139,1773788161],[123.76724,10.263688,136,1773788184],[123.76732,10.263629,135,1773788194],[123.76738,10.26351,133,1773788362],[123.76747,10.263448,131,1773788376],[123.76752999999999,10.263369000000001,130,1773788438],[123.76759,10.263279000000001,129,1773788584],[123.76765,10.263209,130,1773788597],[123.76772,10.26314,128,1773788633],[123.76782,10.263088,127,1773788708],[123.76787,10.263013000000001,124,1773788741],[123.76795,10.262949000000001,122,1773788758],[123.76803,10.262892000000001,120,1773788772],[123.76813,10.262855999999999,117,1773788788],[123.76822,10.262814000000001,114,1773788800],[123.76832,10.262783000000001,110,1773788816],[123.76842000000001,10.262753999999999,110,1773788839],[123.76851000000001,10.262695000000001,109,1773788852],[123.76857,10.262615,108,1773788863],[123.76864,10.262530999999999,107,1773788954],[123.76873999999999,10.262491000000001,108,1773789040],[123.76882000000001,10.262423999999999,108,1773789058],[123.76891000000001,10.262378,110,1773789100],[123.76895,10.262289000000001,108,1773789191],[123.76900999999999,10.262224,107,1773789202],[123.76909000000001,10.262150999999999,106,1773789227],[123.76921,10.262072,104,1773789478],[123.76929,10.261946999999999,103,1773789499],[123.76937,10.261879,102,1773789518],[123.76945000000001,10.261808,102,1773789536],[123.76953,10.261766,102,1773789572],[123.76957,10.261683,102,1773789700],[123.76963000000001,10.261602999999999,102,1773789717],[123.76969,10.261531,101,1773789729],[123.76975,10.261455,101,1773789743],[123.76985000000001,10.261388,99,1773789788],[123.76992,10.261334,97,1773789891],[123.76999000000001,10.261252000000001,96,1773789910],[123.77007999999999,10.261203,94,1773789928],[123.77015,10.26113,92,1773789947],[123.77025,10.261085,91,1773789971],[123.77029,10.261001,91,1773789998],[123.77037,10.260935999999999,90,1773790050],[123.77046,10.260872000000001,89,1773790133],[123.77052,10.260797,87,1773790156],[123.77058,10.260707,87,1773790202],[123.77065,10.260643,84,1773790315],[123.77073,10.260566000000001,83,1773790331],[123.77082,10.260516000000001,80,1773790483],[123.7709,10.260465,79,1773790568],[123.771,10.260408,76,1773790644],[123.77105,10.260300000000001,72,1773790684],[123.77117,10.260247,68,1773790751],[123.77127,10.260249,68,1773790770],[123.77137,10.260241000000001,67,1773790784],[123.77127,10.260163,68,1773791004],[123.77119999999999,10.260051000000001,67,1773791087],[123.77113,10.259954,66,1773791100],[123.77104,10.259911000000001,69,1773791111],[123.77103,10.259822,65,1773791274],[123.7709,10.259733000000001,74,1773791294],[123.77079000000001,10.259719,74,1773791311],[123.77069,10.259689,75,1773791319],[123.77078,10.259726000000001,77,1773791446],[123.77082,10.259567000000001,77,1773791683],[123.77082,10.259831,74,1773792008],[123.77070000000001,10.259572,76,1773792156],[123.77057000000001,10.259415000000001,74,1773792305],[123.77047,10.259345,74,1773792326],[123.77037,10.259230000000001,72,1773792339],[123.77029,10.259142000000001,70,1773792356],[123.77036,10.259205,66,1773792429],[123.77029,10.259065,66,1773792455],[123.77030999999999,10.25916,70,1773792497],[123.77029,10.25906,69,1773792532],[123.77024,10.258940000000001,66,1773792543],[123.77027,10.258832,67,1773792558],[123.77021000000001,10.258758,67,1773792567],[123.77016999999999,10.258661999999999,64,1773792579],[123.77014,10.258570000000001,59,1773792609],[123.77011,10.258487000000001,58,1773792618],[123.77005,10.258402999999999,55,1773792628],[123.77001,10.258319999999999,52,1773792682],[123.76992,10.258274999999999,40,1773792852],[123.76985000000001,10.258188000000001,42,1773792862],[123.76981000000001,10.258100000000001,42,1773792880],[123.76984,10.258191999999999,40,1773793000],[123.76979,10.258065999999999,40,1773793034],[123.76973,10.257982999999999,38,1773793043],[123.76965,10.257925999999999,37,1773793053],[123.76957,10.25788,34,1773793064],[123.76946,10.257847,32,1773793082],[123.76936000000001,10.257854999999999,31,1773793097],[123.76931,10.257933,31,1773793108],[123.76922,10.257889,32,1773793133],[123.76918000000001,10.257797999999999,30,1773793143],[123.76913,10.257709,31,1773793154],[123.76909999999999,10.257609,33,1773793163],[123.76906,10.257510999999999,35,1773793172],[123.76895,10.257448,36,1773793184],[123.76885,10.257458,36,1773793193],[123.76875,10.257477,35,1773793202],[123.76864,10.257504000000001,36,1773793212],[123.76855,10.257543,34,1773793222],[123.76846,10.257576,34,1773793232],[123.76836,10.257599000000001,35,1773793240],[123.76826,10.257625000000001,36,1773793250],[123.76815999999999,10.257649000000001,36,1773793258],[123.76806000000001,10.257671,37,1773793266],[123.76792,10.257709,38,1773793278],[123.76763,10.257782000000001,37,1773793312],[123.76752999999999,10.257821,38,1773793320],[123.76743999999999,10.257859,38,1773793328],[123.76734999999999,10.257892,38,1773793336],[123.76724,10.257910000000001,39,1773793344],[123.76712999999999,10.257915000000001,38,1773793353],[123.76703000000001,10.25793,39,1773793361],[123.76693,10.257963999999999,40,1773793369],[123.76681000000001,10.257973,41,1773793379],[123.7667,10.257975999999999,41,1773793387],[123.76661,10.257948000000001,41,1773793395],[123.76651,10.257925999999999,41,1773793403],[123.76640999999999,10.257906,42,1773793411],[123.76631,10.257904,43,1773793419],[123.76621,10.257871,42,1773793428],[123.76609999999999,10.257887,39,1773793437],[123.76600999999999,10.257918,38,1773793445],[123.76591999999999,10.257961999999999,38,1773793453],[123.76582999999999,10.258003,37,1773793461],[123.76575,10.258065999999999,37,1773793469],[123.76567,10.258141,36,1773793480],[123.76560000000001,10.258203,36,1773793488],[123.76551000000001,10.258252000000001,35,1773793498],[123.76542999999999,10.258311000000001,36,1773793509],[123.76532,10.258352,36,1773793519],[123.76524000000001,10.258421,36,1773793529],[123.76515000000001,10.258471999999999,36,1773793537],[123.76506000000001,10.258523,37,1773793545],[123.76497999999999,10.258576,36,1773793553],[123.76488999999999,10.258635999999999,35,1773793562],[123.76481,10.258694999999999,35,1773793570],[123.76475000000001,10.258789,35,1773793580],[123.76469,10.258853,35,1773793588],[123.76463,10.258940000000001,35,1773793595],[123.76456,10.259016000000001,35,1773793604],[123.76448000000001,10.25906,35,1773793612],[123.76438,10.259104000000001,35,1773793619],[123.76425,10.259164,35,1773793630],[123.76415,10.259207,35,1773793638],[123.76411,10.259301000000001,35,1773793646],[123.76412000000001,10.259402,35,1773793654],[123.76415,10.259494,35,1773793662],[123.7642,10.259574000000001,36,1773793670],[123.76434,10.25956,35,1773793681],[123.76445,10.25956,36,1773793689],[123.76459,10.259524000000001,36,1773793700],[123.76468,10.259479000000001,36,1773793708],[123.76478,10.259460000000001,36,1773793716],[123.76488999999999,10.259433,36,1773793724],[123.76494,10.259550000000001,37,1773793739],[123.76491,10.259648,37,1773793747],[123.76492,10.259747000000001,38,1773793755],[123.76495,10.25986,38,1773793764],[123.76494,10.259954,36,1773793772],[123.76495,10.260062,36,1773793780],[123.76494,10.260168999999999,37,1773793788],[123.76492,10.260274000000001,37,1773793796],[123.76491,10.260377,37,1773793804],[123.76488999999999,10.260486,37,1773793812],[123.76488000000001,10.260585000000001,36,1773793820],[123.76487,10.260687000000001,37,1773793829],[123.76487,10.260790999999999,38,1773793836],[123.76488000000001,10.260897,39,1773793844],[123.76488999999999,10.260997,41,1773793853],[123.76484000000001,10.261089999999999,41,1773793862],[123.76477,10.261153999999999,42,1773793873],[123.76466000000001,10.261175,44,1773793881],[123.76456,10.26117,44,1773793890],[123.76446,10.261158,44,1773793898],[123.76437,10.261113,44,1773793906],[123.76427,10.261084,43,1773793915],[123.76416999999999,10.261075,42,1773793925],[123.76406,10.261053,41,1773793934],[123.76397,10.261058999999999,41,1773793942],[123.76385999999999,10.261056,41,1773793951],[123.76376999999999,10.261024000000001,41,1773793959],[123.76367,10.261017000000001,42,1773793968],[123.76356,10.261049999999999,42,1773793977],[123.76347,10.261087,43,1773793985],[123.76343,10.261202000000001,43,1773793993],[123.76340999999999,10.261304000000001,44,1773794000],[123.76342,10.261405,44,1773794008],[123.76342,10.261507999999999,44,1773794016],[123.7634,10.261607,44,1773794026],[123.76338,10.261709,45,1773794034],[123.76336999999999,10.261808,47,1773794044],[123.76338,10.261863,47,1773794050]]]}}]}
