{"type":"FeatureCollection","features":[{"type":"Feature","properties":[],"geometry":{"type":"MultiLineString","coordinates":[[[123.83798,10.309151999999999,274,1778019015],[123.83789,10.309127999999999,271,1778019023],[123.83779,10.309165999999999,272,1778019028],[123.83785,10.309241999999999,270,1778019045],[123.83786000000001,10.309412999999999,272,1778019090],[123.83794,10.309461000000001,268,1778019099],[123.83804000000001,10.309469999999999,267,1778019104],[123.83814,10.309528999999999,266,1778019118],[123.83822000000001,10.309588,264,1778019126],[123.83831000000001,10.309632000000001,265,1778019134],[123.83839999999999,10.309673999999999,265,1778019538],[123.83848999999999,10.309716999999999,264,1778019548],[123.83856,10.309791000000001,265,1778019557],[123.83862000000001,10.309868,268,1778019588],[123.83859,10.309972,265,1778019596],[123.83864,10.310093,266,1778019627],[123.83871000000001,10.310188,263,1778019689],[123.83877,10.310257999999999,262,1778019698],[123.83884999999999,10.310313000000001,261,1778019704],[123.83893,10.310378999999999,259,1778019712],[123.83899,10.310449,257,1778019721],[123.83907000000001,10.310525999999999,257,1778019731],[123.83914,10.310591000000001,257,1778019741],[123.83919,10.310670999999999,258,1778019748],[123.83922,10.310762,256,1778019756],[123.83923,10.310866000000001,255,1778019764],[123.83925000000001,10.310978,255,1778019774],[123.83927,10.311081,256,1778019782],[123.83929999999999,10.311175,258,1778019790],[123.83932,10.311266,257,1778019798],[123.83935,10.31137,255,1778019808],[123.83938000000001,10.311467,254,1778019816],[123.83945,10.31155,252,1778019826],[123.83941,10.311465999999999,252,1778019855],[123.83938000000001,10.311374000000001,257,1778019902],[123.83941,10.311479,256,1778019916],[123.83947999999999,10.311551,258,1778019948],[123.83942999999999,10.311641,254,1778020009],[123.83953,10.311643999999999,255,1778020077],[123.83962,10.311673000000001,255,1778020094],[123.83967,10.311769,250,1778020109],[123.83965999999999,10.311875000000001,246,1778020117],[123.83960999999999,10.311972000000001,245,1778020128],[123.83954,10.312037999999999,244,1778020138],[123.83944,10.312087,244,1778020150],[123.83932,10.312103,244,1778020162],[123.83923,10.312111,245,1778020170],[123.83911999999999,10.31213,245,1778020180],[123.83902,10.312137999999999,245,1778020187],[123.83892,10.312173,244,1778020195],[123.83884,10.312246,242,1778020204],[123.83878,10.312325,240,1778020214],[123.83873,10.312424,239,1778020224],[123.83872,10.312517,237,1778020233],[123.83875,10.312612,235,1778020241],[123.83880000000001,10.3127,235,1778020249],[123.83886,10.312789,235,1778020257],[123.83893,10.312874000000001,234,1778020265],[123.83899,10.312942,233,1778020274],[123.83906,10.313012000000001,232,1778020282],[123.83913,10.313096,233,1778020290],[123.83920999999999,10.313173000000001,234,1778020298],[123.83927,10.313255,234,1778020306],[123.83931,10.313345999999999,234,1778020315],[123.83934000000001,10.31344,233,1778020323],[123.83938000000001,10.313537,232,1778020331],[123.83941,10.313639999999999,232,1778020340],[123.83949,10.313708,231,1778020348],[123.83958,10.313765,232,1778020356],[123.83964,10.313843,232,1778020364],[123.83965000000001,10.313936999999999,233,1778020372],[123.83969,10.314035000000001,233,1778020380],[123.83975,10.314119,234,1778020388],[123.83981,10.314202,236,1778020396],[123.83983000000001,10.314299,235,1778020404],[123.83983000000001,10.314408999999999,236,1778020413],[123.8398,10.314501,236,1778020421],[123.83978999999999,10.314601,235,1778020429],[123.83977,10.314702,237,1778020438],[123.83973,10.314793,238,1778020446],[123.83968,10.314878999999999,236,1778020454],[123.83965000000001,10.314966,234,1778020463],[123.83963,10.315068,235,1778020470],[123.83962,10.315163999999999,235,1778020478],[123.8396,10.315268,234,1778020486],[123.83959,10.315377,234,1778020494],[123.8396,10.315476,235,1778020502],[123.83960999999999,10.315587000000001,235,1778020511],[123.83964,10.315681,236,1778020519],[123.83965999999999,10.315776,236,1778020527],[123.83971,10.315859,236,1778020535],[123.83978,10.315932,237,1778020543],[123.83985,10.316006,238,1778020551],[123.83993,10.316087,240,1778020561],[123.83996999999999,10.316185000000001,242,1778020570],[123.83998,10.316278000000001,243,1778020578],[123.84,10.316374,244,1778020643],[123.83996,10.316463000000001,244,1778020719],[123.8399,10.31654,246,1778020727],[123.83985,10.316634000000001,248,1778020737],[123.83978,10.316700000000001,250,1778020744],[123.83974000000001,10.316792,250,1778020754],[123.83972,10.316894,252,1778020764],[123.83974000000001,10.316986,254,1778020773],[123.83974000000001,10.317078,257,1778020783],[123.83972,10.317189000000001,256,1778020793],[123.83969999999999,10.317289000000001,260,1778020805],[123.83973,10.317386000000001,262,1778020815],[123.83975,10.317477,264,1778020831],[123.83978,10.31757,263,1778020847],[123.8398,10.317667999999999,269,1778020892],[123.83977,10.317771,269,1778020904],[123.83978,10.317871,270,1778020913],[123.83982,10.317971999999999,272,1778020923],[123.83987999999999,10.318052,274,1778020932],[123.83995,10.318113,276,1778020940],[123.84004,10.318184,278,1778020950],[123.84012,10.318243000000001,280,1778020959],[123.84018,10.318319000000001,280,1778020975],[123.84023000000001,10.31841,282,1778020985],[123.84025,10.318505999999999,281,1778021003],[123.84023999999999,10.318603,283,1778021036],[123.84023999999999,10.318740999999999,289,1778021084],[123.84028000000001,10.318823,290,1778021094],[123.84031,10.318924000000001,291,1778021103],[123.84031,10.319017000000001,293,1778021111],[123.84032999999999,10.31912,295,1778021119],[123.84034,10.319217,296,1778021127],[123.84036,10.319315,298,1778021137],[123.8404,10.319402,298,1778021146],[123.84047,10.319483999999999,300,1778021154],[123.84052,10.319569,299,1778021163],[123.84057,10.319656999999999,301,1778021172],[123.84057,10.319756999999999,301,1778021181],[123.84059000000001,10.319850000000001,303,1778021191],[123.84050999999999,10.319794,313,1778021248],[123.84041000000001,10.319744999999999,317,1778021275],[123.84032000000001,10.319708,319,1778021364],[123.84023000000001,10.319673999999999,322,1778021374],[123.84014000000001,10.31964,325,1778021386],[123.84008,10.319706,326,1778021401],[123.84009,10.319796999999999,325,1778021472],[123.84014000000001,10.319896,329,1778021542],[123.84016,10.319997000000001,329,1778021553],[123.84018,10.320095,331,1778021565],[123.84023999999999,10.320174,334,1778021576],[123.84032999999999,10.320217,334,1778021592],[123.84041000000001,10.320264999999999,335,1778021602],[123.84048,10.320332000000001,336,1778021616],[123.84056,10.320392,337,1778021626],[123.84063,10.320465,338,1778021637],[123.84068000000001,10.320550000000001,338,1778021651],[123.84076,10.320619000000001,339,1778021665],[123.84083,10.320684,339,1778021757],[123.84078,10.320601,339,1778021801],[123.84072,10.320536000000001,338,1778021815],[123.84063,10.320468999999999,338,1778021832],[123.84057,10.32039,338,1778021851],[123.84050999999999,10.320316999999999,338,1778021862],[123.84045,10.320245999999999,338,1778021875],[123.84036,10.320199000000001,338,1778021885],[123.84027,10.320164,334,1778021896],[123.84031,10.320292,336,1778021916],[123.84038,10.320354,340,1778021932],[123.84043,10.32048,345,1778022449],[123.84047,10.320596,348,1778022464],[123.84050000000001,10.320724,351,1778022480],[123.84052,10.320817999999999,351,1778022491],[123.84061,10.32085,354,1778022506],[123.8407,10.320879,352,1778022526],[123.84061,10.320827,355,1778022561],[123.84052,10.320888999999999,355,1778022597],[123.84047,10.320970000000001,356,1778022610],[123.84045,10.321066999999999,360,1778022632],[123.84044,10.321166,362,1778022647],[123.84048,10.321256999999999,371,1778022663],[123.84050000000001,10.321350000000001,369,1778022676],[123.84058,10.321424,375,1778022776],[123.84063,10.321503,378,1778022791],[123.84068000000001,10.321597000000001,380,1778022808],[123.84065,10.321501,378,1778023163],[123.84071,10.321591,378,1778023182],[123.84074,10.321681,379,1778023329],[123.84074,10.321873,381,1778023348],[123.84075,10.321968,383,1778023357],[123.84076,10.322070999999999,386,1778023368],[123.84075,10.322177,387,1778023379],[123.84071,10.32227,389,1778023389],[123.84063,10.322322,391,1778023400],[123.84062,10.322502999999999,396,1778023459],[123.84061,10.322602,399,1778023554],[123.84054,10.322668999999999,400,1778023567],[123.84050999999999,10.322766,401,1778023582],[123.84045999999999,10.322851,402,1778023624],[123.84036999999999,10.322889,402,1778023637],[123.84028000000001,10.322929,407,1778023666],[123.84023000000001,10.323010999999999,405,1778023702],[123.84013,10.323003999999999,415,1778023737],[123.84007,10.322937,419,1778023793],[123.83998,10.322903999999999,422,1778023821],[123.83982,10.323031,437,1778024214],[123.83969999999999,10.32315,444,1778024250],[123.8396,10.323141,442,1778024272],[123.83951,10.323095,450,1778024303],[123.83942,10.323126999999999,450,1778024324],[123.83932,10.323181999999999,449,1778024339],[123.83919,10.323176,453,1778024402],[123.83908,10.323238,452,1778024415],[123.83898000000001,10.323219999999999,450,1778024429],[123.8389,10.323278,445,1778024440],[123.83880000000001,10.323325000000001,444,1778024452],[123.83872,10.323383,444,1778024464],[123.83862999999999,10.323435999999999,440,1778024478],[123.83853999999999,10.323410000000001,438,1778024489],[123.83844999999999,10.323385,436,1778024568],[123.83835000000001,10.323357,434,1778024622],[123.83824,10.323312,433,1778024634],[123.83813000000001,10.323304,433,1778024644],[123.83803,10.323309999999999,432,1778024654],[123.83793,10.323321,429,1778024665],[123.83785,10.323363000000001,427,1778024675],[123.83775,10.323404999999999,426,1778024686],[123.83763999999999,10.323435999999999,423,1778024698],[123.83754,10.323441000000001,423,1778024706],[123.83745999999999,10.323378999999999,424,1778024714],[123.83741000000001,10.323285,424,1778024722],[123.83734,10.323226,418,1778024734],[123.83728000000001,10.323157999999999,414,1778024772],[123.83719000000001,10.32311,413,1778024787],[123.83709,10.32307,413,1778024796],[123.83707,10.322979,412,1778024806],[123.83710000000001,10.322876000000001,410,1778024816],[123.83713,10.322773,408,1778024825],[123.83712,10.322668,408,1778024833],[123.83710000000001,10.322566999999999,410,1778024841],[123.83705999999999,10.322466,408,1778024852],[123.83702,10.322383,405,1778024861],[123.83695,10.322309000000001,404,1778024870],[123.83687999999999,10.322233000000001,403,1778024878],[123.83681,10.322175,402,1778024888],[123.83672,10.322125,400,1778024898],[123.83663,10.322084,399,1778024907],[123.83653,10.322062000000001,397,1778024916],[123.83642999999999,10.32207,396,1778024926],[123.83633,10.322050000000001,396,1778024936],[123.83626,10.321986000000001,396,1778024944],[123.83623,10.321885,397,1778024952],[123.83618,10.321802,396,1778024960],[123.83609,10.32175,396,1778024968],[123.836,10.321707999999999,396,1778024976],[123.8359,10.321680000000001,396,1778024985],[123.83581,10.321633,396,1778024994],[123.83575,10.32156,395,1778025003],[123.8357,10.321467,393,1778025012],[123.83562999999999,10.321394,392,1778025022],[123.83553999999999,10.321339999999999,390,1778025032],[123.83546,10.321275999999999,387,1778025042],[123.83535999999999,10.321237,389,1778025052],[123.83528,10.321178,389,1778025063],[123.83519,10.321141000000001,386,1778025074],[123.83511,10.321094,385,1778025084],[123.83502,10.32104,384,1778025092],[123.8351,10.321115000000001,384,1778025112],[123.83499999999999,10.321054,385,1778025205],[123.83493,10.320986,384,1778025213],[123.83481999999999,10.320895,383,1778025228],[123.83472999999999,10.320879,383,1778025239],[123.83463,10.320876999999999,384,1778025276],[123.83453,10.320895,386,1778025287],[123.83459999999999,10.320797000000001,385,1778025342],[123.83447,10.320793,387,1778025373],[123.83441999999999,10.320717,391,1778025395],[123.83432000000001,10.320691,396,1778025411],[123.8342,10.32067,398,1778025426],[123.83410000000001,10.320681,403,1778025452],[123.83402,10.320734,405,1778025470],[123.83391,10.320831999999999,404,1778025489],[123.83387999999999,10.320923000000001,405,1778025517],[123.8339,10.321020000000001,406,1778025525],[123.83382,10.320963000000001,408,1778025539],[123.83376,10.320885000000001,409,1778025548],[123.83367,10.320827,411,1778025558],[123.83359,10.320758,413,1778025627],[123.83351999999999,10.320684,414,1778025634],[123.83346,10.320608,413,1778025644],[123.83338000000001,10.320538000000001,412,1778025664],[123.83331,10.320459,412,1778025674],[123.83325000000001,10.320366999999999,410,1778025684],[123.83320000000001,10.320285,409,1778025694],[123.83313,10.320159,407,1778025720],[123.83309,10.320069999999999,406,1778025728],[123.83302999999999,10.319986999999999,407,1778025736],[123.83293999999999,10.319936999999999,407,1778025745],[123.83284,10.319901,403,1778025807],[123.83275,10.319882,401,1778025819],[123.83266,10.319831000000001,399,1778025829],[123.83257999999999,10.319773,399,1778025838],[123.8325,10.319711,398,1778025848],[123.83242,10.319659,397,1778025858],[123.83235000000001,10.319592,397,1778025870],[123.83228,10.319513000000001,395,1778025878],[123.8322,10.319436,398,1778025889],[123.83215,10.319362999999999,402,1778025900],[123.83207,10.319293,400,1778025911],[123.83198,10.319258,398,1778025929],[123.83193,10.319172999999999,396,1778026001],[123.83189,10.319082999999999,395,1778026012],[123.83186000000001,10.318996,394,1778026034],[123.83177999999999,10.318941000000001,395,1778026042],[123.8317,10.318873999999999,396,1778026053],[123.83171,10.318773,399,1778026132],[123.83168999999999,10.318671999999999,399,1778026185],[123.8317,10.318569999999999,401,1778026195],[123.83168000000001,10.318472999999999,401,1778026245],[123.83165,10.318387,397,1778026418],[123.83163999999999,10.318293000000001,395,1778026428],[123.83163,10.318184,392,1778026441],[123.83163999999999,10.318089000000001,392,1778026449],[123.83168999999999,10.31798,392,1778026460],[123.83174,10.317890999999999,390,1778026469],[123.83176,10.317800999999999,389,1778026480],[123.83176,10.317702000000001,388,1778026490],[123.83177000000001,10.317598,389,1778026499],[123.83172999999999,10.317482,391,1778026533],[123.83175,10.317387,391,1778026545],[123.83172999999999,10.317296000000001,390,1778026555],[123.83174,10.31719,389,1778026565],[123.83175,10.317091,390,1778026574],[123.83172999999999,10.316990000000001,388,1778026584],[123.83174,10.316889,386,1778026594],[123.8317,10.316791,384,1778026604],[123.83163999999999,10.316706,383,1778026614],[123.83158,10.316632,383,1778026622],[123.83153,10.316497999999999,376,1778026693],[123.83149,10.316407,374,1778026758],[123.83147,10.316312,372,1778026769],[123.83146000000001,10.316222,370,1778026781],[123.83141000000001,10.316132,369,1778026804],[123.83137000000001,10.316039,367,1778026861],[123.83139,10.315950000000001,364,1778026874],[123.83135,10.315863999999999,364,1778026886],[123.83132999999999,10.315771,360,1778026897],[123.8313,10.315676,358,1778026907],[123.83125,10.315585,355,1778026915],[123.83123000000001,10.315485000000001,355,1778026923],[123.83123000000001,10.315390000000001,353,1778026932],[123.83121,10.315289,354,1778026941],[123.83116,10.315201,354,1778026949],[123.83108,10.315136000000001,356,1778026987],[123.83099,10.315099999999999,356,1778026995],[123.83091,10.315020000000001,358,1778027005],[123.83085,10.314942,357,1778027014],[123.83078,10.314849000000001,357,1778027024],[123.83074000000001,10.31476,357,1778027033],[123.83067,10.314674999999999,356,1778027042],[123.83058,10.314622999999999,355,1778027050],[123.8305,10.314565999999999,355,1778027059],[123.83042,10.314494,355,1778027067],[123.83035,10.314420999999999,356,1778027077],[123.83029999999999,10.31434,355,1778027087],[123.83026,10.314249999999999,353,1778027097],[123.83023,10.314152,353,1778027116],[123.83024,10.314245,353,1778027136],[123.83031,10.314387999999999,355,1778027164],[123.8302,10.314541,357,1778027187],[123.83013,10.314617,356,1778027198],[123.83005,10.314677,357,1778027208],[123.82997,10.314574,356,1778027232],[123.83,10.314489,354,1778027245],[123.8301,10.31448,354,1778027256],[123.83019,10.314514000000001,356,1778027264],[123.83032,10.314389,356,1778027351],[123.83028,10.314295,354,1778027363],[123.83025000000001,10.314195,353,1778027373],[123.83028,10.314107999999999,352,1778027383],[123.83029999999999,10.31401,350,1778027394],[123.83032,10.313902000000001,349,1778027403],[123.83032,10.313708999999999,346,1778027462],[123.83029999999999,10.313610000000001,345,1778027473],[123.83027,10.313521,344,1778027483],[123.83020999999999,10.313428,341,1778027504],[123.83016000000001,10.313352,338,1778027520],[123.8301,10.313279,336,1778027535],[123.83002,10.313212999999999,333,1778027653],[123.82996,10.313124,329,1778027670],[123.82992,10.313029999999999,324,1778027683],[123.82984,10.312975,323,1778027724],[123.82980000000001,10.312863,322,1778027742],[123.82974,10.312785999999999,322,1778027751],[123.82965,10.312754999999999,320,1778027759],[123.82955,10.312711999999999,320,1778027839],[123.82949000000001,10.312637,316,1778027853],[123.82941,10.312564,315,1778027883],[123.82926999999999,10.312569,310,1778027907],[123.82917,10.312566,305,1778027921],[123.82908,10.31251,306,1778027936],[123.82899999999999,10.312467,301,1778027969],[123.82890999999999,10.312433,299,1778028044],[123.82881999999999,10.312360999999999,295,1778028058],[123.82871,10.312329,293,1778028069],[123.82859000000001,10.31222,288,1778028094],[123.82850000000001,10.312153,285,1778028111],[123.82841999999999,10.312109,283,1778028120],[123.82832999999999,10.312085,280,1778028140],[123.82826,10.312025,277,1778028156],[123.82816,10.311997,272,1778028202],[123.82809,10.311928,269,1778028217],[123.828,10.311896000000001,266,1778028235],[123.82789,10.311870000000001,259,1778028260],[123.82765999999999,10.311895,248,1778028362],[123.82756999999999,10.311851000000001,246,1778028374],[123.82747999999999,10.311828999999999,245,1778028385],[123.82733,10.311811000000001,241,1778028406],[123.82727,10.311881,237,1778028431],[123.82718,10.311927000000001,231,1778028453],[123.82706,10.311942,226,1778028478],[123.82696,10.311954999999999,225,1778028491],[123.82687,10.311987999999999,223,1778028502],[123.82678,10.312022000000001,221,1778028514],[123.82666999999999,10.312002,218,1778028527],[123.82657,10.311992,214,1778028542],[123.82648,10.311961999999999,213,1778028554],[123.82634,10.311937,208,1778028597],[123.82626,10.311984000000001,204,1778028614],[123.82612,10.31209,194,1778028649],[123.82592,10.312092,183,1778028783],[123.8259,10.312215,179,1778028809],[123.82589,10.312324,177,1778028828],[123.82577000000001,10.312341,173,1778028848],[123.82572999999999,10.312250000000001,173,1778028857],[123.82567,10.312175999999999,172,1778028869],[123.82565,10.312075999999999,170,1778028881],[123.82559999999999,10.311987999999999,170,1778028894],[123.82558,10.311883999999999,168,1778028909],[123.82559999999999,10.311785,166,1778028923],[123.82554,10.311715,162,1778028946],[123.82549,10.311795999999999,164,1778029503],[123.82545,10.311882000000001,164,1778029518],[123.8254,10.311961999999999,166,1778029530],[123.82526,10.312093000000001,167,1778029557],[123.82523,10.312188000000001,167,1778029568],[123.82523,10.312317,173,1778029601],[123.8252,10.312408,175,1778029614],[123.82518,10.312503,174,1778029628],[123.82518,10.312794999999999,177,1778029679],[123.82517,10.312751,160,1778029879]]]}}]}
