{"type":"FeatureCollection","features":[{"type":"Feature","properties":{"category":"no_service","preserve":true,"survey_group":"11e8f19f50b68a79","sequence":24},"geometry":{"type":"Point","coordinates":[123.7544125,10.289639599999999]}},{"type":"Feature","properties":{"category":"no_service","preserve":false,"survey_group":"11e8f19f50b68a79","sequence":23},"geometry":{"type":"Point","coordinates":[123.75403350000001,10.290286699999999]}},{"type":"Feature","properties":{"category":"no_service","preserve":false,"survey_group":"11e8f19f50b68a79","sequence":22},"geometry":{"type":"Point","coordinates":[123.7536377,10.291072]}},{"type":"Feature","properties":{"category":"no_service","preserve":false,"survey_group":"11e8f19f50b68a79","sequence":21},"geometry":{"type":"Point","coordinates":[123.75291439999999,10.291391600000001]}},{"type":"Feature","properties":{"category":"no_service","preserve":false,"survey_group":"11e8f19f50b68a79","sequence":20},"geometry":{"type":"Point","coordinates":[123.7526974,10.2920716]}},{"type":"Feature","properties":{"category":"no_service","preserve":true,"survey_group":"11e8f19f50b68a79","sequence":19},"geometry":{"type":"Point","coordinates":[123.7526005,10.2931601]}},{"type":"Feature","properties":{"category":"service","preserve":true,"survey_group":"11e8f19f50b68a79","sequence":18},"geometry":{"type":"Point","coordinates":[123.7519142,10.2937198]}},{"type":"Feature","properties":{"category":"no_service","preserve":true,"survey_group":"11e8f19f50b68a79","sequence":17},"geometry":{"type":"Point","coordinates":[123.7508708,10.2939434]}},{"type":"Feature","properties":{"category":"service","preserve":true,"survey_group":"11e8f19f50b68a79","sequence":16},"geometry":{"type":"Point","coordinates":[123.7511234,10.295159]}},{"type":"Feature","properties":{"category":"service","preserve":false,"survey_group":"11e8f19f50b68a79","sequence":15},"geometry":{"type":"Point","coordinates":[123.7510017,10.295977600000001]}},{"type":"Feature","properties":{"category":"service","preserve":false,"survey_group":"11e8f19f50b68a79","sequence":14},"geometry":{"type":"Point","coordinates":[123.752168,10.2972226]}},{"type":"Feature","properties":{"category":"service","preserve":false,"survey_group":"11e8f19f50b68a79","sequence":12},"geometry":{"type":"Point","coordinates":[123.7499361,10.298017700000001]}},{"type":"Feature","properties":{"category":"service","preserve":false,"survey_group":"11e8f19f50b68a79","sequence":13},"geometry":{"type":"Point","coordinates":[123.7512756,10.2980334]}},{"type":"Feature","properties":{"category":"service","preserve":false,"survey_group":"11e8f19f50b68a79","sequence":11},"geometry":{"type":"Point","coordinates":[123.7485039,10.298118799999999]}},{"type":"Feature","properties":{"category":"service","preserve":false,"survey_group":"11e8f19f50b68a79","sequence":10},"geometry":{"type":"Point","coordinates":[123.74666240000001,10.2988097]}},{"type":"Feature","properties":{"category":"service","preserve":false,"survey_group":"11e8f19f50b68a79","sequence":9},"geometry":{"type":"Point","coordinates":[123.7457263,10.2996689]}},{"type":"Feature","properties":{"category":"service","preserve":false,"survey_group":"11e8f19f50b68a79","sequence":8},"geometry":{"type":"Point","coordinates":[123.7451871,10.301157999999999]}},{"type":"Feature","properties":{"category":"service","preserve":false,"survey_group":"11e8f19f50b68a79","sequence":7},"geometry":{"type":"Point","coordinates":[123.7460198,10.3014501]}},{"type":"Feature","properties":{"category":"service","preserve":false,"survey_group":"11e8f19f50b68a79","sequence":6},"geometry":{"type":"Point","coordinates":[123.7463156,10.3025433]}},{"type":"Feature","properties":{"category":"service","preserve":false,"survey_group":"11e8f19f50b68a79","sequence":5},"geometry":{"type":"Point","coordinates":[123.7468068,10.3039796]}},{"type":"Feature","properties":{"category":"service","preserve":false,"survey_group":"11e8f19f50b68a79","sequence":4},"geometry":{"type":"Point","coordinates":[123.74626019999999,10.3043183]}},{"type":"Feature","properties":{"category":"service","preserve":false,"survey_group":"11e8f19f50b68a79","sequence":3},"geometry":{"type":"Point","coordinates":[123.7460244,10.304845500000001]}},{"type":"Feature","properties":{"category":"service","preserve":false,"survey_group":"11e8f19f50b68a79","sequence":2},"geometry":{"type":"Point","coordinates":[123.7459611,10.3054396]}},{"type":"Feature","properties":{"category":"service","preserve":false,"survey_group":"11e8f19f50b68a79","sequence":1},"geometry":{"type":"Point","coordinates":[123.74541809999999,10.3056655]}},{"type":"Feature","properties":{"category":"service","preserve":true,"survey_group":"11e8f19f50b68a79","sequence":0},"geometry":{"type":"Point","coordinates":[123.7449938,10.305843899999999]}},{"type":"Feature","properties":{"category":"service","preserve":true,"survey_group":"54f305bb156e3779","sequence":22},"geometry":{"type":"Point","coordinates":[123.77984789999999,10.240278500000001]}},{"type":"Feature","properties":{"category":"service","preserve":false,"survey_group":"54f305bb156e3779","sequence":21},"geometry":{"type":"Point","coordinates":[123.7677735,10.2541925]}},{"type":"Feature","properties":{"category":"service","preserve":false,"survey_group":"54f305bb156e3779","sequence":20},"geometry":{"type":"Point","coordinates":[123.7580485,10.262430500000001]}},{"type":"Feature","properties":{"category":"service","preserve":false,"survey_group":"54f305bb156e3779","sequence":19},"geometry":{"type":"Point","coordinates":[123.753798,10.275138]}},{"type":"Feature","properties":{"category":"service","preserve":false,"survey_group":"54f305bb156e3779","sequence":18},"geometry":{"type":"Point","coordinates":[123.7527764,10.2770355]}},{"type":"Feature","properties":{"category":"service","preserve":true,"survey_group":"54f305bb156e3779","sequence":17},"geometry":{"type":"Point","coordinates":[123.7511356,10.278858]}},{"type":"Feature","properties":{"category":"no_service","preserve":true,"survey_group":"54f305bb156e3779","sequence":16},"geometry":{"type":"Point","coordinates":[123.75098560000001,10.279615]}},{"type":"Feature","properties":{"category":"no_service","preserve":false,"survey_group":"54f305bb156e3779","sequence":15},"geometry":{"type":"Point","coordinates":[123.75067009999999,10.2809384]}},{"type":"Feature","properties":{"category":"no_service","preserve":false,"survey_group":"54f305bb156e3779","sequence":14},"geometry":{"type":"Point","coordinates":[123.75132739999999,10.282120300000001]}},{"type":"Feature","properties":{"category":"no_service","preserve":false,"survey_group":"54f305bb156e3779","sequence":13},"geometry":{"type":"Point","coordinates":[123.7521224,10.283372399999999]}},{"type":"Feature","properties":{"category":"no_service","preserve":false,"survey_group":"54f305bb156e3779","sequence":12},"geometry":{"type":"Point","coordinates":[123.75275739999999,10.284345200000001]}},{"type":"Feature","properties":{"category":"no_service","preserve":false,"survey_group":"54f305bb156e3779","sequence":11},"geometry":{"type":"Point","coordinates":[123.7534702,10.2852879]}},{"type":"Feature","properties":{"category":"no_service","preserve":false,"survey_group":"54f305bb156e3779","sequence":10},"geometry":{"type":"Point","coordinates":[123.75349110000001,10.286484]}},{"type":"Feature","properties":{"category":"no_service","preserve":false,"survey_group":"54f305bb156e3779","sequence":9},"geometry":{"type":"Point","coordinates":[123.7534569,10.286987699999999]}},{"type":"Feature","properties":{"category":"no_service","preserve":false,"survey_group":"54f305bb156e3779","sequence":8},"geometry":{"type":"Point","coordinates":[123.75464239999999,10.288242]}},{"type":"Feature","properties":{"category":"no_service","preserve":true,"survey_group":"54f305bb156e3779","sequence":0},"geometry":{"type":"Point","coordinates":[123.7553434,10.2888766]}},{"type":"Feature","properties":{"category":"no_service","preserve":false,"survey_group":"54f305bb156e3779","sequence":1},"geometry":{"type":"Point","coordinates":[123.7564957,10.289022299999999]}},{"type":"Feature","properties":{"category":"no_service","preserve":false,"survey_group":"54f305bb156e3779","sequence":7},"geometry":{"type":"Point","coordinates":[123.7560771,10.2890479]}},{"type":"Feature","properties":{"category":"no_service","preserve":false,"survey_group":"54f305bb156e3779","sequence":3},"geometry":{"type":"Point","coordinates":[123.7576906,10.2892815]}},{"type":"Feature","properties":{"category":"no_service","preserve":false,"survey_group":"54f305bb156e3779","sequence":6},"geometry":{"type":"Point","coordinates":[123.75652770000001,10.289517099999999]}},{"type":"Feature","properties":{"category":"no_service","preserve":false,"survey_group":"54f305bb156e3779","sequence":2},"geometry":{"type":"Point","coordinates":[123.7568048,10.289830200000001]}},{"type":"Feature","properties":{"category":"no_service","preserve":false,"survey_group":"54f305bb156e3779","sequence":4},"geometry":{"type":"Point","coordinates":[123.75806489999999,10.2898446]}},{"type":"Feature","properties":{"category":"service","preserve":true,"survey_group":"f1c4e0958e306e55","sequence":0},"geometry":{"type":"Point","coordinates":[123.7744532,10.236730100000001]}},{"type":"Feature","properties":{"category":"no_service","preserve":true,"survey_group":"f1c4e0958e306e55","sequence":21},"geometry":{"type":"Point","coordinates":[123.7593916,10.238141499999999]}},{"type":"Feature","properties":{"category":"service","preserve":true,"survey_group":"f1c4e0958e306e55","sequence":20},"geometry":{"type":"Point","coordinates":[123.76056060000001,10.2386762]}},{"type":"Feature","properties":{"category":"service","preserve":true,"survey_group":"f1c4e0958e306e55","sequence":22},"geometry":{"type":"Point","coordinates":[123.75782529999999,10.238708900000001]}},{"type":"Feature","properties":{"category":"service","preserve":false,"survey_group":"f1c4e0958e306e55","sequence":16},"geometry":{"type":"Point","coordinates":[123.7666102,10.239326]}},{"type":"Feature","properties":{"category":"service","preserve":false,"survey_group":"f1c4e0958e306e55","sequence":19},"geometry":{"type":"Point","coordinates":[123.7630121,10.2396054]}},{"type":"Feature","properties":{"category":"service","preserve":false,"survey_group":"f1c4e0958e306e55","sequence":17},"geometry":{"type":"Point","coordinates":[123.7656418,10.2396169]}},{"type":"Feature","properties":{"category":"service","preserve":false,"survey_group":"f1c4e0958e306e55","sequence":18},"geometry":{"type":"Point","coordinates":[123.7637718,10.239708500000001]}},{"type":"Feature","properties":{"category":"service","preserve":false,"survey_group":"f1c4e0958e306e55","sequence":15},"geometry":{"type":"Point","coordinates":[123.7672457,10.2399173]}},{"type":"Feature","properties":{"category":"service","preserve":false,"survey_group":"f1c4e0958e306e55","sequence":23},"geometry":{"type":"Point","coordinates":[123.7562799,10.240151300000001]}},{"type":"Feature","properties":{"category":"service","preserve":false,"survey_group":"f1c4e0958e306e55","sequence":14},"geometry":{"type":"Point","coordinates":[123.7675066,10.240445599999999]}},{"type":"Feature","properties":{"category":"service","preserve":false,"survey_group":"f1c4e0958e306e55","sequence":24},"geometry":{"type":"Point","coordinates":[123.7561386,10.241085699999999]}},{"type":"Feature","properties":{"category":"service","preserve":false,"survey_group":"f1c4e0958e306e55","sequence":13},"geometry":{"type":"Point","coordinates":[123.76655529999999,10.2413629]}},{"type":"Feature","properties":{"category":"service","preserve":false,"survey_group":"f1c4e0958e306e55","sequence":25},"geometry":{"type":"Point","coordinates":[123.7557413,10.2419093]}},{"type":"Feature","properties":{"category":"service","preserve":false,"survey_group":"f1c4e0958e306e55","sequence":12},"geometry":{"type":"Point","coordinates":[123.7651733,10.242325599999999]}},{"type":"Feature","properties":{"category":"service","preserve":false,"survey_group":"f1c4e0958e306e55","sequence":11},"geometry":{"type":"Point","coordinates":[123.7649229,10.243180799999999]}},{"type":"Feature","properties":{"category":"service","preserve":false,"survey_group":"f1c4e0958e306e55","sequence":26},"geometry":{"type":"Point","coordinates":[123.75418070000001,10.243762]}},{"type":"Feature","properties":{"category":"service","preserve":false,"survey_group":"f1c4e0958e306e55","sequence":10},"geometry":{"type":"Point","coordinates":[123.7646787,10.243917700000001]}},{"type":"Feature","properties":{"category":"service","preserve":false,"survey_group":"f1c4e0958e306e55","sequence":27},"geometry":{"type":"Point","coordinates":[123.7538708,10.2447614]}},{"type":"Feature","properties":{"category":"service","preserve":false,"survey_group":"f1c4e0958e306e55","sequence":28},"geometry":{"type":"Point","coordinates":[123.75515350000001,10.244897099999999]}},{"type":"Feature","properties":{"category":"service","preserve":false,"survey_group":"f1c4e0958e306e55","sequence":9},"geometry":{"type":"Point","coordinates":[123.7646173,10.244909099999999]}},{"type":"Feature","properties":{"category":"service","preserve":false,"survey_group":"f1c4e0958e306e55","sequence":31},"geometry":{"type":"Point","coordinates":[123.7569917,10.244929900000001]}},{"type":"Feature","properties":{"category":"service","preserve":false,"survey_group":"f1c4e0958e306e55","sequence":30},"geometry":{"type":"Point","coordinates":[123.7561367,10.245002400000001]}},{"type":"Feature","properties":{"category":"service","preserve":false,"survey_group":"f1c4e0958e306e55","sequence":29},"geometry":{"type":"Point","coordinates":[123.75577730000001,10.245337900000001]}},{"type":"Feature","properties":{"category":"service","preserve":false,"survey_group":"f1c4e0958e306e55","sequence":8},"geometry":{"type":"Point","coordinates":[123.7642626,10.245422899999999]}},{"type":"Feature","properties":{"category":"service","preserve":false,"survey_group":"f1c4e0958e306e55","sequence":7},"geometry":{"type":"Point","coordinates":[123.76392439999999,10.245836000000001]}},{"type":"Feature","properties":{"category":"service","preserve":false,"survey_group":"f1c4e0958e306e55","sequence":6},"geometry":{"type":"Point","coordinates":[123.763424,10.246425800000001]}},{"type":"Feature","properties":{"category":"service","preserve":false,"survey_group":"f1c4e0958e306e55","sequence":32},"geometry":{"type":"Point","coordinates":[123.7561106,10.2464809]}},{"type":"Feature","properties":{"category":"service","preserve":false,"survey_group":"f1c4e0958e306e55","sequence":1},"geometry":{"type":"Point","coordinates":[123.769702,10.2465104]}},{"type":"Feature","properties":{"category":"service","preserve":false,"survey_group":"f1c4e0958e306e55","sequence":5},"geometry":{"type":"Point","coordinates":[123.76335210000001,10.2473902]}},{"type":"Feature","properties":{"category":"service","preserve":false,"survey_group":"f1c4e0958e306e55","sequence":4},"geometry":{"type":"Point","coordinates":[123.76229619999999,10.2476284]}},{"type":"Feature","properties":{"category":"service","preserve":false,"survey_group":"f1c4e0958e306e55","sequence":33},"geometry":{"type":"Point","coordinates":[123.7564698,10.247779]}},{"type":"Feature","properties":{"category":"service","preserve":false,"survey_group":"f1c4e0958e306e55","sequence":3},"geometry":{"type":"Point","coordinates":[123.7610883,10.248371499999999]}},{"type":"Feature","properties":{"category":"service","preserve":false,"survey_group":"f1c4e0958e306e55","sequence":2},"geometry":{"type":"Point","coordinates":[123.76455900000001,10.2488514]}},{"type":"Feature","properties":{"category":"service","preserve":true,"survey_group":"f1c4e0958e306e55","sequence":39},"geometry":{"type":"Point","coordinates":[123.7607675,10.2488736]}},{"type":"Feature","properties":{"category":"service","preserve":false,"survey_group":"f1c4e0958e306e55","sequence":34},"geometry":{"type":"Point","coordinates":[123.7570382,10.249176800000001]}},{"type":"Feature","properties":{"category":"service","preserve":false,"survey_group":"f1c4e0958e306e55","sequence":38},"geometry":{"type":"Point","coordinates":[123.76023530000001,10.249690599999999]}},{"type":"Feature","properties":{"category":"service","preserve":false,"survey_group":"f1c4e0958e306e55","sequence":35},"geometry":{"type":"Point","coordinates":[123.7570991,10.249776199999999]}},{"type":"Feature","properties":{"category":"service","preserve":false,"survey_group":"f1c4e0958e306e55","sequence":36},"geometry":{"type":"Point","coordinates":[123.7573019,10.2502412]}},{"type":"Feature","properties":{"category":"service","preserve":false,"survey_group":"f1c4e0958e306e55","sequence":37},"geometry":{"type":"Point","coordinates":[123.7587429,10.2504629]}},{"type":"Feature","properties":{"category":"service","preserve":false,"survey_group":"770e7e3c63867daf","sequence":46},"geometry":{"type":"Point","coordinates":[123.8144848,10.3377839]}},{"type":"Feature","properties":{"category":"service","preserve":false,"survey_group":"770e7e3c63867daf","sequence":45},"geometry":{"type":"Point","coordinates":[123.8153938,10.3380896]}},{"type":"Feature","properties":{"category":"service","preserve":false,"survey_group":"770e7e3c63867daf","sequence":44},"geometry":{"type":"Point","coordinates":[123.8161425,10.3381127]}},{"type":"Feature","properties":{"category":"service","preserve":true,"survey_group":"770e7e3c63867daf","sequence":43},"geometry":{"type":"Point","coordinates":[123.8175205,10.3389376]}},{"type":"Feature","properties":{"category":"no_service","preserve":true,"survey_group":"770e7e3c63867daf","sequence":42},"geometry":{"type":"Point","coordinates":[123.81652800000001,10.3391786]}},{"type":"Feature","properties":{"category":"service","preserve":false,"survey_group":"770e7e3c63867daf","sequence":47},"geometry":{"type":"Point","coordinates":[123.8141322,10.3395888]}},{"type":"Feature","properties":{"category":"no_service","preserve":true,"survey_group":"770e7e3c63867daf","sequence":41},"geometry":{"type":"Point","coordinates":[123.8168436,10.340051000000001]}},{"type":"Feature","properties":{"category":"service","preserve":true,"survey_group":"770e7e3c63867daf","sequence":40},"geometry":{"type":"Point","coordinates":[123.81925219999999,10.340064999999999]}},{"type":"Feature","properties":{"category":"service","preserve":false,"survey_group":"770e7e3c63867daf","sequence":48},"geometry":{"type":"Point","coordinates":[123.81324239999999,10.340388900000001]}},{"type":"Feature","properties":{"category":"no_service","preserve":true,"survey_group":"770e7e3c63867daf","sequence":39},"geometry":{"type":"Point","coordinates":[123.82068049999999,10.340809699999999]}},{"type":"Feature","properties":{"category":"service","preserve":false,"survey_group":"770e7e3c63867daf","sequence":49},"geometry":{"type":"Point","coordinates":[123.81136600000001,10.341271300000001]}},{"type":"Feature","properties":{"category":"no_service","preserve":false,"survey_group":"770e7e3c63867daf","sequence":36},"geometry":{"type":"Point","coordinates":[123.8262395,10.3413925]}},{"type":"Feature","properties":{"category":"service","preserve":false,"survey_group":"770e7e3c63867daf","sequence":50},"geometry":{"type":"Point","coordinates":[123.8103954,10.3414743]}},{"type":"Feature","properties":{"category":"no_service","preserve":false,"survey_group":"770e7e3c63867daf","sequence":35},"geometry":{"type":"Point","coordinates":[123.8281808,10.341507699999999]}},{"type":"Feature","properties":{"category":"no_service","preserve":false,"survey_group":"770e7e3c63867daf","sequence":37},"geometry":{"type":"Point","coordinates":[123.8244941,10.341562400000001]}},{"type":"Feature","properties":{"category":"no_service","preserve":false,"survey_group":"770e7e3c63867daf","sequence":38},"geometry":{"type":"Point","coordinates":[123.8230756,10.342550599999999]}},{"type":"Feature","properties":{"category":"service","preserve":true,"survey_group":"770e7e3c63867daf","sequence":51},"geometry":{"type":"Point","coordinates":[123.8101781,10.342882700000001]}},{"type":"Feature","properties":{"category":"no_service","preserve":false,"survey_group":"770e7e3c63867daf","sequence":34},"geometry":{"type":"Point","coordinates":[123.83043979999999,10.343207100000001]}},{"type":"Feature","properties":{"category":"no_service","preserve":true,"survey_group":"770e7e3c63867daf","sequence":52},"geometry":{"type":"Point","coordinates":[123.8103146,10.3434697]}},{"type":"Feature","properties":{"category":"service","preserve":false,"survey_group":"770e7e3c63867daf","sequence":55},"geometry":{"type":"Point","coordinates":[123.8080416,10.3439286]}},{"type":"Feature","properties":{"category":"service","preserve":true,"survey_group":"770e7e3c63867daf","sequence":53},"geometry":{"type":"Point","coordinates":[123.8091204,10.343936100000001]}},{"type":"Feature","properties":{"category":"service","preserve":false,"survey_group":"770e7e3c63867daf","sequence":54},"geometry":{"type":"Point","coordinates":[123.8087805,10.3444805]}},{"type":"Feature","properties":{"category":"no_service","preserve":true,"survey_group":"770e7e3c63867daf","sequence":33},"geometry":{"type":"Point","coordinates":[123.83262209999999,10.34503]}},{"type":"Feature","properties":{"category":"service","preserve":false,"survey_group":"770e7e3c63867daf","sequence":56},"geometry":{"type":"Point","coordinates":[123.80708749999999,10.345059900000001]}},{"type":"Feature","properties":{"category":"service","preserve":false,"survey_group":"770e7e3c63867daf","sequence":30},"geometry":{"type":"Point","coordinates":[123.8308684,10.3461161]}},{"type":"Feature","properties":{"category":"service","preserve":false,"survey_group":"770e7e3c63867daf","sequence":57},"geometry":{"type":"Point","coordinates":[123.8074129,10.346126099999999]}},{"type":"Feature","properties":{"category":"service","preserve":true,"survey_group":"770e7e3c63867daf","sequence":32},"geometry":{"type":"Point","coordinates":[123.83495069999999,10.3462011]}},{"type":"Feature","properties":{"category":"service","preserve":false,"survey_group":"770e7e3c63867daf","sequence":31},"geometry":{"type":"Point","coordinates":[123.8326318,10.3463888]}},{"type":"Feature","properties":{"category":"service","preserve":false,"survey_group":"770e7e3c63867daf","sequence":58},"geometry":{"type":"Point","coordinates":[123.8077684,10.3468316]}},{"type":"Feature","properties":{"category":"service","preserve":true,"survey_group":"770e7e3c63867daf","sequence":29},"geometry":{"type":"Point","coordinates":[123.8298987,10.3476531]}},{"type":"Feature","properties":{"category":"service","preserve":true,"survey_group":"770e7e3c63867daf","sequence":27},"geometry":{"type":"Point","coordinates":[123.8270929,10.347720900000001]}},{"type":"Feature","properties":{"category":"service","preserve":false,"survey_group":"770e7e3c63867daf","sequence":26},"geometry":{"type":"Point","coordinates":[123.8257395,10.347833899999999]}},{"type":"Feature","properties":{"category":"service","preserve":true,"survey_group":"770e7e3c63867daf","sequence":59},"geometry":{"type":"Point","coordinates":[123.80791240000001,10.347932500000001]}},{"type":"Feature","properties":{"category":"no_service","preserve":true,"survey_group":"770e7e3c63867daf","sequence":28},"geometry":{"type":"Point","coordinates":[123.8285522,10.3479952]}},{"type":"Feature","properties":{"category":"no_service","preserve":true,"survey_group":"770e7e3c63867daf","sequence":0},"geometry":{"type":"Point","coordinates":[123.80782189999999,10.347996999999999]}},{"type":"Feature","properties":{"category":"service","preserve":false,"survey_group":"770e7e3c63867daf","sequence":25},"geometry":{"type":"Point","coordinates":[123.8251613,10.3482088]}},{"type":"Feature","properties":{"category":"service","preserve":true,"survey_group":"770e7e3c63867daf","sequence":1},"geometry":{"type":"Point","coordinates":[123.8091498,10.3486142]}},{"type":"Feature","properties":{"category":"service","preserve":false,"survey_group":"770e7e3c63867daf","sequence":24},"geometry":{"type":"Point","coordinates":[123.82452960000001,10.3489247]}},{"type":"Feature","properties":{"category":"service","preserve":false,"survey_group":"770e7e3c63867daf","sequence":23},"geometry":{"type":"Point","coordinates":[123.824018,10.349255299999999]}},{"type":"Feature","properties":{"category":"no_service","preserve":true,"survey_group":"770e7e3c63867daf","sequence":2},"geometry":{"type":"Point","coordinates":[123.8103213,10.349345700000001]}},{"type":"Feature","properties":{"category":"service","preserve":false,"survey_group":"770e7e3c63867daf","sequence":22},"geometry":{"type":"Point","coordinates":[123.8240392,10.349993]}},{"type":"Feature","properties":{"category":"service","preserve":true,"survey_group":"770e7e3c63867daf","sequence":3},"geometry":{"type":"Point","coordinates":[123.8128636,10.3502326]}},{"type":"Feature","properties":{"category":"service","preserve":false,"survey_group":"770e7e3c63867daf","sequence":21},"geometry":{"type":"Point","coordinates":[123.82374280000001,10.351191500000001]}},{"type":"Feature","properties":{"category":"service","preserve":false,"survey_group":"770e7e3c63867daf","sequence":20},"geometry":{"type":"Point","coordinates":[123.8245168,10.3513947]}},{"type":"Feature","properties":{"category":"no_service","preserve":true,"survey_group":"770e7e3c63867daf","sequence":4},"geometry":{"type":"Point","coordinates":[123.8133401,10.3515842]}},{"type":"Feature","properties":{"category":"service","preserve":false,"survey_group":"770e7e3c63867daf","sequence":19},"geometry":{"type":"Point","coordinates":[123.8248756,10.352460799999999]}},{"type":"Feature","properties":{"category":"service","preserve":false,"survey_group":"770e7e3c63867daf","sequence":18},"geometry":{"type":"Point","coordinates":[123.8248365,10.353359899999999]}},{"type":"Feature","properties":{"category":"service","preserve":true,"survey_group":"770e7e3c63867daf","sequence":5},"geometry":{"type":"Point","coordinates":[123.81487509999999,10.3533828]}},{"type":"Feature","properties":{"category":"service","preserve":false,"survey_group":"770e7e3c63867daf","sequence":17},"geometry":{"type":"Point","coordinates":[123.8250177,10.353839300000001]}},{"type":"Feature","properties":{"category":"service","preserve":false,"survey_group":"770e7e3c63867daf","sequence":16},"geometry":{"type":"Point","coordinates":[123.8250695,10.3547052]}},{"type":"Feature","properties":{"category":"service","preserve":false,"survey_group":"770e7e3c63867daf","sequence":6},"geometry":{"type":"Point","coordinates":[123.8172948,10.3549785]}},{"type":"Feature","properties":{"category":"service","preserve":false,"survey_group":"770e7e3c63867daf","sequence":15},"geometry":{"type":"Point","coordinates":[123.8252569,10.355662000000001]}},{"type":"Feature","properties":{"category":"service","preserve":false,"survey_group":"770e7e3c63867daf","sequence":14},"geometry":{"type":"Point","coordinates":[123.825987,10.356170499999999]}},{"type":"Feature","properties":{"category":"service","preserve":true,"survey_group":"770e7e3c63867daf","sequence":7},"geometry":{"type":"Point","coordinates":[123.82067360000001,10.356313]}},{"type":"Feature","properties":{"category":"service","preserve":false,"survey_group":"770e7e3c63867daf","sequence":13},"geometry":{"type":"Point","coordinates":[123.8263929,10.356619999999999]}},{"type":"Feature","properties":{"category":"service","preserve":false,"survey_group":"770e7e3c63867daf","sequence":12},"geometry":{"type":"Point","coordinates":[123.826528,10.357382299999999]}},{"type":"Feature","properties":{"category":"no_service","preserve":true,"survey_group":"770e7e3c63867daf","sequence":8},"geometry":{"type":"Point","coordinates":[123.82052899999999,10.358503300000001]}},{"type":"Feature","properties":{"category":"service","preserve":true,"survey_group":"770e7e3c63867daf","sequence":9},"geometry":{"type":"Point","coordinates":[123.8235651,10.3592341]}},{"type":"Feature","properties":{"category":"service","preserve":false,"survey_group":"770e7e3c63867daf","sequence":11},"geometry":{"type":"Point","coordinates":[123.8260466,10.3593794]}},{"type":"Feature","properties":{"category":"service","preserve":false,"survey_group":"770e7e3c63867daf","sequence":10},"geometry":{"type":"Point","coordinates":[123.82521819999999,10.3613131]}},{"type":"Feature","properties":{"category":"service","preserve":true,"survey_group":"4b777fb5594721bc","sequence":0},"geometry":{"type":"Point","coordinates":[123.8120998,10.341358700000001]}},{"type":"Feature","properties":{"category":"service","preserve":false,"survey_group":"4b777fb5594721bc","sequence":1},"geometry":{"type":"Point","coordinates":[123.81273179999999,10.341837699999999]}},{"type":"Feature","properties":{"category":"service","preserve":false,"survey_group":"4b777fb5594721bc","sequence":2},"geometry":{"type":"Point","coordinates":[123.8134388,10.342404]}},{"type":"Feature","properties":{"category":"service","preserve":false,"survey_group":"4b777fb5594721bc","sequence":3},"geometry":{"type":"Point","coordinates":[123.8134728,10.343278700000001]}},{"type":"Feature","properties":{"category":"service","preserve":false,"survey_group":"4b777fb5594721bc","sequence":4},"geometry":{"type":"Point","coordinates":[123.81525600000001,10.343901600000001]}},{"type":"Feature","properties":{"category":"service","preserve":false,"survey_group":"4b777fb5594721bc","sequence":5},"geometry":{"type":"Point","coordinates":[123.8169331,10.344758000000001]}},{"type":"Feature","properties":{"category":"service","preserve":false,"survey_group":"4b777fb5594721bc","sequence":6},"geometry":{"type":"Point","coordinates":[123.818034,10.3458103]}},{"type":"Feature","properties":{"category":"service","preserve":false,"survey_group":"4b777fb5594721bc","sequence":7},"geometry":{"type":"Point","coordinates":[123.8199599,10.3471361]}},{"type":"Feature","properties":{"category":"service","preserve":true,"survey_group":"4b777fb5594721bc","sequence":8},"geometry":{"type":"Point","coordinates":[123.8222997,10.3484436]}}]}
